{"type":"Feature","id":"relation/302487","properties":{"type":"relation","id":302487,"tags":{"IBGE:GEOCODIGO":"2307304","admin_level":"8","boundary":"administrative","flag":"http://upload.wikimedia.org/wikipedia/commons/d/dd/Bandeira_juazeiro_do_norte.jpg","name":"Juazeiro do Norte","name:ka":"ჟუაზეირუ დუ ნორტე","name:kk":"Жуазейру-ду-Норти","name:ko":"주아세이로 도 노르테","name:lt":"Žuazeiro do Nortė","name:lv":"Žuazeira du Norti","name:pt":"Juazeiro do Norte","name:ru":"Жуазейру-ду-Норти","name:sr":"Жуазеиро до Норте","name:zh":"北茹阿澤魯","population":"261289","type":"boundary","website":"http://www.juazeiro.ce.gov.br/","wikidata":"Q817227","wikipedia":"pt:Juazeiro do Norte"},"labels":[{"id":"node/415520866","role":"admin_centre","coordinates":[-39.31533,-7.215345]}]},"geometry":{"type":"Polygon","coordinates":[[[-39.195,-7.151],[-39.196,-7.1419997],[-39.205997,-7.1379995],[-39.21,-7.134],[-39.206997,-7.127],[-39.21,-7.126],[-39.215,-7.1299996],[-39.226997,-7.127],[-39.238,-7.134],[-39.243,-7.1309996],[-39.236,-7.1229997],[-39.243,-7.119],[-39.25,-7.1049995],[-39.25694,-7.1012974],[-39.265,-7.0969996],[-39.267,-7.094],[-39.281,-7.094],[-39.284996,-7.1029997],[-39.295,-7.111],[-39.329998,-7.11],[-39.343002,-7.11],[-39.336998,-7.117],[-39.344,-7.134],[-39.343002,-7.1399994],[-39.367,-7.161],[-39.367,-7.18],[-39.368,-7.2099996],[-39.365414,-7.2137623],[-39.357002,-7.226],[-39.357002,-7.228],[-39.356,-7.2339997],[-39.354,-7.245],[-39.350002,-7.273],[-39.348995,-7.276],[-39.343002,-7.273],[-39.331997,-7.2679996],[-39.325665,-7.265537],[-39.314,-7.261],[-39.305904,-7.2602224],[-39.29629,-7.2632275],[-39.28552,-7.2638545],[-39.27788,-7.2614074],[-39.275284,-7.2594066],[-39.268105,-7.247858],[-39.26688,-7.2455807],[-39.260998,-7.238],[-39.236,-7.2269998],[-39.218998,-7.223],[-39.218,-7.223],[-39.217705,-7.2227306],[-39.217,-7.222],[-39.21673,-7.2208114],[-39.209,-7.187],[-39.197998,-7.182],[-39.202,-7.1779995],[-39.204998,-7.167],[-39.204,-7.161],[-39.201,-7.161],[-39.199997,-7.158],[-39.195,-7.151]]]}}
