{"type":"Feature","id":"relation/192801","properties":{"type":"relation","id":192801,"tags":{"ISO3166-1":"DJ","ISO3166-1:alpha2":"DJ","ISO3166-1:alpha3":"DJI","ISO3166-1:numeric":"262","admin_level":"2","boundary":"administrative","flag":"http://upload.wikimedia.org/wikipedia/commons/3/34/Flag_of_Djibouti.svg","is_in:continent":"Africa","name":"Djibouti","name:ace":"Djibouti","name:af":"Djiboeti","name:als":"Dschibuti","name:am":"ጅቡቲ","name:an":"Chibuti","name:ar":"جيبوتي","name:arz":"جيبوتى","name:ast":"Xibuti","name:az":"Cibuti","name:ba":"Джибути","name:bat-smg":"Džėbotis","name:bcl":"Dibouti","name:be":"Джыбуці","name:be-tarask":"Джыбуці","name:bg":"Джибути","name:bjn":"Djibouti","name:bn":"জিবুতি","name:bo":"ཇི་བའོ་ཊི།","name:bpy":"ডিজিবোটি","name:br":"Djibouti","name:bs":"Džibuti","name:bxr":"Джибути","name:ca":"Djibouti","name:ce":"Джибути","name:ceb":"Yibuti","name:ckb":"جیبووتی","name:crh":"Cibuti","name:cs":"Džibutsko","name:cv":"Джибути","name:cy":"Djibouti","name:da":"Djibouti","name:de":"Dschibuti","name:diq":"Cibuti","name:dv":"ޖިބުތީ","name:ee":"Djibouti","name:el":"Τζιμπουτί","name:en":"Djibouti","name:eo":"Ĝibutio","name:es":"Yibuti","name:et":"Djibouti","name:eu":"Djibuti","name:ext":"Yibuti","name:fa":"جیبوتی","name:fi":"Djibouti","name:fiu-vro":"Djibouti","name:fr":"Djibouti","name:frp":"Dj·iboti","name:fy":"Dzjibûty","name:ga":"Diobúití","name:gag":"Cibuti","name:gd":"Diobùtaidh","name:gl":"Xibutí","name:gv":"Djibouti","name:he":"ג'יבוטי","name:hi":"जिबूती","name:hif":"Djibouti","name:hr":"Džibuti","name:hsb":"Dźibuti","name:ht":"Djibouti","name:hu":"Dzsibuti","name:hy":"Ջիբութի","name:ia":"Djibouti","name:id":"Djibouti","name:ie":"Djibouti","name:ilo":"Djibouti","name:io":"Djibuti","name:is":"Djíbútí","name:it":"Gibuti","name:ja":"ジブチ","name:jv":"Djibouti","name:ka":"ჯიბუტი","name:kg":"Djibuti","name:ki":"Djibouti","name:kk":"Джибути","name:ko":"지부티","name:ku":"Cîbûtî","name:kw":"Jibouti","name:la":"Gibutum","name:lb":"Dschibuti","name:li":"Djibouti","name:lij":"Gibuti","name:lmo":"Djibouti","name:ln":"Djibuti","name:lt":"Džibutis","name:lv":"Džibutija","name:mg":"Jibotia","name:min":"Djibouti","name:mk":"Џибути","name:ml":"ജിബൂട്ടി","name:mr":"जिबूती","name:mrj":"Джибути","name:ms":"Djibouti","name:mt":"Ġibuti","name:my":"ဂျီဘူတီနိုင်ငံ","name:mzn":"جیبوتی","name:na":"Djibuti","name:nah":"Yibuti","name:nds":"Dschibuti","name:ne":"जिबुटी","name:nl":"Djibouti","name:nn":"Djibouti","name:no":"Djibouti","name:nov":"Djibuti","name:nso":"Djibouti","name:nv":"Jibótii","name:oc":"Jiboti","name:om":"Jibuutii","name:or":"ଡିଜିବୋଇଟି","name:os":"Джибути","name:pa":"ਜਿਬੂਤੀ","name:pam":"Djibouti","name:pdc":"Tschibuti","name:pih":"Jibuuti","name:pl":"Dżibuti","name:pms":"Djibouti","name:pnb":"جبوتی","name:ps":"جېبوتي","name:pt":"Djibouti","name:qu":"Yiwuti","name:ro":"Djibouti","name:ru":"Джибути","name:rue":"Джібутьско","name:rw":"Jibuti","name:sa":"जिबूटी","name:sah":"Дьибути","name:sc":"Gibuti","name:scn":"Gibbuti","name:sco":"Djibouti","name:se":"Djibouti","name:sg":"Dibutùii","name:sh":"Džibuti","name:simple":"Djibouti","name:sk":"Džibutsko","name:sl":"Džibuti","name:sn":"Djibouti","name:so":"Jabuuti","name:sq":"Xhibuti","name:sr":"Џибути","name:ss":"IJibhuthi","name:stq":"Dschibuti","name:su":"Djibouti","name:sv":"Djibouti","name:sw":"Jibuti","name:ta":"சீபூத்தீ","name:te":"జిబౌటి","name:tg":"Ҷибути","name:th":"ประเทศจิบูตี","name:ti":"ጂቡቲ","name:tk":"Jibuti","name:tl":"Hiboti","name:tr":"Cibuti","name:ts":"Djibouti","name:tt":"Җибути","name:tzl":"Xhibuti","name:ug":"جىبۇتى","name:uk":"Джибуті","name:ur":"جبوتی","name:uz":"Jibuti","name:vec":"Gibuti","name:vi":"Djibouti","name:vo":"Cibutän","name:war":"Djibouti","name:wo":"Jibuti","name:xal":"Җибудин Орн","name:yi":"דזשיבוטי","name:yo":"Djìbútì","name:zh":"吉布提","name:zh-classical":"吉布地","name:zh-min-nan":"Djibouti","name:zh-yue":"吉布提","name:zu":"IJibuthi","official_name:fr":"République de Djibouti","timezone":"Africa/Djibouti","type":"boundary","wikidata":"Q977","wikipedia":"en:Djibouti"},"labels":[{"id":"node/27565085","role":"admin_centre","coordinates":[43.14724,11.593664]}]},"geometry":{"type":"Polygon","coordinates":[[[42.981514,12.649586],[42.97923,12.649427],[42.976864,12.648634],[42.974533,12.647906],[42.973732,12.647368],[42.973003,12.646267],[42.97212,12.645414],[42.971405,12.645323],[42.969845,12.64569],[42.96873,12.6456375],[42.96595,12.644536],[42.963223,12.643841],[42.96189,12.642739],[42.961082,12.64152],[42.96055,12.638621],[42.959145,12.636077],[42.95803,12.63504],[42.956028,12.634555],[42.954414,12.633507],[42.952023,12.630411],[42.951202,12.62809],[42.949944,12.626674],[42.94831,12.625899],[42.945503,12.625178],[42.942802,12.623333],[42.940254,12.622591],[42.93773,12.622507],[42.934658,12.622933],[42.93272,12.623676],[42.92981,12.623489],[42.92827,12.623017],[42.927635,12.622257],[42.9267,12.6208935],[42.926117,12.620337],[42.925022,12.620346],[42.92357,12.62003],[42.92276,12.619381],[42.921726,12.61723],[42.92069,12.615254],[42.9193,12.613122],[42.915947,12.610923],[42.912476,12.609579],[42.911167,12.609319],[42.910633,12.609522],[42.909065,12.6112385],[42.90764,12.611878],[42.90612,12.614799],[42.905468,12.615809],[42.904545,12.616491],[42.903976,12.616483],[42.902752,12.61611],[42.90184,12.616176],[42.900658,12.617408],[42.899822,12.617622],[42.89821,12.617584],[42.89597,12.617389],[42.894497,12.617343],[42.892857,12.616922],[42.89154,12.61693],[42.890472,12.61733],[42.890087,12.617317],[42.889416,12.616898],[42.888042,12.6151085],[42.88599,12.612698],[42.88443,12.6094],[42.883457,12.605793],[42.88207,12.602056],[42.88214,12.601215],[42.882416,12.600095],[42.882805,12.599373],[42.882877,12.598644],[42.88232,12.596899],[42.88142,12.595037],[42.881145,12.594551],[42.880035,12.593955],[42.8772,12.593594],[42.874454,12.593424],[42.87114,12.593391],[42.869186,12.592985],[42.868042,12.592532],[42.866966,12.591752],[42.865986,12.590728],[42.86535,12.589876],[42.86533,12.588728],[42.86517,12.5884],[42.865192,12.588072],[42.8657,12.587338],[42.86674,12.5849905],[42.867252,12.582727],[42.867416,12.581707],[42.86735,12.580706],[42.86711,12.580432],[42.86663,12.580149],[42.865807,12.579045],[42.865044,12.57872],[42.864178,12.578219],[42.861805,12.578521],[42.860775,12.57873],[42.860115,12.578559],[42.859547,12.578057],[42.85906,12.5772085],[42.858734,12.5758915],[42.85885,12.575108],[42.859505,12.573964],[42.862152,12.571385],[42.863136,12.570375],[42.86351,12.569739],[42.863598,12.568966],[42.86351,12.5684805],[42.862865,12.567804],[42.86085,12.566629],[42.859463,12.565868],[42.857887,12.565599],[42.857117,12.565209],[42.85579,12.564004],[42.855446,12.563642],[42.85549,12.562904],[42.85581,12.561856],[42.856346,12.560998],[42.85728,12.560084],[42.859146,12.55885],[42.86121,12.557283],[42.861595,12.5568285],[42.86177,12.556137],[42.861717,12.55539],[42.861233,12.5541525],[42.860683,12.553289],[42.860413,12.552604],[42.860302,12.551749],[42.860233,12.550647],[42.859356,12.549328],[42.857243,12.548062],[42.85605,12.547838],[42.855217,12.547917],[42.854336,12.548474],[42.853256,12.548816],[42.85145,12.549583],[42.849514,12.550246],[42.84832,12.550285],[42.847477,12.550088],[42.846783,12.549616],[42.845943,12.548606],[42.845634,12.5476885],[42.845757,12.546067],[42.845352,12.543574],[42.84491,12.542866],[42.844196,12.542197],[42.843193,12.541639],[42.841743,12.541528],[42.83735,12.542165],[42.835808,12.542539],[42.833805,12.543935],[42.832573,12.544651],[42.83184,12.544768],[42.830814,12.544584],[42.828995,12.54406],[42.827633,12.543411],[42.826363,12.542255],[42.825256,12.540937],[42.823616,12.536686],[42.82197,12.534109],[42.820835,12.532446],[42.820244,12.530967],[42.819786,12.529408],[42.81974,12.526825],[42.81963,12.525604],[42.81949,12.524611],[42.819042,12.523874],[42.8185,12.523479],[42.817745,12.523248],[42.81692,12.523392],[42.815063,12.524119],[42.81419,12.524222],[42.813698,12.524119],[42.813168,12.523855],[42.812275,12.523089],[42.8121,12.522426],[42.81227,12.521452],[42.812584,12.520404],[42.813225,12.519439],[42.81349,12.518739],[42.813637,12.517626],[42.813526,12.51692],[42.812943,12.516274],[42.812523,12.516094],[42.811695,12.516242],[42.81062,12.516553],[42.809116,12.516934],[42.808422,12.517036],[42.807747,12.516967],[42.80725,12.516765],[42.806885,12.516433],[42.80645,12.515813],[42.80647,12.515383],[42.806793,12.514564],[42.807434,12.512595],[42.80754,12.511775],[42.807415,12.510788],[42.807213,12.510362],[42.807056,12.510222],[42.80656,12.510143],[42.80557,12.510176],[42.804283,12.510426],[42.803524,12.510407],[42.80286,12.510255],[42.802204,12.510004],[42.801857,12.509633],[42.80179,12.509285],[42.801792,12.508464],[42.8013,12.505754],[42.800556,12.502489],[42.799713,12.499444],[42.79957,12.49757],[42.799534,12.494638],[42.799385,12.492236],[42.79905,12.490501],[42.79876,12.489672],[42.7982,12.48904],[42.79695,12.488181],[42.79612,12.487666],[42.79561,12.486841],[42.79532,12.486104],[42.795475,12.485481],[42.796116,12.484048],[42.796772,12.483287],[42.797325,12.482526],[42.797546,12.481959],[42.79753,12.480503],[42.797268,12.478912],[42.796898,12.477884],[42.796974,12.477428],[42.79711,12.477229],[42.797356,12.476975],[42.799866,12.476014],[42.80102,12.475725],[42.80173,12.475207],[42.802547,12.474177],[42.803307,12.472989],[42.803883,12.472452],[42.804207,12.472373],[42.804832,12.472432],[42.80689,12.473449],[42.808205,12.474052],[42.80897,12.474184],[42.80994,12.474125],[42.81097,12.473599],[42.812386,12.472649],[42.81311,12.471782],[42.81355,12.471002],[42.813656,12.467386],[42.81394,12.466612],[42.8143,12.466171],[42.818687,12.464144],[42.819843,12.463318],[42.820488,12.462529],[42.8206,12.4620695],[42.820553,12.461754],[42.820175,12.460942],[42.82003,12.458938],[42.81962,12.457137],[42.81944,12.455511],[42.81972,12.454445],[42.820724,12.452056],[42.821735,12.449782],[42.822987,12.44866],[42.82395,12.446607],[42.82475,12.44551],[42.825428,12.445064],[42.82595,12.443489],[42.825977,12.442728],[42.824894,12.441284],[42.824512,12.437539],[42.82464,12.436463],[42.825207,12.43498],[42.825165,12.434593],[42.824924,12.43414],[42.823593,12.432973],[42.821205,12.431385],[42.819664,12.43094],[42.81916,12.430699],[42.81847,12.429994],[42.817677,12.428405],[42.81724,12.426967],[42.81687,12.426449],[42.815327,12.425056],[42.81467,12.424289],[42.813885,12.422281],[42.813232,12.421434],[42.8115,12.420509],[42.80826,12.419012],[42.805824,12.417024],[42.803844,12.414707],[42.80282,12.41434],[42.799995,12.414188],[42.79732,12.415055],[42.79505,12.415736],[42.793034,12.416429],[42.792164,12.416535],[42.790813,12.416419],[42.789352,12.416193],[42.783783,12.415182],[42.782516,12.415019],[42.781185,12.41469],[42.78034,12.414139],[42.779583,12.413319],[42.778584,12.412774],[42.77593,12.412288],[42.77054,12.41232],[42.76802,12.412485],[42.766403,12.412242],[42.763817,12.411263],[42.7628,12.410627],[42.762516,12.409767],[42.76254,12.409026],[42.762726,12.408298],[42.76317,12.407621],[42.765354,12.406408],[42.766487,12.405637],[42.767338,12.404495],[42.767406,12.40389],[42.767338,12.403378],[42.76672,12.403049],[42.76532,12.403098],[42.762253,12.404166],[42.761204,12.404296],[42.7605,12.404184],[42.759884,12.403535],[42.75919,12.401846],[42.758816,12.398718],[42.758617,12.398249],[42.758377,12.3979845],[42.757507,12.397803],[42.756317,12.397901],[42.755318,12.398291],[42.75427,12.398624],[42.753387,12.398615],[42.752327,12.398253],[42.751747,12.397924],[42.7517,12.397371],[42.75178,12.396685],[42.752773,12.393965],[42.753563,12.392022],[42.753696,12.39088],[42.75355,12.389259],[42.75263,12.386672],[42.751884,12.385209],[42.751152,12.384553],[42.749226,12.383272],[42.748497,12.382918],[42.746334,12.382873],[42.74389,12.382892],[42.742096,12.382937],[42.74088,12.382878],[42.73957,12.382353],[42.737522,12.381451],[42.735268,12.380185],[42.734184,12.379883],[42.73295,12.379809],[42.731464,12.380091],[42.729794,12.3805065],[42.72821,12.381522],[42.72563,12.382312],[42.723186,12.383194],[42.722267,12.383802],[42.720932,12.3846],[42.72023,12.384726],[42.718777,12.384726],[42.71788,12.384568],[42.71674,12.384025],[42.715267,12.382202],[42.713577,12.380226],[42.712433,12.378041],[42.71155,12.376977],[42.709896,12.375678],[42.70797,12.37462],[42.705967,12.374161],[42.703762,12.372953],[42.70211,12.371358],[42.698627,12.367105],[42.697716,12.36505],[42.697735,12.364163],[42.69824,12.363192],[42.698936,12.362315],[42.699844,12.361691],[42.700943,12.361384],[42.701225,12.361227],[42.701633,12.360865],[42.701942,12.360113],[42.702152,12.35853],[42.701412,12.356413],[42.700974,12.354822],[42.68811,12.36228],[42.66973,12.376939],[42.66544,12.387449],[42.659958,12.39003],[42.652428,12.395519],[42.641766,12.403309],[42.63197,12.414789],[42.610367,12.43273],[42.60973,12.43551],[42.60569,12.440291],[42.603798,12.44253],[42.60271,12.443322],[42.59113,12.451779],[42.58424,12.458718],[42.56709,12.47598],[42.559505,12.481489],[42.54751,12.4902],[42.540287,12.491969],[42.53526,12.49759],[42.529716,12.50116],[42.490738,12.516939],[42.48315,12.52285],[42.47453,12.524869],[42.468147,12.524308],[42.463966,12.523939],[42.4554,12.517229],[42.44887,12.510079],[42.40418,12.468624],[42.394028,12.449989],[42.386307,12.439109],[42.38478,12.43317],[42.37378,12.42213],[42.367348,12.41331],[42.348915,12.388009],[42.33714,12.37184],[42.33039,12.351509],[42.32973,12.34256],[42.31723,12.30464],[42.313877,12.30064],[42.30907,12.29492],[42.304108,12.292259],[42.257717,12.255039],[42.24382,12.238701],[42.24022,12.23447],[42.22482,12.21124],[42.22308,12.2086],[42.21976,12.202485],[42.20526,12.184066],[42.1949,12.167525],[42.182945,12.145541],[42.172264,12.131121],[42.167294,12.12641],[42.165897,12.123497],[42.16345,12.121464],[42.160435,12.11762],[42.15848,12.112508],[42.157616,12.110724],[42.157177,12.105903],[42.154835,12.10168],[42.15456,12.099764],[42.152603,12.095842],[42.15219,12.093792],[42.15128,12.091876],[42.15137,12.09094],[42.150013,12.0889],[42.149956,12.0849695],[42.148407,12.082562],[42.148228,12.080824],[42.146667,12.076828],[42.145237,12.075998],[42.144123,12.075655],[42.142345,12.077259],[42.14189,12.079265],[42.140423,12.080771],[42.13934,12.081003],[42.13259,12.066822],[42.130276,12.063546],[42.116467,12.0413685],[42.10842,12.030254],[42.108803,12.029759],[42.105244,12.024407],[42.094765,12.008539],[42.0668,11.9802475],[42.041008,11.933519],[42.039864,11.932071],[42.037857,11.929509],[42.02375,11.91155],[42.01775,11.90042],[42.01308,11.89176],[42.003716,11.87906],[41.99374,11.867353],[41.974194,11.838058],[41.962196,11.81965],[41.954998,11.811871],[41.933727,11.805618],[41.899937,11.7931595],[41.89695,11.789275],[41.894917,11.756144],[41.886517,11.74956],[41.87738,11.7478895],[41.84677,11.73399],[41.841267,11.735125],[41.83606,11.732826],[41.833405,11.728051],[41.82693,11.71124],[41.82174,11.697399],[41.820663,11.690124],[41.81357,11.67009],[41.807404,11.655424],[41.807438,11.63674],[41.803795,11.633709],[41.801994,11.624113],[41.80439,11.616828],[41.803505,11.590473],[41.804073,11.571769],[41.786747,11.545858],[41.777847,11.510449],[41.771313,11.493786],[41.778866,11.45935],[41.794567,11.39739],[41.79982,11.37183],[41.801815,11.362069],[41.80774,11.318259],[41.804314,11.289924],[41.805508,11.251597],[41.80521,11.2461],[41.805515,11.238574],[41.805573,11.205495],[41.804577,11.184844],[41.804558,11.11831],[41.803146,11.0983095],[41.803806,11.06373],[41.803787,11.062308],[41.802814,11.03757],[41.802456,11.035981],[41.802902,11.00584],[41.801563,11.002893],[41.800415,11.000043],[41.79796,10.997689],[41.796593,10.994592],[41.794353,10.992649],[41.793884,10.990085],[41.79425,10.979379],[41.7968,10.976947],[41.797718,10.97666],[41.7988,10.975697],[41.799515,10.974079],[41.800667,10.973071],[41.808666,10.971211],[41.811104,10.969883],[41.813454,10.967966],[41.81762,10.963202],[41.81774,10.962868],[41.822617,10.962421],[41.8309,10.9630995],[41.83513,10.962406],[41.84993,10.958073],[41.860867,10.955889],[41.864044,10.954141],[41.869,10.952829],[41.870842,10.951769],[41.87313,10.951519],[41.87612,10.950085],[41.878853,10.949772],[41.889534,10.9474],[41.892395,10.945777],[41.896843,10.944716],[41.917423,10.939042],[41.933144,10.939786],[41.941597,10.93894],[41.942974,10.937389],[41.940613,10.925502],[41.941425,10.92336],[41.942772,10.921286],[41.942547,10.920579],[41.945827,10.915724],[41.946873,10.914954],[41.94906,10.915015],[41.951035,10.91663],[41.955215,10.917198],[41.957424,10.915991],[41.96059,10.91524],[41.965027,10.915304],[41.96743,10.917538],[41.96825,10.919092],[41.968437,10.9207115],[41.969814,10.922956],[41.97006,10.926184],[41.971867,10.928278],[41.975002,10.928126],[41.978016,10.926803],[41.991344,10.923793],[42.024418,10.925183],[42.031982,10.925371],[42.037514,10.924996],[42.045525,10.925433],[42.054424,10.925557],[42.068493,10.925149],[42.070427,10.926026],[42.072224,10.928243],[42.072205,10.931342],[42.073383,10.934627],[42.072968,10.942492],[42.073826,10.947172],[42.073677,10.948828],[42.074844,10.951229],[42.07746,10.952894],[42.078243,10.954599],[42.08082,10.955067],[42.083138,10.956128],[42.084408,10.956065],[42.08691,10.957787],[42.097824,10.957783],[42.099285,10.956971],[42.10318,10.957384],[42.10505,10.9592085],[42.10542,10.961153],[42.106342,10.962869],[42.10663,10.964772],[42.10739,10.964929],[42.107803,10.9680805],[42.109898,10.970667],[42.131207,10.972725],[42.13532,10.977126],[42.136234,10.977248],[42.137386,10.978475],[42.13915,10.978854],[42.141106,10.980034],[42.144997,10.981152],[42.14626,10.981018],[42.14785,10.979677],[42.147858,10.978092],[42.143772,10.974559],[42.146046,10.971269],[42.148754,10.970826],[42.152943,10.973547],[42.160507,10.973344],[42.16244,10.975115],[42.164314,10.975557],[42.171658,10.974925],[42.18165,10.974419],[42.190155,10.974166],[42.193443,10.973027],[42.196278,10.969864],[42.19583,10.966931],[42.198383,10.964532],[42.267906,10.971333],[42.276234,10.974577],[42.28105,10.978292],[42.281483,10.982018],[42.283134,10.984533],[42.289173,10.986982],[42.292603,10.987864],[42.30047,10.988486],[42.30519,10.990461],[42.31431,10.992332],[42.31759,10.991444],[42.319412,10.989827],[42.323875,10.988938],[42.33278,10.987785],[42.33746,10.998058],[42.33884,10.998308],[42.340282,10.999146],[42.34172,10.99919],[42.34587,11.0015135],[42.349045,11.00197],[42.350906,11.00141],[42.35468,10.997432],[42.35926,10.996599],[42.364548,10.997865],[42.368027,10.997992],[42.42125,10.981871],[42.425697,10.983248],[42.455437,11.004677],[42.50668,11.039918],[42.51484,11.04291],[42.53722,11.050379],[42.58213,11.064144],[42.604275,11.070154],[42.607616,11.08002],[42.610195,11.083689],[42.613956,11.0846815],[42.624504,11.092922],[42.628887,11.095578],[42.63306,11.095511],[42.63975,11.093785],[42.644184,11.089715],[42.64769,11.0880165],[42.648876,11.08663],[42.650017,11.083812],[42.651093,11.082782],[42.65127,11.081788],[42.654926,11.077867],[42.655766,11.077674],[42.656963,11.077412],[42.657463,11.077693],[42.65932,11.078659],[42.659737,11.078687],[42.664124,11.078741],[42.66825,11.0747385],[42.66972,11.073822],[42.6707,11.073],[42.671585,11.072225],[42.672455,11.072114],[42.673946,11.071082],[42.68015,11.066888],[42.68512,11.062231],[42.686234,11.060112],[42.68778,11.0570755],[42.68875,11.056283],[42.691906,11.056965],[42.69403,11.058325],[42.696575,11.057711],[42.699463,11.057796],[42.70224,11.059674],[42.704132,11.059696],[42.70605,11.060636],[42.70919,11.06068],[42.71206,11.061431],[42.712234,11.061541],[42.720543,11.066808],[42.724903,11.066809],[42.725872,11.067456],[42.727104,11.067456],[42.729675,11.069179],[42.73323,11.0697155],[42.735764,11.067501],[42.73713,11.066495],[42.738235,11.065882],[42.739544,11.06589],[42.742485,11.067188],[42.744377,11.068911],[42.745113,11.071206],[42.74531,11.076446],[42.746742,11.078727],[42.74786,11.078816],[42.74932,11.079889],[42.75267,11.079465],[42.75766,11.075954],[42.75923,11.074209],[42.760105,11.073311],[42.760895,11.069334],[42.761856,11.061891],[42.763615,11.059981],[42.766823,11.0593605],[42.770535,11.056465],[42.77345,11.045731],[42.782986,11.033471],[42.783604,11.026505],[42.78656,11.018797],[42.783344,11.01069],[42.782894,11.006325],[42.78457,11.004743],[42.787186,10.998846],[42.78805,10.994556],[42.790325,10.988626],[42.79241,10.987302],[42.79482,10.986901],[42.80436,10.986459],[42.826855,10.98475],[42.829502,10.984255],[42.83143,10.983358],[42.83397,10.983254],[42.834995,10.982704],[42.84552,10.982727],[42.848434,10.982458],[42.85299,10.979685],[42.856274,10.979685],[42.858215,10.981087],[42.861732,10.975907],[42.863567,10.972258],[42.865616,10.970208],[42.867577,10.969395],[42.873497,10.969932],[42.877785,10.9730625],[42.880535,10.973124],[42.885178,10.970183],[42.891544,10.970111],[42.89523,10.971485],[42.89941,10.971971],[42.900257,10.9728],[42.906956,10.973684],[42.90831,10.9747505],[42.91087,10.975748],[42.9157,10.97709],[42.91976,10.97925],[42.94473,10.98364],[42.952206,10.98497],[42.96164,10.984409],[42.96722,10.997222],[43.22801,11.411903],[43.257442,11.461073],[43.270008,11.494633],[43.344254,11.622328],[43.425312,11.7114315],[43.413635,11.769982],[43.409874,11.783114],[43.42243,11.785692],[43.43589,11.790055],[43.47022,11.805716],[43.49637,11.823167],[43.521164,11.846197],[43.54961,11.8851595],[43.577564,11.939279],[43.596714,11.981564],[43.604538,12.002241],[43.612507,12.031963],[43.617188,12.054519],[43.621128,12.095278],[43.62184,12.124868],[43.62024,12.149579],[43.62075,12.15645],[43.617184,12.191232],[43.61355,12.204756],[43.611046,12.236303],[43.60741,12.262812],[43.59968,12.28837],[43.60871,12.297108],[43.628685,12.324252],[43.6438,12.354283],[43.65363,12.386365],[43.6579,12.419607],[43.656494,12.453085],[43.649445,12.485867],[43.636486,12.51795],[43.554695,12.543592],[43.535378,12.552388],[43.43053,12.552689],[43.320496,12.595333],[43.289825,12.632974],[43.272995,12.687129],[43.297802,12.792307],[43.15107,12.720489],[43.151173,12.720401],[43.151142,12.719951],[43.15099,12.719784],[43.150906,12.719605],[43.150906,12.719407],[43.150948,12.719114],[43.151154,12.718831],[43.151466,12.718517],[43.151882,12.718151],[43.152225,12.717973],[43.152332,12.717815],[43.15232,12.7176695],[43.15244,12.71746],[43.15245,12.71724],[43.15259,12.717021],[43.15259,12.716874],[43.152428,12.716801],[43.152256,12.716686],[43.15213,12.716581],[43.151936,12.716268],[43.151863,12.716037],[43.151936,12.7158165],[43.151943,12.715629],[43.151733,12.715524],[43.151493,12.715462],[43.15144,12.715273],[43.151333,12.715199],[43.15113,12.714991],[43.150734,12.714373],[43.15053,12.713964],[43.150467,12.713672],[43.15038,12.713463],[43.150208,12.7133465],[43.150307,12.713159],[43.15045,12.712875],[43.150658,12.712552],[43.150818,12.712228],[43.150875,12.7120495],[43.150757,12.711871],[43.150486,12.711808],[43.1501,12.711766],[43.149532,12.711841],[43.149048,12.711935],[43.148716,12.711976],[43.148365,12.711871],[43.148094,12.711903],[43.14788,12.712039],[43.147602,12.712164],[43.147034,12.712593],[43.146835,12.712895],[43.146774,12.713148],[43.14655,12.713326],[43.14636,12.713421],[43.14632,12.713565],[43.146187,12.713765],[43.145885,12.713912],[43.144962,12.714018],[43.14456,12.713964],[43.14414,12.713787],[43.143707,12.713672],[43.1433,12.713693],[43.143116,12.713818],[43.142925,12.714227],[43.14276,12.714509],[43.14256,12.714698],[43.142464,12.714844],[43.142365,12.71521],[43.14227,12.715419],[43.142044,12.7157755],[43.142105,12.716064],[43.13708,12.713584],[43.13617,12.713001],[43.135777,12.71266],[43.13539,12.7120905],[43.134697,12.71175],[43.13405,12.711557],[43.13327,12.7114],[43.13277,12.710925],[43.132717,12.7107315],[43.13273,12.710305],[43.13287,12.709941],[43.132885,12.709516],[43.132812,12.709093],[43.13266,12.708904],[43.13209,12.708474],[43.131775,12.708383],[43.131477,12.708399],[43.130966,12.708524],[43.13059,12.708707],[43.129898,12.709024],[43.1292,12.709606],[43.12867,12.710122],[43.12814,12.710222],[43.127415,12.7101345],[43.007935,12.660548],[42.981514,12.649586]],[[43.156033,12.719389],[43.156082,12.719388],[43.156128,12.719318],[43.15621,12.719063],[43.156155,12.719014],[43.15609,12.718995],[43.156105,12.718939],[43.156178,12.718917],[43.15624,12.718892],[43.156292,12.718897],[43.156357,12.718829],[43.15648,12.718817],[43.156487,12.718742],[43.156513,12.718711],[43.156612,12.718711],[43.15668,12.718662],[43.156742,12.718584],[43.15678,12.718584],[43.156803,12.71861],[43.15685,12.7186165],[43.15686,12.71855],[43.156963,12.71842],[43.157066,12.718337],[43.15718,12.718339],[43.157303,12.718217],[43.157314,12.7181225],[43.157394,12.718064],[43.15748,12.718005],[43.157642,12.717923],[43.15766,12.717839],[43.157715,12.717843],[43.157745,12.7178135],[43.157806,12.717807],[43.157837,12.717777],[43.157814,12.717749],[43.157852,12.717654],[43.158108,12.717442],[43.158096,12.717353],[43.158176,12.717339],[43.15827,12.71733],[43.158363,12.717229],[43.158337,12.717136],[43.158382,12.717067],[43.158443,12.716988],[43.158497,12.716771],[43.158455,12.716715],[43.15843,12.716675],[43.158474,12.716651],[43.158543,12.716578],[43.15853,12.716407],[43.158493,12.716383],[43.1583,12.71642],[43.158203,12.716512],[43.158115,12.7166815],[43.158108,12.716732],[43.15805,12.716746],[43.1579,12.716867],[43.157887,12.716924],[43.157818,12.717018],[43.157665,12.717107],[43.157623,12.717116],[43.15761,12.717136],[43.157635,12.7171545],[43.157574,12.717185],[43.157566,12.717271],[43.157547,12.717356],[43.15748,12.717495],[43.157444,12.717506],[43.15741,12.717543],[43.157238,12.717625],[43.157158,12.717657],[43.1571,12.717698],[43.15709,12.717875],[43.15704,12.717989],[43.15698,12.718086],[43.156883,12.718148],[43.156746,12.7181635],[43.156395,12.718143],[43.156223,12.718156],[43.156086,12.718227],[43.15603,12.718211],[43.155975,12.718221],[43.15595,12.718179],[43.1559,12.718173],[43.15577,12.7181835],[43.155697,12.718211],[43.15569,12.718273],[43.15574,12.718317],[43.155754,12.718346],[43.155724,12.718359],[43.15572,12.718411],[43.155773,12.718535],[43.155766,12.718688],[43.15575,12.718744],[43.155552,12.71897],[43.15548,12.719089],[43.155407,12.719205],[43.155228,12.719309],[43.15492,12.71934],[43.15443,12.719365],[43.154297,12.719316],[43.154213,12.71933],[43.154152,12.719389],[43.154102,12.719465],[43.154034,12.719493],[43.153976,12.719475],[43.15392,12.719513],[43.153805,12.719539],[43.15374,12.719616],[43.15367,12.719667],[43.153587,12.719672],[43.153526,12.719744],[43.153538,12.719797],[43.15359,12.719773],[43.15362,12.719782],[43.153603,12.719807],[43.15355,12.719819],[43.153515,12.719892],[43.15357,12.719929],[43.153572,12.719953],[43.153625,12.719955],[43.153606,12.719984],[43.153614,12.720031],[43.153687,12.720034],[43.153755,12.7200165],[43.153805,12.720059],[43.153847,12.720057],[43.15394,12.720103],[43.154045,12.72013],[43.154335,12.7200775],[43.154556,12.720014],[43.154697,12.719993],[43.15481,12.720013],[43.154995,12.719962],[43.15506,12.719928],[43.155125,12.71992],[43.15519,12.719894],[43.155277,12.719894],[43.155376,12.719855],[43.155643,12.71968],[43.155693,12.719579],[43.155678,12.719515],[43.155727,12.719491],[43.1558,12.719447],[43.156033,12.719389]]]}}
