{"type":"Feature","id":"relation/2383939","properties":{"type":"relation","id":2383939,"tags":{"admin_level":"8","boundary":"administrative","name":"Антрацит","name:ar":"أنتراتسيت","name:cs":"Antracyt","name:de":"Antrazyt","name:en":"Antratsyt","name:eo":"Antracit","name:es":"Antratsyt","name:fa":"آنتراتسیت","name:fr":"Antratsyt","name:lt":"Antracytas","name:nn":"Antratsyt","name:pl":"Antracyt","name:pt":"Antratsyt","name:ro":"Antrațit","name:ru":"Антрацит","name:sr":"Антрацит","name:uk":"Антрацит","name:zh":"安特拉齊特","place":"town","population":"54640","type":"boundary","wikidata":"Q609028","wikipedia":"uk:Антрацит_(місто)"},"labels":[{"id":"node/337659186","role":"admin_centre","coordinates":[39.088634,48.11643]}]},"geometry":{"type":"MultiPolygon","coordinates":[[[[39.114307,48.0362],[39.117176,48.036007],[39.11935,48.036503],[39.120018,48.038063],[39.118404,48.039307],[39.11632,48.04012],[39.114647,48.041283],[39.111713,48.0406],[39.111843,48.03786],[39.11224,48.037052],[39.113106,48.036476],[39.114307,48.0362]]],[[[39.163105,48.075085],[39.16619,48.08052],[39.16532,48.081383],[39.16049,48.08283],[39.15723,48.08386],[39.15591,48.08468],[39.15468,48.085804],[39.154152,48.087063],[39.15354,48.08888],[39.15299,48.089867],[39.15094,48.089745],[39.150494,48.08948],[39.144413,48.07925],[39.15212,48.077015],[39.15663,48.075752],[39.163082,48.074646],[39.163105,48.075085]]],[[[39.14868,48.099255],[39.14988,48.100246],[39.153965,48.106056],[39.155884,48.106125],[39.1568,48.106323],[39.157616,48.106922],[39.15813,48.10846],[39.158134,48.11079],[39.157906,48.112263],[39.153393,48.112183],[39.151634,48.11034],[39.149773,48.108],[39.14755,48.105736],[39.1449,48.103954],[39.1446,48.1031],[39.144466,48.10193],[39.144466,48.10091],[39.144737,48.099873],[39.14529,48.099144],[39.146187,48.098682],[39.14757,48.098656],[39.14868,48.099255]]],[[[39.05385,48.146774],[39.063183,48.14539],[39.071648,48.14337],[39.074635,48.14267],[39.077316,48.14242],[39.0788,48.14228],[39.078934,48.13733],[39.07497,48.13621],[39.06825,48.136642],[39.06425,48.13704],[39.060307,48.137825],[39.05663,48.137936],[39.05321,48.13726],[39.052742,48.137123],[39.05193,48.135906],[39.05708,48.13471],[39.065487,48.127327],[39.060513,48.12028],[39.057438,48.118668],[39.05639,48.11233],[39.05807,48.106964],[39.05588,48.10557],[39.055897,48.10353],[39.06982,48.103603],[39.074757,48.095737],[39.08403,48.096428],[39.09212,48.10024],[39.092735,48.101173],[39.093376,48.10189],[39.094376,48.102173],[39.095276,48.102238],[39.097385,48.1029],[39.098484,48.103542],[39.10095,48.103424],[39.103203,48.10339],[39.10462,48.103233],[39.106148,48.10327],[39.108017,48.103466],[39.109947,48.103905],[39.111588,48.1055],[39.11574,48.105618],[39.11665,48.106716],[39.11618,48.109787],[39.11616,48.111076],[39.117146,48.11145],[39.118855,48.112263],[39.11981,48.11273],[39.11885,48.11491],[39.1234,48.116364],[39.125656,48.113926],[39.12811,48.11407],[39.129955,48.11565],[39.13142,48.118557],[39.13549,48.120373],[39.137325,48.123363],[39.133045,48.126347],[39.13074,48.127537],[39.128124,48.129753],[39.127213,48.12994],[39.126064,48.13031],[39.12485,48.130615],[39.122646,48.130566],[39.11972,48.131584],[39.1144,48.136494],[39.115517,48.139587],[39.124798,48.138325],[39.127804,48.145733],[39.120213,48.150856],[39.114742,48.154613],[39.111916,48.152145],[39.111523,48.146584],[39.096474,48.151443],[39.09141,48.153202],[39.056934,48.162746],[39.05487,48.160847],[39.053818,48.160107],[39.05385,48.146774]]]]}}
