{"type":"Feature","id":"relation/62422","properties":{"type":"relation","id":62422,"tags":{"ISO3166-2":"DE-BE","TMC:cid_58:tabcd_1:Class":"Area","TMC:cid_58:tabcd_1:LCLversion":"12.0","TMC:cid_58:tabcd_1:LocationCode":"266","admin_level":"4","alt_name:vi":"Béc-lin","boundary":"administrative","capital":"yes","contact:facebook":"http://www.facebook.com/Berlin","contact:website":"http://www.berlin.de","de:amtlicher_gemeindeschluessel":"11000000","de:place":"city","de:place:note":"Kreisfreie Stadt","de:regionalschluessel":"110000000000","geographical_region":"Barnim;Berliner Urstromtal;Teltow;Nauener Platte","name":"Berlin","name:af":"Berlyn","name:als":"Berlin","name:am":"በርሊን","name:an":"Berlín","name:ang":"Berlin","name:ar":"برلين","name:arc":"ܒܪܠܝܢ","name:ast":"Berlín","name:az":"Berlin","name:ba":"Берлин","name:bar":"Berlin","name:bat-smg":"Berlīns","name:be":"Берлін","name:be-tarask":"Бэрлін","name:bg":"Берлин","name:bi":"Berlin","name:bn":"বার্লিন","name:bo":"པེ་ལིང་","name:br":"Berlin","name:bs":"Berlin","name:ca":"Berlín","name:cbk-zam":"Berlín","name:crh":"Berlin","name:cs":"Berlín","name:csb":"Berlëno","name:cu":"Берлинъ","name:cv":"Берлин","name:cy":"Berlin","name:da":"Berlin","name:de":"Berlin","name:diq":"Berlin","name:dsb":"Barliń","name:el":"Βερολίνο","name:en":"Berlin","name:eo":"Berlino","name:es":"Berlín","name:et":"Berliin","name:eu":"Berlin","name:fa":"برلین","name:fi":"Berliini","name:fo":"Berlin","name:fr":"Berlin","name:frp":"Bèrlin","name:fur":"Berlin","name:fy":"Berlyn","name:ga":"Beirlín","name:gd":"Berlin","name:gl":"Berlín","name:gn":"Berlin","name:gv":"Berleen","name:haw":"Pelelina","name:he":"ברלין","name:hi":"बर्लिन","name:hr":"Berlin","name:hsb":"Berlin","name:ht":"Bèlen","name:hu":"Berlin","name:hy":"Բեռլին","name:ia":"Berlin","name:id":"Berlin","name:ie":"Berlin","name:ilo":"Berlin, Alemania","name:io":"Berlin","name:is":"Berlín","name:it":"Berlino","name:ja":"ベルリン","name:jbo":"berlin","name:jv":"Berlin","name:ka":"ბერლინი","name:kab":"Berlin","name:kk":"Берлин","name:ko":"베를린","name:ksh":"Bälliin","name:ku":"Berlîn","name:kv":"Берлин","name:kw":"Berlin","name:la":"Berolinum","name:lb":"Berlin","name:lg":"Berlin","name:li":"Berlien","name:lij":"Berlin","name:lmo":"Berlin","name:ln":"Berlin","name:lt":"Berlynas","name:lv":"Berlīne","name:mg":"Berlin","name:mk":"Берлин","name:ml":"ബെര്‍ലിന്‍","name:mn":"Берлин","name:mr":"बर्लिन","name:ms":"Berlin","name:mt":"Berlin","name:myv":"Берлин ош","name:na":"Berlin","name:nah":"Berlin","name:nap":"Berlino","name:nds":"Berlin","name:nl":"Berlijn","name:nn":"Berlin","name:no":"Berlin","name:nov":"Berlin","name:nrm":"Bèrlîn","name:oc":"Berlin","name:os":"Берлин","name:pam":"Berlin","name:pdc":"Berlin, Deitschland","name:pl":"Berlin","name:pms":"Berlin","name:prefix:city":"Kreisfreie Stadt","name:prefix:state":"Land","name:pt":"Berlim","name:qu":"Berlin","name:rm":"Berlin","name:rmy":"Berlin","name:ro":"Berlin","name:roa-rup":"Berlin","name:roa-tara":"Berline","name:ru":"Берлин","name:sah":"Берлин","name:sc":"Berlinu","name:scn":"Birlinu","name:sco":"Berlin","name:se":"Berlin","name:sh":"Berlin","name:short":"BE","name:sk":"Berlín","name:sl":"Berlin","name:so":"Berlin","name:sq":"Berlini","name:sr":"Берлин","name:stq":"Berlin","name:su":"Berliini","name:sv":"Berlin","name:sw":"Berlin","name:szl":"Berlin","name:ta":"பெர்லின்","name:te":"బెర్లిన్","name:tet":"Berlín","name:tg":"Берлин","name:th":"เบอร์ลิน","name:tl":"Berlin","name:tpi":"Berlin","name:tr":"Berlin","name:tt":"Берлин","name:ty":"Berlin","name:tzl":"Berlin","name:uk":"Берлін","name:ur":"برلن","name:uz":"Berlin","name:vec":"Berlin","name:vi":"Berlin","name:vls":"Berlyn","name:vo":"Berlin","name:wo":"Berlin","name:yi":"בערלין","name:yo":"Berlin","name:zh":"柏林","name:zh-classical":"柏林","name:zh-min-nan":"Berlin","name:zh-yue":"柏林","name:zu":"Berlin","official_name":"Stadtstaat Berlin","official_status":"Land","official_status:de":"Land","official_status:en":"State","official_status:ru":"земля","old_name:vi":"Bá Linh","place":"state","population":"3440441","rank":"0","ref":"B","state_code":"BE","type":"boundary","wikidata":"Q64","wikipedia":"de:Berlin"},"labels":[{"id":"node/240109189","role":"admin_centre","coordinates":[13.388859,52.517036]}]},"geometry":{"type":"Polygon","coordinates":[[[13.152378,52.57045],[13.152172,52.570324],[13.151355,52.569984],[13.151258,52.569695],[13.151191,52.569157],[13.150473,52.568195],[13.150286,52.56772],[13.150139,52.56729],[13.150065,52.567062],[13.149869,52.566765],[13.148566,52.565533],[13.148126,52.565163],[13.148006,52.564995],[13.14781,52.5648],[13.147718,52.564716],[13.14752,52.564404],[13.147451,52.56403],[13.147454,52.56389],[13.147473,52.563393],[13.147451,52.5631],[13.147378,52.56268],[13.147382,52.562443],[13.147136,52.561436],[13.147002,52.561356],[13.1466875,52.561188],[13.1465,52.56109],[13.146021,52.560867],[13.145815,52.560608],[13.146068,52.560402],[13.146274,52.559334],[13.146585,52.559143],[13.146862,52.558605],[13.146957,52.557674],[13.146936,52.557053],[13.147291,52.55584],[13.147241,52.555344],[13.147223,52.554935],[13.146913,52.554295],[13.146581,52.554096],[13.146036,52.553402],[13.14585,52.552925],[13.145685,52.552788],[13.14532,52.552574],[13.145237,52.55252],[13.144828,52.55248],[13.144582,52.55255],[13.1442375,52.55211],[13.143199,52.552086],[13.14256,52.552254],[13.141356,52.552464],[13.140438,52.552486],[13.139283,52.55251],[13.138016,52.552563],[13.137245,52.55261],[13.136338,52.552708],[13.134461,52.553352],[13.133811,52.553764],[13.133554,52.553963],[13.132548,52.554874],[13.131183,52.5557],[13.130983,52.55583],[13.130503,52.55602],[13.129878,52.55482],[13.129308,52.55345],[13.129231,52.553364],[13.128963,52.552635],[13.128011,52.550465],[13.127716,52.54981],[13.126501,52.547222],[13.126138,52.546566],[13.125278,52.5445],[13.125073,52.543755],[13.125415,52.54351],[13.124545,52.54011],[13.123842,52.53808],[13.123495,52.53713],[13.1202135,52.532036],[13.119272,52.529575],[13.119257,52.529125],[13.119144,52.527332],[13.118829,52.5218],[13.117393,52.51703],[13.126177,52.517487],[13.129098,52.51786],[13.129927,52.517986],[13.132213,52.51815],[13.134893,52.51855],[13.142721,52.519688],[13.143138,52.51961],[13.143645,52.519333],[13.144121,52.519173],[13.144573,52.518864],[13.144814,52.518333],[13.145028,52.517857],[13.1454315,52.51751],[13.145595,52.517372],[13.146411,52.517326],[13.147423,52.517155],[13.148244,52.51688],[13.157614,52.513042],[13.158564,52.512943],[13.168632,52.50925],[13.161124,52.504234],[13.157215,52.50162],[13.157141,52.501568],[13.1562805,52.50094],[13.155617,52.500454],[13.155304,52.500225],[13.155247,52.500183],[13.154766,52.499836],[13.15426,52.49947],[13.153353,52.498817],[13.152512,52.498215],[13.152474,52.498184],[13.152349,52.49813],[13.151604,52.497578],[13.151225,52.497307],[13.150886,52.497112],[13.15085,52.49709],[13.150773,52.497047],[13.150058,52.49663],[13.149795,52.496452],[13.1495905,52.49631],[13.1493025,52.496086],[13.149243,52.496044],[13.148414,52.495396],[13.147848,52.494957],[13.147781,52.494904],[13.147099,52.49437],[13.146664,52.494022],[13.146602,52.493977],[13.146203,52.49366],[13.145301,52.49296],[13.144431,52.49229],[13.142984,52.491165],[13.141813,52.490257],[13.1417055,52.490177],[13.14164,52.490128],[13.14071,52.489407],[13.140261,52.489056],[13.13982,52.488712],[13.138935,52.488026],[13.137101,52.486603],[13.136755,52.486336],[13.136201,52.485905],[13.135456,52.485332],[13.135287,52.4852],[13.134612,52.484673],[13.134387,52.484497],[13.133465,52.483776],[13.132546,52.483063],[13.131629,52.48235],[13.130715,52.481644],[13.129795,52.480946],[13.129753,52.480915],[13.129559,52.480766],[13.128605,52.480026],[13.128333,52.479816],[13.127923,52.47957],[13.126866,52.47896],[13.126567,52.47879],[13.126277,52.478657],[13.123969,52.478245],[13.123358,52.47817],[13.1221695,52.477993],[13.121956,52.477955],[13.121439,52.477856],[13.1212,52.477814],[13.120683,52.47771],[13.1205015,52.477745],[13.120405,52.477695],[13.119791,52.477608],[13.119335,52.477535],[13.1191225,52.477505],[13.118352,52.477367],[13.118059,52.477345],[13.117693,52.47732],[13.117679,52.4771],[13.117592,52.47577],[13.117557,52.47503],[13.117548,52.47486],[13.117548,52.474857],[13.117544,52.474777],[13.117551,52.474575],[13.117536,52.474514],[13.1175165,52.474392],[13.117479,52.474323],[13.117478,52.474323],[13.11736,52.47401],[13.117356,52.474003],[13.117234,52.473278],[13.116206,52.47168],[13.114129,52.470062],[13.113787,52.4698],[13.113954,52.468616],[13.111855,52.467445],[13.110557,52.465652],[13.111007,52.46466],[13.111429,52.463726],[13.1113405,52.46186],[13.110502,52.459995],[13.111967,52.459225],[13.112409,52.458996],[13.112457,52.4589],[13.112466,52.458866],[13.112466,52.458866],[13.112495,52.45877],[13.112527,52.458668],[13.112556,52.45852],[13.112599,52.45818],[13.112603,52.45815],[13.112627,52.458],[13.11265,52.457848],[13.112674,52.45769],[13.112655,52.457596],[13.112641,52.457527],[13.112617,52.457405],[13.112615,52.457394],[13.112598,52.45731],[13.112561,52.457127],[13.112559,52.45712],[13.112551,52.457077],[13.112517,52.456917],[13.11251,52.456875],[13.112478,52.45674],[13.11245,52.456596],[13.112446,52.45658],[13.112432,52.456505],[13.112418,52.45646],[13.112412,52.456444],[13.112342,52.45622],[13.112301,52.456028],[13.112292,52.45597],[13.112199,52.45562],[13.112175,52.45553],[13.112057,52.45462],[13.11203,52.45441],[13.112013,52.454372],[13.111861,52.45406],[13.111824,52.453983],[13.111658,52.453636],[13.111356,52.453163],[13.11108,52.45279],[13.110389,52.452034],[13.110358,52.452007],[13.109911,52.45155],[13.109561,52.451077],[13.109316,52.450706],[13.109279,52.45063],[13.110056,52.450012],[13.110768,52.449425],[13.111528,52.448803],[13.112294,52.448177],[13.113023,52.447582],[13.113263,52.447384],[13.113639,52.44707],[13.114508,52.446358],[13.115364,52.44565],[13.116627,52.44517],[13.117346,52.44482],[13.118182,52.444412],[13.11901,52.444008],[13.119135,52.443775],[13.119025,52.44328],[13.119021,52.44313],[13.119019,52.442966],[13.119096,52.442837],[13.119333,52.44244],[13.119768,52.44171],[13.11993,52.44152],[13.120209,52.441353],[13.12312,52.439613],[13.123153,52.438705],[13.122142,52.437874],[13.117217,52.436165],[13.113931,52.432964],[13.112074,52.43231],[13.112783,52.429195],[13.108022,52.42666],[13.106916,52.425644],[13.105409,52.42528],[13.104567,52.42398],[13.103487,52.4243],[13.102804,52.424515],[13.101601,52.424633],[13.100949,52.42516],[13.100466,52.425304],[13.099976,52.42545],[13.099314,52.425343],[13.0984,52.42489],[13.098088,52.424072],[13.098053,52.424015],[13.097724,52.423466],[13.0958395,52.42197],[13.08835,52.41964],[13.090211,52.413548],[13.090209,52.413383],[13.090188,52.41273],[13.090275,52.412212],[13.090768,52.41156],[13.092123,52.41124],[13.092355,52.411118],[13.093411,52.410534],[13.097392,52.40942],[13.097976,52.409874],[13.097976,52.409935],[13.098332,52.41006],[13.098408,52.410103],[13.098614,52.410267],[13.098638,52.41026],[13.0987015,52.410328],[13.098546,52.410385],[13.098581,52.410423],[13.098575,52.410423],[13.098567,52.410427],[13.098561,52.41043],[13.0985565,52.410435],[13.098553,52.41044],[13.09855,52.41045],[13.09855,52.410454],[13.09855,52.410458],[13.098553,52.41046],[13.0985565,52.41047],[13.098594,52.410507],[13.098599,52.41051],[13.098606,52.41051],[13.098614,52.410515],[13.098621,52.41052],[13.098631,52.41052],[13.098638,52.41052],[13.098645,52.41052],[13.098652,52.410515],[13.098659,52.410515],[13.098664,52.410515],[13.098671,52.41051],[13.098773,52.410606],[13.09885,52.410683],[13.098894,52.410725],[13.098922,52.41075],[13.098944,52.410786],[13.098966,52.410824],[13.098979,52.41087],[13.098983,52.410915],[13.098977,52.410957],[13.098962,52.411003],[13.098935,52.41104],[13.098899,52.411083],[13.098853,52.411118],[13.098765,52.411156],[13.097717,52.41162],[13.097652,52.411625],[13.097587,52.41165],[13.097561,52.41169],[13.0975275,52.4117],[13.097545,52.411716],[13.097566,52.411716],[13.097591,52.41174],[13.097589,52.41175],[13.097557,52.411766],[13.0976095,52.41178],[13.097113,52.412346],[13.09645,52.413086],[13.096619,52.41314],[13.096812,52.4132],[13.097856,52.413395],[13.097882,52.413383],[13.09805,52.413406],[13.098179,52.413445],[13.09911,52.413605],[13.099261,52.413628],[13.099859,52.413715],[13.099949,52.413727],[13.100312,52.413784],[13.100568,52.413795],[13.100859,52.413757],[13.100852,52.413734],[13.100752,52.413345],[13.100732,52.413017],[13.10073,52.412987],[13.100811,52.412716],[13.100976,52.412186],[13.101047,52.411884],[13.101068,52.411808],[13.101121,52.411575],[13.1011,52.41143],[13.101076,52.41127],[13.101046,52.41105],[13.101027,52.410976],[13.10097,52.410683],[13.101003,52.410538],[13.103178,52.41006],[13.103566,52.409973],[13.103894,52.409904],[13.104398,52.409794],[13.104626,52.40974],[13.1051235,52.409897],[13.105469,52.409744],[13.105914,52.409546],[13.106187,52.40956],[13.106548,52.409603],[13.106769,52.409676],[13.106852,52.40971],[13.106966,52.40977],[13.107019,52.409813],[13.107081,52.409866],[13.107104,52.409904],[13.107124,52.40993],[13.107132,52.40996],[13.107141,52.40999],[13.107144,52.410015],[13.107145,52.410046],[13.107153,52.41055],[13.107155,52.410683],[13.107179,52.410816],[13.107203,52.411083],[13.107268,52.411392],[13.107302,52.411545],[13.107361,52.411797],[13.107417,52.412086],[13.107416,52.412125],[13.107406,52.41221],[13.107391,52.412292],[13.107362,52.412434],[13.107327,52.412632],[13.107304,52.412716],[13.107254,52.412823],[13.107122,52.413097],[13.107105,52.41318],[13.107142,52.41321],[13.107256,52.41331],[13.107355,52.413284],[13.107473,52.413296],[13.10778,52.413334],[13.107807,52.413322],[13.108075,52.413265],[13.108103,52.41326],[13.108349,52.413208],[13.108476,52.41318],[13.108616,52.41315],[13.10866,52.413143],[13.108927,52.413086],[13.10917,52.413033],[13.1092005,52.41303],[13.1094475,52.412975],[13.109624,52.412937],[13.109905,52.412033],[13.109967,52.411827],[13.110007,52.4117],[13.110053,52.41155],[13.110101,52.411404],[13.110136,52.411285],[13.110864,52.411354],[13.111163,52.411377],[13.111511,52.41141],[13.111547,52.411293],[13.11159,52.41115],[13.111647,52.41097],[13.111702,52.41079],[13.111753,52.41062],[13.111797,52.410477],[13.111451,52.410446],[13.110424,52.41035],[13.110495,52.410122],[13.110556,52.409927],[13.11061,52.409748],[13.110665,52.409573],[13.110592,52.409565],[13.110616,52.40949],[13.11063,52.40944],[13.108505,52.40924],[13.106933,52.409485],[13.106766,52.409245],[13.106655,52.408993],[13.106553,52.408764],[13.1064625,52.40877],[13.10644,52.40877],[13.106415,52.40874],[13.106382,52.408688],[13.106545,52.40868],[13.106575,52.408676],[13.106794,52.40866],[13.107001,52.40864],[13.107515,52.40859],[13.10755,52.408585],[13.107681,52.408573],[13.108213,52.408516],[13.10861,52.408474],[13.109134,52.408237],[13.109267,52.408176],[13.109259,52.408157],[13.109449,52.408043],[13.109306,52.40793],[13.109199,52.40786],[13.108325,52.407253],[13.109694,52.406532],[13.111102,52.405296],[13.111203,52.40451],[13.111819,52.403984],[13.116337,52.40232],[13.11775,52.40212],[13.1184635,52.401283],[13.120232,52.39985],[13.122003,52.398544],[13.123159,52.397877],[13.124206,52.397274],[13.124781,52.396866],[13.12566,52.39666],[13.126922,52.396572],[13.127423,52.396637],[13.128462,52.396942],[13.132524,52.39866],[13.13351,52.399364],[13.134956,52.398594],[13.135035,52.398575],[13.135202,52.39853],[13.1354265,52.398468],[13.135665,52.3984],[13.136408,52.398193],[13.136637,52.398132],[13.138102,52.397854],[13.138085,52.397804],[13.138043,52.397682],[13.137671,52.397648],[13.137532,52.397636],[13.137334,52.39762],[13.137258,52.39761],[13.137165,52.397602],[13.137082,52.397594],[13.136998,52.397587],[13.136936,52.397583],[13.136925,52.39758],[13.136732,52.397564],[13.136582,52.397545],[13.136474,52.397533],[13.136411,52.39753],[13.136143,52.3975],[13.136027,52.397488],[13.135716,52.39745],[13.135214,52.397213],[13.135358,52.3969],[13.135451,52.396706],[13.135587,52.396423],[13.135609,52.396378],[13.1356125,52.39637],[13.135679,52.396236],[13.135712,52.396175],[13.1357975,52.396175],[13.136012,52.396175],[13.136422,52.396175],[13.1368065,52.396175],[13.136998,52.39618],[13.137039,52.396175],[13.137133,52.396164],[13.137148,52.396164],[13.137437,52.396145],[13.13726,52.396023],[13.137499,52.39602],[13.137794,52.396133],[13.137994,52.396122],[13.138586,52.3961],[13.138369,52.395977],[13.138949,52.39599],[13.138228,52.395702],[13.137542,52.395332],[13.137064,52.39508],[13.136641,52.394855],[13.136241,52.394646],[13.134492,52.393684],[13.133877,52.3933],[13.132915,52.39262],[13.131781,52.391823],[13.131745,52.3918],[13.131569,52.391792],[13.131543,52.39182],[13.131497,52.391876],[13.131491,52.39188],[13.131409,52.391815],[13.131388,52.391796],[13.131378,52.391792],[13.131299,52.391727],[13.131308,52.39172],[13.131318,52.391727],[13.13132,52.3917],[13.131322,52.391678],[13.13133,52.391678],[13.131419,52.3917],[13.131533,52.39173],[13.131503,52.3917],[13.13091,52.391167],[13.130167,52.390495],[13.129851,52.390694],[13.13001,52.39085],[13.130179,52.391018],[13.130426,52.391262],[13.130503,52.391342],[13.130858,52.39169],[13.131027,52.391636],[13.131033,52.391632],[13.131108,52.391693],[13.131136,52.391716],[13.131145,52.391716],[13.131223,52.39179],[13.131215,52.39179],[13.131202,52.39179],[13.1312,52.39181],[13.131197,52.391838],[13.13119,52.391838],[13.131102,52.391808],[13.130926,52.391758],[13.130907,52.391758],[13.130746,52.391754],[13.129422,52.391727],[13.129422,52.391705],[13.127219,52.391663],[13.127161,52.391422],[13.127124,52.391262],[13.127071,52.391068],[13.126997,52.390755],[13.126921,52.39046],[13.126847,52.39014],[13.126803,52.389973],[13.126697,52.38956],[13.127213,52.38929],[13.127617,52.389076],[13.128066,52.388817],[13.128178,52.388756],[13.12829,52.3887],[13.128666,52.388496],[13.129137,52.388237],[13.129274,52.38816],[13.129484,52.388046],[13.129833,52.387848],[13.130679,52.387363],[13.130806,52.387314],[13.130968,52.387264],[13.13108,52.387238],[13.131148,52.38723],[13.131305,52.387222],[13.131444,52.387466],[13.131541,52.387493],[13.131718,52.3875],[13.131986,52.387516],[13.132231,52.387474],[13.132488,52.38743],[13.1327095,52.387386],[13.132924,52.387352],[13.133181,52.387302],[13.13329,52.38751],[13.133343,52.3876],[13.133393,52.38769],[13.133622,52.388096],[13.133979,52.388737],[13.133742,52.388744],[13.133298,52.388645],[13.132874,52.388744],[13.1327095,52.388844],[13.132568,52.388927],[13.13241,52.389038],[13.132366,52.389072],[13.1321945,52.38919],[13.132021,52.38931],[13.131895,52.389397],[13.131843,52.38943],[13.131617,52.389576],[13.131458,52.389675],[13.131351,52.389744],[13.131007,52.38996],[13.130808,52.390087],[13.130753,52.390125],[13.130695,52.39016],[13.130373,52.390366],[13.132025,52.391712],[13.132076,52.391758],[13.132096,52.39177],[13.132181,52.391827],[13.133137,52.392506],[13.134084,52.393173],[13.134707,52.393562],[13.136425,52.39451],[13.13665,52.394627],[13.137039,52.39483],[13.137763,52.395214],[13.138198,52.39545],[13.138392,52.39555],[13.140086,52.39624],[13.140427,52.39637],[13.140686,52.39651],[13.140962,52.39666],[13.140988,52.396675],[13.141094,52.396732],[13.141241,52.396805],[13.141524,52.39695],[13.141818,52.3971],[13.141987,52.39696],[13.14242,52.397068],[13.142564,52.3971],[13.142821,52.39716],[13.142849,52.397163],[13.143205,52.397247],[13.143221,52.397125],[13.143263,52.39685],[13.143281,52.39672],[13.143134,52.396675],[13.143373,52.396496],[13.143512,52.396397],[13.143703,52.39625],[13.143859,52.396137],[13.144786,52.395824],[13.145739,52.395504],[13.145801,52.395493],[13.145975,52.395477],[13.146579,52.39542],[13.146805,52.3954],[13.147888,52.395294],[13.148932,52.395195],[13.149015,52.395187],[13.150021,52.39509],[13.151043,52.39501],[13.151104,52.395004],[13.152195,52.394924],[13.15329,52.39484],[13.154457,52.39465],[13.154668,52.39462],[13.155605,52.394466],[13.156795,52.39427],[13.157661,52.394135],[13.158869,52.393936],[13.158937,52.39394],[13.1595335,52.39397],[13.159996,52.39399],[13.160232,52.394005],[13.161233,52.39405],[13.161247,52.39405],[13.1613655,52.394062],[13.162282,52.394104],[13.163443,52.394165],[13.163515,52.394165],[13.163592,52.394173],[13.164328,52.39421],[13.164411,52.394215],[13.164521,52.39422],[13.164565,52.39422],[13.164618,52.394226],[13.165755,52.394283],[13.165927,52.39429],[13.166854,52.394333],[13.167961,52.394386],[13.168132,52.394394],[13.168192,52.394394],[13.16875,52.394394],[13.169336,52.39463],[13.171603,52.395653],[13.171256,52.397522],[13.171083,52.397774],[13.170103,52.397552],[13.168575,52.397312],[13.168042,52.397263],[13.161689,52.396645],[13.161416,52.39662],[13.157838,52.39629],[13.157803,52.396473],[13.157759,52.396767],[13.157827,52.39729],[13.158265,52.39796],[13.158308,52.398026],[13.15871,52.398804],[13.159232,52.399574],[13.159276,52.399773],[13.159271,52.399994],[13.159202,52.402733],[13.159338,52.40287],[13.17252,52.407154],[13.173738,52.407593],[13.180073,52.409695],[13.185491,52.41153],[13.195246,52.414795],[13.197244,52.41553],[13.197594,52.41552],[13.199157,52.41542],[13.199439,52.415405],[13.20032,52.415516],[13.201336,52.41553],[13.204525,52.415836],[13.20584,52.41607],[13.207405,52.416313],[13.209824,52.41682],[13.211078,52.417126],[13.211607,52.41728],[13.212695,52.41765],[13.21305,52.41777],[13.213579,52.417835],[13.214272,52.418056],[13.215453,52.418503],[13.21641,52.418842],[13.218225,52.419346],[13.218472,52.41938],[13.219175,52.4196],[13.219795,52.419754],[13.220571,52.41993],[13.221495,52.420147],[13.2236,52.42076],[13.223625,52.420673],[13.2245655,52.42088],[13.225054,52.42108],[13.225269,52.42092],[13.225253,52.420834],[13.225329,52.420822],[13.226466,52.42082],[13.227263,52.420666],[13.228535,52.42052],[13.228793,52.42049],[13.229697,52.420403],[13.232147,52.420288],[13.233155,52.420258],[13.234483,52.420574],[13.234622,52.420597],[13.235814,52.42078],[13.237767,52.420734],[13.23793,52.420734],[13.240542,52.42084],[13.244018,52.420975],[13.245947,52.421124],[13.246148,52.420765],[13.246585,52.41999],[13.247065,52.418915],[13.247523,52.41732],[13.24781,52.416378],[13.247939,52.415768],[13.24847,52.414062],[13.249082,52.411713],[13.249077,52.41143],[13.24902,52.40885],[13.248815,52.408405],[13.249234,52.40789],[13.24927,52.407516],[13.249682,52.40536],[13.249725,52.404957],[13.25067,52.40534],[13.251815,52.40567],[13.252418,52.40581],[13.253145,52.40597],[13.253896,52.406105],[13.255579,52.406284],[13.257052,52.406384],[13.258391,52.406364],[13.25966,52.406242],[13.260988,52.405937],[13.262325,52.405453],[13.264429,52.404755],[13.266466,52.404312],[13.268315,52.404224],[13.268985,52.404205],[13.269852,52.404175],[13.271464,52.40423],[13.272963,52.40445],[13.27371,52.40468],[13.27579,52.405148],[13.27728,52.40587],[13.278866,52.40664],[13.2799015,52.40713],[13.280819,52.407627],[13.281597,52.408035],[13.283432,52.409046],[13.285296,52.410088],[13.288414,52.41182],[13.293023,52.414413],[13.293509,52.414658],[13.295213,52.41553],[13.295321,52.41559],[13.295879,52.41586],[13.296247,52.41603],[13.296754,52.41625],[13.2969055,52.416046],[13.297104,52.41576],[13.297107,52.41544],[13.296967,52.41504],[13.296721,52.41474],[13.296347,52.414543],[13.295965,52.414482],[13.295974,52.41447],[13.298587,52.411987],[13.298726,52.41186],[13.299998,52.410694],[13.300662,52.410084],[13.30121,52.409584],[13.30229,52.408634],[13.305208,52.40596],[13.306822,52.40448],[13.3069,52.404404],[13.309578,52.4016],[13.311193,52.400093],[13.311271,52.399994],[13.312081,52.39914],[13.313189,52.39998],[13.313901,52.400536],[13.318502,52.402424],[13.323381,52.404255],[13.327254,52.4057],[13.331698,52.407253],[13.33297,52.407734],[13.335728,52.408756],[13.342148,52.4113],[13.342851,52.41156],[13.343319,52.411716],[13.343283,52.411266],[13.343236,52.410683],[13.343086,52.407677],[13.345963,52.405903],[13.346063,52.40584],[13.34921,52.403896],[13.350392,52.403183],[13.350781,52.40295],[13.352686,52.402004],[13.354315,52.401066],[13.356454,52.399994],[13.35768,52.399384],[13.358578,52.398907],[13.359044,52.398643],[13.35938,52.398464],[13.360617,52.397995],[13.361262,52.397728],[13.361407,52.397663],[13.362422,52.397232],[13.364229,52.39668],[13.368441,52.395126],[13.371954,52.39379],[13.370448,52.388466],[13.374956,52.388184],[13.376214,52.388153],[13.376908,52.388138],[13.378397,52.38814],[13.378659,52.388153],[13.381562,52.38831],[13.382358,52.388332],[13.3823805,52.38834],[13.382534,52.388344],[13.385588,52.388493],[13.387263,52.388577],[13.3875475,52.386707],[13.387634,52.38618],[13.387944,52.384277],[13.388223,52.382343],[13.388189,52.382202],[13.388081,52.381718],[13.388228,52.38091],[13.38808,52.38008],[13.388111,52.380047],[13.388064,52.379253],[13.388231,52.378693],[13.388412,52.378647],[13.388436,52.377865],[13.391646,52.377743],[13.391924,52.377743],[13.398377,52.377525],[13.400004,52.37741],[13.400605,52.37736],[13.400854,52.377335],[13.402287,52.377197],[13.404094,52.37702],[13.404672,52.376965],[13.406624,52.376904],[13.407657,52.376804],[13.409838,52.376568],[13.41051,52.37664],[13.41224,52.376812],[13.4128475,52.376873],[13.412651,52.376408],[13.417865,52.376247],[13.420834,52.376125],[13.420962,52.376328],[13.421931,52.37787],[13.42434,52.381313],[13.426206,52.38398],[13.427018,52.38514],[13.427327,52.38557],[13.427457,52.38575],[13.427428,52.386368],[13.426998,52.38788],[13.42666,52.388542],[13.425393,52.391556],[13.425351,52.391647],[13.423812,52.39505],[13.421675,52.39975],[13.421564,52.399994],[13.420408,52.402534],[13.420154,52.40312],[13.419882,52.403744],[13.419655,52.404266],[13.419289,52.405087],[13.418424,52.40709],[13.418299,52.407925],[13.418415,52.408764],[13.418501,52.409233],[13.418779,52.409992],[13.419592,52.410175],[13.419734,52.41021],[13.420043,52.41025],[13.42184,52.410526],[13.424127,52.41109],[13.42589,52.411495],[13.427813,52.41187],[13.429505,52.412144],[13.430239,52.412266],[13.430446,52.41226],[13.432094,52.412544],[13.435371,52.413567],[13.438678,52.41442],[13.438915,52.414455],[13.439195,52.414513],[13.440892,52.41489],[13.441626,52.41509],[13.442543,52.415367],[13.443876,52.415787],[13.445551,52.41625],[13.445767,52.416317],[13.446572,52.416542],[13.447048,52.41668],[13.447914,52.417156],[13.448865,52.41748],[13.44921,52.417595],[13.449431,52.41767],[13.449543,52.41771],[13.450943,52.41815],[13.45102,52.41818],[13.451964,52.41849],[13.452544,52.41871],[13.452888,52.418835],[13.453044,52.41889],[13.4534855,52.419056],[13.453969,52.41923],[13.454314,52.419342],[13.454393,52.419365],[13.454738,52.41946],[13.454756,52.419468],[13.455004,52.419533],[13.455062,52.419544],[13.455512,52.41965],[13.457227,52.42008],[13.458635,52.42041],[13.459492,52.420574],[13.461092,52.420773],[13.463562,52.421066],[13.466456,52.420444],[13.46801,52.420036],[13.468261,52.419228],[13.468347,52.419083],[13.4688015,52.418156],[13.469393,52.416878],[13.470958,52.4141],[13.472189,52.412228],[13.473049,52.41077],[13.474076,52.408684],[13.475759,52.406338],[13.476941,52.404095],[13.477539,52.403545],[13.4777355,52.403088],[13.477718,52.402756],[13.478261,52.401382],[13.478825,52.400417],[13.478958,52.39999],[13.479017,52.399845],[13.4790945,52.399143],[13.479121,52.398975],[13.479767,52.395943],[13.481786,52.396484],[13.483575,52.39694],[13.485901,52.397305],[13.486506,52.397415],[13.488833,52.397617],[13.490549,52.397747],[13.491907,52.39802],[13.49292,52.398216],[13.495058,52.39857],[13.497472,52.398796],[13.500959,52.39936],[13.505764,52.399914],[13.509348,52.40043],[13.511448,52.400764],[13.512913,52.401016],[13.513672,52.401173],[13.514078,52.401276],[13.514113,52.401287],[13.51605,52.401783],[13.516837,52.401615],[13.517202,52.401535],[13.518592,52.4011],[13.521788,52.400578],[13.522789,52.40007],[13.523478,52.3998],[13.524014,52.3996],[13.524575,52.39938],[13.526398,52.398937],[13.52971,52.3973],[13.531388,52.39796],[13.531443,52.397976],[13.53373,52.398884],[13.535194,52.399296],[13.536027,52.399605],[13.5370035,52.399982],[13.5370455,52.399982],[13.53838,52.4006],[13.538429,52.4006],[13.538205,52.39996],[13.53736,52.398754],[13.537086,52.398254],[13.537218,52.398037],[13.536304,52.39784],[13.536693,52.397213],[13.535838,52.395554],[13.535657,52.39499],[13.535372,52.393993],[13.535166,52.39352],[13.53486,52.391537],[13.534834,52.39075],[13.535499,52.38899],[13.5467,52.388687],[13.553987,52.388386],[13.558665,52.388237],[13.561517,52.388153],[13.563351,52.38813],[13.564213,52.388138],[13.565815,52.38846],[13.566892,52.388603],[13.570797,52.389347],[13.5743885,52.390118],[13.575978,52.390285],[13.580712,52.391064],[13.582263,52.39134],[13.588002,52.392544],[13.590481,52.393314],[13.592705,52.393814],[13.59275,52.393826],[13.593348,52.393284],[13.593817,52.392796],[13.594109,52.392532],[13.594164,52.392437],[13.594236,52.39212],[13.593993,52.391632],[13.593902,52.3912],[13.59387,52.390865],[13.5936985,52.390488],[13.593654,52.39023],[13.59367,52.38996],[13.593853,52.389698],[13.5940485,52.38953],[13.594328,52.388924],[13.594674,52.38898],[13.595011,52.38895],[13.595194,52.388752],[13.595277,52.38849],[13.59525,52.388153],[13.594914,52.387554],[13.5949545,52.387238],[13.596128,52.385983],[13.597037,52.385757],[13.59826,52.385517],[13.599007,52.385403],[13.599264,52.38542],[13.599395,52.385406],[13.599546,52.385273],[13.599762,52.384975],[13.600327,52.38451],[13.6004925,52.384308],[13.600824,52.38411],[13.601389,52.383938],[13.601738,52.383705],[13.601901,52.383575],[13.603016,52.38284],[13.603223,52.38233],[13.603444,52.381996],[13.603728,52.38165],[13.604493,52.381207],[13.604882,52.380917],[13.605319,52.38047],[13.605663,52.380108],[13.606384,52.379128],[13.606327,52.3786],[13.605476,52.377964],[13.605688,52.37768],[13.606506,52.376766],[13.606802,52.376034],[13.606764,52.375423],[13.606617,52.375015],[13.605798,52.373608],[13.606095,52.373695],[13.607528,52.374023],[13.609293,52.374638],[13.619457,52.378162],[13.628514,52.381355],[13.633232,52.376244],[13.642682,52.37751],[13.642847,52.373898],[13.642832,52.37256],[13.64254,52.371426],[13.642102,52.370808],[13.643552,52.370464],[13.646831,52.37015],[13.646746,52.369576],[13.646871,52.368954],[13.646964,52.3687],[13.647268,52.368027],[13.647196,52.367058],[13.646944,52.36607],[13.646683,52.36575],[13.646099,52.365257],[13.644726,52.3648],[13.643747,52.364265],[13.64115,52.363094],[13.640216,52.361908],[13.639859,52.361694],[13.639084,52.360962],[13.638989,52.36065],[13.638711,52.360245],[13.638436,52.359737],[13.638465,52.35916],[13.638724,52.35875],[13.638565,52.358166],[13.638306,52.35775],[13.638267,52.357277],[13.638141,52.357098],[13.637796,52.34821],[13.636706,52.348145],[13.636319,52.346817],[13.636826,52.345226],[13.637173,52.344727],[13.638712,52.343185],[13.640856,52.341885],[13.642817,52.33994],[13.644505,52.339912],[13.644756,52.339615],[13.645244,52.339138],[13.645531,52.338776],[13.64592,52.338634],[13.647446,52.338272],[13.647479,52.33826],[13.64843,52.338272],[13.648721,52.338364],[13.648844,52.33835],[13.6501045,52.338715],[13.650692,52.338852],[13.650949,52.338947],[13.651696,52.339462],[13.65165,52.339718],[13.651145,52.342606],[13.651601,52.343094],[13.651858,52.34339],[13.652291,52.34385],[13.652513,52.344307],[13.652794,52.344837],[13.653142,52.3453],[13.653302,52.34556],[13.653484,52.34572],[13.653611,52.345867],[13.653683,52.345936],[13.654229,52.346275],[13.654523,52.34652],[13.654876,52.346794],[13.655565,52.347206],[13.656117,52.347816],[13.656162,52.347992],[13.655952,52.348183],[13.656008,52.34848],[13.656206,52.348774],[13.65656,52.34922],[13.656775,52.34967],[13.656759,52.349934],[13.656832,52.350613],[13.656872,52.350754],[13.656976,52.35131],[13.657081,52.3516],[13.65714,52.351665],[13.657499,52.35191],[13.657899,52.352047],[13.658427,52.35214],[13.658979,52.352356],[13.659133,52.35254],[13.659169,52.352646],[13.658963,52.35281],[13.659572,52.35331],[13.659971,52.353493],[13.660122,52.353516],[13.660893,52.35377],[13.661064,52.35389],[13.661599,52.354057],[13.661862,52.354187],[13.6620245,52.354214],[13.66215,52.354443],[13.662124,52.35458],[13.662114,52.354645],[13.66222,52.354816],[13.662648,52.35508],[13.662523,52.35518],[13.662434,52.355293],[13.662403,52.35546],[13.662383,52.355705],[13.662439,52.355858],[13.6627,52.356266],[13.662813,52.356537],[13.663009,52.35691],[13.663159,52.357067],[13.664168,52.35778],[13.664442,52.35791],[13.664576,52.357983],[13.664909,52.35813],[13.665195,52.358177],[13.665537,52.35818],[13.665878,52.358124],[13.666203,52.358116],[13.666206,52.35819],[13.666125,52.358322],[13.666027,52.358585],[13.665931,52.358856],[13.665838,52.359108],[13.665785,52.35938],[13.665751,52.359634],[13.665818,52.359837],[13.666025,52.360218],[13.666163,52.36051],[13.666149,52.360706],[13.6662035,52.360798],[13.666276,52.361027],[13.666316,52.361275],[13.666356,52.361626],[13.6664715,52.361935],[13.666665,52.362362],[13.66677,52.362476],[13.666862,52.36261],[13.667017,52.362766],[13.667189,52.362984],[13.667785,52.36355],[13.668169,52.36392],[13.668283,52.36404],[13.66851,52.364235],[13.668912,52.364475],[13.669372,52.36457],[13.66946,52.3646],[13.669544,52.364605],[13.669927,52.3647],[13.670023,52.364788],[13.67043,52.365307],[13.670734,52.36594],[13.670915,52.366238],[13.671191,52.366486],[13.671509,52.366653],[13.671825,52.366795],[13.673814,52.367218],[13.673907,52.367237],[13.673989,52.36724],[13.674108,52.36727],[13.674184,52.367325],[13.674389,52.367344],[13.674478,52.367367],[13.674623,52.367435],[13.674652,52.367462],[13.674724,52.36748],[13.674845,52.36752],[13.674927,52.36752],[13.67502,52.367554],[13.675396,52.36767],[13.675488,52.367718],[13.675888,52.36788],[13.676141,52.367958],[13.676429,52.36813],[13.676574,52.368176],[13.676746,52.368317],[13.676911,52.36835],[13.6769905,52.36839],[13.677078,52.368393],[13.677106,52.368446],[13.677355,52.36857],[13.677407,52.36857],[13.67749,52.368614],[13.6776705,52.36874],[13.678413,52.369194],[13.678898,52.369324],[13.679082,52.36936],[13.679205,52.369446],[13.679372,52.369457],[13.679493,52.369434],[13.679654,52.36944],[13.679978,52.369434],[13.680002,52.369415],[13.680145,52.369427],[13.680487,52.369484],[13.680668,52.3695],[13.6807995,52.369484],[13.681022,52.36947],[13.681143,52.369556],[13.681282,52.369583],[13.681414,52.36955],[13.682164,52.36964],[13.6828575,52.369503],[13.68481,52.368793],[13.685382,52.36852],[13.686685,52.367744],[13.687237,52.367306],[13.688117,52.36735],[13.68892,52.367413],[13.689296,52.36753],[13.689549,52.367657],[13.689258,52.367847],[13.689701,52.367817],[13.689991,52.367855],[13.690323,52.36781],[13.690597,52.367737],[13.690961,52.367607],[13.691426,52.3674],[13.691478,52.3673],[13.691895,52.36724],[13.69194,52.36719],[13.692023,52.36719],[13.692217,52.367207],[13.692256,52.367256],[13.6921215,52.36733],[13.691552,52.36744],[13.691435,52.36749],[13.691317,52.367607],[13.691284,52.367775],[13.692035,52.367935],[13.692509,52.36797],[13.692914,52.36804],[13.692975,52.368324],[13.6928,52.36852],[13.692701,52.36871],[13.692686,52.368797],[13.692702,52.368946],[13.692844,52.36917],[13.693342,52.369663],[13.693717,52.369747],[13.693948,52.36996],[13.694562,52.370293],[13.69486,52.37056],[13.695086,52.37069],[13.695692,52.371307],[13.696335,52.37201],[13.696606,52.372223],[13.697044,52.37254],[13.697405,52.373074],[13.697987,52.373413],[13.698649,52.37409],[13.698707,52.37411],[13.698903,52.37449],[13.699179,52.374714],[13.699221,52.3749],[13.699975,52.375595],[13.700135,52.37599],[13.700265,52.37627],[13.700614,52.377155],[13.70059,52.377224],[13.700418,52.37751],[13.699998,52.377514],[13.699425,52.377514],[13.69932,52.377686],[13.697209,52.377438],[13.698117,52.37996],[13.698505,52.38067],[13.698815,52.38113],[13.698837,52.381496],[13.6983,52.38148],[13.696227,52.38115],[13.695172,52.38096],[13.694345,52.38126],[13.693407,52.38166],[13.693355,52.381687],[13.692552,52.38202],[13.689728,52.383247],[13.687919,52.382957],[13.687314,52.383316],[13.687052,52.38388],[13.686178,52.38386],[13.686122,52.383995],[13.686575,52.384792],[13.68664,52.38502],[13.686815,52.385303],[13.687589,52.385178],[13.687745,52.385483],[13.68803,52.386074],[13.688236,52.38587],[13.688298,52.385845],[13.688452,52.385628],[13.688534,52.38552],[13.68869,52.385452],[13.688907,52.385326],[13.688935,52.385284],[13.689082,52.38521],[13.689134,52.38524],[13.689304,52.3852],[13.689432,52.385246],[13.689735,52.38526],[13.690093,52.385307],[13.690516,52.385468],[13.690908,52.385647],[13.691355,52.385918],[13.691665,52.386112],[13.692108,52.386414],[13.692174,52.386494],[13.69233,52.386604],[13.692496,52.386684],[13.692596,52.386703],[13.692768,52.386803],[13.692881,52.38698],[13.693007,52.387043],[13.693197,52.38722],[13.6934805,52.38746],[13.693744,52.387623],[13.694148,52.38784],[13.694643,52.388287],[13.695433,52.388878],[13.695967,52.38897],[13.69623,52.389153],[13.696392,52.38931],[13.69655,52.38944],[13.696839,52.389683],[13.697256,52.389732],[13.697516,52.38985],[13.697619,52.38998],[13.697685,52.39015],[13.697649,52.39048],[13.697978,52.390896],[13.697745,52.39105],[13.697825,52.39122],[13.698056,52.391354],[13.698052,52.391357],[13.698076,52.39153],[13.698301,52.39172],[13.698759,52.391857],[13.699032,52.391876],[13.699037,52.39176],[13.698812,52.3914],[13.698626,52.391327],[13.698515,52.391094],[13.698539,52.390697],[13.698771,52.39058],[13.699274,52.39073],[13.699553,52.39089],[13.699676,52.39095],[13.69994,52.391052],[13.700185,52.39114],[13.700381,52.39138],[13.700796,52.39183],[13.70121,52.3922],[13.701412,52.392464],[13.701858,52.39301],[13.702003,52.39308],[13.702468,52.393337],[13.702558,52.39336],[13.703344,52.39324],[13.703559,52.393246],[13.704536,52.393482],[13.705448,52.394024],[13.706222,52.394787],[13.706559,52.395077],[13.707193,52.395195],[13.707585,52.395145],[13.707874,52.39513],[13.708391,52.39527],[13.708738,52.39537],[13.709167,52.395607],[13.709307,52.39585],[13.70963,52.396156],[13.709702,52.396236],[13.709755,52.396286],[13.710084,52.39611],[13.71079,52.396595],[13.711017,52.396782],[13.7114105,52.39716],[13.711771,52.39728],[13.712076,52.39755],[13.7126875,52.397797],[13.712878,52.397797],[13.713381,52.39793],[13.713578,52.398026],[13.71369,52.398117],[13.713785,52.39824],[13.713799,52.398285],[13.714032,52.39865],[13.713993,52.3987],[13.714119,52.398903],[13.714446,52.39908],[13.715144,52.39928],[13.715835,52.399704],[13.716753,52.399727],[13.716983,52.39963],[13.717436,52.39904],[13.717588,52.398914],[13.718114,52.39878],[13.718627,52.398727],[13.718811,52.398743],[13.719283,52.398827],[13.719914,52.399048],[13.720271,52.39894],[13.722737,52.398182],[13.722866,52.39828],[13.722944,52.398296],[13.72317,52.398293],[13.723405,52.398342],[13.723684,52.398544],[13.72409,52.39867],[13.72442,52.39881],[13.724645,52.39884],[13.724896,52.399086],[13.72495,52.399242],[13.72504,52.39936],[13.7253475,52.39955],[13.72544,52.399696],[13.72561,52.39957],[13.725817,52.39953],[13.726347,52.39958],[13.727076,52.399822],[13.727241,52.399956],[13.727328,52.40018],[13.72752,52.40023],[13.727596,52.400227],[13.727627,52.400185],[13.728075,52.39997],[13.728214,52.3999],[13.728882,52.399765],[13.729016,52.399815],[13.72906,52.399906],[13.728944,52.400047],[13.728983,52.400085],[13.729058,52.400097],[13.729126,52.400097],[13.7292,52.40012],[13.729404,52.400208],[13.729466,52.40019],[13.729574,52.400024],[13.729567,52.399937],[13.729591,52.399853],[13.7299,52.39968],[13.730091,52.39965],[13.730255,52.39965],[13.73156,52.40017],[13.731669,52.400528],[13.732066,52.40072],[13.732616,52.40102],[13.732966,52.40123],[13.733156,52.40136],[13.733358,52.401573],[13.733365,52.401577],[13.733241,52.4017],[13.73328,52.40176],[13.733412,52.40182],[13.733839,52.401894],[13.733936,52.401978],[13.734024,52.402134],[13.734088,52.402138],[13.734333,52.402046],[13.734324,52.40213],[13.734225,52.402363],[13.734243,52.402657],[13.7342205,52.40326],[13.734323,52.40365],[13.734478,52.403954],[13.734749,52.404694],[13.734899,52.405087],[13.735385,52.40596],[13.735558,52.406116],[13.735921,52.406235],[13.736314,52.406357],[13.736982,52.406513],[13.737703,52.40671],[13.738434,52.406994],[13.738655,52.40724],[13.738881,52.407402],[13.738248,52.40789],[13.737685,52.408546],[13.737454,52.409096],[13.737153,52.409466],[13.7366495,52.40995],[13.736464,52.410046],[13.736327,52.410122],[13.735799,52.410297],[13.735059,52.41054],[13.734356,52.410828],[13.734133,52.41096],[13.734022,52.41113],[13.733905,52.411488],[13.733778,52.41177],[13.733579,52.411907],[13.733307,52.412045],[13.73269,52.412617],[13.732309,52.412994],[13.731569,52.41374],[13.731043,52.41432],[13.7309475,52.41448],[13.73067,52.41466],[13.729808,52.415546],[13.729657,52.415817],[13.729616,52.415985],[13.729596,52.416176],[13.729625,52.4165],[13.729731,52.41671],[13.729823,52.416916],[13.730046,52.41739],[13.730471,52.418114],[13.731082,52.418835],[13.731195,52.41923],[13.731191,52.419643],[13.731181,52.419777],[13.731168,52.419884],[13.730957,52.420307],[13.731268,52.420597],[13.731511,52.420822],[13.731725,52.42102],[13.733421,52.4226],[13.733659,52.42282],[13.737417,52.42651],[13.737657,52.42669],[13.738081,52.426655],[13.7395,52.426434],[13.739598,52.42667],[13.740773,52.426422],[13.741278,52.426777],[13.741591,52.428062],[13.741682,52.42806],[13.741724,52.428196],[13.738928,52.42886],[13.739485,52.429825],[13.739847,52.431408],[13.739958,52.431904],[13.740056,52.432335],[13.73905,52.432465],[13.738023,52.432602],[13.737498,52.432674],[13.73543,52.43295],[13.732848,52.43332],[13.732222,52.433403],[13.731057,52.43364],[13.729895,52.43392],[13.727839,52.43458],[13.726988,52.43489],[13.726561,52.435074],[13.726488,52.4351],[13.726043,52.435295],[13.724074,52.436268],[13.723218,52.436634],[13.723017,52.43672],[13.723047,52.436928],[13.723066,52.437057],[13.723551,52.436707],[13.724104,52.436577],[13.72447,52.436398],[13.726779,52.435257],[13.728836,52.4345],[13.730334,52.434063],[13.73109,52.433865],[13.732752,52.43353],[13.737551,52.432945],[13.738114,52.432877],[13.738194,52.433052],[13.738308,52.433292],[13.74041,52.43304],[13.742782,52.432926],[13.742831,52.433147],[13.743108,52.434433],[13.742876,52.434597],[13.7429285,52.434834],[13.743197,52.435974],[13.74365,52.437916],[13.744073,52.43814],[13.746179,52.43925],[13.750495,52.44148],[13.753399,52.441544],[13.756311,52.441612],[13.75445,52.43668],[13.756094,52.436535],[13.757465,52.4364],[13.759087,52.43624],[13.759987,52.43617],[13.760288,52.436607],[13.760438,52.436775],[13.76059,52.436947],[13.760766,52.43711],[13.760993,52.437363],[13.76116,52.437706],[13.760936,52.437878],[13.755332,52.438416],[13.755908,52.440025],[13.756533,52.441612],[13.75687,52.44247],[13.757084,52.44296],[13.754616,52.443233],[13.754526,52.44325],[13.754379,52.44328],[13.755604,52.44502],[13.756016,52.445595],[13.756444,52.446175],[13.755394,52.446003],[13.755032,52.446533],[13.753982,52.447292],[13.7532835,52.447666],[13.752616,52.44787],[13.75024,52.44833],[13.749888,52.448463],[13.749632,52.448555],[13.74925,52.44867],[13.748182,52.448757],[13.746458,52.44894],[13.745534,52.44908],[13.744788,52.449234],[13.743301,52.448933],[13.742434,52.44903],[13.741551,52.44919],[13.740702,52.449318],[13.737721,52.44965],[13.737151,52.44979],[13.736465,52.449913],[13.7356,52.45025],[13.735566,52.450596],[13.734818,52.450672],[13.734348,52.450733],[13.733427,52.450542],[13.732723,52.450363],[13.731718,52.450455],[13.731442,52.450512],[13.729073,52.450787],[13.727155,52.452137],[13.720638,52.456715],[13.720587,52.456753],[13.719652,52.457947],[13.718929,52.45891],[13.717404,52.460827],[13.716659,52.46184],[13.716193,52.462486],[13.71597,52.462914],[13.714687,52.46303],[13.713809,52.463036],[13.713355,52.463],[13.712222,52.463177],[13.71157,52.463284],[13.711516,52.46329],[13.709072,52.464256],[13.707911,52.464706],[13.706666,52.465168],[13.705718,52.465553],[13.704827,52.466015],[13.703766,52.46651],[13.702462,52.467205],[13.701909,52.46754],[13.701666,52.4678],[13.701267,52.468224],[13.700095,52.46825],[13.699087,52.468277],[13.699337,52.46794],[13.699623,52.467567],[13.700109,52.466915],[13.700574,52.466297],[13.701176,52.46553],[13.701981,52.464516],[13.702104,52.464363],[13.702563,52.463314],[13.702809,52.46227],[13.702986,52.46112],[13.703176,52.460453],[13.703354,52.46005],[13.704093,52.46],[13.705264,52.45986],[13.705338,52.459515],[13.705483,52.458786],[13.705592,52.457703],[13.705402,52.456654],[13.705245,52.455627],[13.704616,52.454754],[13.703852,52.454803],[13.703132,52.454853],[13.701716,52.454857],[13.701488,52.454865],[13.70025,52.454983],[13.699042,52.455177],[13.698349,52.455254],[13.698526,52.45561],[13.698577,52.45586],[13.698673,52.45645],[13.6986475,52.45658],[13.698487,52.457287],[13.697692,52.458485],[13.697651,52.459293],[13.697634,52.459538],[13.697533,52.460495],[13.697091,52.46172],[13.6967745,52.462185],[13.696362,52.462803],[13.695924,52.4635],[13.695619,52.464005],[13.695363,52.464016],[13.695445,52.464188],[13.694054,52.464413],[13.692481,52.46455],[13.690988,52.46474],[13.689832,52.465008],[13.689206,52.465015],[13.688425,52.46502],[13.68824,52.465034],[13.687548,52.465076],[13.686575,52.465134],[13.685392,52.46541],[13.684362,52.465664],[13.68277,52.46607],[13.681005,52.46725],[13.68083,52.467373],[13.680463,52.467625],[13.680176,52.467827],[13.680097,52.467896],[13.680025,52.467957],[13.67975,52.46822],[13.679404,52.46853],[13.678979,52.46893],[13.678639,52.469234],[13.6764145,52.470016],[13.675247,52.470665],[13.673389,52.47138],[13.671611,52.472282],[13.670579,52.472836],[13.670097,52.473087],[13.669503,52.473286],[13.668968,52.473442],[13.667574,52.47373],[13.667355,52.473854],[13.667238,52.47429],[13.66705,52.474243],[13.66481,52.473778],[13.663816,52.473724],[13.662695,52.473667],[13.662083,52.473797],[13.661458,52.474003],[13.660932,52.47417],[13.660059,52.474434],[13.659807,52.474552],[13.659668,52.474617],[13.65878,52.474846],[13.658259,52.475086],[13.656898,52.47586],[13.655852,52.476536],[13.65399,52.476906],[13.652735,52.477306],[13.652377,52.47747],[13.651648,52.477722],[13.650393,52.478165],[13.649571,52.478424],[13.648568,52.47874],[13.6478815,52.478855],[13.64758,52.47887],[13.64509,52.47895],[13.644304,52.47909],[13.644133,52.479122],[13.643388,52.479256],[13.6427,52.478806],[13.641898,52.478394],[13.641387,52.478195],[13.639891,52.477608],[13.6377945,52.476715],[13.637033,52.47629],[13.6361,52.476067],[13.635292,52.475872],[13.631132,52.47503],[13.630514,52.4747],[13.630133,52.474426],[13.629115,52.473846],[13.628349,52.47357],[13.627946,52.47351],[13.6275215,52.47353],[13.626986,52.473595],[13.626446,52.47377],[13.626098,52.47379],[13.625785,52.47375],[13.625183,52.47356],[13.624818,52.47031],[13.624756,52.470177],[13.624657,52.46997],[13.624622,52.46952],[13.624605,52.469307],[13.624589,52.46911],[13.624588,52.4691],[13.624923,52.46901],[13.625091,52.46892],[13.625186,52.46877],[13.623473,52.46876],[13.623183,52.468742],[13.623067,52.468735],[13.622809,52.468723],[13.622835,52.46773],[13.623071,52.467083],[13.623337,52.466785],[13.623087,52.466633],[13.622906,52.466522],[13.622703,52.4664],[13.6216545,52.466568],[13.621387,52.466637],[13.621651,52.466923],[13.621854,52.467186],[13.621935,52.46844],[13.621289,52.468502],[13.621254,52.469868],[13.621337,52.47043],[13.62135,52.470512],[13.620605,52.47066],[13.617385,52.471195],[13.6169,52.471115],[13.615383,52.47002],[13.615163,52.47],[13.612702,52.47041],[13.612177,52.4705],[13.611501,52.470627],[13.611369,52.47065],[13.613264,52.472168],[13.614516,52.473186],[13.616213,52.474483],[13.616399,52.474964],[13.615887,52.475163],[13.614833,52.475433],[13.61366,52.475662],[13.613584,52.4757],[13.613717,52.47627],[13.61412,52.477695],[13.614221,52.477787],[13.614557,52.479454],[13.614857,52.480606],[13.615002,52.480785],[13.615216,52.48103],[13.6182575,52.48362],[13.619603,52.484737],[13.62033,52.48534],[13.622988,52.487553],[13.62333,52.48784],[13.625129,52.489307],[13.625246,52.489403],[13.626747,52.49063],[13.627984,52.491592],[13.629617,52.49294],[13.629667,52.492992],[13.629718,52.493034],[13.626875,52.493404],[13.625687,52.493637],[13.624004,52.4942],[13.624469,52.495052],[13.625019,52.495888],[13.625424,52.496548],[13.625869,52.497253],[13.626345,52.498127],[13.626781,52.4991],[13.628063,52.503265],[13.628471,52.504417],[13.628908,52.505547],[13.629195,52.506126],[13.629338,52.50636],[13.629474,52.50663],[13.629558,52.506775],[13.629757,52.506992],[13.6303425,52.50781],[13.631809,52.50989],[13.632564,52.51088],[13.632829,52.511234],[13.633128,52.511635],[13.633342,52.511875],[13.63383,52.512436],[13.63427,52.512886],[13.634794,52.51335],[13.634868,52.51342],[13.6349535,52.5135],[13.635315,52.513767],[13.635418,52.51384],[13.637222,52.515133],[13.637294,52.515175],[13.637363,52.515217],[13.639304,52.516388],[13.641036,52.517616],[13.641903,52.518166],[13.642457,52.518482],[13.643194,52.51885],[13.644307,52.51938],[13.646616,52.520462],[13.647065,52.52067],[13.6487255,52.52134],[13.651815,52.52258],[13.655488,52.52413],[13.656943,52.524998],[13.658593,52.525852],[13.658235,52.52617],[13.65807,52.52645],[13.657866,52.527218],[13.657259,52.52903],[13.656949,52.529884],[13.651651,52.529766],[13.648306,52.529694],[13.646955,52.52971],[13.64495,52.529816],[13.643735,52.529884],[13.643001,52.530045],[13.642209,52.530212],[13.64171,52.530323],[13.640773,52.530415],[13.640397,52.530434],[13.639776,52.53045],[13.636606,52.530537],[13.633876,52.530552],[13.632931,52.53059],[13.631534,52.530598],[13.630727,52.530552],[13.62898,52.530403],[13.626992,52.53018],[13.626778,52.530167],[13.626736,52.530125],[13.626015,52.530403],[13.6256895,52.530178],[13.625431,52.531227],[13.625139,52.532337],[13.624816,52.533585],[13.625757,52.534092],[13.625794,52.534203],[13.625655,52.534836],[13.625521,52.535454],[13.625506,52.535526],[13.62533,52.536293],[13.625162,52.53706],[13.625131,52.537193],[13.624998,52.537792],[13.624964,52.53802],[13.627512,52.537598],[13.627778,52.537575],[13.627972,52.53758],[13.628102,52.537605],[13.628348,52.537685],[13.628638,52.537857],[13.628768,52.53805],[13.629056,52.53796],[13.629451,52.537884],[13.630528,52.5377],[13.6305895,52.537815],[13.630968,52.537888],[13.630992,52.53791],[13.631574,52.538055],[13.631696,52.538082],[13.631809,52.538082],[13.632784,52.537792],[13.633087,52.5378],[13.6331215,52.53787],[13.63339,52.537815],[13.633738,52.5377],[13.633946,52.53765],[13.634165,52.538025],[13.634399,52.53798],[13.634384,52.53794],[13.634512,52.537914],[13.634523,52.537933],[13.634558,52.537926],[13.634738,52.53825],[13.634906,52.538223],[13.635141,52.53845],[13.635579,52.538876],[13.635701,52.538998],[13.636373,52.539665],[13.6371155,52.54039],[13.637645,52.540936],[13.63739,52.542248],[13.6363945,52.542236],[13.635508,52.542286],[13.634982,52.542526],[13.634392,52.54283],[13.633509,52.542904],[13.632616,52.542995],[13.630708,52.543167],[13.628606,52.543365],[13.626729,52.543533],[13.624468,52.54373],[13.623501,52.543804],[13.6233225,52.54381],[13.620201,52.544075],[13.619648,52.544132],[13.619328,52.54415],[13.619156,52.54417],[13.618757,52.54422],[13.618258,52.5443],[13.61745,52.544434],[13.61737,52.544376],[13.617179,52.5444],[13.613669,52.544987],[13.610703,52.54545],[13.610426,52.545513],[13.60964,52.545643],[13.607417,52.545994],[13.60361,52.546608],[13.603466,52.54663],[13.6033125,52.546658],[13.599998,52.547222],[13.599761,52.547268],[13.599022,52.547386],[13.598957,52.547405],[13.598318,52.54751],[13.598083,52.54755],[13.594929,52.54809],[13.59306,52.54841],[13.592888,52.54844],[13.592808,52.54845],[13.592634,52.54848],[13.590116,52.548904],[13.587642,52.549328],[13.587508,52.549347],[13.5873995,52.54936],[13.587289,52.549377],[13.587119,52.549397],[13.586987,52.549408],[13.586852,52.54943],[13.586756,52.54944],[13.586583,52.549458],[13.586481,52.549484],[13.586354,52.54956],[13.586261,52.549652],[13.586272,52.54983],[13.586341,52.54999],[13.58644,52.55012],[13.586499,52.550224],[13.586911,52.550854],[13.587035,52.551212],[13.587008,52.55157],[13.58706,52.551727],[13.587333,52.55198],[13.587564,52.55239],[13.587724,52.552765],[13.587788,52.55411],[13.587844,52.55527],[13.587724,52.555744],[13.586534,52.5573],[13.586343,52.557682],[13.58574,52.558212],[13.585052,52.558796],[13.584669,52.559395],[13.584495,52.55995],[13.584415,52.56113],[13.58417,52.561848],[13.584045,52.562214],[13.583966,52.56255],[13.583916,52.563236],[13.583815,52.56374],[13.58313,52.56488],[13.583107,52.56495],[13.583052,52.565105],[13.583099,52.565517],[13.582999,52.56599],[13.583032,52.566196],[13.583176,52.56654],[13.5832615,52.566742],[13.583292,52.567093],[13.583208,52.567654],[13.5831785,52.56774],[13.583116,52.56794],[13.582892,52.56846],[13.582572,52.569004],[13.581867,52.57032],[13.581527,52.57087],[13.581504,52.571014],[13.581403,52.57114],[13.581296,52.571117],[13.581218,52.571064],[13.58022,52.571045],[13.579001,52.571045],[13.577895,52.571037],[13.577832,52.57109],[13.577796,52.571156],[13.577459,52.57187],[13.577345,52.572098],[13.577107,52.57261],[13.577039,52.57275],[13.576932,52.572884],[13.576804,52.57299],[13.57665,52.573082],[13.576042,52.573353],[13.575813,52.573475],[13.575316,52.57371],[13.57496,52.573875],[13.574761,52.57387],[13.57459,52.573853],[13.573344,52.57361],[13.571657,52.573288],[13.5715685,52.57329],[13.571204,52.573315],[13.570819,52.573334],[13.569962,52.573364],[13.569627,52.57337],[13.569061,52.57338],[13.569171,52.573086],[13.568574,52.5731],[13.568489,52.573387],[13.568268,52.573788],[13.567779,52.57441],[13.567675,52.574535],[13.567416,52.57486],[13.566901,52.57546],[13.566503,52.576164],[13.56445,52.578312],[13.56378,52.57879],[13.563533,52.578964],[13.562716,52.579643],[13.562343,52.57995],[13.561781,52.580414],[13.561046,52.580914],[13.560423,52.581337],[13.557972,52.582706],[13.556003,52.58381],[13.555083,52.58432],[13.554672,52.584507],[13.553017,52.585266],[13.549857,52.58671],[13.549508,52.586697],[13.549339,52.58676],[13.548021,52.58727],[13.547817,52.587337],[13.547049,52.587555],[13.546983,52.587574],[13.547145,52.587852],[13.546303,52.588055],[13.541936,52.5891],[13.5416765,52.58916],[13.538473,52.589878],[13.537122,52.590168],[13.535825,52.590443],[13.534715,52.59068],[13.52979,52.59176],[13.527424,52.592205],[13.527235,52.592224],[13.522817,52.592728],[13.52064,52.59267],[13.517636,52.59254],[13.517153,52.592506],[13.516142,52.592434],[13.5107975,52.592224],[13.508125,52.59216],[13.5058155,52.5954],[13.50536,52.596184],[13.505181,52.596443],[13.502546,52.599995],[13.501716,52.60118],[13.499999,52.60364],[13.498847,52.60528],[13.497536,52.60523],[13.496689,52.604935],[13.496733,52.605133],[13.497076,52.60668],[13.498489,52.610466],[13.498567,52.61061],[13.49877,52.610924],[13.499332,52.61204],[13.50026,52.613384],[13.500502,52.613873],[13.501124,52.61511],[13.5021,52.617146],[13.5033045,52.61901],[13.503606,52.619133],[13.504397,52.61934],[13.504991,52.619568],[13.505302,52.61961],[13.505393,52.61973],[13.505445,52.61993],[13.505433,52.619965],[13.505441,52.62054],[13.505465,52.62226],[13.505631,52.624565],[13.505659,52.625526],[13.505748,52.625668],[13.50615,52.625885],[13.50653,52.626038],[13.507853,52.62657],[13.510343,52.627506],[13.510946,52.627697],[13.51205,52.628033],[13.515702,52.62904],[13.517537,52.629585],[13.517626,52.629707],[13.518277,52.631653],[13.520113,52.635216],[13.521346,52.638096],[13.52153,52.63867],[13.521577,52.63882],[13.521624,52.638973],[13.52198,52.639774],[13.522136,52.640526],[13.52218,52.640717],[13.52228,52.64122],[13.522317,52.641388],[13.522745,52.64414],[13.52287,52.64481],[13.521603,52.644753],[13.520343,52.64469],[13.5196085,52.646027],[13.519113,52.646935],[13.519022,52.646973],[13.516247,52.646378],[13.515385,52.646137],[13.515254,52.646095],[13.512824,52.645412],[13.510439,52.646626],[13.510275,52.646698],[13.5100355,52.6468],[13.5082445,52.647766],[13.50737,52.6482],[13.507163,52.64831],[13.506071,52.648987],[13.505315,52.64922],[13.50431,52.649616],[13.503458,52.6498],[13.502956,52.64994],[13.502734,52.65006],[13.502435,52.65022],[13.501505,52.650555],[13.500849,52.650806],[13.500479,52.650948],[13.50024,52.651005],[13.499998,52.651012],[13.499888,52.651012],[13.498385,52.651585],[13.497522,52.651917],[13.496194,52.65243],[13.496302,52.652515],[13.4940195,52.653408],[13.49391,52.653324],[13.492221,52.65403],[13.492215,52.65417],[13.491257,52.654724],[13.489882,52.655518],[13.49003,52.655575],[13.489713,52.65578],[13.489509,52.65592],[13.485351,52.65947],[13.48628,52.66248],[13.486573,52.663803],[13.486874,52.665344],[13.487214,52.666706],[13.487461,52.668106],[13.487772,52.669018],[13.488383,52.669827],[13.4884,52.66991],[13.488128,52.670372],[13.486068,52.669685],[13.485006,52.669403],[13.484542,52.669308],[13.477973,52.66768],[13.475963,52.66672],[13.475972,52.667274],[13.47551,52.667877],[13.474959,52.66844],[13.476307,52.67115],[13.480074,52.674877],[13.479509,52.67551],[13.477094,52.6739],[13.475466,52.675],[13.470734,52.671036],[13.470504,52.67106],[13.465958,52.667145],[13.459584,52.669067],[13.459482,52.668972],[13.459186,52.6687],[13.458079,52.667854],[13.455269,52.66572],[13.454711,52.665554],[13.451622,52.663197],[13.450793,52.662704],[13.453831,52.66194],[13.462421,52.657536],[13.473473,52.656555],[13.473719,52.65627],[13.474044,52.656006],[13.474211,52.655754],[13.474199,52.655525],[13.474105,52.65516],[13.473981,52.654827],[13.473921,52.65428],[13.473797,52.65411],[13.4735985,52.65395],[13.473215,52.653778],[13.472355,52.65349],[13.471519,52.653034],[13.470413,52.6523],[13.470127,52.652035],[13.469909,52.651913],[13.469284,52.651745],[13.469101,52.651745],[13.46873,52.651783],[13.46849,52.651764],[13.468214,52.651707],[13.467622,52.65174],[13.467014,52.65172],[13.466718,52.651665],[13.466407,52.65158],[13.465621,52.65127],[13.465252,52.65107],[13.464805,52.650803],[13.464183,52.650597],[13.463485,52.650425],[13.46294,52.65014],[13.462545,52.649796],[13.461977,52.649063],[13.461888,52.64899],[13.460843,52.648716],[13.460385,52.648598],[13.459547,52.648216],[13.4565,52.64843],[13.453005,52.6487],[13.451963,52.64877],[13.452273,52.649597],[13.451993,52.6497],[13.450633,52.64976],[13.448562,52.649952],[13.447679,52.649982],[13.446842,52.64986],[13.445903,52.64963],[13.445065,52.64948],[13.443654,52.649498],[13.443293,52.64935],[13.442593,52.649105],[13.442379,52.64905],[13.442078,52.649033],[13.441666,52.649014],[13.441641,52.64922],[13.441572,52.649315],[13.441309,52.649315],[13.440833,52.64922],[13.440716,52.649105],[13.44024,52.646862],[13.439847,52.64523],[13.438936,52.645107],[13.436892,52.64481],[13.435503,52.64462],[13.433912,52.64434],[13.4338,52.643837],[13.433642,52.643017],[13.43348,52.64145],[13.433859,52.640038],[13.434172,52.63909],[13.434245,52.638557],[13.434384,52.637894],[13.433376,52.637447],[13.432721,52.637203],[13.430586,52.637295],[13.428594,52.637363],[13.428056,52.637394],[13.427413,52.63714],[13.427054,52.63695],[13.426613,52.636753],[13.424448,52.635544],[13.421659,52.63696],[13.420109,52.637714],[13.417161,52.63908],[13.416563,52.639374],[13.414962,52.640667],[13.414398,52.641087],[13.414901,52.641636],[13.414932,52.641903],[13.414887,52.642204],[13.41477,52.642418],[13.413902,52.64252],[13.41353,52.642586],[13.413345,52.642647],[13.412772,52.64305],[13.412293,52.643387],[13.410043,52.64303],[13.408758,52.642822],[13.407973,52.642696],[13.407759,52.642563],[13.407355,52.642887],[13.406955,52.64322],[13.406682,52.643417],[13.406383,52.643612],[13.406009,52.643776],[13.404502,52.644318],[13.403477,52.64476],[13.402674,52.64516],[13.401475,52.645836],[13.399998,52.64678],[13.399488,52.647106],[13.398877,52.64753],[13.398341,52.647892],[13.398229,52.647972],[13.3979645,52.648216],[13.39783,52.64827],[13.397611,52.648365],[13.397412,52.648346],[13.397118,52.64824],[13.396612,52.647827],[13.397022,52.64764],[13.396495,52.647305],[13.396184,52.64725],[13.395501,52.647255],[13.394203,52.64747],[13.394138,52.6472],[13.393995,52.647026],[13.393778,52.646748],[13.393831,52.646717],[13.393966,52.646645],[13.393871,52.646576],[13.39321,52.645977],[13.393159,52.645767],[13.392902,52.645515],[13.392547,52.645164],[13.392389,52.644867],[13.392377,52.64462],[13.392271,52.64436],[13.392238,52.644276],[13.392229,52.64417],[13.392183,52.6436],[13.392079,52.64337],[13.391687,52.64347],[13.391001,52.642887],[13.390921,52.642815],[13.390375,52.642353],[13.390318,52.642303],[13.390262,52.642254],[13.390148,52.642113],[13.38996,52.64189],[13.389854,52.64157],[13.389869,52.64103],[13.3899355,52.64059],[13.389906,52.64049],[13.389883,52.640423],[13.389889,52.64017],[13.389896,52.639915],[13.389903,52.63967],[13.389811,52.63941],[13.389752,52.639317],[13.389574,52.63905],[13.389512,52.63896],[13.389339,52.638515],[13.389329,52.638313],[13.389202,52.63813],[13.388911,52.63789],[13.388194,52.637314],[13.387919,52.637203],[13.387463,52.637085],[13.386941,52.63693],[13.38558,52.63655],[13.384975,52.636444],[13.384713,52.636425],[13.384459,52.63641],[13.38434,52.63642],[13.384161,52.63644],[13.383906,52.63647],[13.383404,52.63655],[13.382962,52.636585],[13.382776,52.636578],[13.382649,52.63657],[13.382544,52.636547],[13.382227,52.636486],[13.3820915,52.636444],[13.381863,52.63637],[13.381437,52.63608],[13.381412,52.63598],[13.382265,52.63566],[13.382354,52.635593],[13.382444,52.63553],[13.38263,52.6352],[13.380397,52.634636],[13.380103,52.63437],[13.379523,52.633892],[13.378894,52.634354],[13.378366,52.633892],[13.377848,52.633442],[13.377659,52.63298],[13.376374,52.631683],[13.376188,52.63149],[13.375923,52.631363],[13.37564,52.63133],[13.376347,52.630695],[13.37723,52.629875],[13.377062,52.62972],[13.376448,52.629364],[13.374034,52.627945],[13.372644,52.627632],[13.372427,52.6275],[13.3721285,52.627354],[13.372035,52.62732],[13.371758,52.62734],[13.371686,52.62732],[13.371388,52.62724],[13.3710785,52.62725],[13.370737,52.627415],[13.370265,52.627045],[13.369708,52.62649],[13.369591,52.626335],[13.369501,52.626167],[13.368729,52.625763],[13.368452,52.625687],[13.368172,52.625725],[13.368037,52.625763],[13.367967,52.625782],[13.367763,52.625843],[13.367685,52.625988],[13.367501,52.62601],[13.367059,52.625816],[13.367044,52.625694],[13.367312,52.625473],[13.36689,52.625443],[13.366494,52.625534],[13.366212,52.62565],[13.366022,52.625423],[13.365929,52.625317],[13.365545,52.625305],[13.365427,52.625374],[13.365068,52.625576],[13.364738,52.625423],[13.364351,52.625397],[13.364639,52.625267],[13.364856,52.625168],[13.364972,52.625114],[13.365324,52.62496],[13.364959,52.62478],[13.364722,52.6247],[13.364116,52.624596],[13.363767,52.624615],[13.363717,52.62469],[13.363609,52.62484],[13.363558,52.624912],[13.363335,52.624985],[13.362771,52.62499],[13.362397,52.624928],[13.362233,52.62487],[13.361998,52.624683],[13.361801,52.624424],[13.361671,52.624374],[13.361358,52.62442],[13.361158,52.624382],[13.36092,52.62421],[13.360648,52.624134],[13.360336,52.624134],[13.359983,52.62416],[13.359746,52.624115],[13.359527,52.624],[13.359078,52.62352],[13.3582535,52.623375],[13.358033,52.62331],[13.357687,52.62315],[13.357096,52.623245],[13.356801,52.623253],[13.35656,52.62334],[13.356412,52.623363],[13.356321,52.623325],[13.3561,52.623344],[13.355875,52.6235],[13.355467,52.62364],[13.355356,52.623646],[13.355229,52.623566],[13.35516,52.62354],[13.355029,52.623478],[13.35477,52.623417],[13.354701,52.62328],[13.35461,52.623222],[13.353616,52.623196],[13.353178,52.62311],[13.3529215,52.62301],[13.352867,52.622967],[13.3527975,52.62278],[13.35278,52.62274],[13.352688,52.622704],[13.352596,52.62274],[13.352504,52.622948],[13.35247,52.623024],[13.352165,52.623116],[13.351944,52.623123],[13.351796,52.6231],[13.351504,52.622986],[13.351226,52.623905],[13.346758,52.623642],[13.344027,52.62375],[13.343804,52.62359],[13.343601,52.623474],[13.343408,52.623524],[13.343114,52.62354],[13.34282,52.62352],[13.3421955,52.623367],[13.341715,52.62342],[13.341479,52.623417],[13.340617,52.62326],[13.340081,52.623363],[13.33918,52.6233],[13.338825,52.623466],[13.338586,52.623474],[13.338422,52.623425],[13.338335,52.623165],[13.338245,52.62309],[13.337915,52.623085],[13.337667,52.623047],[13.337461,52.622974],[13.3369875,52.622814],[13.33674,52.62266],[13.336729,52.62262],[13.332852,52.624207],[13.332555,52.62402],[13.331625,52.62438],[13.329426,52.625248],[13.328683,52.625443],[13.327381,52.625687],[13.327034,52.625713],[13.326613,52.62576],[13.326197,52.62582],[13.325554,52.62594],[13.325093,52.62608],[13.323998,52.62637],[13.323596,52.626434],[13.3195715,52.62665],[13.318885,52.62678],[13.3180485,52.62702],[13.317364,52.627193],[13.316374,52.62735],[13.3151655,52.627598],[13.313834,52.628002],[13.31302,52.62819],[13.312352,52.628204],[13.3119955,52.628185],[13.311355,52.628136],[13.311123,52.628113],[13.310371,52.62806],[13.309148,52.62797],[13.308525,52.627953],[13.30739,52.627773],[13.307269,52.627766],[13.305446,52.6276],[13.302624,52.627193],[13.302541,52.627552],[13.302836,52.62767],[13.303236,52.62782],[13.303674,52.62794],[13.305132,52.628216],[13.305865,52.628574],[13.306445,52.628742],[13.307779,52.62895],[13.308483,52.629078],[13.308839,52.62915],[13.3096895,52.629475],[13.3099985,52.62967],[13.310282,52.630005],[13.3096895,52.630096],[13.309775,52.630608],[13.310193,52.63062],[13.310045,52.631134],[13.309819,52.631596],[13.309781,52.631996],[13.309721,52.632156],[13.309351,52.63278],[13.308977,52.633205],[13.308681,52.63347],[13.3085785,52.63359],[13.308376,52.63387],[13.307942,52.634434],[13.307663,52.634758],[13.306632,52.635967],[13.306207,52.636463],[13.305783,52.637356],[13.307061,52.63756],[13.307069,52.637775],[13.306929,52.63811],[13.306812,52.63869],[13.3062725,52.639606],[13.307307,52.639687],[13.307268,52.64011],[13.307952,52.640102],[13.308233,52.64024],[13.308158,52.64077],[13.308939,52.641453],[13.30887,52.64194],[13.309181,52.641987],[13.3090315,52.64267],[13.309434,52.64278],[13.309221,52.64386],[13.3091955,52.64398],[13.308448,52.64384],[13.308039,52.64432],[13.306817,52.645756],[13.305977,52.64714],[13.300561,52.653435],[13.305116,52.6553],[13.310177,52.657368],[13.310087,52.657463],[13.309954,52.65755],[13.309723,52.657513],[13.308785,52.65798],[13.308935,52.658215],[13.307843,52.658836],[13.307599,52.659058],[13.307261,52.65944],[13.307085,52.65965],[13.304339,52.659466],[13.30297,52.659294],[13.302842,52.659275],[13.302183,52.659237],[13.301583,52.659233],[13.30066,52.659332],[13.299998,52.659355],[13.299792,52.65936],[13.297902,52.65936],[13.297096,52.659363],[13.296142,52.659363],[13.295233,52.659355],[13.295127,52.65935],[13.2947235,52.659344],[13.29465,52.659344],[13.294296,52.65935],[13.294081,52.659355],[13.293608,52.65936],[13.293516,52.65938],[13.293071,52.659492],[13.290158,52.659866],[13.288658,52.65997],[13.288511,52.65998],[13.288184,52.659966],[13.288045,52.659958],[13.287837,52.659946],[13.287734,52.659954],[13.287549,52.65996],[13.287203,52.659985],[13.286927,52.660034],[13.286594,52.660114],[13.285963,52.66027],[13.285351,52.660393],[13.284608,52.66047],[13.283816,52.66054],[13.283111,52.660625],[13.282751,52.66076],[13.282362,52.656944],[13.282151,52.65486],[13.282135,52.65471],[13.281903,52.652664],[13.285102,52.65253],[13.285064,52.652153],[13.284876,52.650375],[13.284534,52.64841],[13.284425,52.648354],[13.284129,52.64849],[13.284546,52.647934],[13.284317,52.646267],[13.283771,52.64111],[13.283473,52.641087],[13.282784,52.641026],[13.281486,52.64092],[13.27692,52.64026],[13.276333,52.64023],[13.274294,52.640316],[13.271639,52.63986],[13.269781,52.639755],[13.269421,52.63974],[13.265249,52.640278],[13.262322,52.640694],[13.262141,52.640717],[13.262212,52.640114],[13.262273,52.63978],[13.262336,52.639347],[13.262464,52.638924],[13.262583,52.63876],[13.262874,52.63837],[13.263635,52.637505],[13.263959,52.637142],[13.264348,52.63649],[13.264438,52.63634],[13.264884,52.635292],[13.265086,52.634712],[13.26498,52.63341],[13.264907,52.632538],[13.264894,52.632133],[13.264821,52.631477],[13.264584,52.630066],[13.264558,52.629314],[13.264435,52.62842],[13.264403,52.62817],[13.264235,52.626865],[13.263568,52.627228],[13.262688,52.627316],[13.261452,52.627636],[13.260239,52.6278],[13.259698,52.62773],[13.257949,52.627743],[13.257196,52.627743],[13.256725,52.627598],[13.256379,52.62756],[13.254522,52.627525],[13.253934,52.62751],[13.252667,52.627357],[13.252103,52.62734],[13.250453,52.62742],[13.249934,52.627483],[13.249402,52.627552],[13.249137,52.627544],[13.247962,52.62736],[13.247637,52.627422],[13.24747,52.627266],[13.246988,52.62728],[13.246272,52.627308],[13.245961,52.62733],[13.243619,52.628147],[13.243121,52.628258],[13.2425785,52.628326],[13.242145,52.628258],[13.241923,52.628258],[13.241683,52.62822],[13.24156,52.628197],[13.241344,52.628143],[13.241198,52.628105],[13.241088,52.628082],[13.240933,52.628044],[13.240028,52.627907],[13.235384,52.627804],[13.232578,52.627544],[13.232269,52.627426],[13.230568,52.62736],[13.229902,52.627388],[13.228774,52.627438],[13.228095,52.6275],[13.227422,52.62756],[13.226439,52.627724],[13.226087,52.627754],[13.226024,52.628193],[13.225822,52.628193],[13.225645,52.628204],[13.225564,52.62821],[13.225153,52.6283],[13.225174,52.628197],[13.224636,52.62827],[13.224265,52.62836],[13.222993,52.62814],[13.222671,52.628147],[13.221437,52.628204],[13.22057,52.628242],[13.220593,52.62782],[13.220531,52.62737],[13.220356,52.62694],[13.220241,52.6258],[13.22015,52.625217],[13.219903,52.62459],[13.218138,52.62223],[13.217875,52.621883],[13.216712,52.62016],[13.215205,52.619305],[13.214764,52.619087],[13.213598,52.61761],[13.212082,52.615692],[13.209316,52.61236],[13.209185,52.612186],[13.20842,52.611195],[13.207621,52.610153],[13.206938,52.60947],[13.206624,52.60915],[13.206225,52.608788],[13.205727,52.608494],[13.205001,52.608246],[13.203276,52.60779],[13.20296,52.607693],[13.202546,52.607582],[13.202082,52.607395],[13.201801,52.607212],[13.201462,52.607],[13.201318,52.606728],[13.201254,52.606327],[13.201262,52.605877],[13.201349,52.60528],[13.2014265,52.60504],[13.201905,52.60428],[13.202429,52.603832],[13.203257,52.60327],[13.205302,52.601437],[13.206727,52.59999],[13.207352,52.59936],[13.209208,52.598114],[13.2105875,52.59719],[13.211335,52.596783],[13.213742,52.595665],[13.214124,52.59551],[13.215317,52.594955],[13.218114,52.59319],[13.218833,52.592403],[13.219211,52.591404],[13.218873,52.59071],[13.218057,52.58899],[13.217313,52.58754],[13.217189,52.587254],[13.2112255,52.588223],[13.207342,52.58837],[13.206714,52.586597],[13.205402,52.586845],[13.20467,52.58715],[13.203574,52.58754],[13.202567,52.58787],[13.201348,52.58842],[13.200341,52.588768],[13.199467,52.588894],[13.198471,52.589012],[13.197861,52.589237],[13.197478,52.58931],[13.196622,52.589516],[13.195207,52.58966],[13.194235,52.589787],[13.193737,52.589832],[13.192796,52.59001],[13.191739,52.59019],[13.191482,52.59031],[13.190857,52.590477],[13.190619,52.590626],[13.189153,52.591393],[13.188099,52.591682],[13.186798,52.592087],[13.185614,52.59255],[13.185261,52.59288],[13.184846,52.593124],[13.184476,52.593376],[13.183375,52.5937],[13.182658,52.593826],[13.182474,52.59384],[13.181909,52.593887],[13.181206,52.59403],[13.18072,52.59418],[13.179261,52.594624],[13.178349,52.59488],[13.177878,52.594913],[13.176831,52.594925],[13.176325,52.594994],[13.174733,52.595108],[13.1737,52.595318],[13.173345,52.59547],[13.172567,52.596016],[13.171989,52.596287],[13.170926,52.596542],[13.170087,52.59679],[13.168095,52.597004],[13.167881,52.597015],[13.166833,52.597668],[13.166331,52.5979],[13.164667,52.59881],[13.164302,52.59875],[13.16134,52.598316],[13.15945,52.598034],[13.157067,52.597603],[13.156181,52.597374],[13.155495,52.59709],[13.154991,52.596806],[13.154609,52.59649],[13.153983,52.595802],[13.15387,52.59568],[13.153183,52.594967],[13.151861,52.593777],[13.151618,52.593597],[13.149145,52.591747],[13.146252,52.590694],[13.143455,52.58962],[13.139429,52.58904],[13.138027,52.58871],[13.137606,52.588478],[13.1359,52.587437],[13.135533,52.587334],[13.132724,52.586903],[13.131196,52.586864],[13.131088,52.586864],[13.129737,52.587204],[13.128931,52.587337],[13.128441,52.586018],[13.129367,52.5859],[13.12796,52.58311],[13.128343,52.58313],[13.129535,52.58328],[13.129918,52.583218],[13.130266,52.58304],[13.130498,52.582775],[13.131082,52.581654],[13.131295,52.580925],[13.131704,52.580185],[13.132041,52.579803],[13.132467,52.579605],[13.132673,52.579605],[13.135384,52.580055],[13.135484,52.58001],[13.136028,52.580097],[13.136759,52.580284],[13.137498,52.580532],[13.139189,52.580387],[13.149887,52.58287],[13.1506195,52.582573],[13.15125,52.58221],[13.151344,52.582005],[13.151328,52.58161],[13.151933,52.58056],[13.152374,52.580097],[13.152978,52.579163],[13.153163,52.578934],[13.153214,52.578278],[13.153524,52.57788],[13.153583,52.577427],[13.153449,52.57679],[13.153572,52.576317],[13.153676,52.575768],[13.153497,52.575382],[13.153696,52.57478],[13.15347,52.574535],[13.153527,52.573734],[13.153538,52.57324],[13.153178,52.57291],[13.152772,52.572483],[13.1528845,52.572044],[13.152864,52.57161],[13.152696,52.57099],[13.15258,52.570705],[13.152378,52.57045]]]}}
