{"type":"Feature","id":"relation/40730","properties":{"type":"relation","id":40730,"tags":{"admin_level":"8","boundary":"administrative","name":"Pompei","name:an":"Pompeya","name:be":"Пампей","name:bg":"Помпей","name:br":"Pompei","name:ca":"Pompeia","name:cs":"Pompei","name:de":"Pompei","name:en":"Pompei","name:eo":"Pompei","name:es":"Pompeya","name:fa":"شهر پومپئی","name:fr":"Pompei","name:he":"פומפיי","name:hi":"पांपेई","name:hu":"Pompei","name:hy":"Պոմպեյ","name:ia":"Pompei","name:ja":"ポンペイ","name:ko":"폼페이","name:mr":"पाँपेई","name:ms":"Pompei","name:nap":"Pumpeje","name:oc":"Pompei","name:pl":"Pompei","name:pt":"Pompeia","name:ro":"Pompei","name:roa_tara":"Pompei","name:ru":"Помпеи","name:sc":"Pompei","name:scn":"Pompèi","name:sh":"Pompei","name:sk":"Pompei","name:sr":"Pompei","name:tl":"Pompei","name:tr":"Pompei","name:uk":"Помпеї","name:ur":"پومپئی","name:uz":"Pompei","name:vi":"Pompei","name:vo":"Pompei","name:war":"Pompei","name:zh":"蓬佩伊","postal_code":"80045","ref:ISTAT":"063058","ref:catasto":"G813","type":"boundary"},"labels":[{"id":"node/68580886","role":"admin_centre","coordinates":[14.500642,40.749123]}]},"geometry":{"type":"Polygon","coordinates":[[[14.507221,40.769127],[14.506248,40.76924],[14.504292,40.7693],[14.503659,40.769436],[14.502319,40.76995],[14.501889,40.770027],[14.50158,40.77003],[14.50013,40.769726],[14.499517,40.769703],[14.498168,40.76977],[14.498112,40.769775],[14.496749,40.7695],[14.496335,40.769474],[14.495988,40.769493],[14.495762,40.76953],[14.495214,40.76954],[14.494653,40.76946],[14.494316,40.76938],[14.493178,40.76914],[14.492773,40.769043],[14.492544,40.76897],[14.489008,40.76749],[14.48826,40.767216],[14.487523,40.766922],[14.486482,40.766426],[14.484864,40.76547],[14.484152,40.765186],[14.483352,40.764954],[14.48274,40.76454],[14.482259,40.76408],[14.481954,40.76382],[14.4819145,40.763783],[14.481363,40.76323],[14.481118,40.76298],[14.480944,40.76281],[14.480568,40.76239],[14.480161,40.761898],[14.479604,40.761227],[14.479077,40.760506],[14.4784975,40.760197],[14.478196,40.759995],[14.477601,40.759487],[14.476794,40.758896],[14.475863,40.758343],[14.475392,40.757893],[14.4748745,40.757614],[14.474571,40.757263],[14.474014,40.756905],[14.47337,40.756466],[14.474002,40.75598],[14.474748,40.753754],[14.474845,40.753464],[14.47521,40.753136],[14.475403,40.75267],[14.475602,40.75215],[14.475952,40.750427],[14.476132,40.749756],[14.476477,40.74852],[14.476563,40.748207],[14.47725,40.746704],[14.477942,40.745438],[14.47816,40.744995],[14.478275,40.744205],[14.478736,40.742817],[14.478761,40.742565],[14.478687,40.742344],[14.478766,40.742275],[14.478885,40.742058],[14.479078,40.741875],[14.479229,40.741558],[14.479426,40.741753],[14.480672,40.741116],[14.480861,40.740955],[14.481372,40.739902],[14.481538,40.739693],[14.481685,40.739525],[14.481739,40.739223],[14.481594,40.739033],[14.481385,40.738346],[14.481485,40.737984],[14.481954,40.737053],[14.4814,40.7369],[14.481552,40.73655],[14.481747,40.736584],[14.481995,40.736534],[14.482024,40.736435],[14.481926,40.7359],[14.481976,40.735394],[14.4820385,40.735283],[14.482412,40.735207],[14.482637,40.73521],[14.48315,40.735508],[14.483322,40.735523],[14.483659,40.73544],[14.483938,40.735283],[14.484147,40.73499],[14.484321,40.734146],[14.484667,40.733593],[14.484859,40.73298],[14.485065,40.73257],[14.485156,40.73242],[14.485476,40.73201],[14.485525,40.731976],[14.485589,40.731968],[14.485775,40.73201],[14.485879,40.73202],[14.485997,40.73201],[14.486173,40.731945],[14.48629,40.731823],[14.486513,40.73122],[14.486615,40.73086],[14.486607,40.73069],[14.486679,40.730595],[14.487097,40.73025],[14.487265,40.730095],[14.487581,40.729626],[14.487694,40.72951],[14.487819,40.72933],[14.487874,40.729076],[14.487807,40.728745],[14.487807,40.72853],[14.487878,40.72833],[14.488014,40.728153],[14.488258,40.728065],[14.488601,40.72815],[14.488909,40.72822],[14.489025,40.728252],[14.489065,40.728317],[14.488939,40.728806],[14.488944,40.728893],[14.489005,40.72904],[14.489231,40.729237],[14.489697,40.729465],[14.489922,40.729446],[14.490324,40.729374],[14.49046,40.729317],[14.490592,40.729187],[14.490787,40.72878],[14.490893,40.72864],[14.490935,40.72853],[14.491046,40.728394],[14.49121,40.72829],[14.491465,40.728218],[14.491868,40.72816],[14.492387,40.72804],[14.492571,40.728058],[14.493026,40.72814],[14.493668,40.728287],[14.494575,40.727642],[14.495389,40.726368],[14.495991,40.72515],[14.497988,40.722324],[14.501178,40.72471],[14.504826,40.72604],[14.506466,40.726357],[14.507108,40.726723],[14.509423,40.728996],[14.510133,40.73038],[14.511575,40.73168],[14.512713,40.732277],[14.515211,40.733276],[14.514546,40.73186],[14.516623,40.732315],[14.518659,40.733646],[14.520128,40.734413],[14.5207,40.734665],[14.520613,40.734966],[14.520511,40.735302],[14.520015,40.73663],[14.519785,40.73709],[14.51887,40.737064],[14.518126,40.737087],[14.517135,40.737103],[14.51774,40.738102],[14.517114,40.738167],[14.515232,40.738262],[14.512315,40.738228],[14.509132,40.73789],[14.508678,40.73797],[14.508299,40.738117],[14.506532,40.739304],[14.506161,40.73967],[14.505522,40.740295],[14.505361,40.740456],[14.505338,40.740505],[14.505434,40.74053],[14.5071,40.740902],[14.507058,40.74106],[14.507003,40.741287],[14.506713,40.741863],[14.506554,40.742157],[14.506335,40.74211],[14.506068,40.742584],[14.506214,40.742638],[14.506186,40.742744],[14.506295,40.74279],[14.506479,40.742867],[14.506752,40.74298],[14.507638,40.7432],[14.508974,40.743675],[14.510534,40.74414],[14.5138235,40.744774],[14.513726,40.745045],[14.513676,40.745243],[14.513628,40.745495],[14.513577,40.745827],[14.513621,40.746044],[14.513636,40.74611],[14.513745,40.746136],[14.514002,40.746216],[14.514321,40.74634],[14.513766,40.747604],[14.5134,40.747505],[14.513127,40.747482],[14.512855,40.747475],[14.512771,40.747723],[14.512691,40.74803],[14.512717,40.74839],[14.512739,40.748558],[14.512672,40.748943],[14.512611,40.74983],[14.512729,40.749954],[14.512976,40.74997],[14.513094,40.750275],[14.512961,40.75055],[14.512891,40.750694],[14.512757,40.751144],[14.512654,40.751465],[14.512631,40.75154],[14.5124,40.75228],[14.512168,40.753025],[14.511895,40.75389],[14.511323,40.75572],[14.511301,40.755795],[14.5112295,40.75602],[14.5109825,40.757298],[14.510881,40.758198],[14.510865,40.758747],[14.510817,40.758884],[14.510696,40.75925],[14.510678,40.7598],[14.510628,40.75991],[14.5105915,40.759987],[14.510439,40.76031],[14.509668,40.76051],[14.509132,40.76084],[14.508916,40.761745],[14.508668,40.762608],[14.51044,40.762978],[14.510918,40.763584],[14.5114975,40.76376],[14.51113,40.765038],[14.510541,40.76696],[14.510038,40.766853],[14.509761,40.767628],[14.509419,40.768658],[14.509132,40.768852],[14.509062,40.7689],[14.508456,40.76895],[14.507221,40.769127]]]}}
