{"type":"Feature","id":"relation/2186600","properties":{"type":"relation","id":2186600,"tags":{"ISO3166-1":"TK","ISO3166-1:alpha2":"TK","ISO3166-1:alpha3":"TKL","ISO3166-1:numeric":"772","admin_level":"2","boundary":"administrative","country_code_fips":"TL","country_code_iso3166_1_alpha_2":"TK","flag":"http://upload.wikimedia.org/wikipedia/commons/8/8e/Flag_of_Tokelau.svg","int_name":"Tokelau","is_in:continent":"Oceania","is_in:ocean":"Pacific","maratine":"yes","name":"Tokelau","name:am":"ቶክላው","name:ar":"توكلو","name:ast":"Tokeláu","name:be":"Такелаў","name:bg":"Токелау","name:bm":"Tokelo","name:bn":"টোকেলাউ","name:br":"Tokelau","name:ca":"Tokelau","name:cs":"Tokelau","name:da":"Tokelau","name:de":"Tokelau","name:dz":"ཏོ་ཀེ་ལའུ་ མཚོ་གླིང","name:ee":"Tokelau nutome","name:el":"Τοκελάου","name:en":"Tokelau","name:eo":"Tokelao","name:es":"Tokelau","name:fa":"توکلائو","name:ff":"Tokelaaw","name:fi":"Tokelau","name:fr":"Tokelau","name:fy":"Tokelaû","name:ga":"Oileáin Tócalá","name:gu":"ટોકેલાઉ","name:ha":"Takelau","name:he":"טוקלאו","name:hi":"तोकेलाउ","name:hr":"Tokelau","name:hu":"Tokelau-szigetek","name:is":"Tókelá","name:ja":"トケラウ","name:kab":"Ṭuklu","name:km":"តូខេឡៅ","name:kn":"ಟೊಕೆಲಾವ್","name:ko":"토켈라우","name:ks":"توکیلاو","name:ku":"Tokelau","name:lg":"Tokelawu","name:lo":"ໂຕເກເລົາ","name:lt":"Tokelau","name:lv":"Tokelau","name:mg":"Tokelao","name:mk":"Токелау","name:ml":"ടൊകെലാവു","name:mn":"Токелау","name:mr":"तोकेलाउ","name:mt":"Tokelaw","name:ne":"तोगो","name:no":"Tokelau","name:or":"ଟୋକେଲାଉ","name:pl":"Tokelau","name:rn":"Tokelawu","name:ru":"Токелау","name:si":"ටොකලාවු","name:sr":"Токелау","name:sv":"Tokelauöarna","name:ta":"டோகேலோ","name:te":"టోకేలావ్","name:th":"โตเกเลา","name:ti":"ቶክላው","name:uk":"Токелау","name:ur":"ٹوکیلاؤ","name:vi":"Tokelau","name:yo":"Orílẹ́ède Tokelau","name:zh":"托克劳","name:zu":"i-Tokelau","population":"1411","type":"boundary","wikidata":"Q36823","wikipedia":"en:Tokelau"},"labels":[{"id":"node/433483572","role":"label","coordinates":[-171.81967,-9.16764]},{"id":"node/3168342084","role":"admin_centre","coordinates":[-171.26454,-9.374304]}]},"geometry":{"type":"MultiPolygon","coordinates":[[[[-172.70978,-8.601137],[-172.704,-8.628992],[-172.6963,-8.653898],[-172.67963,-8.688018],[-172.65927,-8.715858],[-172.63518,-8.739195],[-172.61716,-8.752446],[-172.58879,-8.768038],[-172.5613,-8.7780695],[-172.53264,-8.784021],[-172.50287,-8.785757],[-172.46269,-8.781188],[-172.43634,-8.772631],[-172.41841,-8.769792],[-172.3881,-8.759907],[-172.35974,-8.745376],[-172.33339,-8.725985],[-172.30998,-8.702125],[-172.2909,-8.674727],[-172.27664,-8.644555],[-172.26634,-8.604985],[-172.26396,-8.565305],[-172.26665,-8.530954],[-172.27394,-8.498502],[-172.28705,-8.466665],[-172.3061,-8.436328],[-172.33145,-8.408804],[-172.38193,-8.367507],[-172.41351,-8.350395],[-172.44008,-8.340814],[-172.47661,-8.333838],[-172.52689,-8.332863],[-172.54648,-8.334898],[-172.5726,-8.34038],[-172.59775,-8.349259],[-172.62401,-8.362623],[-172.64732,-8.37908],[-172.67282,-8.40383],[-172.69353,-8.432675],[-172.7088,-8.46471],[-172.71829,-8.49968],[-172.72137,-8.53022],[-172.72028,-8.557143],[-172.71483,-8.586638],[-172.70978,-8.601137]]],[[[-171.85332,-8.915642],[-171.88681,-8.917396],[-171.92151,-8.925152],[-171.95428,-8.938854],[-171.98595,-8.959489],[-172.01102,-8.98264],[-172.0318,-9.009681],[-172.04767,-9.039832],[-172.05818,-9.072221],[-172.06346,-9.105627],[-172.06335,-9.129914],[-172.06651,-9.142702],[-172.06938,-9.177905],[-172.06827,-9.199898],[-172.0636,-9.228034],[-172.05495,-9.255225],[-172.04323,-9.27992],[-172.02887,-9.3019705],[-172.01562,-9.318954],[-171.99745,-9.336812],[-171.97758,-9.35943],[-171.94675,-9.384657],[-171.91151,-9.403342],[-171.87059,-9.418131],[-171.85577,-9.422196],[-171.82637,-9.428432],[-171.79059,-9.431696],[-171.7553,-9.428731],[-171.72133,-9.419763],[-171.70676,-9.414764],[-171.67445,-9.399603],[-171.64537,-9.379017],[-171.62143,-9.3548],[-171.60646,-9.335348],[-171.58818,-9.30679],[-171.57385,-9.271978],[-171.56596,-9.23763],[-171.56427,-9.202442],[-171.5688,-9.167506],[-171.58096,-9.130255],[-171.57881,-9.111361],[-171.58118,-9.073205],[-171.58916,-9.040509],[-171.60263,-9.009376],[-171.62358,-8.977719],[-171.65013,-8.950551],[-171.68152,-8.92863],[-171.716,-8.913206],[-171.75319,-8.904401],[-171.79321,-8.902762],[-171.83278,-8.909039],[-171.84828,-8.913659],[-171.85332,-8.915642]]],[[[-171.36955,-9.199934],[-171.40091,-9.221993],[-171.4259,-9.24789],[-171.4472,-9.280289],[-171.46103,-9.311993],[-171.46947,-9.347537],[-171.47162,-9.384008],[-171.46704,-9.420261],[-171.45592,-9.45509],[-171.4386,-9.48733],[-171.41568,-9.515909],[-171.38788,-9.539872],[-171.38136,-9.543682],[-171.36191,-9.571685],[-171.33594,-9.597429],[-171.30464,-9.618667],[-171.27238,-9.6331],[-171.2381,-9.641716],[-171.20279,-9.64425],[-171.16759,-9.640622],[-171.12653,-9.6283455],[-171.08884,-9.607618],[-171.05687,-9.580253],[-171.04634,-9.568509],[-171.02292,-9.536008],[-171.00754,-9.505627],[-171.00153,-9.488016],[-170.99718,-9.471298],[-170.99316,-9.448083],[-170.99231,-9.428045],[-170.98938,-9.4212055],[-170.98143,-9.38662],[-170.97975,-9.351186],[-170.9844,-9.316015],[-170.99564,-9.279366],[-171.0115,-9.24886],[-171.03564,-9.214872],[-171.05222,-9.196238],[-171.07208,-9.177652],[-171.0959,-9.159366],[-171.12393,-9.14384],[-171.16115,-9.131094],[-171.19762,-9.125271],[-171.2321,-9.125881],[-171.26839,-9.133001],[-171.30084,-9.14517],[-171.3307,-9.162687],[-171.3571,-9.185035],[-171.36955,-9.199934]]]]}}
