{"type":"Feature","id":"relation/3395037","properties":{"type":"relation","id":3395037,"tags":{"ISO3166-2":"MR-12","admin_level":"4","boundary":"administrative","name":"إينشيري","name:ar":"إينشيري","name:de":"Inchiri","name:en":"Inchiri","name:fr":"Inchiri","name:pl":"Insziri","name:ru":"Иншири","type":"boundary","wikidata":"Q850022","wikipedia":"en:Inchiri Region"},"labels":[{"id":"node/2651781116","role":"label","coordinates":[-15.113767,19.992277]},{"id":"node/1505634228","role":"admin_centre","coordinates":[-14.385523,19.74358]}]},"geometry":{"type":"Polygon","coordinates":[[[-14.173187,21.1445],[-15.839787,21.150846],[-15.57846,20.737646],[-16.227282,19.591593],[-16.2829,19.495136],[-16.319159,19.452837],[-16.339344,19.459639],[-16.353874,19.435482],[-16.40924,19.396002],[-16.439625,19.383516],[-16.468456,19.37632],[-16.499414,19.393433],[-16.529154,19.393345],[-16.549208,19.387129],[-16.542618,19.370375],[-16.518078,19.351456],[-16.498653,19.306421],[-16.48033,19.27663],[-16.473646,19.253555],[-16.445717,19.234964],[-16.426489,19.228415],[-16.387482,19.20559],[-16.357044,19.18888],[-16.329905,19.162106],[-16.307947,19.142298],[-16.292643,19.118755],[-16.275173,19.099445],[-16.256163,19.07255],[-16.244297,19.046068],[-16.23122,19.018436],[-16.220097,19],[-14.221801,19],[-14.220746,19.276533],[-14.219671,19.428562],[-14.15448,21.118074],[-14.173187,21.1445]]]}}
