{"type":"Feature","id":"relation/1395247","properties":{"type":"relation","id":1395247,"tags":{"addr:country":"RU","addr:district":"Пермский район","addr:postcode":"614527","addr:region":"Пермский край","addr:subdistrict":"Юго-Камское сельское поселение","boundary":"administrative","landuse":"residential","name":"Усть-Пизя","name:ru":"Усть-Пизя","official_status":"ru:посёлок","place":"hamlet","population":"266","population:date":"2010","type":"boundary"},"labels":[]},"geometry":{"type":"Polygon","coordinates":[[[55.568596,57.511177],[55.57072,57.510674],[55.581318,57.509243],[55.582714,57.508945],[55.587646,57.508503],[55.592495,57.507908],[55.592613,57.50917],[55.59303,57.510166],[55.593113,57.512302],[55.590702,57.513386],[55.58943,57.513412],[55.58823,57.512745],[55.5869,57.512665],[55.586464,57.512455],[55.585945,57.51272],[55.585827,57.513424],[55.585323,57.513443],[55.583504,57.51387],[55.58234,57.513386],[55.580982,57.513554],[55.58031,57.513355],[55.579845,57.513466],[55.579033,57.513412],[55.578655,57.513035],[55.578075,57.513233],[55.57651,57.512703],[55.574432,57.513195],[55.574883,57.514496],[55.572533,57.514603],[55.571175,57.513443],[55.569817,57.512794],[55.568977,57.512245],[55.56921,57.511837],[55.568596,57.511177]]]}}
