{"type":"Feature","id":"relation/367988","properties":{"type":"relation","id":367988,"tags":{"ISO3166-1":"JE","ISO3166-1:alpha2":"JE","ISO3166-1:alpha3":"JEY","ISO3166-1:numeric":"832","admin_level":"2","boundary":"administrative","flag":"http://upload.wikimedia.org/wikipedia/commons/1/1c/Flag_of_Jersey.svg","int_name":"Jersey","is_in:continent":"Europe","name":"Jersey","name:ace":"Jersey","name:af":"Jersey","name:als":"Jersey","name:an":"Jèrri","name:ang":"Cēsarēa","name:ar":"جيرزي","name:ast":"Xerséi","name:az":"Cersi","name:be":"Джэрсi","name:be-tarask":"Джэрсі","name:bg":"Джърси","name:bpy":"জার্সি","name:br":"Jerzenez","name:bs":"Jersey","name:ca":"Jersey","name:cs":"Jersey","name:cy":"Jersey","name:da":"Jersey","name:de":"Jersey","name:dv":"ޖާސޭ","name:el":"Τζέρσεϊ","name:en":"Jersey","name:eo":"Ĵersejo","name:es":"Jersey","name:et":"Jersey","name:eu":"Jersey","name:fa":"جرزی","name:fi":"Jersey","name:fr":"Jersey","name:frp":"Jèrseyi","name:frr":"Jersey","name:ga":"Geirsí","name:gd":"Jersey","name:gl":"Illa de Jersey","name:gv":"Jersee","name:he":"ג'רזי","name:hr":"Jersey","name:hu":"Jersey","name:hy":"Ջերսի","name:id":"Jersey","name:io":"Jersey","name:is":"Jersey","name:it":"Isola di Jersey","name:ja":"ジャージー","name:jv":"Jersey","name:ka":"ჯერზი","name:kn":"ಜರ್ಸಿ","name:ko":"저지 섬","name:kw":"Jersi","name:la":"Caesarea Insula","name:li":"Jersey","name:lij":"Jersey","name:lt":"Džersis","name:lv":"Džērsija","name:mi":"Tōrehe","name:mr":"जर्सी","name:ms":"Jersey","name:nds-nl":"Jersey","name:ne":"जर्सी","name:nl":"Jersey","name:nn":"Jersey","name:no":"Jersey","name:nov":"Jersey","name:nrm":"Jèrri","name:oc":"Jersey","name:os":"Джерси","name:pa":"ਜਰਸੀ","name:pl":"Jersey","name:pnb":"جرسی","name:pt":"Jersey","name:ro":"Insula Jersey","name:ru":"Джерси","name:rw":"Jersey","name:sco":"Jersey","name:sh":"Jersey","name:simple":"Jersey","name:sk":"Jersey","name:sl":"Jersey","name:sq":"Jersey","name:sr":"Џерзи","name:su":"Jersey","name:sv":"Jersey","name:sw":"Jersey","name:ta":"யேர்சி","name:te":"జెర్సీ","name:th":"เจอร์ซีย์","name:tl":"Hersey","name:tr":"Jersey","name:tt":"Җерси","name:uk":"Джерсі","name:ur":"جرزی","name:vi":"Jersey","name:war":"Jersey","name:wuu":"杰塞岛","name:xal":"Җерсин Арл","name:yo":"Jersey","name:zh":"澤西島","name:zh-min-nan":"Jersey","name:zh-yue":"澤西島","official_name":"Bailiwick of Jersey","official_name:eo":"Voktujo Ĵersejo","timezone":"Europe/Jersey","type":"boundary","wikidata":"Q785","wikipedia":"fr:Jersey"},"labels":[{"id":"node/2615659256","role":"admin_centre","coordinates":[-2.1102276,49.185665]}]},"geometry":{"type":"Polygon","coordinates":[[[-2.5591667,49.220833],[-2.5253332,49.059498],[-2.5253332,48.927834],[-2.2416668,48.872166],[-2.0833333,48.872166],[-1.9833332,48.883335],[-1.9833332,48.93658],[-1.9833332,48.941666],[-1.9428332,48.964664],[-1.8591666,49.06583],[-1.8333333,49.183334],[-1.8333333,49.25083],[-1.8916667,49.316666],[-1.9925,49.364666],[-2.0975,49.4605],[-2.1335685,49.40746],[-2.2176604,49.36247],[-2.2950459,49.325768],[-2.3891132,49.295975],[-2.479949,49.26446],[-2.5591667,49.220833]]]}}
