{"type":"Feature","id":"relation/555717","properties":{"type":"relation","id":555717,"tags":{"ISO3166-1":"TT","ISO3166-1:alpha2":"TT","ISO3166-1:alpha3":"TTO","ISO3166-1:numeric":"780","admin_level":"2","boundary":"administrative","flag":"http://upload.wikimedia.org/wikipedia/commons/6/64/Flag_of_Trinidad_and_Tobago.svg","is_in:continent":"North America","name":"Trinidad and Tobago","name:cs":"Trinidad a Tobago","name:de":"Trinidad und Tobago","name:en":"Trinidad and Tobago","name:eo":"Trinidado kaj Tobago","name:es":"Trinidad y Tobago","name:fr":"Trinité-et-Tobago","name:fy":"Trinidad en Tobago","name:hr":"Trinidad i Tobago","name:lt":"Trinidadas ir Tobagas","name:nl":"Trinidad en Tobago","name:pt":"Trindade e Tobago","name:ru":"Тринидад и Тобаго","name:sk":"Trinidad a Tobago","name:ta":"டிரினிடாட் மற்றும் டொபாகோ","name:tzl":"Þriadia-es-Tobago","name:uk":"Тринідад і Тобаго","official_name:lt":"Trinidado ir Tobago Respublika","timezone":"America/Port_of_Spain","type":"boundary","wikidata":"Q754","wikipedia":"en:Trinidad and Tobago"},"labels":[{"id":"node/2718091147","role":"admin_centre","coordinates":[-61.518013,10.657268]}]},"geometry":{"type":"Polygon","coordinates":[[[-61.729443,10.922729],[-61.729443,10.911111],[-61.73111,10.904166],[-61.763054,10.811389],[-61.76662,10.803911],[-61.771385,10.793888],[-61.792675,10.74001],[-61.802776,10.714444],[-61.802826,10.696924],[-61.802887,10.676895],[-61.802937,10.659322],[-61.802826,10.610177],[-61.802776,10.588889],[-61.82406,10.588789],[-61.862495,10.588611],[-61.86868,10.573425],[-61.88872,10.524158],[-61.894745,10.509356],[-61.989555,10.276202],[-62.060654,10.101252],[-62.079597,10.054622],[-62.083054,10.04611],[-62.00397,10.018614],[-61.97361,10.008056],[-61.900475,9.994868],[-61.854996,9.986667],[-61.73754,9.986667],[-61.630554,9.986667],[-61.504803,9.970606],[-61.499996,9.969999],[-61.22333,9.875833],[-61.207424,9.874531],[-61.191875,9.87321],[-61.158115,9.873668],[-61.124557,9.876901],[-61.092003,9.885605],[-60.913494,9.949474],[-60.901398,9.955022],[-60.88144,9.964174],[-60.859238,9.978789],[-60.833134,10.002378],[-60.811558,10.0301],[-60.795162,10.061113],[-60.305233,11.218226],[-60.294395,11.25155],[-60.289585,11.286224],[-60.290943,11.321197],[-60.298435,11.355404],[-60.31839,11.41902],[-60.331482,11.450824],[-60.349876,11.479962],[-60.373043,11.505584],[-60.400295,11.5269375],[-60.430843,11.543398],[-60.46379,11.554484],[-60.4763,11.557544],[-60.508495,11.562761],[-60.541122,11.562837],[-60.573345,11.55777],[-60.691486,11.529432],[-60.718807,11.520821],[-60.74463,11.508507],[-61.729443,10.947916],[-61.729443,10.922729]]]}}
