{"type":"Feature","id":"relation/2171253","properties":{"type":"relation","id":2171253,"tags":{"admin_level":"6","alt_name:eo":"Luhansko","boundary":"administrative","koatuu":"4410100000","name":"Луганськ","name:ast":"Lugansk","name:az":"Luqansk","name:be":"Луганск","name:be-tarask":"Луганскае","name:bg":"Луганск","name:ca":"Luhansk","name:crh":"Lugansk","name:cs":"Luhansk","name:da":"Luhansk","name:de":"Luhansk","name:en":"Luhansk","name:eo":"Lugansko","name:es":"Lugansk","name:et":"Lugansk","name:eu":"Luhansk","name:fa":"لوهانسک","name:fi":"Luhansk","name:fiu-vro":"Luhansk","name:fr":"Louhansk","name:gl":"Luhansk","name:he":"לוהנסק","name:hr":"Luhansk","name:hsb":"Luhansk","name:hu":"Luhanszk","name:hy":"Լուգանսկ","name:id":"Luhansk","name:it":"Luhans'k","name:ja":"ルハーンシク","name:ka":"ლუგანსკი","name:kl":"Luhansk","name:ko":"루한시크","name:lt":"Luhanskas","name:lv":"Luhanska","name:mk":"Луганск","name:mn":"Луханск","name:nl":"Loehansk","name:nn":"Luhansk","name:no":"Luhansk","name:os":"Луганск","name:pl":"Ługańsk","name:pnb":"لوہانسک","name:pt":"Lugansk","name:ro":"Luhansk","name:ru":"Луганск","name:rue":"Луганьск","name:sco":"Luhansk","name:sk":"Luhansk","name:sr":"Луганск","name:sv":"Luhansk","name:szl":"Łuhańsk","name:tr":"Luhansk","name:vi":"Luhansk","name:vo":"Luhansk","name:war":"Luhansk","name:zh":"卢甘斯克","official_name":"Україна","place":"city","population":"414509","type":"boundary","wikidata":"Q134279","wikipedia":"uk:Луганськ"},"labels":[{"id":"node/253874196","role":"admin_centre","coordinates":[39.31511,48.5687]}]},"geometry":{"type":"Polygon","coordinates":[[[39.434166,48.545628],[39.433254,48.561764],[39.448994,48.562214],[39.448895,48.566116],[39.448807,48.566936],[39.448982,48.570248],[39.44877,48.575325],[39.44888,48.57822],[39.448467,48.58079],[39.44811,48.585262],[39.4481,48.587357],[39.448418,48.588192],[39.4556,48.592957],[39.471962,48.602955],[39.475998,48.603622],[39.486717,48.605747],[39.487,48.61242],[39.497375,48.618313],[39.497738,48.618862],[39.497963,48.619884],[39.498024,48.620766],[39.498447,48.62516],[39.498257,48.626003],[39.497494,48.626743],[39.49603,48.627464],[39.49381,48.627914],[39.492382,48.62824],[39.491978,48.628468],[39.491226,48.629177],[39.490112,48.630676],[39.4877,48.63014],[39.485504,48.62972],[39.484833,48.629387],[39.484222,48.629196],[39.48289,48.629158],[39.48045,48.62935],[39.47836,48.62949],[39.477184,48.629547],[39.475525,48.629436],[39.473484,48.6291],[39.47189,48.628674],[39.471226,48.62856],[39.469223,48.628365],[39.468163,48.62833],[39.466995,48.628742],[39.46609,48.629253],[39.46541,48.630676],[39.465153,48.63211],[39.46527,48.633305],[39.465885,48.63412],[39.467262,48.63521],[39.46791,48.63607],[39.46827,48.63714],[39.468334,48.63797],[39.46797,48.63857],[39.465515,48.639606],[39.46434,48.639683],[39.45803,48.63956],[39.45568,48.63982],[39.454437,48.64036],[39.453674,48.64095],[39.452854,48.64157],[39.452396,48.64214],[39.451824,48.64313],[39.451553,48.643677],[39.45132,48.64442],[39.45121,48.644993],[39.451015,48.645985],[39.45088,48.646687],[39.450752,48.647297],[39.4507,48.647774],[39.45069,48.64829],[39.45086,48.648975],[39.45104,48.64955],[39.451588,48.65018],[39.452152,48.650707],[39.453205,48.651512],[39.45436,48.6523],[39.4544,48.65362],[39.453667,48.65473],[39.452232,48.65576],[39.45124,48.65629],[39.449795,48.656742],[39.448154,48.657063],[39.445736,48.657],[39.44243,48.656693],[39.440353,48.65589],[39.438053,48.65592],[39.436222,48.65649],[39.432713,48.65749],[39.4242,48.65849],[39.42136,48.659325],[39.417416,48.65861],[39.415855,48.65763],[39.41446,48.657455],[39.412354,48.657986],[39.41098,48.65841],[39.409714,48.65946],[39.40953,48.660828],[39.411747,48.66293],[39.41447,48.66568],[39.415478,48.667282],[39.415184,48.66836],[39.41427,48.669617],[39.413357,48.670437],[39.411602,48.67194],[39.40909,48.67301],[39.406338,48.674606],[39.40496,48.67504],[39.40301,48.675205],[39.39981,48.675194],[39.397438,48.675877],[39.39126,48.67959],[39.391087,48.680946],[39.391796,48.682484],[39.392048,48.683098],[39.392056,48.68424],[39.390945,48.685177],[39.388367,48.685604],[39.384907,48.685593],[39.379757,48.686726],[39.37598,48.688087],[39.373234,48.690235],[39.371002,48.691486],[39.367405,48.6929],[39.364136,48.694317],[39.36143,48.69643],[39.358128,48.697605],[39.35671,48.698513],[39.354393,48.69445],[39.348076,48.693993],[39.33974,48.690746],[39.33191,48.688213],[39.327732,48.686443],[39.326954,48.686115],[39.326645,48.67999],[39.32553,48.67443],[39.325645,48.671455],[39.330536,48.67076],[39.33493,48.669765],[39.3386,48.66797],[39.339176,48.666718],[39.338802,48.66665],[39.33832,48.663433],[39.339546,48.661736],[39.340633,48.66063],[39.34232,48.659485],[39.344296,48.658543],[39.34633,48.658062],[39.349518,48.657345],[39.350677,48.654564],[39.348236,48.654972],[39.34267,48.655746],[39.34112,48.656174],[39.339405,48.656845],[39.33754,48.65768],[39.335358,48.658676],[39.333206,48.65916],[39.332306,48.645252],[39.331177,48.635723],[39.330917,48.634773],[39.330826,48.626446],[39.330902,48.621185],[39.33397,48.61266],[39.33403,48.61215],[39.332905,48.6083],[39.323887,48.608593],[39.317863,48.608925],[39.312996,48.609055],[39.305573,48.609104],[39.30122,48.609158],[39.29664,48.609467],[39.293068,48.60953],[39.292797,48.61103],[39.275726,48.611774],[39.274265,48.612022],[39.272778,48.612328],[39.235382,48.627853],[39.23334,48.62476],[39.232563,48.623623],[39.226654,48.61438],[39.226254,48.61368],[39.224323,48.61035],[39.233437,48.60712],[39.236897,48.60603],[39.24444,48.603813],[39.242176,48.600426],[39.23857,48.59657],[39.237328,48.594597],[39.237,48.59372],[39.23732,48.593075],[39.23834,48.59242],[39.23977,48.591393],[39.24127,48.59027],[39.241966,48.58947],[39.242283,48.588852],[39.242405,48.584652],[39.242477,48.584034],[39.242977,48.58346],[39.243725,48.58262],[39.24471,48.58183],[39.245476,48.581196],[39.246246,48.580685],[39.247677,48.58023],[39.24823,48.579403],[39.24851,48.578976],[39.24844,48.578457],[39.24773,48.578575],[39.246944,48.578724],[39.246662,48.578777],[39.24619,48.578857],[39.24598,48.578278],[39.245426,48.57852],[39.244656,48.578545],[39.243977,48.578476],[39.24354,48.578297],[39.243343,48.57792],[39.24343,48.57737],[39.243717,48.576885],[39.243965,48.57651],[39.244015,48.57618],[39.243835,48.575836],[39.243332,48.575623],[39.242653,48.57573],[39.242207,48.576027],[39.241722,48.57629],[39.240955,48.57649],[39.240635,48.576923],[39.24019,48.57708],[39.23958,48.57695],[39.238712,48.57664],[39.238403,48.576214],[39.238224,48.575245],[39.239433,48.574364],[39.240013,48.573673],[39.239227,48.571545],[39.238792,48.57087],[39.23908,48.56958],[39.239395,48.56777],[39.23987,48.565483],[39.239758,48.565407],[39.240417,48.561787],[39.24081,48.561695],[39.24376,48.56103],[39.24401,48.558174],[39.249943,48.558228],[39.250496,48.5553],[39.250805,48.55504],[39.25077,48.552296],[39.251026,48.552097],[39.24951,48.552124],[39.249268,48.551456],[39.252228,48.55124],[39.2529,48.55145],[39.256306,48.55125],[39.256344,48.550953],[39.257256,48.550484],[39.258026,48.551216],[39.258354,48.551186],[39.25915,48.549816],[39.26025,48.548702],[39.26234,48.5472],[39.257874,48.54422],[39.251663,48.540253],[39.242958,48.53506],[39.242126,48.53511],[39.231323,48.531624],[39.232773,48.52998],[39.225792,48.526592],[39.220936,48.525494],[39.22003,48.525063],[39.220894,48.52027],[39.23288,48.5209],[39.236557,48.521137],[39.23761,48.5198],[39.24023,48.52023],[39.240303,48.520313],[39.241432,48.52116],[39.25017,48.524998],[39.253605,48.526356],[39.260445,48.523914],[39.265053,48.522293],[39.275078,48.518738],[39.278038,48.519085],[39.27841,48.521492],[39.27885,48.524822],[39.281506,48.524967],[39.281258,48.525925],[39.28375,48.525864],[39.284885,48.52535],[39.285465,48.524918],[39.28544,48.524204],[39.2851,48.523422],[39.284283,48.5226],[39.283016,48.52254],[39.282562,48.522194],[39.282413,48.5216],[39.283913,48.520138],[39.28431,48.51921],[39.2837,48.518856],[39.28193,48.51729],[39.28646,48.51698],[39.287186,48.516068],[39.289127,48.515934],[39.288975,48.514988],[39.290947,48.51482],[39.29187,48.513515],[39.29454,48.511448],[39.29306,48.501377],[39.29238,48.49599],[39.293446,48.49533],[39.30303,48.49643],[39.305534,48.49731],[39.308647,48.497257],[39.311012,48.497593],[39.318398,48.496475],[39.325314,48.490486],[39.322945,48.48981],[39.322987,48.488895],[39.32311,48.48838],[39.3244,48.485825],[39.326515,48.484657],[39.33124,48.482594],[39.333313,48.481407],[39.33421,48.480877],[39.337383,48.480534],[39.339176,48.479237],[39.34035,48.478527],[39.34359,48.47612],[39.34457,48.47535],[39.34523,48.474487],[39.35031,48.474842],[39.356667,48.475105],[39.361126,48.475414],[39.36773,48.475864],[39.377136,48.476463],[39.388737,48.477207],[39.391834,48.477047],[39.40052,48.477547],[39.400013,48.48171],[39.400253,48.485035],[39.400852,48.490185],[39.400955,48.49471],[39.400444,48.501686],[39.400482,48.50732],[39.401382,48.51186],[39.402466,48.51307],[39.40348,48.51418],[39.404926,48.51502],[39.405216,48.51554],[39.40509,48.516743],[39.404636,48.521267],[39.40461,48.52618],[39.40603,48.526276],[39.407814,48.526382],[39.410805,48.526745],[39.415127,48.527187],[39.415306,48.538826],[39.414234,48.538963],[39.410496,48.539288],[39.41001,48.54553],[39.416676,48.545715],[39.420387,48.54573],[39.428535,48.54559],[39.433014,48.54562],[39.434166,48.545628]]]}}
