{"type":"Feature","id":"relation/356443","properties":{"type":"relation","id":356443,"tags":{"ISO3166-2":"KP-01","admin_level":"4","boundary":"administrative","name":"평양","name:ace":"Pyeongyang","name:af":"Pjongjang","name:am":"ፕዮንግያንግ","name:an":"Pyongyang","name:ar":"بيونغيانغ","name:ast":"Pyongyang","name:az":"Pxenyan","name:bat-smg":"Pchenjans","name:be":"Пхеньян","name:be-tarask":"Пхеньян","name:bg":"Пхенян","name:bn":"পিয়ং ইয়াং","name:bo":"ཕོང་ཡང་།","name:br":"Pyongyang","name:bs":"Pjongjang","name:ca":"Pyongyang","name:ckb":"پیۆنگیانگ","name:cs":"Pchjongjang","name:csb":"P'yŏngyang","name:cy":"P'yŏngyang","name:da":"Pyongyang","name:de":"Pjöngjang","name:diq":"Pyongyang","name:dsb":"Pchjongjang","name:el":"Πιονγιάνγκ","name:en":"Pyongyang","name:eo":"Pjongjango","name:es":"Pyongyang","name:et":"P'yŏngyang","name:eu":"Piongiang","name:fa":"پیونگ‌یانگ","name:fi":"Pjongjang","name:fo":"Pyongyang","name:fr":"Pyongyang","name:fy":"Pyongyang","name:ga":"Pyongyang","name:gd":"Pyongyang","name:gl":"Pyongyang","name:he":"פיונגיאנג","name:hi":"प्योंगयांग","name:hif":"Pyongyang","name:hr":"Pyongyang","name:ht":"Pyongyang","name:hu":"Phenjan","name:hy":"Պխենյան","name:id":"Pyongyang","name:ilo":"Pyongyang","name:io":"Pyongyang","name:is":"Pjongjang","name:it":"Pyongyang","name:ja":"平壌","name:jv":"Pyongyang","name:ka":"ფხენიანი","name:kk":"Пхеньян","name:kl":"Pyongyang","name:kn":"ಪ್ಯೊನ್ಗ್ಯಾಂಗ್","name:ko":"평양","name:ko_hanja":"平壤","name:ko_rm":"P'yŏngyang","name:ku":"Pyongyang","name:la":"Pyeongyangum","name:lez":"Пхеньян","name:lmo":"Pyongyang","name:lt":"Pchenjanas","name:lv":"Phenjana","name:mi":"Pyongyang","name:mk":"Пјонгјанг","name:mn":"Пхеньян","name:mr":"प्याँगयांग","name:ms":"Pyongyang","name:mzn":"پيونگ يانگ","name:nah":"Pionyang","name:nap":"Pyongyang","name:nl":"Pyongyang","name:nn":"Pyongyang","name:no":"Pyongyang","name:nov":"Pyongyang","name:oc":"Pyeongyang","name:os":"Пхеньян","name:pl":"Pjongjang","name:pms":"Pyongyang","name:pnb":"پیانگ یانگ","name:ps":"پيونګيانګ","name:pt":"Pyongyang","name:ro":"Phenian","name:ru":"Пхеньян","name:scn":"Pyongyang","name:sco":"Pyongyang","name:sh":"Pjongjang","name:sk":"Pchjongjang","name:sl":"Pjongjang","name:sq":"Pjongian","name:sr":"Пјонгјанг","name:sv":"Pyongyang","name:sw":"Pyongyang","name:ta":"பியொங்யாங்","name:th":"เปียงยาง","name:tl":"Pyongyang","name:tpi":"Pyongyang","name:tr":"Pyongyang","name:tt":"Пхеньян","name:ug":"Pyongyang","name:uk":"Пхеньян","name:ur":"پیانگ یانگ","name:vi":"Bình Nhưỡng","name:vo":"Pyöngyang","name:war":"Pyongyang","name:wuu":"平壤市","name:yi":"פיאנגיאנג","name:yo":"Pyongyang","name:zh":"平壤","name:zh-classical":"平壤","name:zh-min-nan":"Pyongyang","name:zh-yue":"平壤","official_name":"평양직할시","official_name:ko":"평양직할시","official_name:ko_hanja":"平壤直轄市","official_name:ko_rm":"P'yŏngyang Chikhalsi","type":"boundary","wikidata":"Q18808","wikipedia":"en:Pyongyang"},"labels":[{"id":"node/32013127","role":"admin_centre","coordinates":[125.75258,39.019638]}]},"geometry":{"type":"Polygon","coordinates":[[[126.0687,39.229942],[126.04804,39.234585],[126.038086,39.239037],[126.03545,39.2392],[126.03073,39.23888],[126.0231,39.23735],[126.01426,39.236904],[126.01197,39.23673],[126.00862,39.237648],[126.0073,39.23914],[126.006744,39.240486],[126.006805,39.2423],[126.00802,39.2438],[125.999916,39.240135],[125.97418,39.2296],[125.94207,39.221035],[125.922585,39.217365],[125.915215,39.21614],[125.89679,39.213284],[125.885735,39.215324],[125.87468,39.228374],[125.86625,39.237347],[125.864075,39.239147],[125.86291,39.240864],[125.85572,39.244278],[125.84932,39.244774],[125.84206,39.24455],[125.83722,39.23939],[125.8336,39.235924],[125.83177,39.22953],[125.82753,39.225304],[125.8215,39.222664],[125.809395,39.220627],[125.79255,39.224705],[125.77948,39.23203],[125.77279,39.238483],[125.7684,39.252926],[125.763565,39.26084],[125.7528,39.26959],[125.74527,39.275417],[125.73181,39.279354],[125.71891,39.273335],[125.70331,39.268753],[125.68825,39.26584],[125.680176,39.25876],[125.67695,39.248344],[125.67158,39.239178],[125.66404,39.239178],[125.65113,39.249176],[125.642525,39.25709],[125.63069,39.261673],[125.62316,39.261257],[125.62047,39.254593],[125.629074,39.24418],[125.63338,39.236263],[125.63553,39.22918],[125.63553,39.21751],[125.6323,39.207508],[125.62478,39.201256],[125.63446,39.194168],[125.64198,39.188747],[125.65113,39.180824],[125.646286,39.172066],[125.63769,39.168316],[125.6323,39.161224],[125.638756,39.150795],[125.64306,39.142868],[125.650055,39.137028],[125.65852,39.130978],[125.66391,39.124405],[125.661125,39.11826],[125.659744,39.11721],[125.65615,39.11437],[125.65263,39.110504],[125.651886,39.105633],[125.651886,39.100616],[125.65359,39.095154],[125.65625,39.08925],[125.655495,39.083195],[125.65455,39.076847],[125.65023,39.07261],[125.64807,39.07134],[125.64451,39.07085],[125.64115,39.071266],[125.63537,39.07304],[125.62757,39.07701],[125.620445,39.081394],[125.613846,39.083588],[125.60807,39.084316],[125.60094,39.08411],[125.59328,39.08317],[125.58386,39.080765],[125.57741,39.077427],[125.576195,39.072624],[125.576866,39.064796],[125.58009,39.058113],[125.580765,39.051323],[125.57884,39.047794],[125.58162,39.045296],[125.58279,39.043026],[125.58357,39.0408],[125.584915,39.038094],[125.58588,39.03597],[125.587234,39.035103],[125.58897,39.03435],[125.59403,39.032997],[125.59523,39.031746],[125.59658,39.029762],[125.59759,39.02896],[125.598854,39.02866],[125.599724,39.027897],[125.60012,39.02656],[125.60051,39.024765],[125.60075,39.023544],[125.601295,39.022167],[125.60367,39.020798],[125.60645,39.020947],[125.609695,39.022247],[125.61127,39.0224],[125.61102,39.01933],[125.60778,39.01536],[125.60493,39.012768],[125.60228,39.01139],[125.59904,39.013073],[125.5956,39.013683],[125.590294,39.0117],[125.588135,39.009712],[125.58599,39.00585],[125.58643,39.002388],[125.586136,38.998997],[125.584785,38.996265],[125.58312,38.99588],[125.58126,38.99391],[125.58064,38.991516],[125.58172,38.98852],[125.583855,38.98783],[125.58574,38.987267],[125.58757,38.986267],[125.58732,38.982826],[125.587715,38.981064],[125.58819,38.979748],[125.589355,38.977318],[125.59452,38.97278],[125.59521,38.971603],[125.59582,38.97039],[125.59635,38.96906],[125.596054,38.966045],[125.59782,38.96553],[125.60028,38.965305],[125.601585,38.96482],[125.60258,38.962894],[125.606544,38.962692],[125.61184,38.963654],[125.61515,38.963924],[125.61682,38.96529],[125.62056,38.966496],[125.62214,38.96702],[125.62371,38.966408],[125.62528,38.965107],[125.62715,38.96472],[125.62912,38.964264],[125.632645,38.96373],[125.6358,38.96326],[125.63506,38.95848],[125.63394,38.954533],[125.62958,38.949234],[125.62546,38.94723],[125.61972,38.945515],[125.61486,38.943626],[125.61121,38.94222],[125.60576,38.940197],[125.600204,38.93786],[125.596344,38.93528],[125.59332,38.93278],[125.59099,38.93051],[125.5891,38.92688],[125.58968,38.92381],[125.591835,38.920372],[125.59414,38.916977],[125.59502,38.912292],[125.59512,38.907764],[125.59461,38.904076],[125.60039,38.903683],[125.60437,38.90496],[125.6072,38.90517],[125.61283,38.904446],[125.61776,38.902313],[125.62058,38.901466],[125.62345,38.900665],[125.62826,38.90013],[125.63075,38.90021],[125.63284,38.900497],[125.63414,38.900894],[125.63586,38.901665],[125.63756,38.902096],[125.63913,38.902893],[125.639915,38.90369],[125.640274,38.904366],[125.64027,38.906223],[125.63998,38.90828],[125.64038,38.911007],[125.64152,38.912556],[125.64414,38.914543],[125.645615,38.91568],[125.646675,38.917282],[125.64759,38.919735],[125.648445,38.922497],[125.64907,38.923748],[125.65017,38.924774],[125.651344,38.92535],[125.65313,38.925602],[125.65573,38.925884],[125.65996,38.926598],[125.66219,38.926888],[125.66367,38.927353],[125.664604,38.927925],[125.66496,38.928642],[125.66496,38.929348],[125.66459,38.930443],[125.66464,38.93175],[125.6652,38.9323],[125.66615,38.932476],[125.667564,38.9322],[125.6695,38.932083],[125.67108,38.932266],[125.672775,38.93226],[125.67373,38.93243],[125.67632,38.93321],[125.677155,38.93376],[125.67799,38.934105],[125.678825,38.934345],[125.68007,38.934616],[125.68057,38.934593],[125.68114,38.93434],[125.68201,38.93373],[125.682686,38.933052],[125.683,38.93245],[125.68337,38.93109],[125.683395,38.93099],[125.68352,38.930202],[125.6839,38.929447],[125.68514,38.92918],[125.68583,38.929306],[125.68621,38.929485],[125.68642,38.929813],[125.68641,38.9302],[125.68603,38.93082],[125.68563,38.931213],[125.68514,38.931858],[125.68493,38.932343],[125.6849,38.93276],[125.68497,38.93313],[125.68514,38.933388],[125.68545,38.933628],[125.68585,38.933796],[125.686356,38.933876],[125.68684,38.933815],[125.687294,38.933605],[125.68767,38.933285],[125.68791,38.93303],[125.68849,38.93253],[125.68881,38.93229],[125.68921,38.93209],[125.68974,38.93196],[125.690445,38.931927],[125.69121,38.93202],[125.69185,38.93213],[125.69236,38.932182],[125.692894,38.932148],[125.69342,38.93193],[125.6939,38.931656],[125.69441,38.931458],[125.69492,38.931335],[125.69556,38.931313],[125.69592,38.93141],[125.696236,38.93161],[125.69723,38.93239],[125.69808,38.932472],[125.70121,38.932556],[125.70265,38.93212],[125.70527,38.932255],[125.70716,38.932938],[125.71174,38.93361],[125.71364,38.933258],[125.715004,38.933674],[125.715614,38.93412],[125.71692,38.934425],[125.71821,38.934727],[125.72051,38.934223],[125.72169,38.934406],[125.722946,38.93414],[125.723724,38.93457],[125.72588,38.93465],[125.72767,38.933254],[125.728,38.932705],[125.72876,38.932823],[125.72945,38.933643],[125.73007,38.933758],[125.73185,38.933178],[125.73199,38.93265],[125.73193,38.932377],[125.731964,38.93163],[125.73211,38.931385],[125.732185,38.93124],[125.73267,38.930943],[125.73305,38.93112],[125.73328,38.931503],[125.73383,38.93149],[125.73414,38.931084],[125.73451,38.93079],[125.73505,38.930702],[125.735176,38.930492],[125.73506,38.93009],[125.73351,38.929493],[125.733345,38.92923],[125.73345,38.928944],[125.73402,38.928543],[125.735695,38.92748],[125.73636,38.926876],[125.73666,38.926678],[125.73703,38.926792],[125.73737,38.927197],[125.73783,38.927067],[125.738,38.926598],[125.73824,38.926025],[125.73903,38.925938],[125.73967,38.92574],[125.73981,38.925587],[125.73984,38.9254],[125.73938,38.924946],[125.73906,38.924946],[125.738556,38.92499],[125.73837,38.924747],[125.73874,38.92431],[125.7398,38.92386],[125.74119,38.92374],[125.741806,38.923492],[125.74223,38.923008],[125.74258,38.923042],[125.743065,38.92314],[125.743805,38.92322],[125.74419,38.923042],[125.74429,38.922405],[125.74427,38.921406],[125.744644,38.920322],[125.74506,38.91992],[125.746,38.9196],[125.74708,38.919167],[125.74781,38.919018],[125.74909,38.91892],[125.74964,38.91873],[125.749504,38.91837],[125.74891,38.918137],[125.7482,38.9177],[125.747536,38.917366],[125.746765,38.917465],[125.74617,38.917614],[125.74518,38.917545],[125.744514,38.91718],[125.74451,38.91668],[125.745224,38.916126],[125.745285,38.915443],[125.74582,38.91491],[125.74662,38.914326],[125.74649,38.91399],[125.746574,38.913506],[125.746284,38.91294],[125.74648,38.912373],[125.74693,38.912106],[125.74762,38.91214],[125.74821,38.91209],[125.748505,38.911736],[125.74812,38.911255],[125.74782,38.910667],[125.74815,38.910168],[125.74834,38.908585],[125.74879,38.908245],[125.74922,38.907562],[125.749825,38.906647],[125.75054,38.90608],[125.75195,38.905945],[125.752686,38.905495],[125.75296,38.904724],[125.7523,38.90424],[125.752144,38.90366],[125.75232,38.90272],[125.751976,38.90095],[125.75117,38.90055],[125.75092,38.90015],[125.751015,38.899666],[125.75065,38.898933],[125.75098,38.89843],[125.75116,38.89706],[125.75095,38.896458],[125.75137,38.895493],[125.751785,38.89521],[125.75238,38.894505],[125.752174,38.89355],[125.75159,38.892517],[125.7518,38.8909],[125.752815,38.890366],[125.753716,38.890297],[125.75421,38.88978],[125.75511,38.889816],[125.75567,38.88938],[125.75639,38.889526],[125.758865,38.888813],[125.75955,38.888145],[125.76082,38.888145],[125.7618,38.887226],[125.76472,38.88607],[125.76545,38.886158],[125.76668,38.885788],[125.76843,38.885902],[125.77082,38.88622],[125.771736,38.887024],[125.77333,38.88696],[125.773476,38.88693],[125.773674,38.8868],[125.77387,38.886772],[125.7741,38.886898],[125.77431,38.887634],[125.7759,38.88929],[125.78283,38.89266],[125.7928,38.894062],[125.80173,38.89761],[125.8166,38.901474],[125.833786,38.905865],[125.84668,38.906906],[125.86119,38.90628],[125.87489,38.901474],[125.878914,38.89583],[125.885635,38.885376],[125.89155,38.87994],[125.89934,38.8814],[125.910225,38.8888],[125.9116,38.890244],[125.917885,38.886543],[125.920586,38.889057],[125.921036,38.889072],[125.92194,38.889904],[125.92237,38.890003],[125.922745,38.89002],[125.923065,38.890446],[125.9234,38.890827],[125.9235,38.89088],[125.9246,38.890793],[125.92722,38.891647],[125.92909,38.892513],[125.930786,38.89323],[125.93141,38.89344],[125.93133,38.894066],[125.93266,38.894478],[125.93275,38.895035],[125.93311,38.895485],[125.93388,38.896088],[125.93405,38.89665],[125.93365,38.89757],[125.934204,38.89843],[125.93462,38.89961],[125.933876,38.900646],[125.933426,38.90118],[125.93254,38.901432],[125.93247,38.90201],[125.932556,38.902863],[125.93229,38.904205],[125.93209,38.905037],[125.9325,38.90572],[125.93247,38.906708],[125.93295,38.90756],[125.93355,38.90806],[125.9345,38.908146],[125.93578,38.908146],[125.93704,38.908195],[125.93789,38.90816],[125.93859,38.90831],[125.93932,38.908344],[125.9402,38.90861],[125.94057,38.908543],[125.9411,38.908394],[125.94196,38.908203],[125.94272,38.908176],[125.943344,38.90833],[125.943855,38.908073],[125.94441,38.90793],[125.94497,38.907993],[125.945656,38.907776],[125.94657,38.907673],[125.94733,38.907623],[125.94791,38.907978],[125.94828,38.908237],[125.94891,38.908127],[125.94956,38.90792],[125.94973,38.907623],[125.94967,38.907124],[125.94999,38.906857],[125.950455,38.90689],[125.95096,38.907326],[125.95141,38.90748],[125.9519,38.90734],[125.95267,38.906857],[125.95321,38.90666],[125.953606,38.906483],[125.95411,38.906433],[125.954544,38.906555],[125.955246,38.906532],[125.955986,38.906616],[125.95634,38.90643],[125.956566,38.90628],[125.95707,38.906055],[125.95783,38.905872],[125.961685,38.906185],[125.96531,38.908836],[125.969215,38.914516],[125.974266,38.918964],[125.979385,38.92254],[125.98668,38.92406],[125.992966,38.92398],[125.99123,38.925423],[125.99261,38.931698],[125.99243,38.9337],[125.99329,38.935303],[125.99312,38.938244],[125.99312,38.941578],[125.992775,38.942646],[125.99295,38.947453],[125.99346,38.950657],[125.99123,38.953457],[125.98471,38.95506],[125.98419,38.955864],[125.97887,38.957867],[125.9782,38.958416],[125.97595,38.960266],[125.96857,38.963604],[125.9672,38.965473],[125.96754,38.96881],[125.96754,38.970943],[125.96634,38.97388],[125.96548,38.97882],[125.965996,38.982155],[125.964676,38.985764],[125.95922,38.98875],[125.95878,38.989174],[125.95594,38.98949],[125.9553,38.98975],[125.95474,38.990154],[125.953835,38.99075],[125.95256,38.991413],[125.95066,38.992523],[125.947845,38.99411],[125.943985,38.99564],[125.93885,38.997215],[125.93586,38.9985],[125.93391,38.99982],[125.92651,39.002293],[125.92415,39.004158],[125.924835,39.017056],[125.926094,39.02164],[125.92615,39.021854],[125.919525,39.028973],[125.896034,39.03192],[125.89202,39.033245],[125.8894,39.03584],[125.8826,39.039955],[125.87711,39.040207],[125.88138,39.04436],[125.882706,39.046093],[125.88305,39.047344],[125.882454,39.052326],[125.88263,39.05328],[125.88295,39.053825],[125.88346,39.0547],[125.88519,39.055866],[125.88884,39.05709],[125.89442,39.05709],[125.900475,39.05623],[125.91863,39.05324],[125.92554,39.052036],[125.93137,39.052452],[125.936356,39.054527],[125.93923,39.0587],[125.940636,39.06262],[125.94243,39.066986],[125.94421,39.070797],[125.945816,39.074657],[125.946495,39.077183],[125.94866,39.08124],[125.953384,39.086536],[125.95732,39.089287],[125.9617,39.092335],[125.96517,39.09404],[125.97041,39.094624],[125.97492,39.09461],[125.9838,39.09478],[125.99496,39.094486],[126.01169,39.096954],[126.014046,39.089386],[126.021935,39.082245],[126.03113,39.080814],[126.03822,39.08265],[126.04585,39.084286],[126.05585,39.083263],[126.063995,39.07857],[126.068726,39.070812],[126.07635,39.06612],[126.09029,39.06265],[126.098175,39.059994],[126.10317,39.05224],[126.10081,39.04427],[126.099754,39.03243],[126.101326,39.021603],[126.10239,39.011387],[126.095726,39.001225],[126.09631,38.99714],[126.09737,38.9929],[126.096054,38.989735],[126.09292,38.985832],[126.091995,38.98318],[126.09618,38.982536],[126.099525,38.979736],[126.10283,38.97511],[126.10644,38.972973],[126.10933,38.968105],[126.11008,38.96667],[126.111694,38.96579],[126.11366,38.96614],[126.11523,38.967274],[126.11632,38.96838],[126.11647,38.97231],[126.11872,38.974445],[126.121376,38.975098],[126.12373,38.974186],[126.1263,38.975544],[126.12855,38.976707],[126.13115,38.977203],[126.13273,38.97723],[126.136665,38.97687],[126.13954,38.976177],[126.14046,38.974316],[126.13981,38.97189],[126.13932,38.96859],[126.14058,38.968258],[126.14171,38.967796],[126.14262,38.967],[126.14365,38.96676],[126.14673,38.96665],[126.14758,38.966362],[126.15013,38.966408],[126.15258,38.967247],[126.15354,38.96843],[126.15413,38.970467],[126.15149,38.974827],[126.151665,38.97753],[126.15375,38.9787],[126.15622,38.978813],[126.15739,38.978867],[126.15853,38.978073],[126.16003,38.977528],[126.16264,38.97511],[126.16826,38.974648],[126.1698,38.976223],[126.17022,38.97794],[126.16861,38.979557],[126.167015,38.983273],[126.167015,38.98548],[126.168686,38.9872],[126.171265,38.987602],[126.17415,38.98655],[126.17686,38.983467],[126.17713,38.98183],[126.17796,38.980984],[126.17966,38.98078],[126.18058,38.981438],[126.1813,38.982166],[126.181625,38.98442],[126.18238,38.98531],[126.17942,38.9893],[126.17546,38.991497],[126.17544,38.992725],[126.17542,38.994072],[126.17807,38.996124],[126.181725,38.996845],[126.18603,38.995922],[126.1918,38.99335],[126.19584,38.991158],[126.198685,38.98872],[126.200806,38.988],[126.203445,38.98852],[126.20693,38.99035],[126.20673,38.992477],[126.21004,38.992687],[126.214005,38.99094],[126.21625,38.990547],[126.22142,38.988605],[126.22349,38.98656],[126.227394,38.98535],[126.229836,38.985546],[126.23165,38.98654],[126.234985,38.98789],[126.23914,38.987255],[126.23935,38.984425],[126.23711,38.982265],[126.233696,38.97971],[126.23395,38.978508],[126.235985,38.97725],[126.242,38.976994],[126.24672,38.97553],[126.24806,38.97428],[126.24877,38.9708],[126.25114,38.9693],[126.25456,38.968307],[126.25671,38.9663],[126.25684,38.96533],[126.25607,38.9639],[126.256905,38.961555],[126.25966,38.96165],[126.26271,38.963352],[126.26483,38.96399],[126.26649,38.963757],[126.268036,38.96241],[126.267914,38.960243],[126.26762,38.958263],[126.26865,38.955887],[126.269585,38.954807],[126.27247,38.953556],[126.27447,38.95364],[126.276695,38.954784],[126.2773,38.955814],[126.27659,38.95638],[126.27779,38.95999],[126.28046,38.96059],[126.28238,38.959557],[126.281845,38.957336],[126.27946,38.955658],[126.27927,38.95338],[126.280846,38.952084],[126.28217,38.95176],[126.28415,38.952354],[126.2851,38.953854],[126.285934,38.957428],[126.287865,38.95989],[126.29088,38.961006],[126.29333,38.961178],[126.294815,38.962204],[126.294975,38.964603],[126.29712,38.965107],[126.300735,38.96284],[126.30254,38.959877],[126.304794,38.958767],[126.309715,38.958103],[126.32133,38.95796],[126.32695,38.956436],[126.32944,38.95528],[126.33095,38.95401],[126.33599,38.948086],[126.341,38.94449],[126.34406,38.942204],[126.34627,38.942173],[126.35225,38.944656],[126.36077,38.942993],[126.363014,38.936977],[126.37349,38.934536],[126.38406,38.93149],[126.391716,38.92532],[126.40258,38.92261],[126.40045,38.942398],[126.38743,38.969032],[126.359505,39.00433],[126.337166,39.021107],[126.32935,39.028915],[126.33307,39.037304],[126.33755,39.044533],[126.33755,39.05147],[126.32526,39.05812],[126.307014,39.061874],[126.28766,39.06043],[126.27426,39.059853],[126.26533,39.062744],[126.259735,39.07026],[126.259735,39.078926],[126.24982,39.087177],[126.23386,39.095947],[126.22175,39.105343],[126.22017,39.12005],[126.231224,39.137608],[126.250175,39.148224],[126.23754,39.15884],[126.21806,39.162106],[126.194374,39.162106],[126.18069,39.162106],[126.15647,39.166183],[126.14278,39.170677],[126.12751,39.173534],[126.101715,39.17639],[126.09013,39.18251],[126.08638,39.192764],[126.084885,39.20459],[126.088615,39.214108],[126.085266,39.221607],[126.0687,39.229942]]]}}
