{"type":"Feature","id":"relation/378734","properties":{"type":"relation","id":378734,"tags":{"ISO3166-1":"BH","ISO3166-1:alpha2":"BH","ISO3166-1:alpha3":"BHR","ISO3166-1:numeric":"048","admin_level":"2","boundary":"administrative","flag":"http://upload.wikimedia.org/wikipedia/commons/2/2c/Flag_of_Bahrain.svg","int_name":"al-Baḥrayn","is_in:continent":"Asia","name":"‏البحرين‎","name:cs":"Bahrajn","name:de":"Bahrain","name:en":"Bahrain","name:fr":"Bahreïn","name:fy":"Bachrein","name:hi":"बहरीन","name:hr":"Bahrein","name:kn":"ಬಹರೇನ್","name:nl":"Bahrein","name:pl":"Bahrajn","name:pt":"Bahrein","name:ru":"Бахрейн","name:sk":"Bahrajn","name:sv":"Bahrain","name:tzl":"Bac'hrein","name:uz":"Baxreyn","timezone":"Asia/Bahrain","type":"boundary","wikidata":"Q398","wikipedia":"en:Bahrain"},"labels":[{"id":"node/38903284","role":"admin_centre","coordinates":[50.582245,26.223503]},{"id":"node/424297207","role":"label","coordinates":[50.53446,26.155125]}]},"geometry":{"type":"Polygon","coordinates":[[[50.91948,26.21445],[50.92278,26.265278],[50.923367,26.2673],[50.92283,26.270811],[50.9104,26.304972],[50.895344,26.33099],[50.893215,26.340292],[50.885357,26.36307],[50.87188,26.39094],[50.842083,26.435993],[50.825733,26.456085],[50.807682,26.471268],[50.80992,26.48859],[50.805565,26.52688],[50.79316,26.56372],[50.77315,26.597748],[50.74627,26.627708],[50.71897,26.649036],[50.688374,26.666035],[50.65513,26.678392],[50.6201,26.685783],[50.595486,26.687244],[50.556744,26.620846],[50.48861,26.58427],[50.454273,26.565832],[50.438744,26.557495],[50.387573,26.530012],[50.379898,26.443203],[50.376743,26.40751],[50.341743,26.373344],[50.316742,26.252234],[50.311188,26.171124],[50.2698,26.079735],[50.283024,26.006697],[50.293133,25.950846],[50.30424,25.87918],[50.366184,25.818901],[50.41674,25.698347],[50.433407,25.679178],[50.529243,25.593903],[50.567497,25.576109],[50.579998,25.58611],[50.689445,25.581388],[50.693054,25.580555],[50.734722,25.572498],[50.76361,25.558054],[50.769722,25.546944],[50.78,25.54861],[50.79611,25.545277],[50.809998,25.535],[50.815,25.544443],[50.81333,25.54861],[50.817776,25.562222],[50.808887,25.56361],[50.79361,25.575832],[50.780277,25.592499],[50.798332,25.6225],[50.828888,25.629168],[50.839443,25.63861],[50.840553,25.645277],[50.835,25.658611],[50.841663,25.669443],[50.861942,25.690832],[50.852497,25.707499],[50.866108,25.735277],[50.868053,25.749443],[50.86472,25.75972],[50.861107,25.766666],[50.856388,25.7825],[50.84222,25.811943],[50.831387,25.86111],[50.82,25.873888],[50.81583,25.894999],[50.85,26.01111],[50.907497,26.077223],[50.90891,26.09228],[50.916027,26.168196],[50.917496,26.183887],[50.91948,26.21445]]]}}
