{"type":"Feature","id":"relation/3629331","properties":{"type":"relation","id":3629331,"tags":{"addr:postcode":"35500-35508","admin_level":"9","boundary":"administrative","landuse":"residential","name":"Радивилів","name:de":"Radywyliw","name:en":"Radyvyliv","name:eo":"Radiviliv","name:pl":"Radziwiłłów","name:prefix":"місто","name:ru":"Радивилов","name:uk":"Радивилів","place":"town","population":"10487","type":"boundary","wikidata":"Q1020069","wikipedia":"uk:Радивилів"},"labels":[{"id":"node/337533363","role":"admin_centre","coordinates":[25.249002,50.127663]}]},"geometry":{"type":"Polygon","coordinates":[[[25.242756,50.128708],[25.24507,50.125847],[25.244242,50.122616],[25.247793,50.117905],[25.251839,50.11425],[25.25202,50.1143],[25.257292,50.115788],[25.266459,50.10795],[25.274551,50.105457],[25.277607,50.107418],[25.278929,50.11928],[25.274303,50.125053],[25.271662,50.13061],[25.283041,50.131855],[25.28172,50.135666],[25.276676,50.13551],[25.270224,50.148224],[25.26474,50.14905],[25.25732,50.152565],[25.248926,50.154613],[25.234674,50.14945],[25.22993,50.144997],[25.232344,50.13939],[25.242756,50.128708]]]}}
