{"type":"Feature","id":"relation/1558556","properties":{"type":"relation","id":1558556,"tags":{"ISO3166-1":"NU","ISO3166-1:alpha2":"NU","ISO3166-1:alpha3":"NIU","ISO3166-1:numeric":"570","addr:country":"NU","admin_level":"2","boundary":"administrative","flag":"http://upload.wikimedia.org/wikipedia/commons/0/01/Flag_of_Niue.svg","is_in:continent":"Oceania","name":"Niuē","name:ar":"نييوي","name:be":"Ніуэ","name:bg":"Ниуе","name:cs":"Niue","name:de":"Niue","name:dv":"ނީއު","name:el":"Νιούε","name:en":"Niue","name:eo":"Niuo","name:es":"Niue","name:fa":"نیووی","name:fr":"Niue","name:he":"ניואה","name:hr":"Niue","name:ja":"ニウエ","name:ka":"ნიუე","name:kk":"Ниуе","name:ko":"니우에","name:ku":"Niûe","name:lt":"Niujė","name:mk":"Ниуе","name:ml":"നിയുവെ","name:mr":"न्युए","name:os":"Ниуэ","name:ru":"Ниуэ","name:rw":"Niyuwe","name:sr":"Нијуе","name:ta":"நியுவே","name:th":"นีอูเอ","name:ug":"Niué Arili","name:uk":"Ніуе","name:ur":"نیووے","name:wo":"Niwe","name:zh":"紐埃","timezone":"Pacific/Niue","type":"boundary","wikidata":"Q34020","wikipedia":"en:Niue"},"labels":[{"id":"node/448768937","role":"admin_centre","coordinates":[-169.91919,-19.053415]},{"id":"node/433483552","role":"label","coordinates":[-169.86133,-19.05364]}]},"geometry":{"type":"Polygon","coordinates":[[[-170.12811,-18.969877],[-170.135,-18.98055],[-170.14804,-19.009869],[-170.15268,-19.02388],[-170.1576,-19.04749],[-170.1595,-19.081896],[-170.15775,-19.102324],[-170.15167,-19.130354],[-170.14568,-19.146358],[-170.1306,-19.177528],[-170.12001,-19.203524],[-170.10457,-19.235027],[-170.08357,-19.263498],[-170.05376,-19.291214],[-170.03714,-19.302687],[-170.01466,-19.315115],[-169.98596,-19.326262],[-169.95555,-19.341204],[-169.94666,-19.344225],[-169.90282,-19.353582],[-169.88237,-19.354866],[-169.87161,-19.35479],[-169.83571,-19.350863],[-169.81294,-19.345222],[-169.771,-19.333668],[-169.75421,-19.326988],[-169.71866,-19.306982],[-169.68793,-19.280752],[-169.64824,-19.238264],[-169.62251,-19.20871],[-169.60324,-19.181513],[-169.59085,-19.160723],[-169.57776,-19.131079],[-169.57025,-19.1082],[-169.56555,-19.079008],[-169.56471,-19.058767],[-169.56755,-19.027542],[-169.57071,-19.012587],[-169.57872,-18.98764],[-169.588,-18.969875],[-169.5916,-18.955206],[-169.59845,-18.929783],[-169.60573,-18.90543],[-169.6118,-18.89004],[-169.6223,-18.869467],[-169.63435,-18.850891],[-169.65985,-18.822178],[-169.69003,-18.798094],[-169.70265,-18.790495],[-169.72156,-18.780874],[-169.72987,-18.777117],[-169.7675,-18.76461],[-169.79898,-18.757853],[-169.82742,-18.754036],[-169.86153,-18.753456],[-169.87546,-18.75472],[-169.90302,-18.759684],[-169.94772,-18.771227],[-169.96483,-18.777655],[-169.98099,-18.785542],[-170.00993,-18.803722],[-170.02718,-18.817513],[-170.04337,-18.831762],[-170.06398,-18.854727],[-170.0776,-18.8741],[-170.09386,-18.893616],[-170.10408,-18.90901],[-170.11165,-18.923752],[-170.125,-18.95653],[-170.12811,-18.969877]]]}}
