{"type":"Feature","id":"relation/3821656","properties":{"type":"relation","id":3821656,"tags":{"addr:country":"RU","addr:district":"Троицко-Печорский район","addr:postcode":"169420","addr:region":"Коми","addr:subdistrict":"городское поселение Троицко-Печорск","boundary":"administrative","landuse":"residential","name":"Большая Сойва","official_status":"ru:деревня","oktmo:user":"87636151106","place":"hamlet","type":"boundary"},"labels":[]},"geometry":{"type":"Polygon","coordinates":[[[56.06869,62.653423],[56.07052,62.653965],[56.071976,62.654453],[56.07392,62.65519],[56.076466,62.655758],[56.07996,62.656223],[56.081337,62.656242],[56.081944,62.657825],[56.08071,62.658077],[56.08114,62.65894],[56.080086,62.65939],[56.080338,62.660625],[56.079605,62.660847],[56.079323,62.66189],[56.077625,62.661846],[56.077717,62.663094],[56.076897,62.663544],[56.074684,62.662945],[56.07405,62.658928],[56.07168,62.657486],[56.06632,62.65573],[56.065323,62.653793],[56.066494,62.65362],[56.067505,62.65344],[56.06869,62.653423]]]}}
