{"type":"Feature","id":"relation/1027785","properties":{"type":"relation","id":1027785,"tags":{"admin_level":"8","boundary":"administrative","name":"Esztergom","name:an":"Esztergom","name:be":"Эстэргам","name:br":"Esztergom","name:ca":"Esztergom","name:cs":"Ostřihom","name:da":"Esztergom","name:de":"Gran","name:dsb":"Esztergom","name:en":"Esztergom","name:eo":"Esztergom","name:es":"Esztergom","name:et":"Esztergom","name:eu":"Esztergom","name:fa":"استرگم","name:fi":"Esztergom","name:fo":"Esztergom","name:fr":"Esztergom","name:gl":"Esztergom","name:he":"אסטרגום","name:hr":"Ostrogon","name:hu":"Esztergom","name:id":"Esztergom","name:it":"Esztergom","name:ja":"エステルゴム","name:ka":"ესტერგომი","name:ko":"에스테르곰","name:kv":"Эстергом","name:la":"Strigonium","name:lb":"Esztergom","name:lmo":"Strigoni","name:lt":"Estergomas","name:mhr":"Эстергом","name:ms":"Esztergom","name:nl":"Esztergom","name:nn":"Esztergom","name:no":"Esztergom","name:pl":"Ostrzyhom","name:pt":"Esztergom","name:qu":"Esztergom","name:ro":"Esztergom","name:ru":"Эстергом","name:sco":"Esztergom","name:sh":"Estergom","name:sk":"Ostrihom","name:sl":"Esztergom","name:sr":"Острогон","name:sv":"Esztergom","name:tr":"Estergon","name:uk":"Естерґом","name:vi":"Esztergom","name:vo":"Esztergom","name:war":"Esztergom","name:zh":"埃斯泰尔戈姆","type":"boundary","wikipedia":"hu:Esztergom"},"labels":[{"id":"node/206292236","role":"admin_centre","coordinates":[18.740364,47.785706]}]},"geometry":{"type":"Polygon","coordinates":[[[18.70782,47.728832],[18.7095,47.73036],[18.713438,47.732277],[18.717936,47.73457],[18.720184,47.73572],[18.72188,47.73649],[18.722437,47.736866],[18.723005,47.736866],[18.723501,47.73641],[18.725164,47.735516],[18.725904,47.737244],[18.729364,47.734787],[18.728876,47.734463],[18.729809,47.73397],[18.731129,47.73259],[18.731695,47.73169],[18.731972,47.73137],[18.73311,47.73045],[18.735762,47.727715],[18.737488,47.72598],[18.740108,47.725296],[18.742346,47.72407],[18.743958,47.72398],[18.744524,47.722843],[18.745665,47.720943],[18.746237,47.720562],[18.74849,47.719807],[18.749622,47.719425],[18.750751,47.719055],[18.751316,47.71867],[18.751884,47.718674],[18.751883,47.719055],[18.75188,47.719437],[18.751879,47.71982],[18.752985,47.724003],[18.75972,47.729733],[18.764236,47.730507],[18.768742,47.730896],[18.774382,47.730907],[18.78115,47.73245],[18.789623,47.729805],[18.79246,47.728287],[18.794712,47.727528],[18.80545,47.724888],[18.807142,47.724514],[18.809402,47.724133],[18.815046,47.722626],[18.816736,47.72263],[18.819569,47.72187],[18.82069,47.721878],[18.820688,47.72225],[18.830286,47.721508],[18.83255,47.72037],[18.837065,47.718857],[18.839886,47.718483],[18.844408,47.71697],[18.846102,47.71583],[18.847803,47.71545],[18.84892,47.71545],[18.848925,47.714687],[18.847248,47.711258],[18.847258,47.708595],[18.846136,47.707073],[18.844452,47.70555],[18.844454,47.70479],[18.843895,47.7025],[18.843338,47.701355],[18.842213,47.70097],[18.842785,47.699833],[18.84222,47.69869],[18.841095,47.69755],[18.84054,47.6964],[18.840542,47.695637],[18.841677,47.6945],[18.846758,47.692608],[18.854074,47.695286],[18.855766,47.69681],[18.854065,47.69757],[18.85181,47.699085],[18.852367,47.69985],[18.851805,47.70061],[18.852362,47.70137],[18.852928,47.70175],[18.853485,47.7029],[18.853481,47.704037],[18.854605,47.705566],[18.855162,47.706703],[18.855158,47.707466],[18.852905,47.708607],[18.85233,47.710514],[18.851763,47.71165],[18.852318,47.71279],[18.853445,47.713936],[18.854572,47.7147],[18.856834,47.713562],[18.85795,47.714703],[18.859535,47.715065],[18.859646,47.71509],[18.861904,47.71586],[18.865282,47.715862],[18.866413,47.715477],[18.866608,47.71555],[18.86754,47.715866],[18.868664,47.71739],[18.871487,47.716633],[18.873178,47.715874],[18.87488,47.715115],[18.876007,47.71512],[18.879385,47.715885],[18.87995,47.716644],[18.881073,47.71589],[18.882772,47.71589],[18.869198,47.725388],[18.86694,47.725],[18.865822,47.724236],[18.864695,47.723854],[18.861872,47.724228],[18.859613,47.724228],[18.859045,47.724224],[18.858482,47.72461],[18.856785,47.727272],[18.856213,47.72803],[18.855648,47.72879],[18.855078,47.729553],[18.853943,47.73069],[18.852251,47.731453],[18.851688,47.732212],[18.849983,47.73335],[18.849422,47.733727],[18.84829,47.73449],[18.847725,47.73563],[18.847721,47.73715],[18.844885,47.73867],[18.843191,47.739807],[18.842058,47.740566],[18.841494,47.741714],[18.840195,47.742348],[18.838102,47.742466],[18.83528,47.74284],[18.83471,47.74284],[18.833021,47.74246],[18.830761,47.742455],[18.830198,47.742832],[18.829067,47.74321],[18.828506,47.74321],[18.827934,47.743587],[18.827374,47.743965],[18.826801,47.744728],[18.825106,47.746246],[18.82454,47.747387],[18.823965,47.74853],[18.82453,47.749676],[18.823956,47.75044],[18.82169,47.752335],[18.820557,47.752712],[18.818865,47.75309],[18.818863,47.753468],[18.81773,47.754227],[18.816595,47.75499],[18.816032,47.75575],[18.814898,47.75689],[18.813757,47.75917],[18.813194,47.759933],[18.812622,47.760307],[18.81262,47.760693],[18.812057,47.76107],[18.812614,47.761833],[18.812613,47.762596],[18.81261,47.762974],[18.814861,47.765266],[18.815985,47.766792],[18.816542,47.767555],[18.817667,47.768696],[18.817102,47.76946],[18.81427,47.771732],[18.815403,47.771355],[18.817097,47.770985],[18.818228,47.770985],[18.819918,47.77099],[18.821608,47.77137],[18.823303,47.77251],[18.82386,47.773277],[18.82385,47.775562],[18.824417,47.776325],[18.82497,47.77823],[18.824406,47.77899],[18.824404,47.77937],[18.824402,47.77975],[18.824955,47.78166],[18.825514,47.782036],[18.826082,47.782795],[18.82608,47.78318],[18.82664,47.78356],[18.826637,47.784325],[18.826635,47.784702],[18.827196,47.78661],[18.827755,47.787376],[18.827188,47.788513],[18.827183,47.789654],[18.82774,47.7908],[18.827175,47.791557],[18.827732,47.79232],[18.827728,47.793465],[18.827717,47.79651],[18.82771,47.798035],[18.827705,47.79917],[18.827702,47.799934],[18.827135,47.801456],[18.827133,47.801834],[18.827127,47.802982],[18.827112,47.806786],[18.8271,47.809452],[18.826527,47.810593],[18.825966,47.81059],[18.825392,47.811348],[18.824831,47.811348],[18.82314,47.811344],[18.822565,47.81173],[18.822002,47.81249],[18.821426,47.81363],[18.821405,47.818577],[18.81915,47.818573],[18.818022,47.818573],[18.816889,47.81857],[18.815195,47.818947],[18.81349,47.81933],[18.81066,47.82084],[18.809526,47.82122],[18.808393,47.821598],[18.80726,47.821594],[18.795958,47.823093],[18.793694,47.82309],[18.792002,47.823086],[18.781263,47.821987],[18.776745,47.82153],[18.775045,47.821148],[18.77392,47.82038],[18.772799,47.819992],[18.770542,47.818466],[18.768854,47.817703],[18.767155,47.817318],[18.766022,47.817314],[18.75247,47.81614],[18.747225,47.815063],[18.741179,47.813824],[18.74005,47.813442],[18.738918,47.81306],[18.737793,47.812294],[18.735548,47.81077],[18.734423,47.80962],[18.7333,47.808475],[18.73163,47.804665],[18.73107,47.803135],[18.731073,47.802376],[18.731108,47.79667],[18.731113,47.79552],[18.730556,47.79476],[18.729994,47.793617],[18.72832,47.790947],[18.727194,47.789803],[18.726068,47.78904],[18.718748,47.784832],[18.71763,47.784443],[18.716501,47.78406],[18.714804,47.78368],[18.711983,47.783287],[18.710295,47.7829],[18.709166,47.782516],[18.708036,47.782135],[18.706354,47.780987],[18.700167,47.776783],[18.69904,47.776016],[18.696245,47.77461],[18.683844,47.768353],[18.68216,47.767586],[18.6799,47.767204],[18.674828,47.76604],[18.673697,47.766037],[18.669756,47.764507],[18.659052,47.7618],[18.657362,47.761414],[18.655102,47.761406],[18.657969,47.75533],[18.660791,47.75496],[18.658533,47.754566],[18.659672,47.753433],[18.660248,47.75267],[18.66139,47.751152],[18.663094,47.749252],[18.664223,47.749256],[18.667599,47.750027],[18.672113,47.750805],[18.675533,47.746628],[18.676098,47.745865],[18.67837,47.74435],[18.678932,47.743973],[18.680069,47.742832],[18.681755,47.743603],[18.68289,47.74284],[18.685162,47.74133],[18.689127,47.738678],[18.690832,47.736774],[18.6914,47.73678],[18.699863,47.737564],[18.703808,47.73834],[18.707201,47.736446],[18.704391,47.734913],[18.70495,47.734913],[18.703295,47.729958],[18.70782,47.728832]]]}}
