{"type":"Feature","id":"relation/3080941","properties":{"type":"relation","id":3080941,"tags":{"addr:country":"RU","addr:district":"Маловишерский район","addr:region":"Новгородская область","addr:subdistrict":"Маловишерское городское поселение","admin_level":"10","boundary":"administrative","name":"Малая Вишера","name:de":"Malaja Wischera","name:en":"Malaya Vishera","name:et":"Malaja Višera","name:ru":"Малая Вишера","official_status":"ru:город","place":"town","type":"boundary"},"labels":[{"id":"node/2363198292","role":"admin_centre","coordinates":[32.21863,58.844215]}]},"geometry":{"type":"Polygon","coordinates":[[[32.191887,58.85083],[32.191425,58.84328],[32.191204,58.84243],[32.191326,58.84132],[32.190945,58.84056],[32.190605,58.838676],[32.188004,58.83856],[32.18728,58.835873],[32.19478,58.83382],[32.203674,58.83085],[32.211784,58.82845],[32.22594,58.830887],[32.22755,58.830235],[32.232277,58.82764],[32.24326,58.83022],[32.24045,58.835815],[32.25955,58.843773],[32.257275,58.84666],[32.248924,58.84887],[32.24045,58.850555],[32.240986,58.851837],[32.23327,58.853214],[32.238018,58.854813],[32.240402,58.855457],[32.248413,58.852425],[32.2545,58.855587],[32.241997,58.86134],[32.239677,58.860935],[32.237103,58.86162],[32.230583,58.860313],[32.228977,58.86038],[32.230717,58.862667],[32.224884,58.862305],[32.22513,58.860287],[32.223156,58.860138],[32.219982,58.859295],[32.218006,58.859734],[32.216892,58.863995],[32.210453,58.863598],[32.203033,58.857838],[32.20152,58.857037],[32.19582,58.854023],[32.196636,58.853302],[32.191887,58.85083]]]}}
