{"type":"Feature","id":"relation/6077829","properties":{"type":"relation","id":6077829,"tags":{"admin_level":"10","admin_type:FR":"quartier","alt_name":"Juan de Nova","alt_name:be":"Жуан дэ Нова","alt_name:be-tarask":"Жуан дэ Нова","alt_name:de":"Juan de Nova","alt_name:el":"Χουάν ντε Νόβα","alt_name:en":"Juan de Nova","alt_name:eo":"Ĵuan-de-la-Nova","alt_name:es":"Juan de Nova","alt_name:fa":"ژوان دو نوا","alt_name:fr":"Juan de Nova","alt_name:gl":"Juan de Nova","alt_name:id":"Juan de Nova","alt_name:ja":"フアン・デ・ノヴァ","alt_name:ka":"ჟუან-დი-ნოვა","alt_name:lij":"Gioan de Nova","alt_name:lv":"Žuana da Novas","alt_name:oc":"Juan de Nova","alt_name:pt":"João da Nova","alt_name:ru":"Жуан-ди-Нова","alt_name:sh":"Juan de Nova","alt_name:sr":"Хуан де Нова","alt_name:tr":"Juan De Nova","alt_name:uk":"Жуан-ді-Нова","alt_name:ur":"جوان ڈے نووا","alt_name:zh":"新胡安","border_type":"territorial","boundary":"administrative","country_code_fips":"JU","int_name":"Juan de Nova Island","name":"Île Juan de Nova","name:de":"Juan de Nova Insel","name:el":"Νήσος Χουάν ντε Νόβα","name:en":"Juan de Nova Island","name:eo":"Ĵuan-de-la-Nova Insulo","name:es":"Isla Juan de Nova","name:fr":"Île Juan de Nova","name:gl":"Illa Juan de Nova","name:id":"Pulau Juan de Nova","name:ja":"フアン・デ・ノヴァ島","name:lij":"Isoa Gioan de Nova","name:lv":"Žuana da Novas sala","name:oc":"Illa Juan de Nova","name:pt":"Ilha João da Nova","name:ru":"Остров Жуан-ди-Нова","name:sh":"Otok Juan de Nova","name:tr":"Juan De Nova Adası","name:ur":"جزیرہ جوان ڈے نووا","name:zh":"新胡安岛","old_name":"Johan de Nova;Joa de Nova;San-Christophoro;Saint-Christophe;Jean-de-Noves","old_name:es":"San-Christophoro","old_name:fr":"Johan de Nova;Joa de Nova;San-Christophoro;Saint-Christophe;Jean-de-Noves","old_name:nl":"San-Christophoro","old_name:pt":"Galega;Agalega","type":"boundary","wikipedia":"fr:Île Juan de Nova"},"labels":[{"id":"node/4076982798","role":"label","coordinates":[42.724648,-17.054884]}]},"geometry":{"type":"Polygon","coordinates":[[[42.591827,-17.222843],[42.598885,-17.227839],[42.625866,-17.241983],[42.64748,-17.251617],[42.667015,-17.257767],[42.70163,-17.264025],[42.736195,-17.264647],[42.771343,-17.260546],[42.80273,-17.255032],[42.832882,-17.244987],[42.86165,-17.230297],[42.888374,-17.211033],[42.911564,-17.187916],[42.93061,-17.161541],[42.945232,-17.132093],[42.95456,-17.101786],[42.958817,-17.070446],[42.957916,-17.03885],[42.951706,-17.007208],[42.93808,-16.972095],[42.91792,-16.940031],[42.891922,-16.91213],[42.862743,-16.889608],[42.817432,-16.866438],[42.763535,-16.851562],[42.709167,-16.844912],[42.673904,-16.846273],[42.64403,-16.851954],[42.61587,-16.861534],[42.58292,-16.878838],[42.55402,-16.901262],[42.5297,-16.92826],[42.510735,-16.95898],[42.497723,-16.992447],[42.49108,-17.027603],[42.491016,-17.063337],[42.497543,-17.098513],[42.509136,-17.129503],[42.52553,-17.157806],[42.54646,-17.183203],[42.574013,-17.209745],[42.591827,-17.222843]]]}}
