{"type":"Feature","id":"relation/4476498","properties":{"type":"relation","id":4476498,"tags":{"boundary":"political","name":"Reims-6","name:ar":"ريمس-6","name:be":"Рэймс-6","name:bg":"Реймс-6","name:ce":"Реймс-6","name:cs":"Remeš-6","name:cv":"Реймс-6","name:el":"Ρενς-6","name:fa":"رنس-6","name:fr":"Reims-6","name:he":"ריימס-6","name:hy":"Ռեյմս-6","name:ja":"ランス-6","name:ka":"რეიმსი-6","name:kk":"Реймс-6","name:ko":"랭스-6","name:la":"Durocortorum-6","name:lt":"Reimsas-6","name:lv":"Reimsa-6","name:mk":"Ремс-6","name:mr":"रेंस-6","name:mzn":"رنس-6","name:oc":"Rems-6","name:pnb":"رائیم-6","name:ru":"Реймс-6","name:sr":"Ремс-6","name:th":"แร็งส์-6","name:uk":"Реймс-6","name:zh":"兰斯-6","political_division":"canton","ref":"051-16","start_date":"2015-03","type":"boundary","wikipedia":"fr:Canton de Reims-6"},"labels":[{"id":"node/26686477","role":"admin_centre","coordinates":[4.0319257,49.257786]}]},"geometry":{"type":"Polygon","coordinates":[[[4.0283,49.263],[4.0281706,49.263165],[4.0282235,49.263218],[4.029569,49.26448],[4.028957,49.265163],[4.0289392,49.265182],[4.028496,49.265694],[4.02805,49.26614],[4.0275984,49.266605],[4.0274844,49.266693],[4.027155,49.267105],[4.0269604,49.26737],[4.0266433,49.267807],[4.026609,49.26786],[4.026392,49.268257],[4.0263214,49.268394],[4.0262094,49.268623],[4.025874,49.26929],[4.025812,49.269444],[4.0258026,49.269516],[4.025807,49.269573],[4.02582,49.269634],[4.025979,49.27032],[4.026097,49.270798],[4.025201,49.270996],[4.0248866,49.271072],[4.0248594,49.271076],[4.024755,49.271324],[4.024745,49.27135],[4.024646,49.271618],[4.024618,49.271683],[4.024469,49.27207],[4.024234,49.272686],[4.0242176,49.27273],[4.0239534,49.273464],[4.0238156,49.273834],[4.0238066,49.27387],[4.0237913,49.27391],[4.023638,49.274376],[4.023621,49.274445],[4.023528,49.274715],[4.0234447,49.274944],[4.0233984,49.275078],[4.023331,49.275272],[4.023295,49.27538],[4.0231056,49.27589],[4.0229716,49.276146],[4.0228662,49.276352],[4.0222344,49.277683],[4.0221267,49.27766],[4.02161,49.277527],[4.0187597,49.27674],[4.0183225,49.27732],[4.0179763,49.27758],[4.016786,49.27847],[4.0167294,49.27874],[4.0166464,49.278988],[4.0165505,49.279346],[4.0165625,49.279427],[4.01664,49.279476],[4.018906,49.28001],[4.0183625,49.280785],[4.017898,49.281456],[4.017716,49.281746],[4.017716,49.281902],[4.017768,49.28202],[4.017774,49.28204],[4.017937,49.282135],[4.018097,49.28219],[4.0191197,49.282448],[4.0201387,49.282726],[4.0203743,49.28281],[4.0205336,49.282875],[4.0205317,49.28298],[4.0205636,49.283073],[4.020596,49.283134],[4.0207977,49.283627],[4.021072,49.2843],[4.021082,49.284325],[4.021157,49.284515],[4.0211945,49.28461],[4.021189,49.284737],[4.02114,49.284885],[4.020941,49.28505],[4.019833,49.284847],[4.0168285,49.28429],[4.0163164,49.28417],[4.0159407,49.284058],[4.015542,49.283936],[4.0152364,49.283817],[4.0147786,49.283627],[4.0144362,49.283466],[4.0140886,49.283302],[4.013393,49.282925],[4.012325,49.28231],[4.0114493,49.281788],[4.009293,49.280464],[4.0088005,49.280212],[4.0081096,49.27982],[4.007605,49.279613],[4.004737,49.27798],[4.0043936,49.27783],[4.0054145,49.27778],[4.0062795,49.277637],[4.007374,49.277542],[4.0077343,49.27744],[4.0080705,49.27741],[4.0082645,49.277004],[4.008463,49.276043],[4.0085,49.275955],[4.0087733,49.275673],[4.008888,49.275597],[4.009588,49.27519],[4.0097995,49.275047],[4.0099363,49.27492],[4.010012,49.27479],[4.0102806,49.274036],[4.0103364,49.27393],[4.010408,49.273853],[4.010519,49.27374],[4.010697,49.273647],[4.0109553,49.273556],[4.0111237,49.273495],[4.01153,49.273357],[4.0115843,49.273335],[4.0116267,49.273296],[4.011838,49.273033],[4.0120354,49.272797],[4.0126023,49.27222],[4.012627,49.2722],[4.0126944,49.272152],[4.0126038,49.2721],[4.0120206,49.271725],[4.0115285,49.271328],[4.0112166,49.27095],[4.011118,49.270813],[4.0110116,49.270645],[4.0109715,49.270527],[4.010928,49.27035],[4.0108533,49.270035],[4.0108347,49.26994],[4.0107136,49.269096],[4.010494,49.267933],[4.010318,49.266914],[4.009987,49.264828],[4.0099697,49.26472],[4.00992,49.264404],[4.0099,49.264305],[4.0097585,49.2636],[4.009682,49.263157],[4.0095634,49.26249],[4.009539,49.262363],[4.0095134,49.262264],[4.008732,49.259666],[4.0096087,49.259117],[4.0096884,49.259068],[4.01071,49.25842],[4.0129027,49.25705],[4.0144863,49.25605],[4.015774,49.25524],[4.0170527,49.25543],[4.017434,49.255493],[4.018108,49.255653],[4.0187836,49.25586],[4.0193253,49.25608],[4.019679,49.25623],[4.0199523,49.25638],[4.0200787,49.25624],[4.0202217,49.256104],[4.022004,49.257473],[4.0227327,49.258415],[4.027231,49.26197],[4.0274286,49.26215],[4.0276895,49.262413],[4.0279274,49.262653],[4.028219,49.262936],[4.0283,49.263]]]}}
