{"type":"Feature","id":"relation/536900","properties":{"type":"relation","id":536900,"tags":{"ISO3166-1":"AG","ISO3166-1:alpha2":"AG","ISO3166-1:alpha3":"ATG","ISO3166-1:numeric":"028","admin_level":"2","boundary":"administrative","flag":"http://upload.wikimedia.org/wikipedia/commons/8/89/Flag_of_Antigua_and_Barbuda.svg","is_in:continent":"North America","name":"Antigua and Barbuda","name:ace":"Antigua ngon Barbuda","name:af":"Antigua en Barbuda","name:als":"Antigua und Barbuda","name:am":"አንቲጋ እና ባርቡዳ","name:an":"Antigua y Barbuda","name:ar":"أنتيغوا وباربودا","name:ast":"Antigua y Barbuda","name:ay":"Antiwa wan Barbuda","name:az":"Antiqua və Barbuda","name:bat-smg":"Antėgva ė Barbuda","name:bcl":"Antigwa asin Barbuda","name:be":"Антыгуа і Барбуда","name:be-tarask":"Антыгуа і Барбуда","name:bg":"Антигуа и Барбуда","name:bn":"অ্যান্টিগুয়া ও বার্বুডা","name:bo":"ཨེན་ཊི་གུའ་དང་བར་བུ་ཌ།","name:br":"Antigua ha Barbuda","name:bs":"Antigva i Barbuda","name:bxr":"Антигуа ба Барбуда","name:ca":"Antigua i Barbuda","name:ce":"Антигуа а Барбуда","name:ceb":"Antigua ug Barbuda","name:ckb":"ئانتیگوا و باربوودا","name:crh":"Antigua ve Barbuda","name:cs":"Antigua a Barbuda","name:cy":"Antigua a Barbuda","name:da":"Antigua og Barbuda","name:de":"Antigua und Barbuda","name:dsb":"Antigua a Barbuda","name:dv":"އެންޓިގުއާ އަދި ބާބިއުޑާ","name:ee":"Antigua and Barbuda","name:el":"Αντίγκουα και Μπαρμπούντα","name:en":"Antigua and Barbuda","name:eo":"Antigvo-Barbudo","name:es":"Antigua y Barbuda","name:et":"Antigua ja Barbuda","name:eu":"Antigua eta Barbuda","name:ext":"Antígua i Barbua","name:fa":"آنتیگوا و باربودا","name:fi":"Antigua ja Barbuda","name:fiu-vro":"Antigua ja Barbuda","name:fo":"Antigua og Barbuda","name:fr":"Antigua-et-Barbuda","name:frp":"Antigoa-et-Barbuda","name:frr":"Antiigua an Barbuuda","name:fy":"Antigua en Barbûda","name:ga":"Antigua agus Barbúda","name:gag":"Antigua hem Barbuda","name:gd":"Antigua agus Barbuda","name:gl":"Antiga e Barbuda - Antigua and Barbuda","name:gn":"Antigua ha Barbuda","name:gv":"Antigua as Barbuda","name:he":"אנטיגואה וברבודה","name:hi":"अण्टीगुआ और बारबूडा","name:hif":"Antigua and Barbuda","name:hr":"Antigva i Barbuda","name:hsb":"Antigua a Barbuda","name:ht":"Antigwa ak Babouda","name:hu":"Antigua és Barbuda","name:hy":"Անտիգուա և Բարբուդա","name:ia":"Antigua e Barbuda","name:id":"Antigua dan Barbuda","name:ilo":"Antigua ken Barbuda","name:io":"Antigua e Barbuda","name:is":"Antígva og Barbúda","name:it":"Antigua e Barbuda","name:ja":"アンティグア・バーブーダ","name:jv":"Antigua lan Barbuda","name:ka":"ანტიგუა და ბარბუდა","name:kk":"Антигуа және Барбуда","name:kn":"ಆಂಟಿಗುವ ಮತ್ತು ಬಾರ್ಬುಡ","name:ko":"앤티가 바부다","name:ku":"Antîgua û Berbûda","name:kw":"Antiga ha Barbuda","name:la":"Antigua et Barbuda","name:lb":"Antigua a Barbuda","name:li":"Antigua en Barbuda","name:lij":"Antigua e Barbuda","name:lmo":"Antigua e Barbuda","name:ln":"Antigua mpé Barbuda","name:lt":"Antigva ir Barbuda","name:lv":"Antigva un Barbuda","name:mk":"Антигва и Барбуда","name:ml":"ആന്റിഗ്വ ബർബുഡ","name:mr":"अँटिगा आणि बार्बुडा","name:mrj":"Антигуа дӓ Барбуда","name:ms":"Antigua dan Barbuda","name:mt":"Antigwa u Barbuda","name:my":"အင်တီဂွါနှင့် ဘာဘူဒါနိုင်ငံ","name:na":"Antigua me Barbuda","name:nah":"Antigua īhuān Barbuda","name:nds":"Antigua un Barbuda","name:ne":"एन्टिगुआ र बर्बुडा","name:nl":"Antigua en Barbuda","name:nn":"Antigua og Barbuda","name:no":"Antigua og Barbuda","name:nov":"Antigua e Barbuda","name:nv":"Antíígwa dóó Hashkʼaan Bikéyah Yázhí","name:oc":"Antigua e Barbuda","name:or":"ଆଣ୍ଟିଗୁଆ ଓ ବରବୁଡା","name:os":"Антигуæ æмæ Барбудæ","name:pa":"ਐਂਟੀਗੁਆ ਅਤੇ ਬਰਬੂਡਾ","name:pam":"Antigua at Barbuda","name:pl":"Antigua i Barbuda","name:pms":"Antigua e Barbuda","name:pnb":"انٹیگوا تے باربودا","name:pt":"Antígua e Barbuda","name:rm":"Antigua e Barbuda","name:ro":"Antigua și Barbuda","name:ru":"Антигуа и Барбуда","name:rue":"Антіґуа і Барбуда","name:rw":"Antigwa na Baribuda","name:sa":"अण्टीग्वा","name:sah":"Антигуа уонна Барбуда","name:scn":"Antigua e Barbuda","name:sco":"Antigua an Barbuda","name:se":"Antigua ja Barbuda","name:sh":"Antigva i Barbuda","name:simple":"Antigua and Barbuda","name:sk":"Antigua a Barbuda","name:sl":"Antigva in Barbuda","name:so":"Antigua iyo Barbuda","name:sq":"Antigua dhe Barbuda","name:sr":"Антигва и Барбуда","name:ss":"IBhabudi ne Anithikhu","name:su":"Antigua jeung Barbuda","name:sv":"Antigua och Barbuda","name:sw":"Antigua na Barbuda","name:ta":"அன்டிகுவா பர்புடா","name:te":"ఆంటిగ్వా మరియు బార్బుడా","name:tg":"Антигуаю Барбуда","name:th":"ประเทศแอนติกาและบาร์บูดา","name:tl":"Antigua at Barbuda","name:tr":"Antigua ve Barbuda","name:tt":"Антигуа һәм Барбуда","name:ug":"ئانتىگۇئا ۋە باربۇدا","name:uk":"Антигуа і Барбуда","name:ur":"اینٹیگوا و باربوڈا","name:uz":"Antigua va Barbuda","name:vec":"Antigua e Barbuda","name:vep":"Antigua da Barbud","name:vi":"Antigua và Barbuda","name:vo":"Lantigeän e Barbudeän","name:war":"Antigua ngan Barbuda","name:wo":"Antigua ak Barbuda","name:xal":"Антигуд болн Барбуд","name:yo":"Ántígúà àti Bàrbúdà","name:zh":"安提瓜和巴布达","name:zh-min-nan":"Antigua kap Barbuda","name:zh-yue":"安提瓜巴布達","population":"69842","timezone":"America/Antigua","type":"boundary","wikidata":"Q781","wikipedia":"fr:Antigua-et-Barbuda"},"labels":[{"id":"node/425746989","role":"admin_centre","coordinates":[-61.844852,17.118456]},{"id":"node/432424929","role":"label","coordinates":[-61.82225,17.079128]}]},"geometry":{"type":"MultiPolygon","coordinates":[[[[-62.10903,17.00562],[-61.961475,16.837713],[-61.959663,16.837],[-61.956966,16.835999],[-61.951202,16.834],[-61.94484,16.831999],[-61.94137,16.831],[-61.937664,16.83],[-61.933666,16.828999],[-61.930916,16.828],[-61.924706,16.824999],[-61.920258,16.823],[-61.917927,16.821999],[-61.91302,16.82],[-61.910427,16.819],[-61.904915,16.817],[-61.898872,16.814999],[-61.895607,16.814],[-61.89214,16.813],[-61.88843,16.812],[-61.884434,16.810999],[-61.880074,16.81],[-61.875233,16.809],[-61.869713,16.807999],[-61.863155,16.807],[-61.85459,16.806],[-61.836193,16.805],[-61.812576,16.805],[-61.8018,16.803],[-61.796955,16.802],[-61.791443,16.801],[-61.78488,16.8],[-61.77632,16.799],[-61.757923,16.798],[-61.75161,16.798],[-61.73321,16.799],[-61.715725,16.801],[-61.709164,16.802],[-61.70365,16.803],[-61.698803,16.803999],[-61.694443,16.805],[-61.69045,16.806],[-61.68674,16.807],[-61.683273,16.807999],[-61.670555,16.812],[-61.664513,16.814],[-61.659004,16.816],[-61.65391,16.817999],[-61.6515,16.819],[-61.64691,16.821],[-61.642597,16.823],[-61.638515,16.824999],[-61.63459,16.827],[-61.630814,16.828999],[-61.62721,16.831],[-61.622093,16.834],[-61.61886,16.835999],[-61.615746,16.838],[-61.61275,16.839998],[-61.60846,16.842999],[-61.605717,16.845],[-61.601772,16.848],[-61.598022,16.851],[-61.59443,16.854],[-61.590237,16.856],[-61.58435,16.859],[-61.578876,16.862],[-61.57376,16.865],[-61.568954,16.868],[-61.56442,16.871],[-61.560123,16.874],[-61.556046,16.876999],[-61.552166,16.88],[-61.54847,16.883],[-61.544937,16.886],[-61.540474,16.89],[-61.537285,16.893],[-61.53423,16.896],[-61.531303,16.899],[-61.52849,16.901999],[-61.523335,16.907],[-61.5194,16.911],[-61.51659,16.914],[-61.51301,16.918],[-61.510445,16.921],[-61.507984,16.924],[-61.503746,16.929],[-61.501312,16.932],[-61.498978,16.935],[-61.496723,16.938],[-61.493862,16.942],[-61.490482,16.947],[-61.487316,16.952],[-61.484432,16.956],[-61.48235,16.959],[-61.47968,16.963],[-61.47713,16.967],[-61.474716,16.970999],[-61.472427,16.974998],[-61.470257,16.979],[-61.467712,16.984],[-61.465797,16.987999],[-61.463135,16.994],[-61.4615,16.998],[-61.459225,17.004],[-61.457832,17.008],[-61.45593,17.014],[-61.454777,17.018],[-61.45322,17.024],[-61.451874,17.029999],[-61.450718,17.036],[-61.449764,17.042],[-61.449,17.048],[-61.448433,17.053999],[-61.44805,17.06],[-61.447857,17.066],[-61.447853,17.071999],[-61.44804,17.078],[-61.448414,17.084],[-61.44898,17.09],[-61.449734,17.095999],[-61.45068,17.102],[-61.451828,17.108],[-61.45317,17.114],[-61.454723,17.119999],[-61.456482,17.126],[-61.457767,17.13],[-61.459885,17.136],[-61.461422,17.14],[-61.46392,17.146],[-61.465717,17.15],[-61.46862,17.156],[-61.4707,17.16],[-61.472893,17.164],[-61.47462,17.167],[-61.47642,17.17],[-61.47829,17.173],[-61.480904,17.177],[-61.48366,17.181],[-61.487312,17.186],[-61.490406,17.19],[-61.491066,17.191],[-61.49268,17.194],[-61.494366,17.197],[-61.497322,17.202],[-61.499195,17.205],[-61.501144,17.208],[-61.504562,17.213],[-61.50745,17.217],[-61.5097,17.22],[-61.512035,17.223],[-61.51447,17.226],[-61.516994,17.229],[-61.51963,17.231998],[-61.522366,17.234999],[-61.52522,17.237999],[-61.52819,17.241],[-61.531284,17.244],[-61.534523,17.247],[-61.536755,17.248999],[-61.540237,17.251999],[-61.542645,17.254],[-61.546406,17.257],[-61.549007,17.258999],[-61.55004,17.259998],[-61.552944,17.264],[-61.556,17.268],[-61.559223,17.272],[-61.562622,17.276],[-61.5662,17.279999],[-61.569016,17.282999],[-61.57388,17.287998],[-61.57689,17.290998],[-61.580036,17.293999],[-61.582207,17.295998],[-61.586746,17.300001],[-61.591568,17.304],[-61.5967,17.308],[-61.600777,17.311],[-61.60508,17.314001],[-61.609623,17.317],[-61.614433,17.32],[-61.619556,17.323],[-61.625034,17.326],[-61.630928,17.329],[-61.635128,17.331],[-61.639584,17.333],[-61.644333,17.335],[-61.64943,17.337],[-61.652134,17.338],[-61.6579,17.34],[-61.66428,17.342],[-61.667057,17.343],[-61.672356,17.345],[-61.675175,17.346],[-61.68123,17.348],[-61.6841,17.348999],[-61.68111,17.35],[-61.677105,17.351],[-61.673386,17.352],[-61.669907,17.353],[-61.663525,17.355],[-61.657745,17.357],[-61.652443,17.359],[-61.64752,17.361],[-61.642918,17.362999],[-61.636517,17.366],[-61.63253,17.368],[-61.62691,17.371],[-61.62167,17.373999],[-61.61675,17.376999],[-61.612114,17.38],[-61.60916,17.382],[-61.60632,17.383999],[-61.602234,17.387],[-61.597088,17.390999],[-61.592255,17.394999],[-61.587708,17.398998],[-61.58342,17.403],[-61.579365,17.407],[-61.575527,17.411],[-61.57101,17.415998],[-61.567604,17.419998],[-61.563595,17.425],[-61.559834,17.429998],[-61.556313,17.435],[-61.553013,17.439999],[-61.549908,17.444998],[-61.546974,17.45],[-61.54424,17.455],[-61.541687,17.460001],[-61.538853,17.466],[-61.5371,17.47],[-61.535454,17.474],[-61.533913,17.478],[-61.53178,17.484],[-61.530487,17.487999],[-61.528717,17.494],[-61.527657,17.498],[-61.52623,17.504],[-61.525394,17.508],[-61.52465,17.512],[-61.523987,17.515999],[-61.52316,17.522],[-61.522713,17.526],[-61.522205,17.532],[-61.521973,17.536],[-61.52178,17.542],[-61.52176,17.546],[-61.521816,17.55],[-61.522064,17.556],[-61.522503,17.561998],[-61.523136,17.567999],[-61.523,17.57],[-61.522446,17.574],[-61.521984,17.578],[-61.521442,17.584],[-61.521187,17.588],[-61.52102,17.592001],[-61.52093,17.596],[-61.520927,17.6],[-61.521008,17.604],[-61.521175,17.608],[-61.52181,17.618],[-61.522274,17.624],[-61.5229,17.63],[-61.523724,17.636],[-61.524742,17.642],[-61.525528,17.646],[-61.52688,17.652],[-61.52843,17.657999],[-61.529827,17.664],[-61.53084,17.668],[-61.531933,17.671999],[-61.53335,17.678],[-61.53441,17.682],[-61.536167,17.688],[-61.537464,17.692],[-61.538857,17.696],[-61.540348,17.699999],[-61.541763,17.703999],[-61.543278,17.707998],[-61.544895,17.712],[-61.546616,17.716],[-61.548447,17.72],[-61.55039,17.723999],[-61.552444,17.727999],[-61.554615,17.731998],[-61.55726,17.737],[-61.558926,17.739998],[-61.561253,17.743998],[-61.563705,17.748001],[-61.566296,17.752],[-61.568325,17.755001],[-61.571873,17.76],[-61.57465,17.764],[-61.578312,17.769001],[-61.580627,17.772],[-61.583035,17.775],[-61.585514,17.778],[-61.588085,17.781],[-61.59076,17.784],[-61.59354,17.787],[-61.59644,17.789999],[-61.60043,17.794],[-61.603973,17.798],[-61.60771,17.802],[-61.611656,17.806],[-61.616867,17.810999],[-61.620228,17.814999],[-61.624687,17.82],[-61.62886,17.824999],[-61.632404,17.828999],[-61.63519,17.831999],[-61.63711,17.834],[-61.643093,17.84],[-61.647324,17.844],[-61.65181,17.848],[-61.656574,17.852],[-61.66164,17.855999],[-61.667053,17.859999],[-61.671364,17.862999],[-61.674374,17.865],[-61.677498,17.866999],[-61.682423,17.869999],[-61.68942,17.873999],[-61.693127,17.876],[-61.697018,17.877998],[-61.70325,17.880999],[-61.70772,17.883],[-61.71006,17.883999],[-61.71201,17.884998],[-61.71608,17.887999],[-61.72032,17.891],[-61.72479,17.894001],[-61.727913,17.896],[-61.73284,17.899],[-61.736305,17.901001],[-61.73993,17.903],[-61.74372,17.905],[-61.747715,17.907],[-61.75193,17.909],[-61.756397,17.911],[-61.76116,17.913],[-61.766273,17.915],[-61.768986,17.916],[-61.774773,17.918],[-61.78117,17.92],[-61.784653,17.921],[-61.78838,17.922],[-61.792393,17.923],[-61.79678,17.924],[-61.801647,17.925],[-61.80719,17.926],[-61.81378,17.927],[-61.822388,17.928],[-61.84088,17.929],[-61.849934,17.929],[-61.868427,17.928],[-61.877033,17.927],[-61.88363,17.926],[-61.88917,17.925],[-61.894035,17.924],[-61.89842,17.923],[-61.902435,17.922],[-61.90616,17.921],[-61.909645,17.92],[-61.91293,17.919],[-61.91604,17.918],[-61.921833,17.916],[-61.927147,17.914],[-61.934795,17.911],[-61.937214,17.91],[-61.94183,17.908],[-61.946163,17.906],[-61.95026,17.904001],[-61.95415,17.902],[-61.95786,17.9],[-61.9614,17.898],[-61.964787,17.896],[-61.968037,17.894001],[-61.971165,17.891998],[-61.977085,17.887999],[-61.982227,17.884998],[-61.985474,17.883],[-61.9886,17.880999],[-61.99161,17.878998],[-61.99592,17.876],[-61.998672,17.873999],[-62.002632,17.870998],[-62.005165,17.869],[-62.008823,17.866],[-62.011166,17.863998],[-62.014553,17.860998],[-62.01673,17.859],[-62.019886,17.855999],[-62.02191,17.853998],[-62.024853,17.851],[-62.027676,17.848],[-62.030388,17.845],[-62.032993,17.842],[-62.0355,17.838999],[-62.036427,17.838],[-62.038456,17.835999],[-62.041393,17.833],[-62.044216,17.83],[-62.04693,17.827],[-62.05038,17.823],[-62.05285,17.82],[-62.056,17.816],[-62.058258,17.813],[-62.061127,17.809],[-62.063187,17.806],[-62.06581,17.802],[-62.0683,17.798],[-62.07066,17.794],[-62.07289,17.789999],[-62.075005,17.786],[-62.077003,17.782],[-62.078888,17.778],[-62.080666,17.774],[-62.082336,17.77],[-62.0839,17.766],[-62.08537,17.762001],[-62.086735,17.758],[-62.088005,17.754],[-62.08918,17.75],[-62.090263,17.746],[-62.09173,17.739998],[-62.092606,17.735998],[-62.093395,17.731998],[-62.094097,17.727999],[-62.094707,17.723999],[-62.095234,17.72],[-62.095673,17.716],[-62.096176,17.71],[-62.09649,17.703999],[-62.096592,17.699999],[-62.09661,17.696],[-62.09648,17.689999],[-62.09616,17.684],[-62.095654,17.678],[-62.09495,17.671999],[-62.09406,17.666],[-62.09297,17.66],[-62.09213,17.656],[-62.091206,17.652],[-62.09019,17.648],[-62.08908,17.644],[-62.087875,17.64],[-62.086575,17.636],[-62.084446,17.63],[-62.0829,17.626],[-62.081257,17.622],[-62.079502,17.618],[-62.07764,17.614],[-62.07567,17.61],[-62.073593,17.606],[-62.07197,17.603],[-62.07028,17.6],[-62.069946,17.597998],[-62.070255,17.592001],[-62.070354,17.588],[-62.070354,17.581999],[-62.070168,17.575998],[-62.069954,17.571999],[-62.069496,17.565998],[-62.068863,17.56],[-62.068333,17.556],[-62.067375,17.55],[-62.066624,17.546],[-62.065334,17.539999],[-62.064365,17.536],[-62.062737,17.529999],[-62.061535,17.526],[-62.060238,17.522],[-62.05884,17.518],[-62.057346,17.514],[-62.055756,17.51],[-62.053165,17.504],[-62.050335,17.498],[-62.047245,17.492],[-62.045605,17.489],[-62.04389,17.486],[-62.04211,17.483],[-62.040257,17.48],[-62.037678,17.476],[-62.03567,17.473],[-62.03358,17.47],[-62.03141,17.467001],[-62.02916,17.464],[-62.026814,17.461],[-62.022694,17.456001],[-62.020092,17.453001],[-62.01738,17.45],[-62.014557,17.447],[-62.01261,17.444998],[-62.009594,17.442001],[-62.007507,17.439999],[-62.003155,17.435999],[-61.9974,17.430998],[-61.993748,17.428],[-61.99122,17.425999],[-61.9859,17.421999],[-61.98167,17.418999],[-61.97872,17.417],[-61.97566,17.414999],[-61.970837,17.411999],[-61.965702,17.408998],[-61.96022,17.405998],[-61.95431,17.403],[-61.950108,17.401],[-61.945644,17.398998],[-61.943306,17.397999],[-61.938385,17.396],[-61.935783,17.394999],[-61.930252,17.393],[-61.9273,17.392],[-61.920914,17.39],[-61.917435,17.389],[-61.913715,17.387999],[-61.909706,17.387],[-61.90533,17.386],[-61.900475,17.385],[-61.88913,17.383],[-61.884663,17.38],[-61.879936,17.376999],[-61.874916,17.373999],[-61.869553,17.371],[-61.8689,17.369999],[-61.874424,17.369],[-61.879272,17.368],[-61.883644,17.366999],[-61.88765,17.366],[-61.891365,17.365],[-61.89484,17.364],[-61.90121,17.362],[-61.906982,17.359999],[-61.912285,17.358],[-61.919857,17.355],[-61.927372,17.353],[-61.93085,17.352],[-61.934124,17.351],[-61.940174,17.348999],[-61.942997,17.348],[-61.94829,17.346],[-61.95321,17.344],[-61.957806,17.342],[-61.962128,17.34],[-61.966217,17.338],[-61.970093,17.336],[-61.97379,17.334],[-61.979023,17.331],[-61.983936,17.328001],[-61.988564,17.325],[-61.992943,17.322],[-61.99709,17.319],[-62.00231,17.315],[-62.006012,17.312],[-62.01069,17.308],[-62.014015,17.305],[-62.018238,17.301],[-62.02223,17.297],[-62.02601,17.293],[-62.02959,17.289],[-62.032986,17.284998],[-62.036205,17.280998],[-62.040005,17.276],[-62.042168,17.272999],[-62.044247,17.269999],[-62.046246,17.266998],[-62.048172,17.264],[-62.05002,17.261],[-62.051792,17.258],[-62.0535,17.255],[-62.055668,17.251],[-62.05832,17.248],[-62.060883,17.244999],[-62.063343,17.241999],[-62.065716,17.238998],[-62.067993,17.236],[-62.070183,17.233],[-62.07229,17.23],[-62.07433,17.227],[-62.076946,17.223],[-62.080036,17.218],[-62.0832,17.213],[-62.085583,17.209],[-62.088383,17.204],[-62.090492,17.2],[-62.093437,17.194],[-62.09526,17.19],[-62.0978,17.184],[-62.09936,17.18],[-62.100822,17.176],[-62.10218,17.171999],[-62.104046,17.166],[-62.10478,17.164],[-62.10756,17.157999],[-62.110096,17.152],[-62.1124,17.146],[-62.11381,17.141998],[-62.115124,17.137999],[-62.11692,17.132],[-62.1185,17.126],[-62.11988,17.119999],[-62.12069,17.116],[-62.12141,17.112],[-62.122322,17.105999],[-62.122826,17.102],[-62.123245,17.098],[-62.123714,17.092],[-62.123924,17.088],[-62.124046,17.084],[-62.124084,17.08],[-62.124043,17.076],[-62.123817,17.07],[-62.12356,17.066],[-62.123226,17.061998],[-62.12256,17.056],[-62.122005,17.052],[-62.121372,17.048],[-62.120255,17.042],[-62.118935,17.036],[-62.117416,17.029999],[-62.116283,17.026],[-62.115063,17.022],[-62.113747,17.018],[-62.11233,17.014],[-62.110817,17.01],[-62.10903,17.00562]]],[[[-62.33035,17.146803],[-62.55365,16.899313],[-62.552845,16.894999],[-62.551994,16.890999],[-62.550537,16.885],[-62.549458,16.881],[-62.54766,16.875],[-62.546345,16.871],[-62.54493,16.867],[-62.543415,16.862999],[-62.540955,16.857],[-62.53918,16.853],[-62.5373,16.848999],[-62.53531,16.845],[-62.532654,16.839998],[-62.530396,16.835999],[-62.527397,16.831],[-62.52485,16.827],[-62.521473,16.821999],[-62.518612,16.817999],[-62.51559,16.814],[-62.512413,16.81],[-62.509068,16.806],[-62.505535,16.802],[-62.501812,16.798],[-62.498882,16.795],[-62.49479,16.791],[-62.491554,16.788],[-62.487022,16.784],[-62.48344,16.781],[-62.479687,16.778],[-62.475746,16.775],[-62.4716,16.772],[-62.467236,16.769],[-62.46261,16.765999],[-62.459373,16.764],[-62.45426,16.761],[-62.45066,16.758999],[-62.447582,16.75739],[-62.140064,17.015297],[-62.140324,17.016],[-62.141914,17.02],[-62.144485,17.026],[-62.146336,17.029999],[-62.1483,17.034],[-62.150375,17.038],[-62.153137,17.043],[-62.155487,17.046999],[-62.157967,17.050999],[-62.160576,17.054998],[-62.163326,17.059],[-62.166225,17.063],[-62.16928,17.067],[-62.1725,17.071],[-62.175896,17.075],[-62.178555,17.078],[-62.182278,17.082],[-62.185207,17.085],[-62.18931,17.089],[-62.19254,17.092],[-62.19707,17.095999],[-62.200653,17.098999],[-62.20441,17.102],[-62.20835,17.105],[-62.2125,17.108],[-62.21687,17.111],[-62.221493,17.114],[-62.22473,17.116],[-62.229847,17.119],[-62.233456,17.121],[-62.239193,17.123999],[-62.24328,17.126],[-62.247593,17.127998],[-62.252186,17.13],[-62.257095,17.132],[-62.26239,17.133999],[-62.26815,17.136],[-62.27452,17.137999],[-62.277992,17.139],[-62.281696,17.14],[-62.285698,17.140999],[-62.290066,17.141998],[-62.29491,17.143],[-62.30043,17.144],[-62.306995,17.144999],[-62.315563,17.146],[-62.33035,17.146803]]]]}}
