{"type":"Feature","id":"relation/2514541","properties":{"type":"relation","id":2514541,"tags":{"admin_level":"3","border_type":"state","boundary":"administrative_fraction","flag":"http://upload.wikimedia.org/wikipedia/commons/1/1e/Flag_of_the_Turkish_Republic_of_Northern_Cyprus.svg","name":"Kuzey Kıbrıs","name:ace":"Siprus Barôh","name:af":"Noord-Siprus","name:an":"Norte de Chipre","name:ar":"قبرص الشمالية","name:arz":"قبرص الشماليه","name:az":"Şimali Kipr","name:ba":"Төньяҡ Кипр","name:be":"Паўночны Кіпр","name:bg":"Северен Кипър","name:br":"Kiprenez an Norzh","name:bs":"Sjeverni Kipar","name:ca":"Xipre del Nord","name:ckb":"قوبرسی باکوور","name:crh":"Şimaliy Qıbrız","name:cs":"Severní Kypr","name:cy":"Gogledd Cyprus","name:da":"Nordcypern","name:de":"Nordzypern","name:diq":"Qıbrısê Zımey","name:dv":"އުތުރު ސައިޕްރަސް","name:el":"Βόρεια Κύπρος","name:eo":"Norda Kipro","name:es":"Norte de Chipre","name:et":"Põhja-Küprose","name:eu":"Ipar Zipre","name:fa":"جمهوری ترک قبرس شمالی","name:fi":"Pohjois-Kypros","name:fr":"Chypre du Nord","name:frp":"Ch·ipre du Nord","name:gag":"Poyraz Kipra","name:gl":"Norte de Chipre","name:gv":"Yn Cheeprey Hwoaie","name:he":"הרפובליקה הטורקית של צפון קפריסין","name:hi":"उत्तरी साइप्रस","name:hr":"Sjeverni Cipar","name:hu":"Észak-Ciprus","name:hy":"Հյուսիսային Կիպրոսի Թուրքական Հանրապետություն","name:id":"Siprus Utara","name:io":"Nordala Chipro","name:is":"Norður-Kýpur","name:it":"Cipro del Nord","name:ja":"北キプロス・トルコ共和国","name:jv":"Siprus Lor","name:ka":"ჩრდილოეთი კვიპროსი","name:kaa":"Arqa Kipr","name:kk":"Солтүстік Кипр","name:ko":"북키프로스","name:ku":"Bakurê Kîprosê","name:kw":"Kobros Kledh","name:la":"Cypri Septemtrionalis","name:lad":"Norte de Kipre","name:lb":"Nordzypern","name:lbe":"Ухссавнил Кипр","name:li":"Noord-Cyprus","name:lt":"Turkų Kipras","name:lv":"Ziemeļkipra","name:mg":"Ny Kipra","name:mk":"Северен Кипар","name:mr":"उत्तर सायप्रस","name:mrj":"Йыдвел Кипр","name:ms":"Cyprus Utara","name:nds":"Noordzypern","name:nl":"Noord-Cyprus","name:nn":"Nord-Kypros","name:no":"Nord-Kypros","name:nv":"Béésh Łichíiʼii Bikéyah Náhookǫsjígo Siʼanígíí","name:oc":"Chipre del Nòrd","name:or":"ଉତ୍ତର ସାଇପ୍ରସ","name:os":"Цæгат Кипр","name:pa":"ਉੱਤਰੀ ਸਾਈਪ੍ਰਸ","name:pl":"Cypr Północny","name:pms":"Cipro Nòrd","name:pnb":"ترک جمہوریہ شمالی قبرص","name:pt":"Chipre do Norte","name:ro":"Ciprului de Nord","name:ru":"Турецкая Республика Северного Кипра","name:rw":"Shipure y’Amajyaruguru","name:scn":"Cipru dû Nord","name:sco":"Northren Cyprus","name:sh":"Sjeverni Kipar","name:sk":"Severný Cyprus","name:sl":"Severni Ciper","name:sq":"Qiproja Veriore","name:sr":"Северни Кипар","name:su":"Северни Кипар","name:sv":"Nordcypern","name:sw":"Kupro ya Kaskazini","name:ta":"வடக்கு சைப்பிரசு","name:th":"ไซปรัสเหนือ","name:tk":"Demirgazyk Kipr","name:tl":"Hilagang Tsipre","name:tr":"Kuzey Kıbrıs","name:tt":"Тө́ньяк Кипр","name:uk":"Північний Кіпр","name:ur":"ترک جمہوریہ شمالی قبرص","name:vi":"Bắc Síp","name:vo":"Nolüda-Sipreän","name:war":"Amihanan Cyprus","name:wuu":"北塞浦路斯","name:xal":"Ар Кипрудин Таңһч","name:yo":"Apáàríwá Kíprù","name:yue":"北塞浦路斯","name:zh":"北賽普勒斯","official_name":"Kuzey Kıbrıs Türk Cumhuriyeti","official_name:an":"Republica Turca d'o Norte de Chipre","official_name:ast":"República Turca de Xipre del Norte","official_name:az":"Şimali Kipr Türk Respublikası","official_name:ba":"Төньяҡ Кипр Төрөк Республикаһы","official_name:bg":"Севернокипърска турска република","official_name:br":"Republik Turk Kiprenez an Norzh","official_name:bs":"Turska Republika Sjeverni Kipar","official_name:ca":"República Turca de Xipre del Nord","official_name:ce":"Къилбаседан Кипрера Туркойн Пачхьалкх","official_name:crh":"Şimaliy Qıbrız Türk Cumhuriyeti","official_name:cs":"Severokyperská turecká republika","official_name:de":"Türkische Republik Nordzypern","official_name:diq":"Cumhuriyetê Tırkê Qıbrısê Zımey","official_name:el":"Τουρκική Δημοκρατία της Βόρειας Κύπρου","official_name:en":"Turkish Republic of Northern Cyprus","official_name:eo":"Turka Respubliko Norda Kipro","official_name:es":"República Turca del Norte de Chipre","official_name:et":"Põhja-Küprose Türgi Vabariik","official_name:eu":"Ipar Zipreko Turkiar Errepublika","official_name:fi":"Pohjois-Kyproksen turkkilainen tasavalta","official_name:fr":"République turque de Chypre du Nord","official_name:frp":"Rèpublica turca de Ch·ipre du Nord","official_name:gag":"Poyraz Kipra Türk Respublikası","official_name:gl":"República Turca do Norte de Chipre","official_name:hr":"Turska Republika Sjeverni Cipar","official_name:hu":"Észak-ciprusi Török Köztársaság","official_name:id":"Republik Turki Siprus Utara","official_name:io":"Turkiana republiko di nordala Chipro","official_name:is":"Tyrkneska lýðveldið á Norður-Kýpur","official_name:it":"Repubblica Turca di Cipro del Nord","official_name:kaa":"Arqa Kipr Tu'rk Respublikası","official_name:kk":"Солтүстік Кипр Түрік Республикасы","official_name:ku":"Komara Tirk a Bakurê Kîprosê","official_name:kw":"Repoblek Turkek Kobros Kledh","official_name:la":"Res Publica Cypri Septemtrionalis","official_name:lad":"Repuvlika Turkana del Norte de Kipre","official_name:lb":"Tierkesch Republik Nordzypern","official_name:li":"Turkse Rippubliek Noord-Cyprus","official_name:mg":"Repoblika Torka ny Kipra","official_name:mk":"Турска Република Северен Кипар","official_name:ms":"Republik Turki Cyprus Utara","official_name:oc":"Republica Turca de Chipre del Nòrd","official_name:pms":"Repùblica Turca ëd Cipro Nòrd","official_name:pt":"República Turca de Chipre do Norte","official_name:ro":"Republica Turcă a Ciprului de Nord","official_name:ru":"Турецкая Республика Северного Кипра","official_name:sh":"Turska Republika Sjeverni Kipar","official_name:sk":"Severocyperská turecká republika","official_name:sr":"Турска Република Северни Кипар","official_name:su":"Républik Turki Siprus Kalér","official_name:sw":"Jamhuri ya Kituruki ya Kupro ya Kaskazini","official_name:tk":"Demirgazyk Kipr türk respublikasy","official_name:tl":"Republikang Turko ng Hilagang Tsipre","official_name:tr":"Kuzey Kıbrıs Türk Cumhuriyeti","official_name:tt":"Төньяк Кипрның Төрек Җөмһүрияте","official_name:uk":"Турецька Республіка Північного Кіпру","official_name:wuu":"北塞浦路斯土耳基人共和国","official_name:zh":"北賽普勒斯土耳其共和國","place":"state","type":"boundary","wikidata":"Q23681","wikipedia":"en:Northern Cyprus"},"labels":[{"id":"node/1893015330","role":"admin_centre","coordinates":[33.364723,35.173927]}]},"geometry":{"type":"Polygon","coordinates":[[[33.902477,35.077103],[33.903362,35.074043],[33.904457,35.073032],[33.90566,35.07217],[33.906204,35.07178],[33.90662,35.07167],[33.908943,35.070534],[33.920784,35.068604],[33.92348,35.068336],[33.92419,35.06766],[33.92522,35.06748],[33.92617,35.067726],[33.927616,35.067825],[33.929234,35.06823],[33.932053,35.067554],[33.93739,35.069256],[33.938583,35.069416],[33.941025,35.070557],[33.943573,35.07061],[33.9488,35.07294],[33.94873,35.073185],[33.949444,35.073357],[33.949783,35.073307],[33.95061,35.073696],[33.951115,35.074207],[33.952774,35.07481],[33.954987,35.074364],[33.955933,35.07411],[33.956734,35.073296],[33.959873,35.074356],[33.96178,35.074524],[33.963436,35.075394],[33.96453,35.075497],[33.96509,35.075222],[33.965836,35.075176],[33.96674,35.074516],[33.967,35.07376],[33.967194,35.07351],[33.967487,35.073154],[33.971447,35.071823],[33.97236,35.070877],[33.97308,35.070038],[33.976124,35.069584],[33.977654,35.06878],[33.97953,35.068214],[33.98169,35.067528],[33.98498,35.06869],[33.988106,35.06918],[33.9934,35.06981],[33.99504,35.07014],[33.998276,35.07016],[33.998894,35.069794],[34.23052,35.176643],[34.241135,35.18478],[34.252274,35.194435],[34.262623,35.204674],[34.272137,35.215446],[34.280777,35.2267],[34.28818,35.237873],[34.448383,35.325047],[34.460934,35.33233],[34.462845,35.333523],[34.554836,35.39155],[34.7021,35.47447],[34.71071,35.47953],[34.723385,35.48786],[34.73537,35.496857],[34.74661,35.50647],[34.749073,35.508755],[34.758804,35.51791],[34.76679,35.525814],[34.776413,35.53655],[34.785152,35.547768],[34.79298,35.559425],[34.794353,35.561672],[34.829754,35.6205],[34.83527,35.63031],[34.841183,35.642704],[34.841183,35.642704],[34.84609,35.655388],[34.84997,35.66831],[34.852814,35.681404],[34.854595,35.69463],[34.855316,35.707916],[34.854973,35.721214],[34.853558,35.734467],[34.851086,35.747612],[34.847565,35.7606],[34.843002,35.773373],[34.843002,35.773373],[34.83743,35.785873],[34.83086,35.798046],[34.823322,35.80985],[34.814857,35.821224],[34.80549,35.83212],[34.795265,35.842495],[34.78423,35.8523],[34.772427,35.861496],[34.759903,35.87004],[34.746723,35.8779],[34.732933,35.885044],[34.718597,35.89143],[34.703777,35.89704],[34.688534,35.901848],[34.688534,35.901848],[34.67294,35.905834],[34.657055,35.90898],[34.64095,35.91127],[34.624695,35.912693],[34.60836,35.91325],[34.592014,35.912937],[34.57573,35.911747],[34.559578,35.90969],[34.543625,35.906784],[34.52794,35.903027],[34.52794,35.903027],[34.513386,35.898705],[34.338043,35.84135],[34.337254,35.84109],[34.330723,35.83884],[34.076366,35.747246],[34.067997,35.74407],[34.05358,35.737843],[34.0397,35.730854],[34.02641,35.72314],[34.02439,35.721874],[33.937126,35.666393],[33.681458,35.603832],[33.673153,35.60166],[33.659092,35.597363],[33.55345,35.56203],[33.302013,35.553833],[33.15606,35.569454],[32.970062,35.601242],[32.96606,35.601894],[32.94997,35.603962],[32.93375,35.605167],[32.917465,35.605495],[32.90119,35.604954],[32.885,35.603542],[32.86895,35.601265],[32.85312,35.598133],[32.837578,35.594162],[32.822388,35.589363],[32.807617,35.58377],[32.793327,35.57739],[32.77958,35.570263],[32.766438,35.562412],[32.753952,35.55388],[32.742184,35.54469],[32.731174,35.534893],[32.720974,35.524525],[32.71163,35.513638],[32.70318,35.502266],[32.695656,35.490475],[32.6891,35.478302],[32.68353,35.465805],[32.678967,35.453037],[32.67544,35.44005],[32.672962,35.426907],[32.671535,35.41365],[32.671173,35.40064],[32.67119,35.39912],[32.669754,35.39912],[32.643578,35.39912],[32.64095,35.399113],[32.624718,35.398533],[32.60857,35.397083],[32.59257,35.39477],[32.580173,35.39236],[32.49053,35.372868],[32.487152,35.37211],[32.59308,35.17848],[32.597767,35.174374],[32.599102,35.173656],[32.600227,35.172546],[32.60107,35.17191],[32.60107,35.17119],[32.600887,35.17069],[32.60108,35.169987],[32.601974,35.169266],[32.603394,35.169456],[32.604767,35.169296],[32.606544,35.169754],[32.60743,35.170193],[32.608665,35.17027],[32.609577,35.170128],[32.612495,35.1717],[32.61558,35.17661],[32.6197,35.179962],[32.62482,35.187283],[32.628353,35.189316],[32.628464,35.18916],[32.628567,35.189075],[32.628635,35.189007],[32.628742,35.188904],[32.62886,35.188854],[32.62904,35.188816],[32.629215,35.188766],[32.62957,35.188713],[32.63,35.188705],[32.630493,35.188683],[32.63112,35.188763],[32.631275,35.18882],[32.631474,35.188934],[32.6318,35.189224],[32.631966,35.18931],[32.632137,35.189327],[32.63224,35.189404],[32.632317,35.189514],[32.632374,35.18951],[32.63243,35.18948],[32.632446,35.189377],[32.632507,35.18932],[32.63257,35.18927],[32.632668,35.18927],[32.632805,35.189247],[32.63292,35.189117],[32.632954,35.189087],[32.63306,35.189034],[32.633053,35.188984],[32.6331,35.18894],[32.633167,35.188904],[32.63334,35.18882],[32.63341,35.188732],[32.633663,35.188644],[32.633812,35.188606],[32.6339,35.188595],[32.634136,35.188606],[32.63484,35.188805],[32.635075,35.188927],[32.635387,35.189083],[32.635635,35.189217],[32.635845,35.189407],[32.63593,35.18954],[32.63608,35.189713],[32.63622,35.189865],[32.636227,35.189953],[32.63631,35.190033],[32.636387,35.19004],[32.636524,35.19002],[32.63658,35.19004],[32.636692,35.190063],[32.636856,35.19007],[32.637157,35.190037],[32.637318,35.190025],[32.637497,35.190018],[32.637627,35.190033],[32.637928,35.190117],[32.63804,35.190163],[32.63815,35.190228],[32.638382,35.190376],[32.638515,35.190514],[32.6386,35.190563],[32.638786,35.19054],[32.639404,35.19078],[32.639824,35.191086],[32.640194,35.191383],[32.64049,35.19164],[32.64085,35.191868],[32.64123,35.192135],[32.64153,35.192352],[32.641884,35.19263],[32.642216,35.19292],[32.64241,35.19327],[32.642452,35.193485],[32.642452,35.19359],[32.642353,35.19368],[32.642338,35.193752],[32.642296,35.193813],[32.642403,35.194046],[32.642303,35.19425],[32.64219,35.194305],[32.64216,35.19438],[32.64213,35.194424],[32.642063,35.194458],[32.64202,35.19451],[32.641876,35.19459],[32.64188,35.194706],[32.641968,35.19484],[32.641994,35.194992],[32.642044,35.195026],[32.64211,35.194992],[32.642246,35.19509],[32.642334,35.195137],[32.642433,35.195072],[32.643013,35.19521],[32.64393,35.194855],[32.644135,35.19456],[32.64476,35.194237],[32.644787,35.193928],[32.64481,35.193817],[32.644894,35.193745],[32.645035,35.19367],[32.645195,35.19363],[32.645374,35.19361],[32.64555,35.193634],[32.64574,35.193684],[32.64589,35.193783],[32.645947,35.193916],[32.64591,35.19402],[32.64585,35.19407],[32.645844,35.194088],[32.645878,35.194107],[32.645966,35.194084],[32.64601,35.194138],[32.64601,35.194176],[32.64605,35.1942],[32.64612,35.194252],[32.646217,35.194283],[32.646255,35.194305],[32.646317,35.19433],[32.646465,35.1943],[32.646454,35.19441],[32.646492,35.194492],[32.646633,35.194504],[32.6467,35.194572],[32.64682,35.19457],[32.646866,35.194607],[32.64689,35.194683],[32.646904,35.194736],[32.647034,35.194767],[32.647125,35.194717],[32.647133,35.194798],[32.64712,35.194843],[32.647152,35.19488],[32.647278,35.19492],[32.647358,35.194862],[32.647366,35.19475],[32.647415,35.194748],[32.647465,35.19478],[32.647526,35.194794],[32.64766,35.194916],[32.647655,35.19497],[32.647617,35.19502],[32.647655,35.19505],[32.64765,35.1951],[32.647606,35.19516],[32.647644,35.195232],[32.647736,35.195267],[32.64793,35.19524],[32.647953,35.195286],[32.64798,35.195297],[32.64806,35.19528],[32.648125,35.195305],[32.648243,35.195293],[32.64827,35.195263],[32.648327,35.195244],[32.648403,35.195248],[32.648438,35.1952],[32.648525,35.195175],[32.64859,35.195183],[32.648685,35.195168],[32.648804,35.19516],[32.649567,35.195004],[32.650505,35.19526],[32.650818,35.19526],[32.65113,35.19526],[32.653008,35.195396],[32.653164,35.195137],[32.65348,35.19488],[32.65348,35.194366],[32.65348,35.194115],[32.65364,35.1936],[32.653954,35.19373],[32.654266,35.19373],[32.65458,35.19347],[32.65552,35.193214],[32.65582,35.19327],[32.656322,35.19367],[32.65677,35.193737],[32.65708,35.193993],[32.6574,35.193993],[32.657707,35.193993],[32.658962,35.194],[32.6599,35.194004],[32.660213,35.194004],[32.660526,35.193745],[32.661156,35.193623],[32.661312,35.193363],[32.661625,35.192852],[32.661938,35.192593],[32.6621,35.19208],[32.662727,35.191956],[32.66367,35.1917],[32.66429,35.1917],[32.664917,35.19196],[32.66523,35.192215],[32.665543,35.192215],[32.66648,35.192223],[32.66675,35.19252],[32.667244,35.192913],[32.667572,35.192867],[32.667732,35.19338],[32.66804,35.193512],[32.668354,35.193768],[32.66898,35.193768],[32.669605,35.193516],[32.66992,35.193256],[32.670547,35.19313],[32.670395,35.1921],[32.670086,35.19159],[32.67016,35.191456],[32.670322,35.191257],[32.670418,35.191223],[32.670467,35.19127],[32.670506,35.19128],[32.670685,35.191223],[32.67129,35.191025],[32.671947,35.190804],[32.672012,35.190742],[32.672054,35.19065],[32.67257,35.190426],[32.672688,35.190407],[32.67301,35.190273],[32.673374,35.190155],[32.674168,35.189865],[32.67478,35.18965],[32.674786,35.189644],[32.674786,35.189632],[32.674778,35.189606],[32.674755,35.189598],[32.67472,35.189606],[32.67471,35.189598],[32.674706,35.189583],[32.674694,35.18957],[32.67467,35.189564],[32.674633,35.18958],[32.67464,35.189613],[32.674633,35.189625],[32.673595,35.18998],[32.673046,35.19016],[32.672745,35.190258],[32.671814,35.190563],[32.671753,35.190437],[32.671684,35.190434],[32.67164,35.190464],[32.67164,35.19051],[32.67168,35.190575],[32.670853,35.190826],[32.670776,35.19065],[32.670734,35.19044],[32.670845,35.190426],[32.670822,35.19031],[32.67071,35.190334],[32.670605,35.189857],[32.671494,35.189457],[32.671547,35.189552],[32.67179,35.190025],[32.671844,35.19001],[32.671867,35.19008],[32.6719,35.190094],[32.671947,35.190083],[32.671986,35.190025],[32.671978,35.189976],[32.671883,35.189835],[32.671806,35.189663],[32.671722,35.189514],[32.671623,35.18937],[32.671654,35.189304],[32.671635,35.18923],[32.67149,35.18916],[32.671494,35.189117],[32.671516,35.189087],[32.671535,35.18906],[32.671577,35.18905],[32.67163,35.189064],[32.671677,35.189056],[32.671703,35.189045],[32.671753,35.189003],[32.67185,35.188847],[32.671906,35.188816],[32.67206,35.188763],[32.672066,35.188744],[32.67211,35.188732],[32.672203,35.18865],[32.67234,35.18855],[32.672665,35.188366],[32.67296,35.188282],[32.673183,35.1882],[32.673294,35.18819],[32.673504,35.18815],[32.673725,35.18806],[32.673786,35.18806],[32.673866,35.18805],[32.67402,35.188328],[32.674057,35.188435],[32.6741,35.18848],[32.674137,35.188477],[32.674152,35.188454],[32.674152,35.188423],[32.67413,35.188366],[32.67411,35.188305],[32.674072,35.188244],[32.67397,35.188034],[32.674038,35.187973],[32.6744,35.187862],[32.67449,35.18803],[32.674503,35.18803],[32.67451,35.18803],[32.67452,35.188026],[32.674522,35.188023],[32.674446,35.18785],[32.674934,35.18774],[32.675037,35.187923],[32.675076,35.18791],[32.674984,35.187733],[32.675476,35.187637],[32.675564,35.187813],[32.67561,35.187805],[32.675518,35.187622],[32.676018,35.18753],[32.6761,35.187695],[32.676144,35.187683],[32.67606,35.18752],[32.676773,35.18727],[32.677696,35.187103],[32.67858,35.18696],[32.679554,35.186733],[32.680267,35.186546],[32.68068,35.18645],[32.680782,35.186455],[32.68098,35.18642],[32.681087,35.186394],[32.68116,35.18635],[32.68122,35.186348],[32.681232,35.186382],[32.681267,35.186386],[32.681286,35.18638],[32.68148,35.18638],[32.68163,35.186382],[32.681732,35.18638],[32.68188,35.186363],[32.681965,35.186337],[32.68204,35.18629],[32.682247,35.186203],[32.682457,35.18614],[32.682514,35.186127],[32.682644,35.186108],[32.68272,35.186066],[32.682804,35.18603],[32.682926,35.186012],[32.683014,35.185997],[32.68322,35.185936],[32.683514,35.18588],[32.683693,35.18585],[32.683895,35.18582],[32.684044,35.18582],[32.68414,35.18582],[32.684204,35.18583],[32.68426,35.185806],[32.6843,35.185772],[32.684334,35.18575],[32.684376,35.185734],[32.684475,35.185726],[32.684586,35.18571],[32.684765,35.185677],[32.685295,35.185577],[32.685696,35.185493],[32.68619,35.18538],[32.686527,35.1853],[32.686802,35.185238],[32.68701,35.185192],[32.687485,35.18508],[32.688526,35.1849],[32.68857,35.18489],[32.68879,35.184845],[32.688908,35.184822],[32.689026,35.184803],[32.689102,35.184788],[32.689125,35.18478],[32.689137,35.184765],[32.689148,35.184757],[32.68919,35.184757],[32.689243,35.184753],[32.689713,35.184647],[32.690952,35.184376],[32.692497,35.184067],[32.693115,35.183964],[32.694393,35.183754],[32.695312,35.183624],[32.69631,35.183525],[32.696896,35.18349],[32.697155,35.183468],[32.69747,35.18346],[32.697792,35.18343],[32.698147,35.183407],[32.698647,35.18339],[32.69918,35.18336],[32.699417,35.18337],[32.699665,35.183357],[32.69987,35.183353],[32.700058,35.183357],[32.700268,35.18337],[32.70049,35.18339],[32.70072,35.18343],[32.700905,35.18344],[32.701183,35.183506],[32.7021,35.17605],[32.701588,35.1724],[32.701473,35.167526],[32.701416,35.165104],[32.701534,35.160156],[32.701553,35.159485],[32.701588,35.15809],[32.704334,35.14756],[32.712746,35.13984],[32.728367,35.136753],[32.740723,35.129593],[32.753082,35.12482],[32.754154,35.124695],[32.760296,35.123978],[32.76699,35.123837],[32.771297,35.124775],[32.774715,35.125523],[32.785526,35.122574],[32.79308,35.118362],[32.80218,35.11078],[32.806988,35.106426],[32.82381,35.09589],[32.843204,35.091537],[32.86037,35.09814],[32.866554,35.109375],[32.868443,35.119625],[32.871532,35.12763],[32.877197,35.130856],[32.88406,35.13142],[32.889725,35.130436],[32.895176,35.121925],[32.90702,35.111534],[32.917023,35.107548],[32.921314,35.1046],[32.925945,35.1046],[32.93144,35.106987],[32.93842,35.110775],[32.942883,35.11204],[32.947346,35.10895],[32.95078,35.10895],[32.950264,35.112465],[32.956272,35.11176],[32.96005,35.11387],[32.965885,35.116253],[32.970863,35.12103],[32.978416,35.126644],[32.98305,35.131416],[32.986656,35.134502],[32.986485,35.13703],[32.989746,35.1397],[32.987858,35.14377],[32.989403,35.145313],[32.993008,35.149105],[32.998158,35.1477],[33.00056,35.15023],[33.001934,35.153175],[33.006054,35.154716],[33.00869,35.15514],[33.016068,35.156822],[33.02009,35.158245],[33.02328,35.15935],[33.03137,35.163353],[33.041496,35.166367],[33.05051,35.167843],[33.052914,35.169456],[33.056606,35.169876],[33.059006,35.17107],[33.066734,35.173805],[33.07317,35.174435],[33.07643,35.173805],[33.08235,35.17177],[33.083813,35.172123],[33.0845,35.17535],[33.08939,35.1811],[33.09677,35.18489],[33.096344,35.18608],[33.097546,35.187485],[33.099434,35.186993],[33.10201,35.186504],[33.109818,35.187557],[33.112137,35.186363],[33.115654,35.18573],[33.119602,35.18482],[33.122868,35.182083],[33.126728,35.18068],[33.129044,35.180748],[33.132565,35.183697],[33.13437,35.186573],[33.13437,35.188324],[33.13308,35.190853],[33.138058,35.192535],[33.14235,35.197094],[33.148785,35.19941],[33.157112,35.2013],[33.16561,35.199688],[33.172047,35.199833],[33.182346,35.19927],[33.189213,35.198288],[33.195133,35.197865],[33.19994,35.195827],[33.20638,35.194218],[33.2123,35.19113],[33.21771,35.189518],[33.2226,35.18664],[33.22835,35.185028],[33.234444,35.184258],[33.24174,35.182293],[33.24689,35.179768],[33.24749,35.177032],[33.24955,35.174927],[33.25513,35.17486],[33.259678,35.17528],[33.26234,35.17535],[33.266205,35.175488],[33.272984,35.17647],[33.27985,35.176888],[33.287487,35.17738],[33.29298,35.17528],[33.300533,35.1717],[33.304142,35.171074],[33.307087,35.170967],[33.30949,35.171516],[33.310886,35.17225],[33.312138,35.172733],[33.31336,35.17358],[33.313812,35.174732],[33.314766,35.174534],[33.316525,35.17409],[33.316654,35.173874],[33.316654,35.17337],[33.316826,35.172935],[33.317383,35.172615],[33.31806,35.172485],[33.318695,35.172592],[33.319622,35.17323],[33.320107,35.173874],[33.32054,35.174732],[33.32067,35.17545],[33.320423,35.17581],[33.319862,35.17647],[33.31901,35.176975],[33.31848,35.177326],[33.318527,35.17784],[33.318867,35.178303],[33.320827,35.18143],[33.321785,35.18108],[33.321983,35.18119],[33.322285,35.18123],[33.322998,35.181263],[33.323025,35.181473],[33.322918,35.182217],[33.323597,35.182217],[33.325443,35.18224],[33.326927,35.18224],[33.329338,35.182625],[33.331356,35.182903],[33.332455,35.183437],[33.333675,35.184074],[33.334053,35.18413],[33.335682,35.184174],[33.337288,35.183823],[33.337795,35.183846],[33.338997,35.183895],[33.339745,35.183704],[33.34158,35.18359],[33.34261,35.18349],[33.3432,35.183372],[33.34358,35.184242],[33.343723,35.184265],[33.34448,35.18425],[33.34485,35.1842],[33.34587,35.184002],[33.34678,35.183846],[33.34791,35.183754],[33.34836,35.18366],[33.34903,35.18357],[33.350163,35.18331],[33.350044,35.182842],[33.349854,35.18241],[33.34962,35.18181],[33.349285,35.181095],[33.3489,35.18047],[33.34888,35.18042],[33.34874,35.180065],[33.348446,35.17988],[33.348454,35.179585],[33.348797,35.179417],[33.34925,35.179306],[33.34957,35.178955],[33.3498,35.17843],[33.35041,35.178658],[33.350143,35.17919],[33.3515,35.17955],[33.351624,35.17905],[33.351856,35.178814],[33.35234,35.178326],[33.352592,35.178448],[33.35515,35.179367],[33.35534,35.17894],[33.355507,35.17888],[33.355824,35.178734],[33.356182,35.177803],[33.356213,35.177746],[33.35626,35.177685],[33.35631,35.177666],[33.356373,35.17768],[33.35641,35.177708],[33.356445,35.177746],[33.356487,35.17787],[33.356647,35.17785],[33.356197,35.175373],[33.35617,35.17537],[33.356,35.17534],[33.35599,35.175396],[33.355965,35.175518],[33.355946,35.175636],[33.355892,35.17569],[33.355797,35.1757],[33.355736,35.175682],[33.35567,35.17562],[33.355145,35.17479],[33.35513,35.174763],[33.35557,35.1744],[33.355988,35.17405],[33.356018,35.17403],[33.35605,35.174034],[33.356087,35.174038],[33.356133,35.174053],[33.35616,35.1741],[33.35616,35.17415],[33.356144,35.174236],[33.35612,35.17437],[33.356342,35.17445],[33.356697,35.173958],[33.3572,35.17406],[33.357433,35.174618],[33.357605,35.174126],[33.358532,35.174416],[33.35878,35.174053],[33.359177,35.17449],[33.359985,35.174923],[33.360077,35.17479],[33.360462,35.174805],[33.360367,35.175053],[33.360928,35.17524],[33.361553,35.175213],[33.361828,35.175148],[33.36188,35.17511],[33.362278,35.174824],[33.362823,35.174763],[33.363174,35.174747],[33.36358,35.174747],[33.36354,35.17458],[33.364143,35.17446],[33.36424,35.174618],[33.364746,35.174904],[33.365112,35.175053],[33.366158,35.175327],[33.36699,35.175545],[33.366917,35.175743],[33.367,35.175766],[33.367245,35.175842],[33.3672,35.17597],[33.367683,35.17615],[33.367596,35.176437],[33.367775,35.1765],[33.367863,35.17653],[33.367786,35.17674],[33.36786,35.176918],[33.36839,35.17711],[33.368496,35.177567],[33.36908,35.178005],[33.369694,35.17787],[33.370564,35.177677],[33.370884,35.17777],[33.370846,35.177902],[33.37072,35.17855],[33.37169,35.179302],[33.37204,35.179173],[33.372177,35.180748],[33.372345,35.18236],[33.372517,35.18562],[33.372646,35.187286],[33.372986,35.187496],[33.37438,35.18773],[33.37429,35.188427],[33.373997,35.18865],[33.373688,35.188763],[33.373672,35.189342],[33.373985,35.1899],[33.374134,35.19017],[33.375877,35.191746],[33.376865,35.192974],[33.37743,35.19349],[33.37811,35.194107],[33.380264,35.195465],[33.380775,35.195705],[33.381683,35.19605],[33.382874,35.196495],[33.384975,35.19825],[33.385345,35.19839],[33.386204,35.199146],[33.38751,35.199883],[33.388237,35.19957],[33.389187,35.198986],[33.389637,35.19871],[33.389877,35.198578],[33.390728,35.198093],[33.391113,35.198],[33.393,35.197533],[33.393875,35.197323],[33.39532,35.19701],[33.396263,35.19653],[33.397385,35.194412],[33.397465,35.194263],[33.397743,35.193447],[33.397953,35.192837],[33.398212,35.191902],[33.398594,35.19096],[33.399246,35.19016],[33.400513,35.188663],[33.4007,35.188446],[33.401585,35.18892],[33.402348,35.18934],[33.402565,35.189457],[33.40319,35.189796],[33.40367,35.19073],[33.40387,35.190628],[33.40507,35.189434],[33.40593,35.187298],[33.40604,35.185947],[33.4061,35.185616],[33.40735,35.18509],[33.41018,35.18267],[33.412754,35.181755],[33.414257,35.180878],[33.415974,35.178913],[33.41726,35.17653],[33.418205,35.175022],[33.417988,35.172108],[33.41696,35.169685],[33.41692,35.169582],[33.415802,35.169197],[33.41447,35.168705],[33.414513,35.16713],[33.4143,35.16569],[33.414383,35.1646],[33.41576,35.16281],[33.41752,35.161934],[33.420395,35.160675],[33.42271,35.158848],[33.424854,35.1566],[33.4267,35.154144],[33.426617,35.15236],[33.427303,35.150917],[33.428375,35.148636],[33.428417,35.14744],[33.428505,35.14713],[33.428806,35.146004],[33.434742,35.14263],[33.434856,35.142567],[33.436314,35.14148],[33.43842,35.1392],[33.44009,35.137516],[33.440006,35.137184],[33.44065,35.136467],[33.441338,35.135345],[33.44215,35.13448],[33.442432,35.13455],[33.442814,35.135185],[33.44298,35.135796],[33.443096,35.136257],[33.443565,35.136395],[33.44415,35.136337],[33.444595,35.136116],[33.44537,35.13585],[33.445755,35.136284],[33.4459,35.13685],[33.4458,35.137478],[33.446186,35.137745],[33.44769,35.137466],[33.45022,35.137497],[33.45095,35.137146],[33.45159,35.136776],[33.45228,35.13661],[33.451458,35.13593],[33.451374,35.135086],[33.451504,35.134277],[33.451458,35.133892],[33.450214,35.132526],[33.450474,35.13161],[33.450344,35.131298],[33.4497,35.130943],[33.449272,35.130104],[33.449356,35.12898],[33.450043,35.127926],[33.45,35.127018],[33.451416,35.12526],[33.451633,35.124416],[33.452835,35.123505],[33.45386,35.123047],[33.454807,35.122063],[33.455753,35.120804],[33.45807,35.118767],[33.459785,35.116627],[33.459915,35.115257],[33.459785,35.11336],[33.460987,35.112133],[33.462963,35.110588],[33.46575,35.108654],[33.46725,35.107986],[33.467117,35.107246],[33.465614,35.10542],[33.468704,35.10117],[33.46952,35.099487],[33.469475,35.098007],[33.469475,35.096992],[33.46982,35.09608],[33.47643,35.088215],[33.476517,35.08607],[33.476128,35.08305],[33.476387,35.07975],[33.47733,35.077183],[33.478275,35.072937],[33.47956,35.070232],[33.481194,35.068195],[33.480934,35.066227],[33.479946,35.061275],[33.479435,35.056393],[33.47763,35.05316],[33.475742,35.04996],[33.47012,35.046696],[33.46613,35.043392],[33.46381,35.038963],[33.46261,35.034958],[33.46098,35.031303],[33.458405,35.028145],[33.456303,35.024895],[33.456455,35.023678],[33.456688,35.023155],[33.45649,35.02187],[33.455097,35.021465],[33.45437,35.020645],[33.454052,35.020008],[33.453125,35.019566],[33.45244,35.018723],[33.45141,35.017296],[33.45048,35.01609],[33.449932,35.014343],[33.449196,35.01324],[33.449333,35.01174],[33.44849,35.010605],[33.446877,35.00915],[33.4457,35.008686],[33.4449,35.007393],[33.4448,35.00572],[33.444885,35.004734],[33.445183,35.004017],[33.449047,35.00277],[33.452213,35.002228],[33.455074,35.00164],[33.455746,35.00222],[33.457527,35.00285],[33.458317,35.003223],[33.459023,35.003998],[33.459606,35.00437],[33.46111,35.005016],[33.462696,35.00579],[33.46394,35.006165],[33.464756,35.006],[33.466427,35.006233],[33.46727,35.00648],[33.467587,35.006725],[33.468834,35.007042],[33.468945,35.00695],[33.470154,35.007652],[33.471226,35.007954],[33.471535,35.007523],[33.473278,35.007717],[33.475956,35.008335],[33.4786,35.00901],[33.4798,35.009304],[33.480118,35.010723],[33.48072,35.012115],[33.481552,35.012714],[33.481148,35.014282],[33.481297,35.015926],[33.480762,35.017094],[33.47962,35.0198],[33.478676,35.021626],[33.47744,35.023342],[33.47658,35.024414],[33.476326,35.025368],[33.476326,35.026443],[33.476753,35.02776],[33.477673,35.02869],[33.479218,35.029793],[33.48022,35.031322],[33.481964,35.033062],[33.48353,35.03463],[33.483955,35.035923],[33.484283,35.036858],[33.486214,35.03796],[33.488117,35.03911],[33.48992,35.039856],[33.491295,35.040653],[33.491405,35.04173],[33.491104,35.04288],[33.490032,35.04413],[33.48975,35.045326],[33.48876,35.047222],[33.486614,35.04794],[33.484524,35.048664],[33.48355,35.049824],[33.481167,35.05151],[33.48055,35.05281],[33.48036,35.054016],[33.481064,35.05576],[33.48188,35.059204],[33.482025,35.060852],[33.482765,35.06438],[33.48314,35.066177],[33.483795,35.067654],[33.484924,35.069202],[33.486042,35.070324],[33.48763,35.07131],[33.489086,35.07206],[33.49096,35.073418],[33.491776,35.07439],[33.493217,35.074898],[33.495,35.07488],[33.49706,35.074505],[33.498463,35.06893],[33.50046,35.068962],[33.50378,35.069016],[33.508247,35.070255],[33.51147,35.070724],[33.513447,35.07111],[33.514664,35.071693],[33.515182,35.072674],[33.516296,35.07324],[33.51803,35.073288],[33.52065,35.074234],[33.521935,35.075363],[33.522507,35.076145],[33.522907,35.076694],[33.524082,35.077713],[33.52488,35.078873],[33.526165,35.07975],[33.528072,35.08015],[33.529068,35.080193],[33.530476,35.080208],[33.53209,35.0807],[33.533207,35.080894],[33.534683,35.081623],[33.535454,35.082172],[33.536312,35.082397],[33.536964,35.08193],[33.538353,35.081085],[33.539043,35.080193],[33.539455,35.07928],[33.53983,35.078087],[33.540688,35.07706],[33.54151,35.0765],[33.541977,35.075733],[33.54237,35.07493],[33.543144,35.074863],[33.54397,35.074883],[33.54419,35.07485],[33.544525,35.075302],[33.54566,35.075302],[33.546577,35.075302],[33.547966,35.07518],[33.548603,35.07498],[33.548954,35.07486],[33.549477,35.074863],[33.550095,35.074535],[33.550877,35.074554],[33.551563,35.07449],[33.552147,35.074696],[33.55231,35.07476],[33.552277,35.07577],[33.55466,35.07605],[33.55503,35.076412],[33.555855,35.07676],[33.557407,35.076374],[33.557632,35.075775],[33.558273,35.07593],[33.55843,35.07543],[33.558662,35.075222],[33.55977,35.07312],[33.559227,35.073257],[33.559296,35.07249],[33.559666,35.07201],[33.559578,35.071873],[33.559727,35.071735],[33.559288,35.071568],[33.55917,35.071434],[33.559097,35.071114],[33.558857,35.071106],[33.558773,35.07086],[33.55922,35.070675],[33.559048,35.07029],[33.558815,35.07022],[33.55965,35.06977],[33.5597,35.069584],[33.5614,35.067513],[33.562008,35.06701],[33.562706,35.06712],[33.562824,35.06753],[33.5637,35.06767],[33.56388,35.06758],[33.56362,35.06709],[33.563854,35.06701],[33.563854,35.066547],[33.563538,35.06649],[33.56364,35.066216],[33.566936,35.064964],[33.56778,35.0647],[33.56794,35.06487],[33.56829,35.0649],[33.568882,35.06512],[33.569107,35.065197],[33.56971,35.064964],[33.57061,35.064037],[33.570087,35.063786],[33.568954,35.06354],[33.5697,35.062485],[33.570095,35.06134],[33.570164,35.06023],[33.570454,35.060646],[33.57079,35.060863],[33.571243,35.060932],[33.57164,35.060764],[33.57163,35.060436],[33.57181,35.060623],[33.571903,35.060112],[33.572376,35.05992],[33.57254,35.059475],[33.571903,35.059486],[33.571407,35.0591],[33.571083,35.05878],[33.571003,35.05857],[33.570686,35.058308],[33.57025,35.058495],[33.56798,35.055683],[33.567158,35.054462],[33.566895,35.053986],[33.566437,35.05257],[33.567863,35.052425],[33.568188,35.052387],[33.568188,35.052208],[33.568825,35.05194],[33.56884,35.051785],[33.569443,35.051735],[33.56938,35.05121],[33.569862,35.051056],[33.569813,35.05066],[33.56969,35.050568],[33.56945,35.049347],[33.56989,35.049202],[33.57012,35.04888],[33.570927,35.048298],[33.57204,35.04872],[33.573143,35.049305],[33.57625,35.049255],[33.577595,35.04874],[33.577595,35.047737],[33.579227,35.0476],[33.580368,35.047367],[33.580822,35.047386],[33.581165,35.047012],[33.582256,35.047],[33.58313,35.04612],[33.587296,35.046787],[33.591244,35.050655],[33.60103,35.0548],[33.60738,35.057186],[33.614132,35.0555],[33.61859,35.05346],[33.626404,35.0458],[33.630608,35.042007],[33.63919,35.041164],[33.646404,35.039547],[33.65387,35.041866],[33.65799,35.04538],[33.66085,35.05044],[33.6658,35.064774],[33.671207,35.068565],[33.676098,35.06899],[33.68016,35.06921],[33.691463,35.06983],[33.699448,35.079594],[33.705112,35.082966],[33.714207,35.083107],[33.713715,35.07381],[33.716118,35.072517],[33.713406,35.06799],[33.71198,35.04095],[33.715782,35.041718],[33.721764,35.04549],[33.737385,35.055965],[33.741337,35.05261],[33.752632,35.046986],[33.754593,35.045364],[33.76062,35.042473],[33.769024,35.046955],[33.77583,35.04951],[33.779606,35.05027],[33.78341,35.05054],[33.786755,35.05197],[33.789673,35.054005],[33.793324,35.05852],[33.796825,35.06156],[33.80991,35.071194],[33.81527,35.074364],[33.819477,35.0759],[33.8219,35.076275],[33.825138,35.075836],[33.829636,35.074753],[33.833347,35.07272],[33.83561,35.070908],[33.83705,35.07002],[33.839546,35.06893],[33.841454,35.06849],[33.843983,35.06853],[33.851982,35.07048],[33.854572,35.07215],[33.855827,35.073833],[33.85849,35.077007],[33.860428,35.078552],[33.863586,35.080765],[33.863472,35.082455],[33.870907,35.08778],[33.869297,35.091194],[33.869255,35.093758],[33.867584,35.10009],[33.866302,35.10116],[33.867844,35.104664],[33.872074,35.124043],[33.879005,35.12397],[33.88512,35.124626],[33.889576,35.120155],[33.88762,35.116093],[33.89372,35.114716],[33.893894,35.11437],[33.898277,35.114494],[33.90647,35.09933],[33.91461,35.09039],[33.91544,35.090015],[33.917675,35.089024],[33.917423,35.087856],[33.91718,35.087566],[33.917793,35.08689],[33.915123,35.078995],[33.91015,35.075783],[33.902477,35.077103]]]}}
