{"type":"Feature","id":"relation/3099567","properties":{"type":"relation","id":3099567,"tags":{"admin_level":"6","boundary":"administrative","koatuu":"1213000000","name":"Синельникове","name:de":"Synelnykowe","name:en":"Synelnykove","name:pl":"Synelnykowe","name:ru":"Синельниково","name:uk":"Синельникове","place":"town","type":"boundary","wikidata":"Q640798","wikipedia":"uk:Синельникове","wikipedia:ru":"Синельниково"},"labels":[{"id":"node/337602652","role":"admin_centre","coordinates":[35.524696,48.326927]}]},"geometry":{"type":"Polygon","coordinates":[[[35.46644,48.339134],[35.466095,48.33491],[35.476395,48.33457],[35.477596,48.33035],[35.47262,48.32989],[35.473476,48.32624],[35.462154,48.32533],[35.462673,48.31791],[35.472412,48.317753],[35.474953,48.31777],[35.501114,48.31791],[35.502827,48.308086],[35.50849,48.291187],[35.52391,48.29149],[35.532837,48.30097],[35.52772,48.30341],[35.546776,48.307175],[35.55498,48.322777],[35.54643,48.332745],[35.528065,48.340733],[35.50266,48.340847],[35.481373,48.3413],[35.46644,48.339134]]]}}
