{"type":"Feature","id":"relation/270092","properties":{"type":"relation","id":270092,"tags":{"ISO3166-2":"MN-035","admin_level":"4","boundary":"administrative","name":"Орхон аймаг","name:de":"Orchon","name:en":"Orkhon","name:ja":"オルホン","name:mn":"Орхон аймаг","name:ru":"Орхон","name:zh_py":"Xīnbā'ěrhǔ Yòu Qí","type":"boundary","wikidata":"Q234710"},"labels":[{"id":"node/293929556","role":"admin_centre","coordinates":[104.04478,49.02751]},{"id":"node/2704047278","role":"label","coordinates":[104.29989,49.024372]}]},"geometry":{"type":"Polygon","coordinates":[[[104.519516,49.1056],[104.46996,49.122246],[104.44395,49.128292],[104.40361,49.131588],[104.3774,49.129826],[104.35303,49.124294],[104.342384,49.11996],[104.28349,49.080738],[104.140305,49.11149],[104.10308,49.121277],[104.06164,49.095833],[103.97378,49.03784],[103.9748,48.981514],[104.18507,48.95229],[104.24161,48.946167],[104.30073,48.928944],[104.334236,48.913273],[104.37805,48.899174],[104.47152,48.938835],[104.516754,48.96413],[104.54994,48.986023],[104.56307,48.996956],[104.570435,49.011322],[104.56957,49.026386],[104.56123,49.04133],[104.530556,49.079468],[104.519516,49.1056]]]}}
