{"type":"Feature","id":"relation/3628438","properties":{"type":"relation","id":3628438,"tags":{"admin_level":"8","boundary":"administrative","name":"Зіньків","name:en":"Zinkiv","name:eo":"Zinkiv","name:et":"Zinkiv","name:pl":"Zinków","name:ru":"Зеньков","name:uk":"Зіньків","place":"town","population":"9856","type":"boundary","wikidata":"Q269547","wikipedia":"uk:Зіньків"},"labels":[{"id":"node/337526754","role":"admin_centre","coordinates":[34.357677,50.21026]}]},"geometry":{"type":"Polygon","coordinates":[[[34.34502,50.224377],[34.335426,50.21786],[34.33285,50.210526],[34.33672,50.20611],[34.343147,50.198765],[34.354263,50.193745],[34.360935,50.19015],[34.36866,50.191425],[34.378838,50.19427],[34.38745,50.20053],[34.393818,50.205128],[34.393116,50.212017],[34.390423,50.219883],[34.373047,50.219654],[34.368114,50.21959],[34.36416,50.220547],[34.36297,50.219875],[34.36068,50.219307],[34.358498,50.220325],[34.357872,50.21997],[34.355846,50.218807],[34.352707,50.220604],[34.354553,50.222523],[34.35099,50.224022],[34.347866,50.22597],[34.34502,50.224377]]]}}
