{"type":"Feature","id":"relation/1463579","properties":{"type":"relation","id":1463579,"tags":{"addr:postcode":"90600","admin_level":"8","boundary":"administrative","koatuu":"2123610100","name":"Рахів","name:crh":"Rahiv","name:cs":"Rachiv","name:de":"Rachiw","name:en":"Rakhiv","name:eo":"Raĥiv","name:es":"Rajiv","name:fr":"Rakhiv","name:hu":"Rahó","name:it":"Rachiv","name:nl":"Rachiv","name:pl":"Rachów","name:pt":"Rakhiv","name:ro":"Rahău","name:ru":"Рахов","name:sk":"Rachov","name:uk":"Рахів","place":"town","population":"15137","type":"boundary","website":"http://www.rakhiv.com/","wikidata":"Q146510","wikipedia":"uk:Рахів"},"labels":[]},"geometry":{"type":"Polygon","coordinates":[[[24.218498,48.039085],[24.21988,48.03944],[24.219019,48.041145],[24.22194,48.040806],[24.223139,48.040977],[24.22451,48.03944],[24.22485,48.038227],[24.22691,48.038578],[24.22794,48.040638],[24.22794,48.042526],[24.23515,48.03944],[24.23704,48.040977],[24.22812,48.04596],[24.22966,48.0475],[24.22829,48.04802],[24.23018,48.05042],[24.22863,48.05145],[24.22674,48.04973],[24.221249,48.05128],[24.221966,48.05235],[24.222279,48.052822],[24.220285,48.053383],[24.217989,48.054028],[24.219698,48.05591],[24.218328,48.05969],[24.221844,48.061047],[24.222403,48.061264],[24.22812,48.06347],[24.23138,48.06072],[24.23203,48.061134],[24.23807,48.06501],[24.237558,48.06621],[24.236359,48.067417],[24.24065,48.06948],[24.24202,48.07068],[24.24271,48.07222],[24.24305,48.076168],[24.24271,48.07806],[24.237558,48.078922],[24.23721,48.07772],[24.22949,48.075306],[24.22897,48.074448],[24.2264,48.07377],[24.225199,48.07394],[24.224339,48.074627],[24.22571,48.075306],[24.22554,48.076],[24.224169,48.076687],[24.222618,48.077026],[24.218498,48.07686],[24.217989,48.0772],[24.218328,48.078228],[24.21558,48.07789],[24.21146,48.073246],[24.210258,48.071358],[24.20666,48.06862],[24.204248,48.06793],[24.19756,48.06484],[24.191898,48.065872],[24.188457,48.06244],[24.1852,48.059856],[24.189838,48.057117],[24.19069,48.055737],[24.189318,48.05385],[24.188118,48.05317],[24.187948,48.052307],[24.189148,48.05179],[24.189148,48.05111],[24.18228,48.04956],[24.180569,48.05111],[24.177818,48.04973],[24.178679,48.04733],[24.18039,48.04561],[24.179121,48.044243],[24.17575,48.040615],[24.173698,48.038406],[24.1713,48.039948],[24.16786,48.03669],[24.17078,48.03532],[24.16975,48.0336],[24.16512,48.03429],[24.164598,48.03017],[24.16872,48.02999],[24.16889,48.02999],[24.170065,48.03006],[24.17181,48.03017],[24.17147,48.02845],[24.174559,48.028618],[24.177649,48.033432],[24.174782,48.033714],[24.17301,48.03394],[24.176619,48.03617],[24.177818,48.03738],[24.18177,48.037197],[24.18417,48.03978],[24.18657,48.0415],[24.188288,48.042347],[24.190178,48.042698],[24.18675,48.043728],[24.18383,48.04424],[24.19035,48.04561],[24.194809,48.045788],[24.199263,48.046787],[24.20151,48.04527],[24.2046,48.04321],[24.210089,48.04682],[24.212149,48.04544],[24.21146,48.039257],[24.213009,48.038406],[24.21473,48.038918],[24.21541,48.03944],[24.218498,48.039085]]]}}
