{"type":"Feature","id":"relation/4248911","properties":{"type":"relation","id":4248911,"tags":{"boundary":"political","name":"Toulouse-3","name:am":"ቱሉዝ-3","name:ar":"تولوز-3","name:az":"Tuluza-3","name:be":"Тулюза-3","name:bg":"Тулуза-3","name:bo":"ཊོའུ་ལོའུ་སེ།-3","name:br":"Toloza-3","name:ca":"Tolosa de Llenguadoc-3","name:ce":"Тулуза-3","name:co":"Tolosa-3","name:csb":"Tólóza-3","name:el":"Τουλούζ-3","name:eo":"Tuluzo-3","name:es":"Tolosa-3","name:eu":"Tolosa Okzitania-3","name:fa":"تولوز-3","name:fr":"Toulouse-3","name:frp":"Tolosa-3","name:gl":"Tolosa-3","name:he":"טולוז-3","name:hi":"तुलूज़-3","name:hy":"Թուլուզ-3","name:it":"Tolosa-3","name:ja":"トゥールーズ-3","name:ka":"ტულუზა-3","name:kk":"Тулуза-3","name:kn":"ತೂಲೂಸ್-3","name:ko":"툴루즈-3","name:la":"Tolosa-3","name:lt":"Tulūza-3","name:lv":"Tulūza-3","name:mhr":"Тулузо-3","name:ml":"ടൂളൂസ്-3","name:mr":"तुलूझ-3","name:mzn":"تولوز-3","name:nap":"Tolosa-3","name:oc":"Tolosa-3","name:os":"Тулузæ-3","name:pa":"ਟੁਲੂਜ਼-3","name:pl":"Tuluza-3","name:pms":"Tolosa-3","name:pnb":"تولوز-3","name:ru":"Тулуза-3","name:sc":"Tolosa-3","name:scn":"Tolosa-3","name:sr":"Тулуза-3","name:ta":"துலூஸ்-3","name:th":"ตูลูซ-3","name:tt":"Тулуза-3","name:uk":"Тулуза-3","name:ur":"تولوز-3","name:vec":"Tołoxa-3","name:xmf":"ტულუზა-3","name:yi":"טולוז-3","name:yue":"圖魯茲-3","name:zh":"图卢兹-3","planned:ref":"031-17","political_division":"canton","short_name:ca":"Tolosa-3","short_name:eu":"Tolosa-3","start_date":"2015-03","type":"boundary","wikipedia":"fr:Canton de Toulouse-3"},"labels":[{"id":"node/26686518","role":"admin_centre","coordinates":[1.4442469,43.60446]}]},"geometry":{"type":"Polygon","coordinates":[[[1.4548792,43.624638],[1.4545045,43.62447],[1.4541538,43.624355],[1.4537932,43.62422],[1.4535825,43.624146],[1.4532912,43.62405],[1.4529928,43.62395],[1.4526834,43.623867],[1.452367,43.623795],[1.4520414,43.62375],[1.4517686,43.623726],[1.4514412,43.62372],[1.4511355,43.623726],[1.4508102,43.623756],[1.4504522,43.623806],[1.4500676,43.62389],[1.4496832,43.62399],[1.4491528,43.624123],[1.4488499,43.62424],[1.4485639,43.624374],[1.4481422,43.624626],[1.4478351,43.62487],[1.4476418,43.62506],[1.4473349,43.625397],[1.447122,43.62562],[1.4469217,43.625816],[1.4466159,43.626057],[1.4463284,43.62634],[1.4458897,43.62675],[1.4455194,43.62709],[1.4454174,43.627182],[1.4452249,43.62711],[1.444895,43.626972],[1.4444289,43.62678],[1.4442986,43.626724],[1.4444718,43.62646],[1.4444807,43.62638],[1.4445016,43.626297],[1.4445355,43.626217],[1.4445912,43.626133],[1.4447194,43.626003],[1.4448704,43.62587],[1.4452034,43.625576],[1.4452989,43.6255],[1.4454434,43.625336],[1.4455447,43.62522],[1.4456145,43.625095],[1.4456271,43.624958],[1.4456611,43.624496],[1.4456924,43.623547],[1.4456954,43.62345],[1.4448311,43.623856],[1.4446661,43.62394],[1.4443078,43.624123],[1.4435829,43.624454],[1.4428573,43.624767],[1.4426639,43.623814],[1.4425988,43.623604],[1.4425184,43.62337],[1.4422799,43.622616],[1.441763,43.622948],[1.4408096,43.623158],[1.4400971,43.623344],[1.4394362,43.623592],[1.4389783,43.62386],[1.4389378,43.623886],[1.4383605,43.624218],[1.4382432,43.624294],[1.4381205,43.624374],[1.4378484,43.624557],[1.4375477,43.62466],[1.4374106,43.624706],[1.4368906,43.6248],[1.4368738,43.62472],[1.436832,43.62448],[1.436866,43.623756],[1.436869,43.623688],[1.4368705,43.62367],[1.4368966,43.623028],[1.4369144,43.622684],[1.4369138,43.622597],[1.4369175,43.622543],[1.4370307,43.621506],[1.4370431,43.6213],[1.437075,43.621],[1.4370761,43.620853],[1.4370719,43.620316],[1.4370681,43.62022],[1.4370644,43.61994],[1.4370594,43.619713],[1.4370494,43.619545],[1.4370018,43.619194],[1.4369355,43.618847],[1.4368933,43.618595],[1.4368253,43.618343],[1.4367827,43.618187],[1.4367453,43.618103],[1.4366595,43.61794],[1.4367499,43.617664],[1.4368635,43.617294],[1.436874,43.61727],[1.4368975,43.61719],[1.4369035,43.617176],[1.4369793,43.616943],[1.4371587,43.616364],[1.43719,43.616272],[1.4373116,43.616238],[1.4373273,43.616188],[1.4374154,43.615925],[1.4373242,43.61586],[1.4373641,43.61571],[1.4375101,43.615326],[1.4376297,43.614933],[1.4378088,43.614346],[1.4367384,43.614174],[1.4367127,43.614162],[1.4367023,43.614136],[1.4366663,43.6138],[1.4366633,43.613777],[1.4365858,43.61377],[1.4362309,43.613735],[1.4361681,43.61373],[1.4353981,43.613663],[1.4353037,43.613655],[1.4354777,43.613388],[1.4362663,43.612076],[1.4363948,43.611862],[1.4368764,43.61106],[1.4368085,43.61094],[1.4361029,43.610718],[1.4360098,43.610687],[1.4359103,43.610657],[1.4356263,43.61057],[1.4348007,43.61031],[1.4348148,43.61021],[1.434914,43.610065],[1.4349079,43.609913],[1.4348806,43.60952],[1.4348731,43.6094],[1.4348476,43.609028],[1.434818,43.6086],[1.4348147,43.608513],[1.4347667,43.60786],[1.4346687,43.606102],[1.4346567,43.60589],[1.434621,43.605736],[1.434624,43.605644],[1.4346476,43.60557],[1.4346585,43.605488],[1.4346358,43.60516],[1.4346267,43.60504],[1.434624,43.604942],[1.4346337,43.604843],[1.4346602,43.60465],[1.4346446,43.604557],[1.4346238,43.60438],[1.4345776,43.60422],[1.4344203,43.603905],[1.4343665,43.603798],[1.4343424,43.60377],[1.4342873,43.60369],[1.4349657,43.603363],[1.4354202,43.603176],[1.4354838,43.60315],[1.4348581,43.602287],[1.4364759,43.601498],[1.4378008,43.600716],[1.4383614,43.600224],[1.4387234,43.599762],[1.4389647,43.599327],[1.4403839,43.599583],[1.4404261,43.599594],[1.4405553,43.59963],[1.4409102,43.5997],[1.4412074,43.599773],[1.4413141,43.599796],[1.4415601,43.599857],[1.4420975,43.59999],[1.4423516,43.60005],[1.442531,43.600086],[1.4426515,43.600117],[1.4427065,43.60013],[1.4435903,43.600346],[1.4437128,43.600372],[1.4437727,43.600376],[1.4439665,43.600388],[1.4444705,43.600418],[1.4445789,43.60043],[1.4450799,43.600456],[1.44515,43.60046],[1.4455197,43.600483],[1.445689,43.60049],[1.445688,43.600533],[1.4456874,43.600555],[1.4456856,43.600636],[1.4456799,43.601448],[1.4457006,43.602516],[1.4457096,43.60303],[1.4457115,43.60309],[1.4457148,43.603477],[1.4457114,43.603718],[1.4457122,43.60381],[1.4457158,43.604225],[1.4457151,43.604298],[1.4457146,43.604336],[1.4457103,43.604843],[1.4457101,43.60486],[1.4457092,43.6049],[1.4457126,43.605793],[1.4457159,43.606136],[1.4457208,43.60696],[1.4457217,43.60762],[1.445749,43.607708],[1.4457966,43.60773],[1.4460745,43.6079],[1.4460928,43.607906],[1.4461561,43.607944],[1.446222,43.608006],[1.446333,43.60806],[1.4464399,43.60795],[1.4464715,43.607903],[1.4464855,43.607887],[1.4465258,43.60784],[1.4468193,43.607548],[1.4470519,43.60733],[1.4473561,43.60703],[1.4474363,43.606953],[1.4475979,43.606796],[1.4478803,43.60652],[1.4480871,43.60632],[1.4483595,43.60607],[1.4484272,43.60601],[1.4485198,43.605934],[1.4486177,43.60586],[1.4488434,43.605675],[1.4489359,43.605595],[1.4489658,43.605556],[1.4491011,43.605404],[1.4492294,43.605457],[1.4493324,43.605488],[1.4503764,43.605625],[1.4511985,43.605717],[1.4523025,43.605873],[1.4527322,43.60592],[1.4530492,43.60552],[1.4538248,43.604633],[1.453889,43.604565],[1.454145,43.604603],[1.4541868,43.60461],[1.4548401,43.60472],[1.4556898,43.604866],[1.4558878,43.604904],[1.4566131,43.605026],[1.4567186,43.605057],[1.456742,43.60506],[1.4570401,43.60511],[1.4571582,43.605133],[1.4570731,43.605354],[1.4569707,43.605568],[1.4569392,43.605625],[1.4565482,43.606316],[1.4564646,43.60646],[1.456164,43.606976],[1.4555137,43.608105],[1.4552269,43.608597],[1.4550649,43.60883],[1.4548594,43.609062],[1.4545397,43.609325],[1.4544625,43.60939],[1.4544189,43.60943],[1.4543622,43.60947],[1.4542876,43.60954],[1.4543773,43.609596],[1.45441,43.609615],[1.4544345,43.60963],[1.4549154,43.609943],[1.4549532,43.60997],[1.4549943,43.610016],[1.4550053,43.61007],[1.4549971,43.610115],[1.4549935,43.61013],[1.4549876,43.610157],[1.454966,43.61023],[1.4549379,43.61037],[1.4549241,43.61051],[1.4549268,43.61054],[1.4549329,43.6106],[1.4549483,43.610664],[1.4549744,43.610714],[1.455021,43.61076],[1.4552889,43.610935],[1.4553775,43.610992],[1.4554539,43.611042],[1.4555457,43.611103],[1.4556701,43.611187],[1.4563097,43.611626],[1.4564239,43.6117],[1.4564761,43.611732],[1.4565278,43.61176],[1.4565953,43.61178],[1.4567641,43.61181],[1.4569354,43.611824],[1.4571134,43.6118],[1.4572353,43.611763],[1.4572908,43.611732],[1.4574517,43.611736],[1.4574935,43.611744],[1.4575644,43.61175],[1.4576834,43.611794],[1.4584898,43.61235],[1.4585855,43.612415],[1.45861,43.612434],[1.4594992,43.613026],[1.4603704,43.61361],[1.4609205,43.613983],[1.4610077,43.61404],[1.4610578,43.61407],[1.46114,43.61413],[1.4614607,43.614338],[1.4616097,43.61443],[1.4616473,43.614445],[1.4617021,43.614464],[1.4618113,43.614502],[1.4619416,43.614536],[1.4619787,43.614662],[1.4619802,43.614685],[1.461984,43.614742],[1.4619213,43.6148],[1.4618796,43.614857],[1.4618626,43.61494],[1.4618589,43.614994],[1.4618578,43.61501],[1.4617932,43.615013],[1.4616979,43.61497],[1.4612403,43.614742],[1.4611814,43.614723],[1.4611329,43.614723],[1.4610837,43.614742],[1.4609989,43.614803],[1.4609565,43.614815],[1.4609014,43.614807],[1.4608519,43.61479],[1.4607439,43.614723],[1.4606738,43.614674],[1.4606218,43.614777],[1.460187,43.615623],[1.4598081,43.616314],[1.4597672,43.61639],[1.45954,43.61683],[1.4594028,43.617092],[1.4590012,43.61698],[1.4585819,43.616856],[1.458359,43.616695],[1.4578975,43.616325],[1.4574412,43.61663],[1.4575027,43.61667],[1.4579914,43.61696],[1.4583744,43.617176],[1.4589913,43.617424],[1.459514,43.617573],[1.4599094,43.617687],[1.4599867,43.617714],[1.4600185,43.61772],[1.4600941,43.617744],[1.4608382,43.617966],[1.4608735,43.618046],[1.461001,43.61816],[1.4614372,43.61873],[1.4618564,43.619167],[1.4623575,43.619576],[1.4627424,43.6199],[1.4630051,43.620113],[1.4630178,43.620186],[1.4628866,43.620396],[1.4627197,43.620518],[1.463726,43.621338],[1.4640597,43.622196],[1.4636126,43.622334],[1.4631851,43.62249],[1.4627982,43.622665],[1.4624852,43.62279],[1.4621588,43.62287],[1.4619577,43.6229],[1.4616965,43.622906],[1.4614891,43.6229],[1.4612895,43.62286],[1.4611018,43.622807],[1.4610329,43.622738],[1.4606448,43.62247],[1.4602548,43.62216],[1.4594845,43.621502],[1.459356,43.621407],[1.4589089,43.621098],[1.4587219,43.621044],[1.4584975,43.621094],[1.4579184,43.62133],[1.4582818,43.62199],[1.4583098,43.622047],[1.4586598,43.622795],[1.4587737,43.623016],[1.4588239,43.623116],[1.4588681,43.623222],[1.4589736,43.623474],[1.459,43.623558],[1.4590105,43.623672],[1.459009,43.62373],[1.4589972,43.623783],[1.4589465,43.623955],[1.4586719,43.62468],[1.4586548,43.624813],[1.4586622,43.624947],[1.4587845,43.625362],[1.458819,43.62547],[1.458874,43.625664],[1.4589465,43.6259],[1.4590044,43.62613],[1.4590389,43.626328],[1.4590336,43.62638],[1.4590327,43.62643],[1.4590266,43.626507],[1.4590333,43.626503],[1.4570154,43.625614],[1.4548792,43.624638]]]}}
