{"type":"Feature","id":"relation/332923","properties":{"type":"relation","id":332923,"tags":{"IBGE:GEOCODIGO":"2111300","admin_level":"8","boundary":"administrative","flag":"http://upload.wikimedia.org/wikipedia/commons/f/f6/Bandeira_de_S%C3%A3o_Lu%C3%ADs.svg","name":"São Luís","name:ar":"ساو لويز","name:be":"Сан-Луіс","name:bg":"Сао Луис","name:eo":"San-Luiso","name:es":"San Luis","name:fa":"سائو لوئیس","name:gl":"San Luís","name:he":"סאו לואיס","name:hy":"Սան Լուիս","name:ja":"サン・ルイス","name:ka":"სან-ლუისი","name:kk":"Сан-Луис","name:ko":"상루이스","name:lt":"San Luisas","name:lv":"Sanluisa","name:mk":"Сао Луиш","name:mr":"साओ लुईस","name:pt":"São Luís","name:ru":"Сан-Луис","name:sh":"Sao Luis","name:sr":"Сао Луис","name:tg":"Сан-Луис","name:uk":"Сан-Луїс","name:uz":"San-Luis","name:zh":"圣路易斯","population":"1053919","state_capital":"yes","type":"boundary","website":"http://www.saoluis.ma.gov.br/","wikidata":"Q28441","wikipedia":"pt:São Luís (Maranhão)"},"labels":[{"id":"node/155590820","role":"admin_centre","coordinates":[-44.293327,-2.5319223]}]},"geometry":{"type":"Polygon","coordinates":[[[-44.373997,-2.454],[-44.386997,-2.4780002],[-44.399002,-2.5],[-44.423,-2.58],[-44.426,-2.591],[-44.431,-2.6209998],[-44.43,-2.6439998],[-44.425,-2.685],[-44.431,-2.735],[-44.432,-2.766],[-44.434002,-2.8],[-44.401,-2.796],[-44.388996,-2.797],[-44.387997,-2.7649999],[-44.365997,-2.7559998],[-44.359997,-2.7580001],[-44.358997,-2.763],[-44.35028,-2.7628965],[-44.344997,-2.7649999],[-44.337833,-2.7703767],[-44.328,-2.782],[-44.307,-2.779],[-44.281,-2.766],[-44.278,-2.764],[-44.252,-2.7519999],[-44.184,-2.7369998],[-44.162975,-2.7299998],[-44.181976,-2.692],[-44.169975,-2.6799998],[-44.173977,-2.67],[-44.168976,-2.649],[-44.173977,-2.652],[-44.180977,-2.649],[-44.184975,-2.638],[-44.183975,-2.631],[-44.180977,-2.6249998],[-44.166977,-2.596],[-44.177975,-2.583],[-44.195976,-2.5619998],[-44.206974,-2.566],[-44.205975,-2.553],[-44.20798,-2.554],[-44.20946,-2.5511143],[-44.206253,-2.5501413],[-44.20675,-2.548341],[-44.20753,-2.5467222],[-44.20438,-2.5460472],[-44.203274,-2.5456934],[-44.203503,-2.5447738],[-44.203716,-2.543792],[-44.204086,-2.5420363],[-44.202305,-2.541674],[-44.19527,-2.5401735],[-44.197247,-2.5314636],[-44.201084,-2.5318708],[-44.20255,-2.5323637],[-44.20323,-2.5322995],[-44.20439,-2.5326855],[-44.204994,-2.5310776],[-44.206192,-2.5281837],[-44.204178,-2.5265114],[-44.203854,-2.524925],[-44.203598,-2.5236819],[-44.205765,-2.5217097],[-44.205208,-2.521174],[-44.204178,-2.521238],[-44.20233,-2.5220954],[-44.201237,-2.5220313],[-44.201153,-2.5197375],[-44.20898,-2.48],[-44.21598,-2.471],[-44.226997,-2.4780002],[-44.26,-2.481],[-44.265926,-2.4837763],[-44.295,-2.485],[-44.303894,-2.4876263],[-44.310997,-2.497],[-44.325996,-2.5],[-44.373997,-2.454]]]}}
