{"type":"Feature","id":"relation/5636983","properties":{"type":"relation","id":5636983,"tags":{"addr:country":"MD","admin_level":"8","boundary":"administrative","is_in":"Moldova","is_in:country":"Moldova;MD","name":"Orhei","name:de":"Orhei","name:es":"Orhei","name:fr":"Orhei","name:he":"אורחיי","name:it":"Orhei","name:pl":"Orgiejów","name:ro":"Orhei","name:ru":"Орхей","name:uk":"Оргі́їв","name:zh":"奧爾海伊","place":"town","type":"boundary","website":"http://www.orhei.md","wikidata":"Q423258","wikipedia":"ro:Orhei"},"labels":[]},"geometry":{"type":"Polygon","coordinates":[[[28.861843,47.385323],[28.850668,47.389187],[28.841518,47.39856],[28.838215,47.402725],[28.83764,47.403404],[28.815405,47.403057],[28.803272,47.399746],[28.795517,47.392403],[28.799578,47.390812],[28.800695,47.3896],[28.80729,47.35723],[28.804697,47.350582],[28.800068,47.34719],[28.801525,47.345276],[28.809494,47.345303],[28.809479,47.33574],[28.810581,47.335407],[28.81341,47.334526],[28.815397,47.333767],[28.816961,47.333332],[28.81844,47.336037],[28.818417,47.33733],[28.81867,47.337704],[28.820547,47.3372],[28.823206,47.33629],[28.825718,47.336193],[28.826939,47.33496],[28.82922,47.334923],[28.832914,47.335316],[28.83416,47.335606],[28.838614,47.33358],[28.841223,47.335102],[28.820034,47.34472],[28.816284,47.34731],[28.814072,47.349075],[28.817682,47.351048],[28.820173,47.350887],[28.829084,47.36221],[28.834444,47.362114],[28.835377,47.364876],[28.86137,47.380127],[28.861843,47.385323]]]}}
