{"type":"Feature","id":"relation/3936114","properties":{"type":"relation","id":3936114,"tags":{"addr:postcode":"86400-86470","admin_level":"9","boundary":"administrative","koatuu":"1412000000","name":"Єнакієве","name:be-tarask":"Янакіева","name:bg":"Енакиево","name:cs":"Jenakijeve","name:de":"Jenakijewe","name:en":"Yenakiieve","name:eo":"Jenakijeve","name:fa":"یناکییف","name:fi":"Jenakijeve","name:fr":"Ienakiieve","name:hsb":"Jenakijewe","name:it":"Jenakijeve","name:ko":"예나키예베","name:lt":"Jenakijevė","name:nl":"Jenakijeve","name:nn":"Jenakijeve","name:pl":"Jenakijewe","name:prefix":"місто","name:ro":"Ienakiieve","name:ru":"Енакиево","name:rue":"Єнакієве","name:sr":"Јенакијеве","name:sv":"Jenakijeve","name:uk":"Єнакієве","name:vi":"Yenakiieve","name:war":"Yenakiieve","name:zh":"叶纳基耶沃","place":"town","population":"85663","type":"boundary","wikidata":"Q1686835","wikipedia":"uk:Єнакієве"},"labels":[{"id":"node/1756064259","role":"admin_centre","coordinates":[38.185043,48.23051]}]},"geometry":{"type":"Polygon","coordinates":[[[38.1663,48.255558],[38.168213,48.254932],[38.1683,48.25405],[38.171417,48.252956],[38.177094,48.250954],[38.178238,48.245567],[38.16118,48.241997],[38.15881,48.240097],[38.161457,48.232227],[38.1596,48.231693],[38.162914,48.224873],[38.17134,48.22696],[38.172127,48.22575],[38.174515,48.21739],[38.186996,48.21953],[38.18861,48.216816],[38.187775,48.215805],[38.192898,48.207165],[38.19304,48.201374],[38.18762,48.19891],[38.192417,48.19324],[38.19775,48.19376],[38.199978,48.192207],[38.20667,48.19479],[38.211647,48.18998],[38.22367,48.18998],[38.229687,48.179935],[38.245224,48.18399],[38.238735,48.192394],[38.239487,48.19306],[38.23643,48.200333],[38.244377,48.20231],[38.247147,48.197075],[38.249416,48.19799],[38.247726,48.200607],[38.24803,48.20264],[38.24885,48.20405],[38.249138,48.206245],[38.245266,48.209545],[38.247066,48.210266],[38.253216,48.207542],[38.25702,48.210754],[38.253624,48.216904],[38.247772,48.218884],[38.250626,48.225132],[38.25518,48.22966],[38.254833,48.23159],[38.253395,48.23374],[38.247772,48.23614],[38.244778,48.23891],[38.24512,48.241478],[38.241627,48.247646],[38.243324,48.248425],[38.2433,48.249958],[38.24094,48.24982],[38.241,48.252125],[38.24311,48.253235],[38.245922,48.252533],[38.25199,48.250954],[38.255417,48.248962],[38.25814,48.2482],[38.259815,48.248848],[38.257,48.25429],[38.256298,48.257214],[38.255596,48.25956],[38.252872,48.26143],[38.253662,48.26342],[38.249966,48.26576],[38.25484,48.268993],[38.255947,48.269913],[38.25577,48.271027],[38.251198,48.27518],[38.2483,48.275646],[38.248737,48.277927],[38.25498,48.28507],[38.255066,48.286354],[38.252518,48.284836],[38.24487,48.284306],[38.238453,48.283897],[38.233883,48.283195],[38.235023,48.281734],[38.235813,48.28021],[38.23863,48.278515],[38.245747,48.2767],[38.24689,48.274185],[38.2359,48.277287],[38.233444,48.27799],[38.23274,48.27711],[38.234848,48.276176],[38.234234,48.2753],[38.230892,48.27588],[38.229664,48.275356],[38.222805,48.27664],[38.219994,48.277344],[38.218235,48.277813],[38.21862,48.275944],[38.216393,48.276127],[38.217453,48.273254],[38.218204,48.27198],[38.21897,48.267315],[38.203957,48.267895],[38.201813,48.261932],[38.194145,48.262074],[38.187313,48.263046],[38.183754,48.263924],[38.18265,48.261875],[38.175972,48.263577],[38.175095,48.262463],[38.177906,48.260124],[38.175358,48.259243],[38.174393,48.259537],[38.172543,48.26088],[38.170963,48.259594],[38.167446,48.25819],[38.164722,48.25614],[38.1663,48.255558]]]}}
