{"type":"Feature","id":"relation/1152675","properties":{"type":"relation","id":1152675,"tags":{"admin_level":"8","boundary":"administrative","de:amtlicher_gemeindeschluessel":"07232100","de:regionalschluessel":"072325008100","name":"Olsdorf","name:en":"Olsdorf","name:it":"Olsdorf","name:ms":"Olsdorf","name:nl":"Olsdorf","name:pl":"Olsdorf","name:pt":"Olsdorf","name:ru":"Ольсдорф","name:sr":"Олсдорф","name:vi":"Olsdorf","name:vo":"Olsdorf","name:zh":"奥尔斯多尔夫","type":"boundary","wikidata":"Q541226","wikipedia":"de:Olsdorf (Eifel)"},"labels":[]},"geometry":{"type":"Polygon","coordinates":[[[6.401798,49.961555],[6.3967814,49.963543],[6.393232,49.963463],[6.3838434,49.95962],[6.3809047,49.959152],[6.3757277,49.955265],[6.3732643,49.948166],[6.3755355,49.944267],[6.3848124,49.94295],[6.3867884,49.944138],[6.3873725,49.94507],[6.39014,49.947674],[6.390486,49.94737],[6.3907223,49.94754],[6.391088,49.947662],[6.3908796,49.947887],[6.3917675,49.948048],[6.393871,49.94865],[6.394412,49.948734],[6.395148,49.94873],[6.395234,49.948673],[6.395342,49.948757],[6.3961477,49.94915],[6.3968663,49.950027],[6.3982215,49.950855],[6.3989835,49.951107],[6.400288,49.95223],[6.4023943,49.95331],[6.403101,49.95359],[6.403527,49.9537],[6.401798,49.961555]]]}}
