{"type":"Feature","id":"relation/3623772","properties":{"type":"relation","id":3623772,"tags":{"boundary":"political","name":"Angers-1","name:am":"አንዤ-1","name:az":"Anje-1","name:be":"Анжэ-1","name:bg":"Анже-1","name:br":"Añje-1","name:crh":"Anje-1","name:el":"Ανζέ-1","name:fa":"آنژه-1","name:fr":"Angers-1","name:he":"אנז'ה-1","name:ht":"Anje-1","name:ja":"アンジェ-1","name:ka":"ანჟე-1","name:ko":"앙제-1","name:la":"Andecavis-1","name:lt":"Anžė-1","name:lv":"Anžē-1","name:mr":"अँजी-1","name:mrj":"Анже-1","name:mzn":"آنژو-1","name:oc":"Angieus-1","name:pnb":"اینگرز-1","name:ru":"Анже-1","name:sr":"Анжер-1","name:uk":"Анже-1","name:ur":"آنژہ-1","name:uz":"Anje-1","name:vec":"Anzier-1","name:zh":"昂热-1","old_name:la":"Juliomagus-1","political_division":"canton","ref":"049-01","start_date":"2015-03","type":"boundary","wikipedia":"fr:Canton d'Angers-1"},"labels":[{"id":"node/26686572","role":"admin_centre","coordinates":[-0.5515588,47.473988]}]},"geometry":{"type":"Polygon","coordinates":[[[-0.56789654,47.468086],[-0.566721,47.46769],[-0.5654005,47.467243],[-0.565425,47.46715],[-0.56544465,47.46704],[-0.56551945,47.466484],[-0.56555027,47.46625],[-0.56571877,47.464973],[-0.56578946,47.464695],[-0.5658254,47.464573],[-0.56648856,47.46252],[-0.56648445,47.46246],[-0.56649065,47.462383],[-0.56637007,47.46237],[-0.5662628,47.46239],[-0.5650586,47.463005],[-0.5639463,47.463505],[-0.5638252,47.463394],[-0.5627916,47.462418],[-0.5625676,47.462143],[-0.5623786,47.461918],[-0.56211805,47.46162],[-0.5614345,47.460823],[-0.561393,47.460773],[-0.56160265,47.460484],[-0.5617329,47.46034],[-0.56175923,47.460308],[-0.56187767,47.460175],[-0.56063396,47.459602],[-0.5604192,47.459633],[-0.560251,47.45944],[-0.5592087,47.45905],[-0.55865246,47.458843],[-0.558075,47.45861],[-0.55737674,47.45834],[-0.5562544,47.457897],[-0.5545828,47.457253],[-0.5542151,47.457115],[-0.5541078,47.457073],[-0.55404776,47.457054],[-0.5540011,47.45704],[-0.5539135,47.45701],[-0.5526119,47.456512],[-0.55232,47.456406],[-0.5512692,47.455994],[-0.5493603,47.45525],[-0.54884946,47.45506],[-0.5483923,47.45489],[-0.5482942,47.454853],[-0.54824054,47.455124],[-0.54810894,47.455116],[-0.54802626,47.45515],[-0.5479404,47.455215],[-0.54729354,47.45566],[-0.5463289,47.45633],[-0.54569584,47.45677],[-0.5455312,47.45686],[-0.54534185,47.456963],[-0.54505223,47.45717],[-0.5446597,47.457455],[-0.5443929,47.45759],[-0.54419553,47.4575],[-0.543307,47.456223],[-0.54124856,47.45329],[-0.5408333,47.45262],[-0.54008377,47.452835],[-0.5397784,47.452892],[-0.5387906,47.453087],[-0.5386186,47.453117],[-0.53810865,47.45325],[-0.53639525,47.45377],[-0.5357965,47.453968],[-0.5352132,47.45415],[-0.5344081,47.454403],[-0.5342492,47.454453],[-0.5341128,47.45449],[-0.53383946,47.454556],[-0.53324556,47.4547],[-0.5317631,47.455063],[-0.5313919,47.455162],[-0.53096306,47.455288],[-0.5304889,47.455463],[-0.5301165,47.45563],[-0.5300082,47.455685],[-0.52981067,47.455776],[-0.52956676,47.455917],[-0.5291382,47.456196],[-0.5285013,47.456654],[-0.5281483,47.45686],[-0.5277418,47.45708],[-0.5272887,47.457275],[-0.526926,47.457417],[-0.5266039,47.45754],[-0.52624035,47.457672],[-0.5253402,47.45801],[-0.5249436,47.458168],[-0.5237095,47.458633],[-0.5220549,47.459244],[-0.52110416,47.459602],[-0.5205651,47.459793],[-0.5197539,47.460114],[-0.5193831,47.460285],[-0.5191027,47.46042],[-0.5187713,47.460613],[-0.5184423,47.46085],[-0.51814115,47.461098],[-0.5178408,47.46141],[-0.5176564,47.461662],[-0.5175198,47.46189],[-0.5173771,47.46215],[-0.5172828,47.462387],[-0.5172238,47.4626],[-0.5171907,47.462807],[-0.517168,47.462963],[-0.51713157,47.46319],[-0.5172553,47.463223],[-0.5173912,47.463245],[-0.517392,47.46326],[-0.5174166,47.463253],[-0.5190633,47.463604],[-0.5192457,47.46363],[-0.5193974,47.46367],[-0.51953787,47.463684],[-0.5195406,47.463696],[-0.5195536,47.463764],[-0.51956797,47.46383],[-0.51968426,47.46431],[-0.5197242,47.4645],[-0.5197434,47.46463],[-0.5197772,47.464916],[-0.5197834,47.464993],[-0.5197834,47.465057],[-0.5197763,47.465115],[-0.5197605,47.465183],[-0.5197535,47.465218],[-0.5197273,47.46534],[-0.5196969,47.465446],[-0.5196855,47.465473],[-0.519668,47.465515],[-0.51965606,47.46554],[-0.51958346,47.46571],[-0.519542,47.465794],[-0.520078,47.46584],[-0.52113897,47.46583],[-0.5224175,47.465904],[-0.52341187,47.466038],[-0.5243048,47.466198],[-0.5254876,47.466446],[-0.530649,47.468292],[-0.5319226,47.46888],[-0.53232986,47.469067],[-0.53905797,47.47179],[-0.5402437,47.472],[-0.54259765,47.47255],[-0.54411966,47.473343],[-0.5536661,47.47745],[-0.55467534,47.477818],[-0.55748534,47.473988],[-0.5583876,47.473278],[-0.5609075,47.47171],[-0.56336623,47.470474],[-0.5652508,47.4696],[-0.5666758,47.468594],[-0.56789654,47.468086]]]}}
