{"type":"Feature","id":"relation/307823","properties":{"type":"relation","id":307823,"tags":{"ISO3166-1":"DM","ISO3166-1:alpha2":"DM","ISO3166-1:alpha3":"DMA","ISO3166-1:numeric":"212","admin_level":"2","border_type":"nation","boundary":"administrative","flag":"http://upload.wikimedia.org/wikipedia/commons/c/c4/Flag_of_Dominica.svg","is_in:continent":"North America","name":"Dominica","name:cs":"Dominika","name:de":"Dominica","name:en":"Dominica","name:eo":"Dominiko","name:fr":"Dominique","name:fy":"Dominika","name:hr":"Dominika","name:lt":"Dominika","name:nl":"Dominica","name:ru":"Доминика","name:sk":"Dominika","name:tzl":"Dominica","name:uk":"Домініка","official_name:eo":"Dominika Komunumo","official_name:lt":"Dominikos Sandrauga","population":"70739","timezone":"America/Dominica","type":"boundary","wikidata":"Q784","wikipedia":"en:Dominica"},"labels":[{"id":"node/424297496","role":"label","coordinates":[-61.36536,15.411313]},{"id":"node/238927834","role":"admin_centre","coordinates":[-61.387505,15.298461]}]},"geometry":{"type":"Polygon","coordinates":[[[-61.15891,15.079246],[-61.13492,15.090518],[-61.106976,15.115187],[-61.083954,15.144617],[-61.066673,15.177978],[-61.06096,15.196169],[-61.056202,15.204371],[-61.044212,15.237548],[-61.04203,15.24767],[-61.03732,15.276809],[-61.03685,15.30295],[-61.03464,15.315081],[-61.035435,15.354422],[-61.0364,15.358903],[-61.032986,15.3942995],[-61.037266,15.435156],[-61.03441,15.461502],[-61.03639,15.495215],[-61.043674,15.541065],[-61.05524,15.5742445],[-61.05676,15.576933],[-61.060783,15.584628],[-61.065792,15.598975],[-61.08342,15.63003],[-61.09682,15.646096],[-61.11066,15.66565],[-61.116795,15.672069],[-61.120487,15.68041],[-61.138332,15.701667],[-61.323612,15.734166],[-61.442497,15.787222],[-61.679825,15.64441],[-61.683216,15.618268],[-61.686916,15.525979],[-61.681927,15.492056],[-61.67562,15.472261],[-61.671947,15.449099],[-61.660248,15.41576],[-61.652184,15.399721],[-61.648624,15.385184],[-61.63508,15.352433],[-61.62375,15.334796],[-61.61164,15.30529],[-61.59792,15.282821],[-61.589684,15.24261],[-61.58025,15.218258],[-61.580257,15.198314],[-61.573887,15.162694],[-61.56099,15.128637],[-61.538857,15.093192],[-61.510235,15.063065],[-61.481346,15.042183],[-61.449947,15.026755],[-61.42329,15.017098],[-61.40056,15.011511],[-61.370243,15.00742],[-61.349022,15.007494],[-61.28305,15.030832],[-61.15891,15.079246]]]}}
