{"type":"Feature","id":"relation/6578662","properties":{"type":"relation","id":6578662,"tags":{"admin_level":"8","boundary":"administrative","ele":"1,718 m (5,636 ft)","is_in:continent":"Asia","is_in:country":"Iran","name":"اراک","name:ar":"آراك (إيران)","name:arz":"آراك","name:az":"Ərak","name:ckb":"ئەراک","name:cs":"Arák","name:en":"Arak","name:hi":"अराक","name:hu":"Arák","name:hy":"Էրաք","name:ja":"アラーク","name:ka":"არაქი","name:ko":"아라크 (도시)","name:ku":"Erak","name:lt":"Arakas","name:os":"Эрак","name:pnb":"اراک","name:ru":"Эрак","name:sr":"Арак","name:tg":"Арок","name:th":"อะราก","name:tr":"Erak","name:uk":"Ерак","name:zh":"阿拉克","old_name":"سلطان آباد","place":"city","population":"526200","type":"boundary","website":"http://www.arak.ir/","wikipedia":"en:Arak, Iran"},"labels":[{"id":"node/4425404552","role":"label","coordinates":[49.688713,34.08644]}]},"geometry":{"type":"Polygon","coordinates":[[[49.761505,34.10574],[49.756466,34.11782],[49.749138,34.12402],[49.74087,34.12834],[49.72783,34.13266],[49.71821,34.135353],[49.69974,34.136436],[49.686638,34.133526],[49.684475,34.13305],[49.68085,34.12402],[49.676487,34.116146],[49.66908,34.115788],[49.664227,34.1104],[49.660748,34.10645],[49.652317,34.10177],[49.65061,34.096333],[49.649406,34.0953],[49.64787,34.09398],[49.641632,34.091076],[49.634388,34.083965],[49.622772,34.0836],[49.621716,34.075283],[49.6157,34.067177],[49.605896,34.061054],[49.61246,34.052036],[49.61086,34.045193],[49.62607,34.04005],[49.637897,34.04368],[49.655582,34.055305],[49.663265,34.06397],[49.67339,34.064396],[49.687492,34.05456],[49.696697,34.062183],[49.71174,34.063587],[49.71387,34.06012],[49.718147,34.05828],[49.72995,34.058178],[49.734615,34.060505],[49.734985,34.060764],[49.74107,34.064926],[49.750927,34.065365],[49.754276,34.055866],[49.770725,34.05814],[49.798836,34.04579],[49.806236,34.04254],[49.82058,34.049507],[49.817623,34.05306],[49.792526,34.083164],[49.772488,34.084064],[49.769524,34.088142],[49.76849,34.08956],[49.772366,34.0937],[49.77117,34.100197],[49.762955,34.10052],[49.761547,34.10563],[49.761505,34.10574]]]}}
