{"type":"Feature","id":"relation/3937623","properties":{"type":"relation","id":3937623,"tags":{"addr:country":"RU","addr:district":"Юрьянский район","addr:postcode":"613641","addr:region":"Кировская область","admin_level":"10","boundary":"administrative","name":"Мурыгино","name:de":"Murygino","name:ja":"ムルィギノ","place":"town","type":"boundary"},"labels":[]},"geometry":{"type":"Polygon","coordinates":[[[49.4662,58.74355],[49.457188,58.747963],[49.44995,58.74878],[49.438004,58.742466],[49.438396,58.735046],[49.442017,58.736046],[49.446983,58.732807],[49.44697,58.732414],[49.446487,58.72983],[49.45023,58.730854],[49.453743,58.73167],[49.456337,58.73204],[49.458492,58.73224],[49.462463,58.732296],[49.465626,58.732155],[49.47057,58.731792],[49.47415,58.731346],[49.477505,58.730633],[49.479202,58.73],[49.48069,58.72924],[49.482986,58.727406],[49.48415,58.7259],[49.48814,58.726017],[49.495693,58.73055],[49.49237,58.73145],[49.489685,58.73242],[49.49469,58.733967],[49.495552,58.73423],[49.494514,58.73491],[49.489414,58.7366],[49.481056,58.73661],[49.479187,58.73802],[49.47393,58.737656],[49.469654,58.741856],[49.4662,58.74355]]]}}
