{"type":"Feature","id":"relation/4481472","properties":{"type":"relation","id":4481472,"tags":{"addr:country":"RU","addr:district":"Глинковский район","addr:postcode":"216320","addr:region":"Смоленская область","admin_level":"10","boundary":"administrative","name":"Глинка","name:de":"Glinka","name:en":"Glinka","name:ru":"Глинка","official_status":"ru:село","place":"town","type":"boundary"},"labels":[{"id":"node/682379577","role":"admin_centre","coordinates":[32.87325,54.64204]}]},"geometry":{"type":"Polygon","coordinates":[[[32.87038,54.64258],[32.871136,54.642067],[32.87236,54.641106],[32.8723,54.64072],[32.873158,54.63983],[32.865955,54.6334],[32.882824,54.62707],[32.883698,54.627052],[32.887043,54.622036],[32.89137,54.626316],[32.89195,54.629066],[32.885994,54.642773],[32.88714,54.647884],[32.888283,54.650425],[32.882793,54.6544],[32.878067,54.65109],[32.87568,54.651363],[32.87005,54.650394],[32.867325,54.650425],[32.86064,54.653294],[32.85768,54.650784],[32.862217,54.646587],[32.865402,54.643898],[32.87038,54.64258]]]}}
