{"type":"Feature","id":"relation/184629","properties":{"type":"relation","id":184629,"tags":{"ISO3166-1":"BT","ISO3166-1:alpha2":"BT","ISO3166-1:alpha3":"BTN","ISO3166-1:numeric":"064","admin_level":"2","boundary":"administrative","flag":"http://upload.wikimedia.org/wikipedia/commons/9/91/Flag_of_Bhutan.svg","is_in:continent":"Asia","name":"འབྲུག་ཡུལ་","name:ace":"Bhutan","name:af":"Bhoetan","name:als":"Bhutan","name:am":"ቡታን","name:an":"Bután","name:ar":"بوتان","name:arz":"بوتان","name:as":"ভূটান","name:ast":"Bután","name:az":"Butan","name:ba":"Бутан","name:bar":"Bhutan","name:bat-smg":"Butans","name:bcl":"Butan","name:be":"Бутан","name:be-tarask":"Бутан","name:bg":"Бутан","name:bh":"भूटान","name:bi":"Bhutan","name:bjn":"Bhutan","name:bn":"ভুটান","name:bo":"འབྲུག་ཡུལ།","name:bpy":"ভুটান","name:br":"Bhoutan","name:bs":"Butan","name:bxr":"Бутан","name:ca":"Bhutan","name:ce":"Бутан","name:ceb":"Bhutan","name:ckb":"بووتان","name:crh":"Butan","name:cs":"Bhútán","name:csb":"Bhutan","name:cv":"Бутан","name:cy":"Bhutan","name:da":"Bhutan","name:de":"Bhutan","name:diq":"Butan","name:dv":"ބޫޓާން","name:dz":"འབྲུགཡུལ་","name:el":"Μπουτάν","name:en":"Bhutan","name:eo":"Butano","name:es":"Bután","name:et":"Bhutan","name:eu":"Bhutan","name:ext":"Bután","name:fa":"پادشاهی بوتان","name:fi":"Bhutan","name:fiu-vro":"Bhutan","name:fo":"Butan","name:fr":"Bhoutan","name:frp":"Botan","name:fy":"Bûtan","name:ga":"An Bhútain","name:gag":"Butan","name:gd":"Butàn","name:gl":"Bután","name:gn":"Vutã","name:gu":"ભૂતાન","name:haw":"Butana","name:he":"בהוטן","name:hi":"भूटान","name:hif":"Bhutan","name:hr":"Butan","name:hsb":"Bhutan","name:ht":"Boutan","name:hu":"Bhután","name:hy":"Բութան","name:ia":"Bhutan","name:id":"Bhutan","name:ie":"Bhutan","name:ilo":"Butan","name:io":"Bhutan","name:is":"Bútan","name:it":"Bhutan","name:ja":"ブータン","name:jv":"Bhutan","name:ka":"ბჰუტანი","name:ki":"Bhutan","name:kk":"Бутан Патшалығы","name:kn":"ಭೂತಾನ್","name:ko":"부탄","name:ku":"Bûtan","name:kv":"Бутан","name:kw":"Bhoutan","name:ky":"Бутан","name:la":"Butania","name:lb":"Bhutan","name:lez":"Бутан","name:li":"Bhutan","name:lij":"Bhutan","name:lmo":"Bhutan","name:ln":"Butáni","name:lt":"Butanas","name:lv":"Butāna","name:mk":"Бутан","name:ml":"ഭൂട്ടാൻ","name:mn":"Бутан","name:mr":"भूतान","name:ms":"Bhutan","name:mt":"Butan","name:my":"ဘူတန်နိုင်ငံ","name:na":"Butan","name:nah":"Butan","name:nap":"Bhutan","name:nds":"Bhutan","name:ne":"भूटान","name:nl":"Bhutan","name:nn":"Bhutan","name:no":"Bhutan","name:nov":"Butan","name:nv":"Iiʼniʼ Tłʼiishtsoh Bikéyah","name:oc":"Botan","name:or":"ଭୁଟାନ","name:os":"Бутан","name:pa":"ਭੂਟਾਨ","name:pam":"Butan","name:pih":"Buuten","name:pl":"Bhutan","name:pms":"Bhutan","name:pnb":"بھوٹان","name:ps":"بوتان","name:pt":"Butão","name:qu":"Butan","name:rm":"Bhutan","name:ro":"Bhutan","name:roa-rup":"Bhutan","name:ru":"Бутан","name:rue":"Бгутан","name:rw":"Butani","name:sah":"Бутан","name:scn":"Bhutan","name:sco":"Bhutan","name:se":"Bhutan","name:sh":"Butan","name:simple":"Bhutan","name:sk":"Bhután","name:sl":"Butan","name:so":"Butaan","name:sq":"Butani","name:sr":"Бутан","name:ss":"IBhuthani","name:stq":"Bhutan","name:su":"Butan","name:sv":"Bhutan","name:sw":"Bhutan","name:szl":"Bhutan","name:ta":"பூட்டான்","name:te":"భూటాన్","name:tg":"Подшоҳии Бутан","name:th":"ประเทศภูฏาน","name:tk":"Butan","name:tl":"Butan","name:tpi":"Bhutan","name:tr":"Bhutan","name:tt":"Бутан","name:tw":"Butan","name:tzl":"Bhutà","name:udm":"Бутан","name:ug":"بۇتان","name:uk":"Бутан","name:ur":"بھوٹان","name:uz":"Butan podsholigi","name:vi":"Bhutan","name:vo":"Butän","name:war":"Butan","name:wo":"Butaan","name:wuu":"不丹","name:xal":"Бутанмудин Нутг","name:yi":"בהוטאן","name:yo":"Bhùtán","name:zea":"Bhutan","name:zh":"不丹","name:zh-min-nan":"Bhutan","name:zh-yue":"不丹","timezone":"Asia/Thimphu","type":"boundary","wikidata":"Q917","wikipedia":"en:Bhutan"},"labels":[{"id":"node/424311028","role":"label","coordinates":[90.511925,27.549511]},{"id":"node/1376501203","role":"admin_centre","coordinates":[89.62955,27.47276]}]},"geometry":{"type":"Polygon","coordinates":[[[91.29522,26.794329],[91.30493,26.789036],[91.341415,26.782274],[91.38022,26.79436],[91.41436,26.84056],[91.4377,26.823725],[91.46806,26.804977],[91.49787,26.792828],[91.499725,26.792072],[91.50086,26.792175],[91.501366,26.792452],[91.501656,26.792759],[91.50185,26.792711],[91.50224,26.792622],[91.50295,26.79261],[91.50309,26.792606],[91.503654,26.792728],[91.50379,26.79276],[91.50399,26.792835],[91.50434,26.792892],[91.50444,26.792902],[91.50476,26.792952],[91.50501,26.792988],[91.50622,26.793203],[91.50641,26.793272],[91.50654,26.79333],[91.50705,26.793484],[91.50848,26.793665],[91.50875,26.793589],[91.50947,26.79338],[91.50984,26.793274],[91.564606,26.801535],[91.59279,26.805742],[91.60765,26.812391],[91.63042,26.822577],[91.69533,26.80906],[91.7108,26.815407],[91.72428,26.813904],[91.77121,26.8375],[91.82478,26.8639],[91.859344,26.913385],[91.87823,26.915808],[91.89378,26.919634],[91.9712,26.88418],[91.973755,26.872828],[91.98706,26.860817],[92.01877,26.853313],[92.056526,26.849615],[92.103645,26.869267],[92.10461,26.88724],[92.1157,26.893738],[92.11832,26.905397],[92.11864,26.906466],[92.118996,26.907429],[92.11913,26.907999],[92.11892,26.908533],[92.11853,26.908998],[92.11832,26.909498],[92.11834,26.910082],[92.11844,26.910648],[92.118645,26.911573],[92.11867,26.911829],[92.11849,26.912216],[92.11821,26.912498],[92.11756,26.913065],[92.11623,26.914194],[92.11477,26.915915],[92.11428,26.916481],[92.11541,26.91946],[92.115585,26.920567],[92.11556,26.921362],[92.11552,26.922054],[92.11539,26.92311],[92.11554,26.923828],[92.115814,26.925062],[92.11631,26.926321],[92.11679,26.928402],[92.11685,26.929173],[92.11643,26.92984],[92.11605,26.930353],[92.11566,26.931047],[92.11516,26.932154],[92.114815,26.93331],[92.11489,26.933926],[92.11516,26.934465],[92.11536,26.93498],[92.115616,26.935518],[92.11577,26.93611],[92.11616,26.936443],[92.116875,26.936777],[92.11762,26.937035],[92.11785,26.937265],[92.11798,26.937857],[92.11806,26.938215],[92.11808,26.938524],[92.117874,26.939013],[92.11792,26.939295],[92.11806,26.93991],[92.1181,26.940735],[92.118164,26.941172],[92.118286,26.941658],[92.118515,26.942274],[92.11836,26.942585],[92.1181,26.942892],[92.11769,26.943123],[92.11723,26.943636],[92.11679,26.944073],[92.11623,26.944433],[92.11572,26.944664],[92.114815,26.94487],[92.11448,26.945486],[92.11397,26.946104],[92.11425,26.946438],[92.11451,26.946796],[92.11495,26.947363],[92.114685,26.947876],[92.11441,26.948364],[92.11402,26.948774],[92.113815,26.94929],[92.113716,26.949802],[92.113434,26.95024],[92.112785,26.950907],[92.11299,26.95137],[92.113304,26.95173],[92.113686,26.952194],[92.11405,26.952602],[92.11441,26.953144],[92.114716,26.953787],[92.115074,26.95389],[92.115845,26.953964],[92.116745,26.954224],[92.1171,26.954403],[92.117355,26.954607],[92.11749,26.954865],[92.11754,26.955353],[92.117645,26.95615],[92.11798,26.957333],[92.118164,26.957922],[92.118256,26.95882],[92.11857,26.959051],[92.119316,26.959412],[92.120186,26.959824],[92.12134,26.960672],[92.12096,26.961443],[92.12065,26.962341],[92.12039,26.963112],[92.11986,26.963959],[92.11959,26.964756],[92.11957,26.965963],[92.119675,26.96748],[92.11988,26.969046],[92.12009,26.970434],[92.11996,26.97159],[92.11959,26.97213],[92.11887,26.972952],[92.118416,26.97326],[92.11759,26.973646],[92.11716,26.974134],[92.11679,26.974829],[92.11631,26.975523],[92.11533,26.976292],[92.11451,26.976088],[92.11374,26.975906],[92.11322,26.97588],[92.11274,26.975958],[92.11204,26.97624],[92.11091,26.976574],[92.10991,26.977037],[92.108734,26.97786],[92.107544,26.978706],[92.106415,26.979582],[92.105255,26.980377],[92.1051,26.980865],[92.10492,26.981611],[92.104774,26.982483],[92.10469,26.983896],[92.10467,26.987162],[92.10506,26.987314],[92.105545,26.987648],[92.10662,26.988342],[92.10765,26.989061],[92.107315,26.990011],[92.106926,26.991013],[92.10659,26.99199],[92.10639,26.99276],[92.10623,26.993326],[92.10598,26.993736],[92.10549,26.9942],[92.10519,26.994843],[92.10506,26.99551],[92.105,26.996126],[92.10487,26.996769],[92.10446,26.997591],[92.1041,26.998388],[92.10383,26.999083],[92.10377,27.000109],[92.10379,27.00083],[92.10372,27.001446],[92.10349,27.00201],[92.10341,27.00242],[92.103386,27.004013],[92.102974,27.004324],[92.102516,27.00468],[92.10195,27.00517],[92.10105,27.005787],[92.10005,27.006506],[92.09933,27.006994],[92.09868,27.007664],[92.09807,27.0081],[92.0973,27.00851],[92.096504,27.00869],[92.09557,27.009102],[92.094986,27.009563],[92.09483,27.009949],[92.09486,27.010386],[92.09506,27.010874],[92.0954,27.011492],[92.09436,27.011978],[92.09357,27.012594],[92.09287,27.01298],[92.09221,27.013212],[92.091354,27.013391],[92.09044,27.013573],[92.08956,27.013649],[92.08877,27.013855],[92.0881,27.014137],[92.08753,27.014267],[92.086945,27.014498],[92.08661,27.014957],[92.08614,27.01537],[92.085655,27.015602],[92.08497,27.015602],[92.083755,27.015629],[92.083115,27.015858],[92.082466,27.016167],[92.0819,27.016422],[92.08136,27.016603],[92.0809,27.016705],[92.080185,27.017143],[92.079544,27.01735],[92.07872,27.017658],[92.07795,27.017965],[92.078026,27.018684],[92.0781,27.019072],[92.07869,27.020226],[92.07859,27.020842],[92.07844,27.021332],[92.078255,27.021717],[92.0778,27.022282],[92.07762,27.022564],[92.07769,27.022797],[92.07815,27.023052],[92.07836,27.023438],[92.07844,27.023823],[92.07854,27.024466],[92.07846,27.024826],[92.07782,27.025364],[92.07792,27.025852],[92.07795,27.026264],[92.07795,27.02688],[92.078026,27.02742],[92.078285,27.02814],[92.07857,27.028988],[92.07896,27.02958],[92.07946,27.03004],[92.079926,27.030863],[92.08026,27.031633],[92.08059,27.03225],[92.081154,27.032866],[92.08175,27.033356],[92.08244,27.033792],[92.08244,27.034536],[92.0825,27.035282],[92.08242,27.036901],[92.08224,27.037466],[92.081985,27.037878],[92.081985,27.038338],[92.08211,27.03893],[92.08211,27.039444],[92.08203,27.03983],[92.081696,27.040575],[92.08067,27.040728],[92.0797,27.040882],[92.07875,27.04096],[92.07797,27.040987],[92.0769,27.040882],[92.07667,27.041113],[92.076355,27.041372],[92.07584,27.041628],[92.075325,27.041706],[92.07491,27.041937],[92.07451,27.04245],[92.07397,27.042912],[92.07322,27.043272],[92.07232,27.043736],[92.07143,27.04263],[92.07117,27.042683],[92.070885,27.042734],[92.07034,27.04309],[92.069595,27.043581],[92.06914,27.044043],[92.068726,27.044607],[92.06829,27.04502],[92.06754,27.045404],[92.066666,27.045713],[92.065895,27.046278],[92.06482,27.0471],[92.06408,27.047512],[92.06338,27.047691],[92.06277,27.047716],[92.06197,27.047665],[92.06125,27.047665],[92.06071,27.048025],[92.05991,27.04877],[92.05884,27.049335],[92.05784,27.050003],[92.05693,27.050362],[92.05606,27.050644],[92.054565,27.051134],[92.05339,27.051598],[92.05236,27.051802],[92.05169,27.051723],[92.050995,27.05139],[92.04992,27.050594],[92.04835,27.051083],[92.04737,27.051441],[92.04622,27.051672],[92.0447,27.051983],[92.044655,27.052214],[92.044525,27.053137],[92.044395,27.053679],[92.04421,27.05432],[92.04391,27.055014],[92.04357,27.05576],[92.04319,27.056376],[92.04252,27.05681],[92.04192,27.057531],[92.04131,27.058558],[92.040794,27.059021],[92.04015,27.059278],[92.03944,27.059818],[92.03877,27.060331],[92.03823,27.061026],[92.03774,27.061949],[92.037285,27.062643],[92.03656,27.063389],[92.03679,27.06439],[92.036865,27.065136],[92.03702,27.065855],[92.03715,27.066498],[92.03733,27.066986],[92.03756,27.067371],[92.03805,27.067963],[92.03821,27.068657],[92.038124,27.069376],[92.03754,27.070017],[92.03718,27.070404],[92.03684,27.071201],[92.03591,27.072355],[92.03553,27.072433],[92.03514,27.072922],[92.03468,27.073435],[92.03412,27.074078],[92.03358,27.074797],[92.0326,27.076107],[92.03222,27.076569],[92.03201,27.07716],[92.03186,27.077906],[92.03181,27.078573],[92.03181,27.079111],[92.03175,27.07937],[92.03145,27.079731],[92.03119,27.080038],[92.03116,27.080578],[92.03121,27.081322],[92.03119,27.08176],[92.03116,27.082247],[92.031265,27.082659],[92.031494,27.083069],[92.03157,27.083532],[92.031494,27.083916],[92.03124,27.084406],[92.031265,27.08487],[92.031425,27.085537],[92.031525,27.08677],[92.03168,27.087873],[92.03183,27.08921],[92.03193,27.089981],[92.03193,27.090416],[92.03183,27.090776],[92.03168,27.091343],[92.031494,27.092037],[92.03147,27.092627],[92.030754,27.0934],[92.03021,27.093937],[92.02978,27.094477],[92.029396,27.095068],[92.028854,27.095814],[92.02865,27.09625],[92.02867,27.096481],[92.02892,27.096867],[92.029236,27.097353],[92.02944,27.09774],[92.02955,27.098125],[92.02967,27.098537],[92.0298,27.098923],[92.03001,27.099384],[92.0303,27.099873],[92.02949,27.100231],[92.02877,27.100643],[92.028206,27.101208],[92.02775,27.10162],[92.02752,27.102032],[92.02731,27.102648],[92.02713,27.103134],[92.02662,27.103802],[92.026306,27.104214],[92.02574,27.104677],[92.0251,27.10519],[92.024666,27.10586],[92.02451,27.106398],[92.024376,27.107092],[92.02418,27.107477],[92.023865,27.107912],[92.02341,27.108402],[92.023224,27.109533],[92.023094,27.1102],[92.02318,27.110613],[92.02354,27.111202],[92.02374,27.111742],[92.023895,27.112206],[92.02435,27.112667],[92.02443,27.113],[92.02464,27.113592],[92.0251,27.114311],[92.02612,27.11534],[92.02585,27.116264],[92.026436,27.11729],[92.02718,27.118397],[92.027565,27.119143],[92.02803,27.119963],[92.02849,27.120348],[92.029366,27.120941],[92.03003,27.121454],[92.030464,27.122147],[92.03107,27.122995],[92.031425,27.123484],[92.03196,27.12446],[92.032425,27.125153],[92.0327,27.125746],[92.032936,27.126259],[92.03317,27.126747],[92.03345,27.12726],[92.03347,27.127645],[92.033424,27.128159],[92.03347,27.128595],[92.03368,27.12898],[92.03389,27.129675],[92.034035,27.130217],[92.03417,27.130907],[92.034195,27.131601],[92.03425,27.132399],[92.03435,27.133041],[92.03448,27.133709],[92.03474,27.134377],[92.03484,27.134995],[92.03502,27.13543],[92.03548,27.135971],[92.035866,27.136717],[92.03597,27.137255],[92.03589,27.137691],[92.03566,27.13818],[92.03543,27.138565],[92.03538,27.13908],[92.03548,27.139414],[92.035736,27.13972],[92.03579,27.14021],[92.035706,27.140877],[92.03553,27.141571],[92.03507,27.142008],[92.03453,27.142702],[92.03422,27.143267],[92.03399,27.14391],[92.03374,27.144577],[92.03351,27.144886],[92.033066,27.145424],[92.03265,27.146118],[92.03207,27.146812],[92.032036,27.147223],[92.032196,27.147762],[92.03258,27.14825],[92.03345,27.149075],[92.033035,27.149765],[92.03276,27.15041],[92.03234,27.151001],[92.03196,27.15195],[92.03157,27.153646],[92.03124,27.154469],[92.03073,27.155085],[92.03008,27.155445],[92.0289,27.155958],[92.02829,27.156292],[92.02844,27.157244],[92.02865,27.157835],[92.02877,27.158373],[92.028824,27.158684],[92.028694,27.159222],[92.02852,27.159813],[92.028206,27.160713],[92.027855,27.161533],[92.02738,27.162304],[92.02752,27.163128],[92.02754,27.163948],[92.027466,27.164669],[92.02736,27.16531],[92.02731,27.166159],[92.02729,27.166954],[92.02713,27.167881],[92.026924,27.168573],[92.027435,27.168728],[92.027794,27.169165],[92.02805,27.169703],[92.02818,27.170296],[92.02842,27.170834],[92.02877,27.171297],[92.02952,27.171862],[92.030235,27.172377],[92.030754,27.17276],[92.031425,27.173172],[92.03183,27.173609],[92.03237,27.17397],[92.03314,27.174406],[92.03399,27.175074],[92.03487,27.175869],[92.03566,27.17659],[92.036514,27.177925],[92.03656,27.178337],[92.03656,27.179186],[92.03644,27.180387],[92.037384,27.180548],[92.03814,27.180832],[92.03865,27.181116],[92.039444,27.181433],[92.04026,27.181654],[92.0408,27.181717],[92.041466,27.18159],[92.0421,27.181654],[92.04264,27.18178],[92.043365,27.18175],[92.04437,27.181717],[92.044815,27.18178],[92.045296,27.182222],[92.04587,27.182446],[92.046936,27.182634],[92.047516,27.18273],[92.04821,27.18314],[92.049034,27.183481],[92.049904,27.183826],[92.05102,27.184101],[92.05208,27.184353],[92.05287,27.185198],[92.05342,27.185656],[92.0542,27.186457],[92.05477,27.186798],[92.05546,27.18714],[92.05614,27.187529],[92.056915,27.188284],[92.057144,27.188671],[92.0574,27.189428],[92.057655,27.19025],[92.0579,27.190912],[92.05818,27.191462],[92.058334,27.191942],[92.05841,27.19249],[92.05856,27.19297],[92.05896,27.193563],[92.05911,27.193975],[92.05919,27.194729],[92.05934,27.195623],[92.059525,27.196125],[92.05982,27.196718],[92.05982,27.197245],[92.05957,27.197657],[92.058975,27.198387],[92.05864,27.199074],[92.05841,27.199875],[92.05838,27.200605],[92.05864,27.201406],[92.05896,27.202206],[92.05951,27.20328],[92.05987,27.203806],[92.06019,27.20424],[92.060555,27.20488],[92.06074,27.205406],[92.06085,27.206093],[92.06092,27.206596],[92.06092,27.207075],[92.06101,27.207464],[92.06124,27.207829],[92.06154,27.208492],[92.06163,27.209156],[92.061584,27.20991],[92.06163,27.210115],[92.06213,27.210619],[92.06289,27.211008],[92.063644,27.211464],[92.06412,27.211578],[92.0651,27.212013],[92.065765,27.21247],[92.06641,27.21327],[92.067154,27.213749],[92.06773,27.21398],[92.06824,27.214024],[92.06837,27.214527],[92.06844,27.215054],[92.06895,27.215578],[92.0692,27.216127],[92.069405,27.216677],[92.069374,27.217087],[92.069145,27.217842],[92.06911,27.21846],[92.069305,27.218824],[92.06976,27.219288],[92.070045,27.219788],[92.07009,27.220251],[92.070045,27.221],[92.06991,27.221466],[92.06944,27.221966],[92.069695,27.222607],[92.07009,27.223394],[92.07041,27.224144],[92.07073,27.224712],[92.07076,27.225143],[92.07073,27.225677],[92.07059,27.226534],[92.07073,27.22707],[92.071045,27.22771],[92.07123,27.22846],[92.07123,27.22896],[92.07112,27.230068],[92.07112,27.231031],[92.07184,27.234777],[92.071625,27.235493],[92.07148,27.236599],[92.071304,27.238062],[92.07055,27.238276],[92.069695,27.238632],[92.06941,27.239275],[92.069016,27.24006],[92.06859,27.24081],[92.067444,27.242023],[92.0662,27.243309],[92.06531,27.24413],[92.06459,27.244308],[92.06337,27.244844],[92.062485,27.244951],[92.06163,27.245129],[92.06077,27.2462],[92.060486,27.247057],[92.06042,27.250233],[92.06002,27.25141],[92.05934,27.25209],[92.05866,27.252302],[92.05799,27.252625],[92.057205,27.252981],[92.0561,27.253017],[92.05492,27.252909],[92.05377,27.253052],[92.0526,27.253052],[92.050995,27.253374],[92.0498,27.253868],[92.048874,27.254034],[92.04797,27.25427],[92.04737,27.254652],[92.04645,27.25551],[92.04607,27.255701],[92.045685,27.255676],[92.04526,27.255486],[92.04474,27.255295],[92.04409,27.25532],[92.0434,27.255558],[92.04288,27.255629],[92.042,27.255533],[92.03862,27.254938],[92.03816,27.256079],[92.037926,27.256676],[92.03783,27.257269],[92.03769,27.258484],[92.03798,27.258959],[92.03857,27.259483],[92.039215,27.259935],[92.039925,27.260174],[92.04062,27.260387],[92.04145,27.260555],[92.04216,27.260887],[92.042564,27.261276],[92.04571,27.266188],[92.04596,27.266531],[92.04613,27.266993],[92.046326,27.26751],[92.04647,27.26786],[92.04654,27.268293],[92.04662,27.268764],[92.04674,27.269274],[92.04702,27.269302],[92.0473,27.269358],[92.04758,27.269478],[92.04789,27.269615],[92.04798,27.269615],[92.04809,27.26957],[92.0482,27.269497],[92.04829,27.269442],[92.04846,27.269497],[92.048645,27.269552],[92.04866,27.269596],[92.048676,27.269743],[92.0493,27.270048],[92.049576,27.27006],[92.049675,27.270151],[92.04975,27.270262],[92.049904,27.270336],[92.05004,27.270401],[92.05014,27.270464],[92.050285,27.270475],[92.050476,27.270493],[92.05061,27.27053],[92.05076,27.270594],[92.05091,27.270622],[92.051025,27.270603],[92.051216,27.270557],[92.0514,27.270557],[92.052086,27.270622],[92.05288,27.270658],[92.053085,27.270594],[92.05336,27.270512],[92.05358,27.27052],[92.053665,27.270493],[92.053795,27.270447],[92.054146,27.270428],[92.054596,27.270502],[92.05503,27.270613],[92.055176,27.270613],[92.05533,27.270697],[92.055435,27.270815],[92.05558,27.270954],[92.05576,27.271002],[92.056015,27.271057],[92.05634,27.271084],[92.05679,27.27126],[92.05692,27.27138],[92.0571,27.2715],[92.05731,27.271545],[92.05748,27.271536],[92.057686,27.271528],[92.05786,27.271528],[92.05867,27.271961],[92.05899,27.272062],[92.059235,27.272137],[92.05966,27.272173],[92.05985,27.272202],[92.05992,27.272247],[92.06004,27.272312],[92.06025,27.272331],[92.06062,27.272303],[92.06078,27.272257],[92.06119,27.272026],[92.06136,27.271952],[92.061554,27.271944],[92.06169,27.272017],[92.06185,27.272165],[92.06193,27.27232],[92.06196,27.272654],[92.06199,27.27279],[92.06212,27.272913],[92.06223,27.272985],[92.06257,27.273096],[92.06278,27.273207],[92.06318,27.273413],[92.06367,27.273659],[92.063995,27.273836],[92.06413,27.273937],[92.06418,27.274038],[92.06421,27.274197],[92.06421,27.274279],[92.06417,27.274418],[92.064095,27.274778],[92.064095,27.275084],[92.06421,27.27525],[92.06584,27.276514],[92.06607,27.27669],[92.06646,27.276838],[92.066864,27.276976],[92.067184,27.277067],[92.06749,27.277079],[92.067795,27.27703],[92.0681,27.276968],[92.0682,27.276894],[92.06833,27.27682],[92.06858,27.276754],[92.06877,27.276625],[92.06897,27.27656],[92.06911,27.276514],[92.06921,27.276403],[92.06936,27.27632],[92.06949,27.276247],[92.069695,27.276228],[92.06989,27.276228],[92.07011,27.276173],[92.07023,27.276125],[92.070435,27.276033],[92.07058,27.276033],[92.070724,27.276136],[92.07086,27.276247],[92.070984,27.276394],[92.0711,27.276875],[92.07113,27.276949],[92.071236,27.277023],[92.0715,27.277245],[92.07179,27.277464],[92.0721,27.277704],[92.07257,27.27799],[92.0728,27.27814],[92.07311,27.278296],[92.07333,27.27838],[92.07368,27.278461],[92.07406,27.278536],[92.07472,27.278627],[92.07503,27.27862],[92.0753,27.278572],[92.07565,27.278334],[92.07592,27.278214],[92.07631,27.278028],[92.0766,27.277843],[92.076744,27.277714],[92.07681,27.277512],[92.076965,27.277225],[92.07704,27.277023],[92.077065,27.276783],[92.0771,27.276468],[92.077225,27.27622],[92.07739,27.275959],[92.07758,27.275812],[92.07781,27.275728],[92.07801,27.275646],[92.078255,27.2755],[92.078445,27.275377],[92.07864,27.275238],[92.07872,27.275146],[92.07898,27.275036],[92.07931,27.274906],[92.07942,27.274815],[92.07958,27.274584],[92.07967,27.274391],[92.079704,27.274168],[92.07984,27.273884],[92.080215,27.273357],[92.080475,27.2732],[92.08091,27.27307],[92.08135,27.273005],[92.0817,27.272923],[92.082214,27.272764],[92.08253,27.272589],[92.08269,27.272415],[92.08282,27.272247],[92.08301,27.271841],[92.08305,27.271812],[92.08353,27.27173],[92.084236,27.271694],[92.08469,27.271591],[92.08508,27.27137],[92.08537,27.27114],[92.085556,27.270899],[92.085686,27.270456],[92.08575,27.270226],[92.08587,27.270067],[92.0861,27.269865],[92.086525,27.26968],[92.086876,27.269505],[92.08702,27.269423],[92.0871,27.269413],[92.0874,27.269423],[92.0877,27.269442],[92.08803,27.269552],[92.088196,27.269688],[92.08831,27.269798],[92.08841,27.269865],[92.08855,27.269817],[92.08869,27.269754],[92.08881,27.269758],[92.089,27.269762],[92.08914,27.269773],[92.089264,27.269754],[92.08941,27.269781],[92.08947,27.269798],[92.08958,27.269754],[92.08971,27.2697],[92.089806,27.269707],[92.09,27.26968],[92.09014,27.269644],[92.09033,27.269651],[92.09042,27.269718],[92.090576,27.269781],[92.09065,27.269817],[92.0908,27.26979],[92.09107,27.269644],[92.09128,27.269514],[92.09146,27.26933],[92.09162,27.269163],[92.09186,27.268915],[92.092026,27.268839],[92.09216,27.268867],[92.09225,27.268959],[92.09248,27.268997],[92.09268,27.268997],[92.092804,27.269125],[92.092964,27.269302],[92.09309,27.269365],[92.09331,27.269485],[92.09354,27.269608],[92.09386,27.269827],[92.09412,27.269938],[92.09423,27.27006],[92.09435,27.270115],[92.09447,27.270252],[92.09455,27.270344],[92.09477,27.270464],[92.09481,27.270502],[92.09487,27.270594],[92.094925,27.270613],[92.09513,27.270658],[92.09535,27.270723],[92.09551,27.270704],[92.09592,27.270575],[92.09595,27.27052],[92.09596,27.27004],[92.09599,27.269827],[92.09606,27.26967],[92.09626,27.269524],[92.09657,27.26945],[92.096924,27.269442],[92.09716,27.269478],[92.0978,27.269302],[92.098076,27.26907],[92.09837,27.26872],[92.098915,27.268526],[92.09919,27.26848],[92.099495,27.268452],[92.09977,27.26847],[92.10003,27.268555],[92.10052,27.268637],[92.100914,27.268692],[92.10125,27.268627],[92.101845,27.268452],[92.10264,27.268147],[92.10375,27.26801],[92.10394,27.268028],[92.10425,27.268286],[92.10474,27.268618],[92.10509,27.268776],[92.10553,27.268988],[92.10574,27.269117],[92.1061,27.269302],[92.10654,27.269485],[92.10685,27.269588],[92.10695,27.269651],[92.10723,27.269798],[92.10759,27.26993],[92.10807,27.27006],[92.1084,27.270206],[92.10856,27.270252],[92.109,27.270252],[92.109474,27.270187],[92.10987,27.27017],[92.1103,27.270103],[92.11068,27.26993],[92.11108,27.269718],[92.111694,27.269552],[92.112,27.269485],[92.11232,27.269459],[92.11285,27.269459],[92.11338,27.269459],[92.11386,27.26957],[92.11461,27.269976],[92.11514,27.270206],[92.116196,27.27063],[92.11644,27.270779],[92.1167,27.270927],[92.11699,27.270973],[92.11749,27.271149],[92.11786,27.27125],[92.11827,27.271362],[92.118515,27.271406],[92.11862,27.27137],[92.11867,27.27123],[92.11879,27.271038],[92.11884,27.270973],[92.119385,27.270899],[92.11952,27.270891],[92.11961,27.270983],[92.11968,27.27113],[92.119934,27.27138],[92.12006,27.2715],[92.12029,27.27161],[92.12055,27.27173],[92.12062,27.27186],[92.12093,27.272387],[92.12111,27.272709],[92.12117,27.272886],[92.12117,27.273096],[92.12121,27.273384],[92.12133,27.273697],[92.121475,27.273909],[92.12181,27.274168],[92.12251,27.27451],[92.12262,27.274601],[92.12301,27.275286],[92.123055,27.275433],[92.12302,27.275543],[92.12294,27.275757],[92.122925,27.275932],[92.12296,27.276125],[92.12302,27.276293],[92.12316,27.27643],[92.123856,27.27681],[92.124176,27.27694],[92.12434,27.27704],[92.12438,27.277105],[92.12446,27.27755],[92.12452,27.277836],[92.124535,27.278028],[92.12466,27.278112],[92.12469,27.278156],[92.12466,27.278288],[92.12453,27.27848],[92.1244,27.27862],[92.12438,27.278833],[92.124435,27.27897],[92.12452,27.27911],[92.12468,27.279432],[92.12474,27.279617],[92.12475,27.279728],[92.12463,27.27995],[92.12458,27.280191],[92.124565,27.280567],[92.12458,27.280846],[92.12463,27.281105],[92.12474,27.281363],[92.12497,27.281668],[92.12523,27.281769],[92.12521,27.281889],[92.12512,27.281925],[92.12505,27.281944],[92.125,27.28201],[92.12479,27.28225],[92.12469,27.282425],[92.12454,27.282711],[92.12444,27.282804],[92.124306,27.282887],[92.124245,27.282923],[92.12412,27.283117],[92.1239,27.283201],[92.12366,27.283209],[92.12359,27.283257],[92.12358,27.283413],[92.123604,27.283524],[92.123634,27.283663],[92.12369,27.283773],[92.12369,27.283901],[92.12369,27.284134],[92.12366,27.284336],[92.12345,27.284605],[92.12324,27.284752],[92.12309,27.284836],[92.122986,27.284872],[92.12286,27.284935],[92.12269,27.285046],[92.12264,27.28516],[92.12269,27.285334],[92.12277,27.285473],[92.12294,27.2856],[92.12303,27.285667],[92.123085,27.285778],[92.123184,27.285933],[92.12325,27.286036],[92.12327,27.286293],[92.12332,27.286377],[92.12331,27.286526],[92.12328,27.28661],[92.12321,27.286709],[92.12301,27.286886],[92.122795,27.286985],[92.122734,27.287088],[92.12267,27.287199],[92.12258,27.287302],[92.12249,27.287394],[92.12238,27.287552],[92.12229,27.287634],[92.12208,27.287754],[92.12189,27.28792],[92.12168,27.288197],[92.1214,27.288677],[92.12124,27.288881],[92.121124,27.288965],[92.12101,27.288982],[92.12085,27.28901],[92.1207,27.289093],[92.1203,27.289406],[92.12007,27.2896],[92.119934,27.289822],[92.119835,27.289951],[92.11963,27.290136],[92.11944,27.290264],[92.11931,27.290302],[92.11918,27.29033],[92.11886,27.290588],[92.11848,27.290884],[92.118286,27.291079],[92.11813,27.29154],[92.11805,27.29165],[92.1179,27.291716],[92.11772,27.291733],[92.11741,27.291744],[92.11732,27.291761],[92.11727,27.291817],[92.11731,27.29203],[92.11725,27.292252],[92.117065,27.292353],[92.116974,27.292437],[92.11685,27.292557],[92.116745,27.292583],[92.11658,27.292667],[92.116455,27.292742],[92.11639,27.29287],[92.11626,27.292925],[92.11612,27.292961],[92.115814,27.293009],[92.1154,27.2931],[92.11513,27.293182],[92.114815,27.293304],[92.114746,27.29337],[92.11461,27.293488],[92.11451,27.293543],[92.11434,27.293571],[92.11421,27.293581],[92.114075,27.29361],[92.11388,27.293747],[92.11365,27.29397],[92.11352,27.294043],[92.113335,27.294199],[92.11319,27.294338],[92.11314,27.29454],[92.11319,27.29467],[92.113174,27.2948],[92.113075,27.294949],[92.11291,27.295122],[92.1127,27.295261],[92.11235,27.295372],[92.1119,27.295494],[92.11125,27.295622],[92.111145,27.295742],[92.11097,27.295946],[92.11069,27.296139],[92.1105,27.29625],[92.110176,27.296326],[92.109955,27.296343],[92.109764,27.296343],[92.10955,27.296425],[92.109436,27.296492],[92.10935,27.296528],[92.109116,27.29661],[92.10884,27.296713],[92.108505,27.296822],[92.10794,27.297117],[92.10761,27.297266],[92.10728,27.297543],[92.107086,27.297718],[92.10687,27.297894],[92.10665,27.298088],[92.10639,27.298206],[92.10608,27.298225],[92.10579,27.298346],[92.10546,27.298595],[92.10518,27.29879],[92.10496,27.298927],[92.10484,27.299067],[92.104706,27.299232],[92.10457,27.299446],[92.10442,27.299612],[92.104324,27.29987],[92.10415,27.300074],[92.104034,27.30025],[92.10393,27.300396],[92.103905,27.300543],[92.10387,27.30086],[92.10381,27.300915],[92.10355,27.300951],[92.10334,27.30097],[92.103096,27.300997],[92.102905,27.301052],[92.1028,27.301125],[92.10264,27.30122],[92.10247,27.301256],[92.10231,27.301403],[92.10209,27.301718],[92.10181,27.301939],[92.10147,27.302095],[92.10095,27.302328],[92.10061,27.302446],[92.10031,27.302593],[92.09988,27.3028],[92.0995,27.302965],[92.09918,27.302992],[92.09892,27.302965],[92.09782,27.303251],[92.09736,27.303535],[92.09725,27.303713],[92.09705,27.303778],[92.0968,27.30398],[92.09651,27.303999],[92.09601,27.30397],[92.09555,27.303896],[92.0951,27.303907],[92.09479,27.304035],[92.09455,27.30411],[92.0944,27.30412],[92.094246,27.30411],[92.093925,27.304062],[92.093544,27.30398],[92.09323,27.303999],[92.09303,27.304129],[92.09285,27.304256],[92.09254,27.304323],[92.09219,27.304396],[92.09191,27.304403],[92.091606,27.30434],[92.09124,27.304249],[92.090965,27.304184],[92.090866,27.304213],[92.09067,27.30436],[92.090515,27.304434],[92.09032,27.304434],[92.09013,27.304497],[92.08985,27.3047],[92.08964,27.304802],[92.08947,27.30482],[92.0892,27.304838],[92.08888,27.304848],[92.0887,27.304857],[92.08847,27.304893],[92.088356,27.304985],[92.0883,27.305107],[92.08824,27.30518],[92.08808,27.305254],[92.087845,27.305346],[92.08763,27.30555],[92.08741,27.30579],[92.0873,27.305927],[92.08729,27.30603],[92.0873,27.306086],[92.08729,27.306215],[92.08723,27.306307],[92.08711,27.306362],[92.087074,27.306381],[92.08693,27.306398],[92.0867,27.306398],[92.086586,27.306465],[92.08653,27.306547],[92.08645,27.306696],[92.08632,27.306852],[92.086205,27.30698],[92.08613,27.307055],[92.08603,27.307083],[92.08593,27.307093],[92.08581,27.307093],[92.085686,27.307047],[92.085556,27.307102],[92.08548,27.307175],[92.08536,27.307259],[92.08521,27.30736],[92.08508,27.307415],[92.08499,27.307463],[92.08492,27.307554],[92.08483,27.307693],[92.0847,27.307804],[92.08455,27.308035],[92.08446,27.3082],[92.084465,27.308485],[92.08439,27.308691],[92.084145,27.308939],[92.08378,27.309189],[92.083275,27.309475],[92.08279,27.30965],[92.082596,27.309752],[92.08231,27.309992],[92.0821,27.310104],[92.0819,27.310186],[92.08162,27.310204],[92.08136,27.310242],[92.08121,27.310547],[92.08095,27.310888],[92.0807,27.311083],[92.08047,27.311213],[92.08026,27.311422],[92.080124,27.311655],[92.080086,27.31182],[92.07972,27.312006],[92.07914,27.31208],[92.07886,27.312025],[92.078835,27.312107],[92.07857,27.312227],[92.07839,27.312883],[92.07815,27.313362],[92.07763,27.313797],[92.076965,27.314379],[92.07629,27.314823],[92.07601,27.31521],[92.07586,27.315533],[92.075584,27.31582],[92.07542,27.31618],[92.075165,27.316328],[92.07448,27.31721],[92.07421,27.317638],[92.0739,27.318035],[92.07347,27.31845],[92.073265,27.318554],[92.073235,27.318775],[92.07303,27.319016],[92.07297,27.319386],[92.07297,27.319681],[92.07288,27.319857],[92.072586,27.320232],[92.07237,27.320383],[92.07217,27.32053],[92.07196,27.320816],[92.07192,27.321075],[92.07182,27.321186],[92.07147,27.321436],[92.07136,27.321602],[92.07123,27.321674],[92.07073,27.321796],[92.07052,27.32208],[92.07028,27.322414],[92.070045,27.322691],[92.06992,27.322765],[92.06891,27.322996],[92.06866,27.323217],[92.06833,27.323809],[92.06797,27.324148],[92.06742,27.324472],[92.06724,27.324759],[92.066986,27.324907],[92.06657,27.32547],[92.06641,27.326052],[92.066376,27.326412],[92.06621,27.326736],[92.06491,27.327293],[92.064995,27.328024],[92.06491,27.329481],[92.06478,27.33034],[92.064224,27.331156],[92.06384,27.331629],[92.06367,27.332186],[92.06345,27.334116],[92.06345,27.334848],[92.063705,27.33532],[92.06392,27.335707],[92.06392,27.33635],[92.063705,27.337034],[92.063286,27.337809],[92.06255,27.342056],[92.06199,27.342915],[92.06104,27.343859],[92.06045,27.344677],[92.06007,27.345406],[92.05929,27.346306],[92.05847,27.34725],[92.0574,27.348022],[92.05646,27.348923],[92.05234,27.35253],[92.05246,27.353773],[92.05259,27.354546],[92.052185,27.354969],[92.05148,27.355421],[92.050705,27.35616],[92.05032,27.35685],[92.04995,27.35773],[92.049515,27.35873],[92.04916,27.35911],[92.04847,27.359442],[92.04774,27.361893],[92.04768,27.36225],[92.04821,27.364487],[92.048485,27.366676],[92.04856,27.367535],[92.04847,27.368746],[92.048515,27.368984],[92.048775,27.370152],[92.048775,27.372126],[92.04842,27.372862],[92.0489,27.374647],[92.048584,27.375576],[92.04854,27.37629],[92.0489,27.376575],[92.04916,27.377026],[92.04966,27.377455],[92.0499,27.377789],[92.05001,27.378193],[92.05023,27.378504],[92.05061,27.378813],[92.05111,27.379097],[92.05227,27.379215],[92.05247,27.379288],[92.05335,27.38108],[92.05434,27.382437],[92.05474,27.384504],[92.05496,27.385277],[92.05411,27.386648],[92.0536,27.387526],[92.05362,27.387745],[92.054146,27.389128],[92.05467,27.39032],[92.05474,27.391294],[92.05484,27.392843],[92.05486,27.39396],[92.054886,27.395102],[92.054924,27.395483],[92.05524,27.396317],[92.055626,27.397291],[92.05591,27.398006],[92.056046,27.398815],[92.056145,27.399933],[92.055786,27.400337],[92.05526,27.400862],[92.05479,27.401575],[92.05453,27.40267],[92.05436,27.40355],[92.05408,27.403835],[92.05281,27.404406],[92.05219,27.404787],[92.05145,27.405334],[92.05074,27.405762],[92.05005,27.406214],[92.0496,27.40657],[92.04924,27.407022],[92.048676,27.407785],[92.04815,27.408379],[92.04779,27.408976],[92.04763,27.409475],[92.047455,27.410309],[92.04708,27.410831],[92.04658,27.411308],[92.04587,27.411808],[92.0452,27.412617],[92.04453,27.413616],[92.04396,27.414305],[92.04332,27.415327],[92.04306,27.415327],[92.0423,27.415327],[92.04151,27.415447],[92.04072,27.415565],[92.03968,27.415613],[92.039345,27.416208],[92.03885,27.416946],[92.03832,27.417374],[92.03785,27.41778],[92.03713,27.418255],[92.03721,27.418491],[92.03742,27.41878],[92.037636,27.419064],[92.03775,27.419373],[92.03792,27.419659],[92.038185,27.420088],[92.038246,27.42042],[92.03821,27.420635],[92.03806,27.421038],[92.03801,27.421444],[92.03813,27.421968],[92.03837,27.42249],[92.03875,27.42311],[92.03927,27.423704],[92.03977,27.424297],[92.04046,27.424776],[92.04146,27.425417],[92.04208,27.425917],[92.04258,27.42613],[92.04334,27.42625],[92.04401,27.426535],[92.04394,27.427153],[92.04372,27.42782],[92.04353,27.428274],[92.04313,27.42882],[92.0426,27.42951],[92.04242,27.430033],[92.0424,27.43058],[92.04242,27.431341],[92.04248,27.432009],[92.04246,27.432768],[92.04242,27.434149],[92.042366,27.435411],[92.04211,27.435911],[92.04175,27.436363],[92.04137,27.436672],[92.04087,27.436838],[92.04037,27.436956],[92.03966,27.437054],[92.039185,27.437265],[92.03877,27.437765],[92.038445,27.438171],[92.03794,27.43822],[92.03746,27.438362],[92.03701,27.438456],[92.03627,27.438385],[92.03513,27.43829],[92.03427,27.43829],[92.033775,27.438456],[92.03319,27.438955],[92.032486,27.439743],[92.03209,27.440123],[92.03164,27.440193],[92.030975,27.440193],[92.0299,27.440289],[92.02845,27.440361],[92.02678,27.440311],[92.026825,27.440718],[92.02673,27.44112],[92.02635,27.441978],[92.0258,27.44262],[92.025215,27.443382],[92.02474,27.444216],[92.02445,27.444834],[92.02431,27.445168],[92.02402,27.445524],[92.02364,27.445833],[92.023285,27.446024],[92.02276,27.446308],[92.02248,27.44657],[92.022255,27.447023],[92.02214,27.447594],[92.02207,27.448116],[92.02204,27.44864],[92.02196,27.449425],[92.021805,27.450068],[92.02157,27.45083],[92.02198,27.450996],[92.022095,27.451092],[92.022095,27.451496],[92.02214,27.452257],[92.02216,27.452875],[92.02212,27.453447],[92.02207,27.4539],[92.022194,27.454256],[92.02241,27.454494],[92.02233,27.455921],[92.022285,27.456278],[92.02276,27.45666],[92.023094,27.457111],[92.02316,27.457468],[92.02316,27.458038],[92.02296,27.458563],[92.02283,27.459063],[92.02278,27.459347],[92.02276,27.459728],[92.02288,27.460634],[92.02293,27.461275],[92.02288,27.462036],[92.02283,27.462465],[92.022644,27.463036],[92.022194,27.463608],[92.021545,27.464178],[92.02088,27.464916],[92.02069,27.465391],[92.02024,27.46632],[92.020164,27.466843],[92.02024,27.467606],[92.020355,27.468342],[92.020355,27.469105],[92.02022,27.469841],[92.01998,27.47046],[92.019714,27.470888],[92.01938,27.471436],[92.01893,27.471865],[92.01881,27.472197],[92.01869,27.47322],[92.01869,27.47372],[92.01888,27.47422],[92.019,27.474577],[92.019,27.474958],[92.01912,27.475552],[92.01929,27.476147],[92.019356,27.476624],[92.01933,27.476957],[92.01926,27.47741],[92.01904,27.47791],[92.01878,27.478432],[92.01836,27.478668],[92.01838,27.478954],[92.018074,27.479218],[92.01791,27.479574],[92.017746,27.479954],[92.01757,27.48012],[92.016884,27.480383],[92.01629,27.480099],[92.01583,27.479786],[92.01572,27.47955],[92.015144,27.47905],[92.01475,27.478668],[92.01446,27.478575],[92.01396,27.47862],[92.013336,27.478645],[92.01265,27.478668],[92.012146,27.47874],[92.011696,27.478954],[92.01148,27.479168],[92.01099,27.479336],[92.01079,27.479265],[92.01036,27.478954],[92.01005,27.478432],[92.0096,27.477978],[92.008934,27.47736],[92.008484,27.477028],[92.007935,27.476791],[92.00746,27.476433],[92.00691,27.47567],[92.0061,27.475958],[92.0052,27.476337],[92.00475,27.476742],[92.00399,27.477312],[92.003296,27.477741],[92.002556,27.478003],[92.00205,27.478075],[92.0017,27.478146],[92.001366,27.478409],[92.000656,27.478836],[91.99954,27.479193],[91.998795,27.479311],[91.99866,27.479218],[91.998055,27.478954],[91.99728,27.47874],[91.996445,27.478502],[91.995544,27.478384],[91.99452,27.478287],[91.99419,27.4781],[91.9939,27.477575],[91.99331,27.476694],[91.99282,27.47591],[91.99211,27.475124],[91.991875,27.474672],[91.99182,27.474052],[91.9919,27.473196],[91.99185,27.472294],[91.99161,27.47115],[91.991394,27.470888],[91.991,27.469841],[91.99076,27.469248],[91.990425,27.468962],[91.99009,27.468771],[91.9899,27.468676],[91.98976,27.468557],[91.98961,27.468058],[91.98931,27.467772],[91.98888,27.467342],[91.98811,27.467009],[91.987564,27.466772],[91.986664,27.466677],[91.98592,27.466724],[91.98557,27.466509],[91.98519,27.46601],[91.98453,27.465607],[91.98361,27.46525],[91.98255,27.464941],[91.98183,27.464655],[91.98108,27.464369],[91.98012,27.46399],[91.97943,27.463633],[91.97881,27.463202],[91.97838,27.46351],[91.97777,27.463942],[91.97684,27.464489],[91.975815,27.465034],[91.97493,27.46551],[91.9742,27.465843],[91.97327,27.46613],[91.97227,27.46639],[91.97175,27.465916],[91.971054,27.465391],[91.97048,27.464941],[91.970055,27.464392],[91.96972,27.463942],[91.9693,27.463701],[91.968796,27.463535],[91.9682,27.463417],[91.96762,27.463442],[91.967224,27.463299],[91.96663,27.463108],[91.965866,27.463036],[91.96527,27.46306],[91.96475,27.463156],[91.96456,27.46301],[91.9637,27.46218],[91.96287,27.46149],[91.96215,27.46087],[91.96144,27.460346],[91.96113,27.460157],[91.96063,27.46011],[91.96015,27.460182],[91.959175,27.460325],[91.958206,27.460466],[91.957375,27.460516],[91.95666,27.460491],[91.95554,27.460419],[91.95468,27.4603],[91.95423,27.460157],[91.953896,27.459991],[91.95338,27.459944],[91.95138,27.459944],[91.95057,27.460016],[91.94971,27.460346],[91.94873,27.460752],[91.94783,27.461227],[91.946785,27.461845],[91.94602,27.461443],[91.945335,27.460943],[91.94438,27.460325],[91.9435,27.459826],[91.94286,27.460253],[91.9421,27.460703],[91.94053,27.461561],[91.939835,27.462084],[91.938835,27.462633],[91.93836,27.46301],[91.9381,27.463608],[91.93765,27.464273],[91.93715,27.464891],[91.93642,27.46551],[91.93562,27.465988],[91.93517,27.466106],[91.934555,27.465797],[91.933815,27.465368],[91.93305,27.465107],[91.93248,27.464941],[91.93195,27.464916],[91.93142,27.465034],[91.93103,27.4652],[91.9306,27.465559],[91.93013,27.46613],[91.929535,27.467033],[91.928894,27.467987],[91.928154,27.469032],[91.927345,27.470057],[91.92646,27.471127],[91.92582,27.471935],[91.92501,27.472794],[91.923874,27.473743],[91.92325,27.474077],[91.92316,27.473982],[91.92292,27.473673],[91.92235,27.473434],[91.921326,27.473173],[91.92056,27.472935],[91.91992,27.472864],[91.91904,27.47296],[91.918686,27.47246],[91.91816,27.47246],[91.91737,27.472483],[91.916374,27.47246],[91.91499,27.472387],[91.91404,27.47234],[91.91343,27.472149],[91.91264,27.47184],[91.91176,27.471697],[91.91102,27.47165],[91.91078,27.471745],[91.91012,27.47196],[91.90938,27.472294],[91.90867,27.472364],[91.90814,27.472364],[91.90743,27.472221],[91.906906,27.472103],[91.90607,27.471722],[91.90538,27.471483],[91.90376,27.471388],[91.90136,27.471222],[91.90052,27.471056],[91.89999,27.470936],[91.89941,27.470722],[91.89889,27.470675],[91.898285,27.470722],[91.897675,27.470816],[91.89689,27.47084],[91.89607,27.47096],[91.89541,27.471174],[91.89477,27.471506],[91.89389,27.472078],[91.89317,27.472412],[91.89227,27.472673],[91.89079,27.473362],[91.89013,27.473743],[91.88932,27.474195],[91.88844,27.474577],[91.88778,27.474886],[91.88741,27.474838],[91.88687,27.474648],[91.886444,27.474293],[91.88611,27.474173],[91.88584,27.474361],[91.88554,27.474577],[91.88466,27.474813],[91.884056,27.474813],[91.88311,27.474743],[91.88178,27.474361],[91.88094,27.474195],[91.88018,27.474077],[91.87973,27.473911],[91.879135,27.473553],[91.87863,27.47296],[91.87809,27.472294],[91.87752,27.471865],[91.87716,27.47165],[91.87671,27.471245],[91.87637,27.470745],[91.87566,27.47065],[91.87533,27.470531],[91.87455,27.470316],[91.87402,27.470222],[91.873375,27.470198],[91.872765,27.470222],[91.87224,27.47034],[91.871765,27.47065],[91.87106,27.47134],[91.87055,27.471815],[91.87035,27.47234],[91.870285,27.47284],[91.87014,27.473053],[91.87,27.473793],[91.86981,27.474459],[91.86993,27.474838],[91.87005,27.475267],[91.870026,27.47567],[91.86988,27.476292],[91.86955,27.4771],[91.86924,27.47805],[91.86895,27.478884],[91.86879,27.479002],[91.86807,27.479408],[91.86767,27.479645],[91.86722,27.479954],[91.86674,27.480265],[91.866455,27.480526],[91.86619,27.480883],[91.86583,27.48112],[91.86543,27.481192],[91.864815,27.481216],[91.86464,27.481453],[91.86436,27.481907],[91.8641,27.482264],[91.86377,27.482643],[91.86312,27.483284],[91.862854,27.48369],[91.862404,27.484762],[91.862144,27.484737],[91.86172,27.484499],[91.861244,27.484215],[91.860695,27.483833],[91.860146,27.483429],[91.85956,27.483072],[91.85901,27.482906],[91.85808,27.482666],[91.857506,27.482475],[91.85684,27.482048],[91.856346,27.481644],[91.85599,27.481573],[91.855675,27.481596],[91.85546,27.481764],[91.855194,27.482],[91.85491,27.482143],[91.854675,27.482595],[91.85451,27.483047],[91.85446,27.483595],[91.85453,27.484072],[91.85441,27.48419],[91.85356,27.484617],[91.85313,27.484665],[91.85282,27.484617],[91.852486,27.484715],[91.852295,27.484951],[91.85201,27.485117],[91.85156,27.485283],[91.85096,27.485523],[91.85078,27.485664],[91.85061,27.485855],[91.85023,27.485998],[91.84982,27.486164],[91.849655,27.486307],[91.84949,27.48638],[91.8492,27.486355],[91.84899,27.486023],[91.848724,27.485617],[91.84859,27.485092],[91.848114,27.484333],[91.847824,27.484142],[91.847565,27.484024],[91.84694,27.483856],[91.84635,27.48319],[91.846016,27.4825],[91.84585,27.481882],[91.84559,27.481285],[91.845276,27.48093],[91.84485,27.480526],[91.84457,27.479977],[91.84428,27.479336],[91.844086,27.478502],[91.84388,27.47791],[91.843376,27.477337],[91.842705,27.476791],[91.84221,27.476385],[91.84163,27.4761],[91.84075,27.47591],[91.84016,27.475647],[91.83975,27.475195],[91.83926,27.474695],[91.83828,27.474268],[91.837616,27.473911],[91.83709,27.473314],[91.83666,27.472721],[91.836,27.472435],[91.835,27.472006],[91.833855,27.471722],[91.83212,27.471483],[91.83142,27.470222],[91.83089,27.469507],[91.83036,27.469175],[91.8296,27.468987],[91.829,27.468533],[91.82836,27.468176],[91.82793,27.468128],[91.82731,27.468317],[91.82695,27.468437],[91.82648,27.46839],[91.82591,27.468153],[91.82552,27.468153],[91.8251,27.468296],[91.82422,27.468796],[91.82324,27.469507],[91.82224,27.47027],[91.8215,27.47096],[91.82089,27.471794],[91.82029,27.472126],[91.81968,27.47234],[91.81908,27.472412],[91.81837,27.472553],[91.81768,27.47253],[91.81713,27.472578],[91.81627,27.473005],[91.81548,27.47353],[91.81453,27.474052],[91.81384,27.47422],[91.81325,27.474293],[91.81225,27.47422],[91.81146,27.474077],[91.81092,27.474125],[91.81035,27.474434],[91.80978,27.474695],[91.80787,27.475195],[91.8063,27.475576],[91.80521,27.475004],[91.80442,27.474552],[91.8038,27.473886],[91.80256,27.472761],[91.8018,27.472387],[91.800964,27.472347],[91.799965,27.472721],[91.799225,27.47326],[91.79814,27.473803],[91.79768,27.473803],[91.7971,27.47351],[91.7966,27.473097],[91.79581,27.471678],[91.79459,27.471094],[91.79339,27.470554],[91.79218,27.47043],[91.79123,27.47043],[91.79043,27.470638],[91.788635,27.47043],[91.787636,27.47018],[91.78697,27.469845],[91.78627,27.469389],[91.78497,27.468847],[91.783936,27.468012],[91.78256,27.467388],[91.78018,27.466349],[91.7781,27.465473],[91.77736,27.465265],[91.77598,27.465305],[91.774185,27.465431],[91.77311,27.465557],[91.772026,27.465807],[91.77081,27.466099],[91.769485,27.466389],[91.768814,27.466722],[91.76757,27.466972],[91.76611,27.467182],[91.766235,27.468306],[91.76643,27.469595],[91.766396,27.47018],[91.76648,27.470554],[91.76631,27.47097],[91.76631,27.471804],[91.766235,27.472471],[91.76631,27.473677],[91.76569,27.473886],[91.764854,27.47397],[91.76407,27.474136],[91.763115,27.47426],[91.76236,27.474426],[91.76144,27.474426],[91.76024,27.47476],[91.75928,27.47501],[91.75865,27.47501],[91.75786,27.475344],[91.75728,27.475304],[91.75665,27.47501],[91.755905,27.47522],[91.755196,27.475386],[91.75445,27.47547],[91.7537,27.47547],[91.753105,27.475344],[91.75261,27.475344],[91.75198,27.47551],[91.7514,27.47551],[91.75074,27.475344],[91.74986,27.47493],[91.74974,27.47476],[91.74932,27.473846],[91.74857,27.472721],[91.747696,27.472054],[91.74645,27.47147],[91.74545,27.47122],[91.74374,27.471054],[91.74265,27.47097],[91.74158,27.470764],[91.74074,27.470345],[91.73882,27.46997],[91.737076,27.469845],[91.7352,27.469845],[91.733246,27.46972],[91.73083,27.469639],[91.72983,27.469595],[91.72871,27.469845],[91.72779,27.470345],[91.72695,27.470928],[91.726204,27.471094],[91.72517,27.471054],[91.72429,27.47097],[91.723206,27.471178],[91.72183,27.471928],[91.72087,27.472178],[91.71971,27.472471],[91.71821,27.47322],[91.71654,27.473846],[91.71475,27.474636],[91.71338,27.47547],[91.71366,27.477053],[91.7138,27.47801],[91.71396,27.478926],[91.71426,27.480091],[91.71447,27.481434],[91.71447,27.482306],[91.71449,27.483097],[91.71441,27.484295],[91.71447,27.485329],[91.714714,27.486418],[91.714905,27.487507],[91.71498,27.488598],[91.715065,27.489305],[91.71523,27.49007],[91.71531,27.490614],[91.715256,27.491213],[91.715195,27.492111],[91.715256,27.492712],[91.7155,27.493174],[91.71548,27.494373],[91.71544,27.495052],[91.7155,27.495462],[91.71569,27.49587],[91.71635,27.49666],[91.7167,27.497343],[91.71705,27.498295],[91.71645,27.498295],[91.71569,27.498322],[91.71484,27.498322],[91.71419,27.498295],[91.71359,27.49813],[91.713135,27.497913],[91.71285,27.497776],[91.71215,27.497776],[91.711494,27.497585],[91.71106,27.49745],[91.71032,27.497559],[91.70983,27.497667],[91.709045,27.497858],[91.70828,27.498077],[91.70787,27.498104],[91.70736,27.497969],[91.70703,27.49794],[91.70668,27.498077],[91.7064,27.498377],[91.70592,27.498865],[91.70526,27.49941],[91.70466,27.49982],[91.70403,27.500011],[91.70316,27.500145],[91.702614,27.500145],[91.70224,27.500175],[91.70164,27.500309],[91.70076,27.500637],[91.70006,27.50091],[91.699486,27.501318],[91.699135,27.50178],[91.69861,27.502134],[91.69815,27.502518],[91.697716,27.502953],[91.69755,27.503279],[91.69752,27.503716],[91.69743,27.504288],[91.69725,27.504776],[91.69706,27.505295],[91.69689,27.50535],[91.69651,27.505377],[91.69614,27.505404],[91.69527,27.505514],[91.69453,27.505568],[91.69373,27.505514],[91.693085,27.505486],[91.6926,27.505322],[91.6924,27.50516],[91.69221,27.504776],[91.69199,27.504343],[91.69183,27.504152],[91.691284,27.503933],[91.69066,27.503687],[91.68978,27.503443],[91.689026,27.503115],[91.68832,27.502762],[91.68766,27.502298],[91.687035,27.50178],[91.68665,27.501482],[91.685425,27.500391],[91.68535,27.500256],[91.685486,27.500067],[91.68567,27.499765],[91.685776,27.499357],[91.685776,27.499138],[91.68518,27.497805],[91.684525,27.496387],[91.68398,27.495354],[91.683,27.494373],[91.68199,27.49369],[91.68113,27.493282],[91.67998,27.492985],[91.67862,27.492874],[91.67687,27.492874],[91.6751,27.492903],[91.673744,27.492956],[91.67194,27.492765],[91.67066,27.492466],[91.66982,27.492056],[91.668976,27.491594],[91.667915,27.490831],[91.66641,27.489496],[91.66495,27.488272],[91.662544,27.486418],[91.66108,27.485302],[91.659874,27.484623],[91.65874,27.48413],[91.65775,27.483995],[91.656586,27.483913],[91.65534,27.484095],[91.65432,27.484325],[91.6536,27.484478],[91.653244,27.484478],[91.652214,27.484247],[91.65152,27.48407],[91.651474,27.48543],[91.65129,27.486021],[91.65119,27.486534],[91.65127,27.48715],[91.65131,27.487715],[91.65127,27.488127],[91.65104,27.488487],[91.650566,27.488998],[91.65021,27.489386],[91.64962,27.490105],[91.64923,27.490824],[91.64908,27.491465],[91.64885,27.492262],[91.6487,27.492956],[91.648544,27.494213],[91.648285,27.495266],[91.64798,27.496088],[91.647804,27.496859],[91.64762,27.497782],[91.64747,27.499067],[91.64721,27.499863],[91.64697,27.500402],[91.64613,27.500738],[91.64541,27.500916],[91.64497,27.501175],[91.64466,27.501842],[91.64428,27.502766],[91.64394,27.503202],[91.64369,27.50333],[91.64303,27.503511],[91.64174,27.503767],[91.64036,27.5041],[91.63945,27.50428],[91.63844,27.504513],[91.63781,27.504591],[91.63732,27.504665],[91.636475,27.505],[91.63565,27.505615],[91.63534,27.506079],[91.6349,27.5069],[91.63457,27.507774],[91.63409,27.508698],[91.633286,27.510418],[91.63306,27.510626],[91.631744,27.510933],[91.6312,27.51142],[91.63013,27.511831],[91.62959,27.512012],[91.629074,27.51286],[91.62751,27.5134],[91.6262,27.514246],[91.625046,27.514118],[91.62488,27.514086],[91.62425,27.513964],[91.623825,27.513885],[91.62376,27.514038],[91.623566,27.514582],[91.62354,27.515238],[91.623604,27.51562],[91.62387,27.516026],[91.62389,27.516327],[91.62367,27.516708],[91.623405,27.51709],[91.623405,27.517279],[91.62352,27.51788],[91.62346,27.518261],[91.6233,27.518425],[91.6227,27.51837],[91.622314,27.518396],[91.62188,27.518696],[91.6217,27.51916],[91.6217,27.519732],[91.621574,27.520166],[91.62068,27.521692],[91.620735,27.5224],[91.62063,27.523054],[91.619644,27.524063],[91.61908,27.524742],[91.61855,27.525343],[91.618095,27.52605],[91.617714,27.526922],[91.617386,27.527521],[91.61728,27.528149],[91.61715,27.52861],[91.61668,27.529182],[91.616165,27.52981],[91.615814,27.5306],[91.61488,27.531689],[91.614395,27.532452],[91.61398,27.533295],[91.613655,27.534166],[91.61363,27.53482],[91.61376,27.536156],[91.61398,27.537107],[91.61427,27.538149],[91.61422,27.538408],[91.614105,27.538649],[91.61371,27.53898],[91.61359,27.53934],[91.61346,27.539742],[91.61306,27.540407],[91.61246,27.54124],[91.61208,27.541813],[91.61232,27.54243],[91.61242,27.542858],[91.61246,27.543669],[91.6123,27.543621],[91.611984,27.543596],[91.610985,27.543358],[91.609924,27.543121],[91.60904,27.543003],[91.607925,27.542858],[91.60728,27.542788],[91.60656,27.542715],[91.60566,27.542645],[91.60513,27.542597],[91.60456,27.542597],[91.6039,27.542524],[91.60345,27.542288],[91.60299,27.541859],[91.6028,27.54155],[91.6023,27.541456],[91.601685,27.541407],[91.60078,27.541384],[91.59928,27.541431],[91.598404,27.541456],[91.59774,27.541313],[91.59707,27.541147],[91.59638,27.541195],[91.596016,27.541359],[91.59572,27.541597],[91.59528,27.541931],[91.5949,27.542074],[91.59435,27.542145],[91.59345,27.543003],[91.59348,27.543455],[91.593506,27.544024],[91.59348,27.544477],[91.59341,27.544952],[91.59315,27.545502],[91.59286,27.545929],[91.59243,27.546381],[91.59207,27.546572],[91.59181,27.546833],[91.59151,27.547428],[91.59112,27.547928],[91.59102,27.54833],[91.590935,27.548712],[91.5906,27.549166],[91.59029,27.549545],[91.59012,27.549902],[91.589905,27.550426],[91.58957,27.550999],[91.58922,27.55152],[91.58905,27.551926],[91.588745,27.552448],[91.58843,27.552734],[91.587746,27.553043],[91.58727,27.553352],[91.58677,27.553757],[91.58615,27.554138],[91.585526,27.554447],[91.58457,27.554852],[91.58412,27.555042],[91.583885,27.555233],[91.58357,27.55578],[91.58329,27.55609],[91.582886,27.556255],[91.582245,27.556683],[91.58196,27.557016],[91.58215,27.557516],[91.58212,27.557922],[91.58215,27.55854],[91.58229,27.559158],[91.58279,27.559849],[91.583244,27.560444],[91.58346,27.560871],[91.58349,27.56137],[91.58351,27.562038],[91.58357,27.562586],[91.583786,27.563251],[91.583885,27.563894],[91.5837,27.564535],[91.58341,27.565084],[91.5832,27.565725],[91.58267,27.566486],[91.58201,27.567177],[91.58157,27.567963],[91.58134,27.568773],[91.581154,27.569057],[91.58084,27.569414],[91.58029,27.569794],[91.57984,27.570127],[91.578575,27.570509],[91.5771,27.570818],[91.57616,27.57115],[91.5748,27.57189],[91.57416,27.572222],[91.57387,27.57258],[91.57358,27.573267],[91.57308,27.574173],[91.57242,27.574982],[91.57197,27.575624],[91.57178,27.576265],[91.571754,27.576838],[91.57187,27.577337],[91.57223,27.578218],[91.5723,27.578789],[91.57223,27.579384],[91.572014,27.579693],[91.571396,27.580051],[91.570496,27.580645],[91.56956,27.581217],[91.56861,27.581882],[91.56795,27.582405],[91.56699,27.58305],[91.566376,27.583525],[91.56597,27.583904],[91.56597,27.584143],[91.56606,27.584309],[91.566376,27.584951],[91.56666,27.585524],[91.56687,27.586023],[91.56695,27.586475],[91.56702,27.586975],[91.56723,27.587425],[91.56754,27.588022],[91.56778,27.58864],[91.56811,27.589188],[91.5685,27.589924],[91.56873,27.590473],[91.56885,27.590973],[91.56913,27.591423],[91.569466,27.591875],[91.56966,27.592304],[91.56987,27.592972],[91.57006,27.593613],[91.570206,27.59416],[91.57032,27.594564],[91.570496,27.594849],[91.570755,27.595255],[91.571045,27.595682],[91.57144,27.596302],[91.57182,27.596754],[91.57228,27.597088],[91.57323,27.597588],[91.57399,27.597944],[91.574554,27.598326],[91.57497,27.598728],[91.57563,27.5993],[91.57654,27.600014],[91.577576,27.6008],[91.57818,27.601274],[91.57884,27.601727],[91.57973,27.602201],[91.580315,27.602701],[91.580536,27.603035],[91.58079,27.60356],[91.58141,27.60425],[91.58175,27.604607],[91.58208,27.605034],[91.58251,27.605606],[91.5832,27.606249],[91.58351,27.60658],[91.58386,27.60713],[91.58415,27.60763],[91.58424,27.608032],[91.58449,27.608438],[91.58415,27.60865],[91.58355,27.609222],[91.58302,27.609674],[91.58241,27.610388],[91.58196,27.610865],[91.58167,27.611364],[91.58122,27.612055],[91.5807,27.612623],[91.57975,27.613386],[91.57882,27.614172],[91.57782,27.61498],[91.57729,27.615503],[91.57689,27.61617],[91.57649,27.616884],[91.57599,27.617409],[91.57549,27.61774],[91.57482,27.618336],[91.5742,27.61893],[91.573654,27.619549],[91.57299,27.620049],[91.572395,27.620453],[91.571915,27.620573],[91.571495,27.620716],[91.57085,27.621166],[91.57006,27.621738],[91.569496,27.622097],[91.56897,27.622238],[91.56832,27.622406],[91.568016,27.622643],[91.56758,27.62326],[91.56695,27.623974],[91.566284,27.624592],[91.56566,27.625214],[91.56502,27.625807],[91.56505,27.626354],[91.56509,27.62695],[91.56507,27.627663],[91.564896,27.62864],[91.56452,27.628853],[91.56413,27.62909],[91.56331,27.62952],[91.56278,27.629852],[91.5625,27.630304],[91.5624,27.630829],[91.562325,27.631447],[91.56231,27.632208],[91.56242,27.632685],[91.562614,27.633207],[91.562874,27.633446],[91.56313,27.633778],[91.56321,27.63416],[91.563286,27.63485],[91.56326,27.63542],[91.56319,27.636015],[91.56311,27.636658],[91.56309,27.637228],[91.56311,27.637894],[91.56319,27.638372],[91.5634,27.638966],[91.56357,27.639774],[91.563805,27.640583],[91.56405,27.641226],[91.56432,27.64182],[91.56485,27.642534],[91.56552,27.643248],[91.56611,27.643797],[91.56666,27.644676],[91.56728,27.645462],[91.56756,27.645914],[91.5678,27.646437],[91.56795,27.646889],[91.568016,27.647364],[91.56832,27.647863],[91.5688,27.648363],[91.569046,27.648722],[91.569305,27.649244],[91.56966,27.649744],[91.57006,27.650196],[91.57037,27.650696],[91.57078,27.651695],[91.571014,27.652433],[91.57132,27.653267],[91.57168,27.653957],[91.57208,27.655266],[91.57234,27.656193],[91.57271,27.657192],[91.57278,27.65793],[91.57273,27.658405],[91.57261,27.659239],[91.57258,27.65981],[91.57263,27.660381],[91.572845,27.660831],[91.57308,27.661022],[91.57354,27.661213],[91.57418,27.66138],[91.57506,27.661737],[91.57563,27.662046],[91.576416,27.662594],[91.57701,27.66295],[91.577576,27.663021],[91.57825,27.662973],[91.57899,27.66288],[91.57973,27.66269],[91.58046,27.662474],[91.58104,27.662355],[91.58155,27.662498],[91.58202,27.662855],[91.58301,27.66364],[91.583984,27.66438],[91.584816,27.665163],[91.58515,27.665472],[91.58541,27.665876],[91.58629,27.666187],[91.58777,27.667187],[91.58881,27.667875],[91.58952,27.668352],[91.59027,27.668566],[91.59102,27.668734],[91.59207,27.669113],[91.593,27.669495],[91.593956,27.670017],[91.594666,27.670399],[91.59464,27.67066],[91.594505,27.671064],[91.594215,27.671732],[91.59415,27.672207],[91.59443,27.672922],[91.59478,27.673706],[91.59526,27.67468],[91.595665,27.675966],[91.595955,27.67687],[91.596,27.677298],[91.5959,27.677822],[91.595955,27.678822],[91.59605,27.679274],[91.59635,27.679869],[91.5969,27.680487],[91.59788,27.680845],[91.598564,27.680964],[91.59938,27.681034],[91.600044,27.681034],[91.60119,27.68163],[91.60204,27.682129],[91.60285,27.682724],[91.60393,27.683294],[91.60442,27.683462],[91.604774,27.683603],[91.6048,27.683842],[91.60487,27.684103],[91.60499,27.684484],[91.60509,27.6847],[91.60532,27.68508],[91.605515,27.68558],[91.60561,27.686054],[91.60564,27.686579],[91.60571,27.687008],[91.606064,27.688007],[91.60621,27.688457],[91.606476,27.689053],[91.60673,27.689148],[91.60706,27.689219],[91.60722,27.689266],[91.60732,27.68953],[91.607445,27.689863],[91.60761,27.690315],[91.60777,27.690624],[91.60787,27.690718],[91.608505,27.690706],[91.60943,27.690825],[91.61019,27.690922],[91.61105,27.691133],[91.611855,27.69154],[91.61248,27.691992],[91.6129,27.6923],[91.61345,27.692514],[91.614235,27.692682],[91.61448,27.692682],[91.615,27.692633],[91.61538,27.692612],[91.61611,27.692778],[91.61674,27.69292],[91.61735,27.693132],[91.61805,27.693348],[91.61859,27.693632],[91.61931,27.693872],[91.619995,27.694014],[91.62071,27.694275],[91.621346,27.694586],[91.621925,27.694872],[91.62261,27.695204],[91.62326,27.69544],[91.62381,27.695631],[91.624344,27.69594],[91.62466,27.696228],[91.62492,27.696562],[91.625656,27.696821],[91.62654,27.69737],[91.627655,27.698154],[91.6283,27.698702],[91.62882,27.699345],[91.62908,27.69982],[91.62932,27.700462],[91.62954,27.701176],[91.62926,27.702534],[91.62908,27.703245],[91.62906,27.70396],[91.62908,27.704578],[91.62916,27.705173],[91.629555,27.705982],[91.629944,27.706722],[91.63026,27.707672],[91.63037,27.708221],[91.6302,27.708649],[91.62975,27.709053],[91.6293,27.709576],[91.629105,27.710123],[91.62906,27.710789],[91.62881,27.711575],[91.62832,27.712406],[91.627945,27.713194],[91.62768,27.714073],[91.62716,27.715382],[91.627205,27.715668],[91.62916,27.716167],[91.63042,27.716572],[91.63204,27.717403],[91.63193,27.717897],[91.63182,27.718863],[91.631714,27.719433],[91.6321,27.719969],[91.6325,27.720505],[91.63286,27.720968],[91.63375,27.721539],[91.63464,27.721895],[91.63442,27.72361],[91.63457,27.72418],[91.63539,27.725859],[91.63615,27.727358],[91.637535,27.730211],[91.63799,27.731033],[91.63821,27.731855],[91.63836,27.73289],[91.63846,27.733816],[91.638855,27.734922],[91.63925,27.735638],[91.639206,27.735994],[91.638565,27.736887],[91.63764,27.738136],[91.63682,27.739635],[91.636284,27.740742],[91.63589,27.741955],[91.63557,27.743025],[91.635284,27.74406],[91.635284,27.744667],[91.63542,27.745274],[91.635315,27.746094],[91.635254,27.746523],[91.63542,27.746986],[91.63582,27.747446],[91.636314,27.747873],[91.63677,27.748278],[91.63718,27.748611],[91.63741,27.749136],[91.6376,27.749538],[91.6382,27.750013],[91.63879,27.750395],[91.63922,27.750824],[91.639626,27.751228],[91.640274,27.751371],[91.64098,27.75168],[91.641884,27.752323],[91.641914,27.752491],[91.64172,27.75287],[91.641624,27.753084],[91.641525,27.75337],[91.64151,27.753702],[91.64158,27.754179],[91.64175,27.75487],[91.64196,27.755226],[91.64243,27.755892],[91.64277,27.756344],[91.643005,27.757248],[91.64317,27.757988],[91.64325,27.758247],[91.64325,27.758533],[91.64303,27.759817],[91.64312,27.759865],[91.64299,27.76111],[91.6431,27.76145],[91.64331,27.76192],[91.643776,27.762287],[91.64447,27.76265],[91.64478,27.763123],[91.64478,27.763594],[91.64464,27.764194],[91.64466,27.765032],[91.64468,27.766018],[91.64468,27.766962],[91.64477,27.768055],[91.64484,27.769363],[91.64484,27.77022],[91.643974,27.77035],[91.64325,27.770842],[91.64239,27.771551],[91.64147,27.772364],[91.64027,27.773159],[91.6398,27.773523],[91.63943,27.77425],[91.6393,27.774809],[91.63911,27.775602],[91.63881,27.77633],[91.63842,27.77691],[91.63797,27.777468],[91.637955,27.777746],[91.63797,27.778303],[91.63808,27.77869],[91.63808,27.778969],[91.637886,27.77931],[91.63784,27.779675],[91.637825,27.78004],[91.63752,27.780685],[91.63748,27.78107],[91.63786,27.78242],[91.63804,27.783278],[91.63812,27.78392],[91.63808,27.784779],[91.63799,27.785658],[91.63778,27.786324],[91.63733,27.786774],[91.63682,27.787138],[91.63664,27.78761],[91.63658,27.788038],[91.636406,27.78909],[91.63634,27.78982],[91.63612,27.790783],[91.635956,27.791513],[91.63605,27.791985],[91.63639,27.792456],[91.63664,27.792799],[91.63677,27.79327],[91.63673,27.793957],[91.636444,27.794727],[91.63619,27.795029],[91.635826,27.795198],[91.63529,27.795221],[91.63476,27.795458],[91.634735,27.795908],[91.6347,27.796892],[91.63456,27.797771],[91.63456,27.798672],[91.63459,27.799189],[91.63482,27.799425],[91.63488,27.799723],[91.6349,27.80013],[91.635056,27.800432],[91.63512,27.800797],[91.63499,27.801353],[91.63484,27.801975],[91.63454,27.802553],[91.63445,27.802917],[91.63443,27.803434],[91.63443,27.80382],[91.63432,27.80414],[91.63276,27.80515],[91.632164,27.805685],[91.631645,27.806263],[91.63122,27.806564],[91.631004,27.807035],[91.63078,27.807528],[91.63028,27.807636],[91.62999,27.807806],[91.62995,27.80873],[91.62983,27.809328],[91.6286,27.810553],[91.62768,27.811153],[91.62654,27.81201],[91.62582,27.812523],[91.625015,27.813232],[91.62404,27.813854],[91.622894,27.814262],[91.62181,27.814562],[91.6209,27.81484],[91.62002,27.81529],[91.61958,27.81572],[91.61915,27.816576],[91.61835,27.817627],[91.617516,27.818571],[91.61696,27.819021],[91.61601,27.819815],[91.61524,27.820778],[91.61473,27.821465],[91.61407,27.821787],[91.613144,27.821852],[91.61192,27.822107],[91.610565,27.822817],[91.609604,27.823181],[91.608536,27.823503],[91.60802,27.82346],[91.60686,27.823416],[91.605385,27.823095],[91.60362,27.822731],[91.60165,27.82213],[91.60034,27.821379],[91.59946,27.819235],[91.59865,27.818121],[91.59834,27.817928],[91.59726,27.818163],[91.59633,27.81823],[91.59556,27.818378],[91.594124,27.818764],[91.592125,27.818914],[91.589516,27.8184],[91.58827,27.818077],[91.58677,27.817713],[91.58615,27.817112],[91.5858,27.81649],[91.58562,27.815784],[91.5855,27.815506],[91.58517,27.815353],[91.58454,27.814625],[91.58396,27.813917],[91.58364,27.813446],[91.581665,27.812181],[91.58137,27.811817],[91.580444,27.811174],[91.580246,27.81126],[91.57667,27.811367],[91.57643,27.811474],[91.57616,27.812181],[91.57598,27.812632],[91.575874,27.81362],[91.57581,27.813725],[91.57562,27.813854],[91.574745,27.81439],[91.573845,27.815228],[91.572914,27.815977],[91.572014,27.816555],[91.57101,27.817112],[91.569916,27.817564],[91.56921,27.817884],[91.568634,27.818893],[91.568054,27.819963],[91.56745,27.821165],[91.56736,27.821465],[91.56736,27.822515],[91.567,27.822945],[91.56705,27.82406],[91.56634,27.825346],[91.56584,27.826654],[91.56527,27.82674],[91.564964,27.827126],[91.56432,27.82717],[91.56378,27.82732],[91.56351,27.827984],[91.56316,27.828712],[91.56288,27.829742],[91.56258,27.830128],[91.56209,27.830492],[91.56171,27.831692],[91.561356,27.832851],[91.56076,27.834522],[91.56033,27.835703],[91.56024,27.836859],[91.56023,27.83759],[91.56006,27.838018],[91.55965,27.838705],[91.55905,27.839563],[91.55853,27.84044],[91.5581,27.84119],[91.55754,27.841942],[91.55729,27.8425],[91.557205,27.8428],[91.55703,27.843035],[91.55643,27.843636],[91.55607,27.844065],[91.55587,27.844645],[91.555786,27.845589],[91.555466,27.846424],[91.554756,27.847517],[91.554054,27.848824],[91.55379,27.848932],[91.553604,27.84906],[91.55328,27.850046],[91.553215,27.85071],[91.553604,27.851807],[91.553734,27.85279],[91.55377,27.854143],[91.55461,27.854786],[91.5553,27.855278],[91.55607,27.855515],[91.55697,27.855814],[91.55756,27.855686],[91.55823,27.855364],[91.558914,27.854958],[91.559715,27.854485],[91.56056,27.853842],[91.56209,27.853006],[91.56409,27.851849],[91.564766,27.851677],[91.56518,27.851162],[91.56593,27.85071],[91.56638,27.850433],[91.567,27.850004],[91.56752,27.84934],[91.567856,27.848953],[91.568115,27.84863],[91.56861,27.84816],[91.5691,27.848015],[91.569275,27.847801],[91.57053,27.847824],[91.57112,27.84849],[91.5716,27.849087],[91.57182,27.849562],[91.57196,27.850204],[91.57196,27.850729],[91.57194,27.851347],[91.57206,27.85187],[91.57236,27.852276],[91.57296,27.85313],[91.57333,27.853916],[91.57362,27.854893],[91.573906,27.85582],[91.57396,27.856129],[91.5736,27.85651],[91.57362,27.856867],[91.57382,27.8572],[91.57386,27.857534],[91.57382,27.858034],[91.57384,27.858437],[91.573906,27.858843],[91.57422,27.859413],[91.574455,27.85996],[91.57462,27.86065],[91.574646,27.861292],[91.5746,27.862055],[91.574554,27.862934],[91.57469,27.863409],[91.57522,27.86384],[91.57572,27.86415],[91.576385,27.864054],[91.57696,27.863934],[91.57751,27.863577],[91.57829,27.863482],[91.57927,27.863434],[91.58041,27.863388],[91.58117,27.863338],[91.58162,27.863243],[91.58235,27.863054],[91.58319,27.862839],[91.584114,27.862555],[91.58502,27.862244],[91.58545,27.86203],[91.58635,27.861317],[91.58776,27.86053],[91.588165,27.859983],[91.588326,27.859152],[91.588425,27.858366],[91.58856,27.857676],[91.588875,27.857437],[91.589714,27.857391],[91.59076,27.857367],[91.59176,27.857319],[91.59223,27.857225],[91.59256,27.85701],[91.59297,27.856937],[91.59313,27.856844],[91.59402,27.855938],[91.59426,27.856148],[91.59453,27.856539],[91.59473,27.856775],[91.59505,27.857115],[91.59538,27.857353],[91.59593,27.857548],[91.59628,27.857817],[91.59657,27.858126],[91.59681,27.858393],[91.597,27.8586],[91.59712,27.859032],[91.59712,27.859743],[91.59734,27.860237],[91.5983,27.860682],[91.59866,27.860703],[91.59955,27.860464],[91.59991,27.860785],[91.59998,27.86164],[91.6,27.862228],[91.60045,27.862732],[91.60074,27.863361],[91.60102,27.86374],[91.6016,27.864004],[91.60207,27.8641],[91.60255,27.86374],[91.60315,27.863314],[91.603714,27.86291],[91.6044,27.862387],[91.6046,27.862005],[91.60486,27.861767],[91.60557,27.861506],[91.60631,27.861172],[91.60695,27.860909],[91.60771,27.860481],[91.60833,27.86041],[91.608894,27.860197],[91.60921,27.860031],[91.61005,27.859198],[91.61063,27.858994],[91.61155,27.858736],[91.61179,27.85898],[91.6123,27.859253],[91.61275,27.859467],[91.61279,27.859653],[91.61321,27.859726],[91.61349,27.859812],[91.61392,27.860586],[91.614075,27.86083],[91.61532,27.861317],[91.615524,27.861732],[91.615814,27.862894],[91.6159,27.86298],[91.61617,27.863008],[91.61635,27.863094],[91.61657,27.86331],[91.6169,27.863352],[91.61732,27.863409],[91.61771,27.863438],[91.61799,27.863611],[91.61833,27.863754],[91.618835,27.863724],[91.619156,27.863955],[91.61927,27.864212],[91.61946,27.864513],[91.6199,27.864958],[91.6203,27.865374],[91.62045,27.86589],[91.62071,27.866434],[91.620995,27.867064],[91.6213,27.867737],[91.621376,27.86824],[91.62139,27.869001],[91.62124,27.86969],[91.62087,27.870836],[91.62111,27.871593],[91.62136,27.872353],[91.62151,27.8732],[91.62149,27.874002],[91.62156,27.874561],[91.62177,27.875206],[91.62145,27.876009],[91.62084,27.876926],[91.62044,27.877787],[91.62014,27.878819],[91.61979,27.879349],[91.61923,27.879879],[91.61881,27.88051],[91.6187,27.881227],[91.618835,27.881973],[91.619095,27.882532],[91.61912,27.883091],[91.618965,27.884253],[91.61895,27.884539],[91.61912,27.884912],[91.61984,27.885328],[91.62057,27.885643],[91.621414,27.88583],[91.622,27.88593],[91.62304,27.886446],[91.62352,27.886862],[91.62417,27.88762],[91.624916,27.88866],[91.6252,27.889208],[91.6257,27.889679],[91.62567,27.890491],[91.625595,27.89211],[91.62515,27.892138],[91.6247,27.892242],[91.62473,27.89245],[91.62423,27.892609],[91.62353,27.892868],[91.622536,27.893154],[91.62173,27.89346],[91.62077,27.893932],[91.62001,27.894411],[91.61949,27.89479],[91.6191,27.894936],[91.6182,27.89503],[91.618065,27.894838],[91.61739,27.89479],[91.6163,27.89479],[91.61568,27.894743],[91.61523,27.894623],[91.61481,27.894436],[91.61442,27.894339],[91.61407,27.894339],[91.61333,27.894436],[91.612595,27.894505],[91.61218,27.894505],[91.61166,27.894436],[91.610565,27.894436],[91.60989,27.894505],[91.60944,27.89472],[91.60911,27.894957],[91.60866,27.895102],[91.60876,27.896265],[91.60813,27.89641],[91.60723,27.896744],[91.60681,27.8971],[91.60595,27.897694],[91.60548,27.898027],[91.60495,27.898098],[91.60435,27.89817],[91.603424,27.898502],[91.60257,27.898788],[91.60176,27.89936],[91.601074,27.89967],[91.60048,27.900026],[91.59962,27.900644],[91.59895,27.900953],[91.59798,27.90155],[91.597336,27.901762],[91.59663,27.901787],[91.59545,27.902287],[91.59493,27.902882],[91.59479,27.90331],[91.59472,27.90424],[91.59438,27.905499],[91.59355,27.906616],[91.59288,27.907238],[91.59196,27.90795],[91.59065,27.907259],[91.58961,27.90714],[91.589195,27.907616],[91.58882,27.907665],[91.58861,27.907213],[91.58782,27.906904],[91.587105,27.906307],[91.58663,27.906284],[91.584984,27.905998],[91.58265,27.905546],[91.58218,27.905094],[91.58096,27.90481],[91.58058,27.90476],[91.58028,27.904736],[91.57949,27.905024],[91.57899,27.90519],[91.57844,27.90538],[91.57783,27.90545],[91.5772,27.905426],[91.576775,27.905117],[91.57644,27.904905],[91.57594,27.904856],[91.57573,27.904524],[91.57554,27.904451],[91.5754,27.904285],[91.57499,27.904142],[91.57466,27.903786],[91.57425,27.903286],[91.57419,27.903095],[91.57409,27.902477],[91.57393,27.902048],[91.5738,27.90186],[91.57371,27.90086],[91.57354,27.900787],[91.573326,27.900763],[91.57252,27.90067],[91.5719,27.900574],[91.57099,27.900192],[91.57007,27.89962],[91.569405,27.89886],[91.56893,27.898075],[91.56873,27.897194],[91.56847,27.896885],[91.5675,27.897076],[91.56643,27.897146],[91.56571,27.897076],[91.564835,27.89679],[91.564545,27.897003],[91.56397,27.89748],[91.56305,27.897743],[91.562195,27.897955],[91.56107,27.89812],[91.55955,27.898455],[91.55829,27.898575],[91.55524,27.898195],[91.554,27.900621],[91.55341,27.901669],[91.553,27.902857],[91.55265,27.904215],[91.552414,27.905426],[91.55179,27.907593],[91.551476,27.907972],[91.55079,27.908733],[91.55051,27.909424],[91.550415,27.910496],[91.5502,27.911448],[91.54994,27.911877],[91.54949,27.912352],[91.54891,27.913256],[91.54865,27.91409],[91.54865,27.914898],[91.54858,27.915518],[91.54834,27.916279],[91.5482,27.917063],[91.54818,27.917585],[91.54818,27.917967],[91.54779,27.919323],[91.54742,27.919443],[91.54689,27.919516],[91.54624,27.919775],[91.54579,27.919847],[91.54489,27.920156],[91.54418,27.920156],[91.54297,27.92037],[91.542244,27.920275],[91.541275,27.920013],[91.54023,27.91999],[91.53923,27.919966],[91.53825,27.920132],[91.5375,27.920465],[91.53685,27.920822],[91.53654,27.921227],[91.53628,27.921942],[91.535995,27.922655],[91.53552,27.923273],[91.53513,27.92351],[91.53438,27.923534],[91.53368,27.92375],[91.53328,27.923798],[91.533,27.923464],[91.532715,27.922916],[91.53207,27.92249],[91.53138,27.92244],[91.530426,27.922514],[91.52945,27.922583],[91.52778,27.922655],[91.52717,27.923273],[91.52643,27.924057],[91.52572,27.92451],[91.52435,27.925581],[91.52305,27.926653],[91.52196,27.927414],[91.520905,27.927675],[91.52012,27.927961],[91.51912,27.928556],[91.518555,27.929129],[91.517624,27.930006],[91.515724,27.931316],[91.51312,27.933863],[91.51115,27.935123],[91.509514,27.936693],[91.508125,27.937336],[91.50654,27.937859],[91.50513,27.938456],[91.50368,27.938955],[91.50215,27.93943],[91.499916,27.93924],[91.49802,27.939217],[91.497284,27.939001],[91.49604,27.938358],[91.4944,27.9376],[91.49431,27.937765],[91.493614,27.938717],[91.49259,27.939621],[91.49184,27.940382],[91.4905,27.94119],[91.489784,27.941332],[91.48871,27.94143],[91.4875,27.941881],[91.486374,27.942547],[91.48517,27.943403],[91.484,27.944046],[91.48334,27.944664],[91.48334,27.944855],[91.483765,27.946022],[91.48445,27.947615],[91.485504,27.949852],[91.486336,27.951708],[91.486855,27.953278],[91.487404,27.954777],[91.48805,27.956608],[91.488625,27.958488],[91.488976,27.959513],[91.48947,27.960678],[91.48984,27.96168],[91.49145,27.963747],[91.49126,27.96577],[91.491234,27.96622],[91.49081,27.96658],[91.49,27.967508],[91.48921,27.96891],[91.488686,27.969791],[91.48835,27.970552],[91.48788,27.971434],[91.48755,27.97236],[91.48729,27.973171],[91.48664,27.973433],[91.4865,27.973467],[91.48479,27.974096],[91.48404,27.974667],[91.483925,27.976725],[91.483696,27.977694],[91.48336,27.978323],[91.482445,27.97895],[91.48131,27.979406],[91.48022,27.979578],[91.478676,27.979578],[91.477875,27.97918],[91.476906,27.97935],[91.47485,27.979921],[91.47456,27.98095],[91.474045,27.98135],[91.47376,27.982206],[91.47331,27.983404],[91.47325,27.984432],[91.472626,27.985518],[91.47154,27.987003],[91.470566,27.989002],[91.46966,27.990942],[91.469086,27.991343],[91.468796,27.992256],[91.468056,27.99374],[91.467255,27.995684],[91.46382,27.997282],[91.46532,28.006306],[91.46179,28.007011],[91.46097,28.00725],[91.46025,28.007368],[91.45954,28.007393],[91.45879,28.007393],[91.45804,28.007463],[91.457184,28.007774],[91.45611,28.008202],[91.45521,28.008724],[91.45485,28.008772],[91.45411,28.008701],[91.452896,28.008654],[91.45213,28.00882],[91.45152,28.009104],[91.451,28.009485],[91.45037,28.009748],[91.4494,28.0097],[91.44835,28.009726],[91.44745,28.009819],[91.44626,28.01001],[91.44569,28.009867],[91.44519,28.009583],[91.44462,28.009153],[91.44409,28.008438],[91.44371,28.007677],[91.44319,28.006512],[91.442825,28.005869],[91.44164,28.004776],[91.440956,28.004347],[91.44005,28.003752],[91.43929,28.003061],[91.43879,28.002632],[91.43812,28.002705],[91.43698,28.002895],[91.43583,28.003298],[91.434746,28.003895],[91.43398,28.00437],[91.43365,28.004822],[91.43324,28.005419],[91.43265,28.00632],[91.43208,28.007202],[91.43156,28.008368],[91.431244,28.009295],[91.431175,28.010319],[91.43112,28.011293],[91.43127,28.014767],[91.43153,28.016315],[91.430534,28.01653],[91.429695,28.0166],[91.428986,28.0166],[91.42803,28.016647],[91.42727,28.016766],[91.42632,28.017315],[91.42563,28.017815],[91.42499,28.018265],[91.42427,28.018932],[91.423416,28.019789],[91.42282,28.019789],[91.42172,28.019718],[91.421104,28.019838],[91.42013,28.020266],[91.41963,28.020004],[91.41888,28.019218],[91.41782,28.018814],[91.416466,28.01848],[91.41533,28.018433],[91.41452,28.018528],[91.41337,28.019264],[91.41297,28.019337],[91.41123,28.019455],[91.40986,28.019384],[91.40968,28.019455],[91.40952,28.019884],[91.40919,28.01998],[91.40774,28.020386],[91.406685,28.020788],[91.40657,28.021313],[91.406334,28.021954],[91.406,28.02262],[91.405525,28.02305],[91.404976,28.023668],[91.404,28.024216],[91.40355,28.024477],[91.40329,28.024761],[91.40255,28.027475],[91.40175,28.027866],[91.401306,28.027987],[91.40057,28.027994],[91.40012,28.028124],[91.39955,28.02858],[91.399124,28.029217],[91.39785,28.030956],[91.39688,28.030529],[91.395805,28.030708],[91.394295,28.030668],[91.392296,28.030548],[91.38993,28.030626],[91.38903,28.03079],[91.38769,28.030914],[91.3861,28.031076],[91.38528,28.031239],[91.38455,28.031607],[91.383896,28.03185],[91.38243,28.032219],[91.38157,28.032707],[91.38097,28.033646],[91.38002,28.034664],[91.37945,28.03548],[91.37852,28.036663],[91.37713,28.03809],[91.375725,28.039303],[91.37519,28.039381],[91.37463,28.039381],[91.374146,28.039362],[91.37388,28.039572],[91.37345,28.040016],[91.372856,28.040613],[91.37245,28.040844],[91.371994,28.041056],[91.371666,28.041344],[91.370834,28.042059],[91.37035,28.04229],[91.36873,28.042482],[91.36841,28.042637],[91.368095,28.042908],[91.367966,28.043137],[91.36789,28.043467],[91.36773,28.043734],[91.36725,28.044216],[91.36688,28.044584],[91.36672,28.044853],[91.36659,28.045198],[91.36631,28.045372],[91.36601,28.045565],[91.36582,28.04597],[91.36561,28.046316],[91.36519,28.04676],[91.364586,28.04726],[91.36419,28.04761],[91.36359,28.047955],[91.36293,28.048359],[91.36222,28.048996],[91.36168,28.049381],[91.36064,28.048069],[91.36039,28.047955],[91.359795,28.047878],[91.35937,28.04786],[91.35897,28.047897],[91.35856,28.047995],[91.35808,28.048187],[91.35783,28.048168],[91.357285,28.048244],[91.35661,28.048437],[91.35613,28.048494],[91.35552,28.048553],[91.35492,28.048592],[91.35459,28.048592],[91.354324,28.048725],[91.35403,28.048763],[91.35361,28.048668],[91.35266,28.048512],[91.35193,28.048437],[91.35166,28.048512],[91.35137,28.04863],[91.351234,28.04863],[91.35099,28.048494],[91.35079,28.04838],[91.3504,28.048302],[91.35006,28.04838],[91.349464,28.048573],[91.349236,28.048532],[91.34914,28.048244],[91.34877,28.048128],[91.34833,28.047995],[91.34792,28.048033],[91.3469,28.048359],[91.34598,28.048668],[91.34511,28.049131],[91.34429,28.049517],[91.343414,28.049786],[91.34262,28.04994],[91.34262,28.050133],[91.34267,28.050673],[91.34272,28.051077],[91.34268,28.051674],[91.34243,28.052252],[91.342354,28.052715],[91.342415,28.05366],[91.3432,28.055006],[91.343414,28.056086],[91.34324,28.056435],[91.34306,28.056858],[91.34281,28.057571],[91.34251,28.05834],[91.34258,28.058899],[91.34253,28.059862],[91.34253,28.061193],[91.34248,28.061636],[91.342316,28.062157],[91.34195,28.062618],[91.34137,28.062986],[91.34087,28.06341],[91.34002,28.063852],[91.33954,28.064314],[91.33892,28.065683],[91.33775,28.065643],[91.33682,28.065702],[91.33601,28.065779],[91.33518,28.066029],[91.33466,28.066221],[91.3337,28.06549],[91.33282,28.065163],[91.33202,28.064335],[91.33077,28.062965],[91.33033,28.06281],[91.32987,28.06258],[91.32919,28.06208],[91.3284,28.061522],[91.328094,28.061579],[91.32746,28.06181],[91.32661,28.062119],[91.32621,28.06231],[91.32534,28.062675],[91.32447,28.062832],[91.322876,28.06285],[91.32179,28.062832],[91.32116,28.062716],[91.320465,28.062214],[91.31956,28.062157],[91.318596,28.062273],[91.3174,28.062658],[91.31655,28.062637],[91.31578,28.062387],[91.314644,28.062138],[91.31401,28.062002],[91.3132,28.06181],[91.31247,28.061636],[91.311676,28.061365],[91.31048,28.061039],[91.30877,28.06067],[91.30858,28.06098],[91.30823,28.061655],[91.30713,28.06281],[91.30669,28.0631],[91.305954,28.063389],[91.305176,28.063562],[91.30439,28.063677],[91.30405,28.06393],[91.303894,28.064507],[91.303734,28.06472],[91.303314,28.064913],[91.30281,28.065008],[91.30185,28.064932],[91.30164,28.064932],[91.30143,28.065065],[91.30112,28.065569],[91.300545,28.065722],[91.29973,28.06574],[91.299034,28.065779],[91.29782,28.066128],[91.29771,28.065722],[91.29751,28.065529],[91.297264,28.065279],[91.29705,28.064796],[91.29684,28.064547],[91.296555,28.064411],[91.29641,28.064005],[91.29614,28.063467],[91.295784,28.063236],[91.29543,28.063217],[91.294945,28.063389],[91.294334,28.06366],[91.2936,28.064026],[91.29287,28.064102],[91.29212,28.064219],[91.29158,28.064411],[91.29143,28.0642],[91.29044,28.06364],[91.288574,28.062794],[91.28821,28.062773],[91.2873,28.06306],[91.2858,28.063488],[91.28545,28.063427],[91.28457,28.06312],[91.28416,28.063253],[91.28352,28.063505],[91.28283,28.063738],[91.28204,28.06387],[91.28146,28.064064],[91.28088,28.064411],[91.28021,28.064854],[91.27967,28.065258],[91.27934,28.065372],[91.27874,28.065393],[91.27807,28.06545],[91.27757,28.065626],[91.27663,28.065857],[91.27611,28.066029],[91.27562,28.066416],[91.27529,28.066511],[91.2735,28.066685],[91.2725,28.066742],[91.27222,28.066357],[91.27193,28.065779],[91.27163,28.065626],[91.27079,28.06547],[91.269745,28.065279],[91.269264,28.065239],[91.2689,28.06522],[91.268456,28.065355],[91.267914,28.06574],[91.26734,28.066395],[91.26688,28.066877],[91.26646,28.067417],[91.266106,28.067974],[91.26589,28.068209],[91.26529,28.068592],[91.26473,28.069305],[91.264404,28.069902],[91.264175,28.07075],[91.26314,28.071136],[91.262924,28.071037],[91.26223,28.070578],[91.26146,28.070364],[91.260574,28.070019],[91.25974,28.069477],[91.25892,28.068882],[91.25821,28.068245],[91.25765,28.06761],[91.25726,28.06726],[91.25674,28.06705],[91.25584,28.06703],[91.25518,28.066936],[91.25497,28.06653],[91.254524,28.066395],[91.25417,28.065876],[91.25352,28.065702],[91.252846,28.065605],[91.25194,28.065508],[91.25144,28.065258],[91.25105,28.064814],[91.250725,28.06439],[91.25056,28.064276],[91.24997,28.064297],[91.24926,28.064255],[91.24879,28.064083],[91.24851,28.063812],[91.24803,28.063795],[91.24735,28.06387],[91.246666,28.063274],[91.246635,28.062675],[91.24655,28.061771],[91.24652,28.0615],[91.24693,28.060923],[91.24715,28.060461],[91.24735,28.059267],[91.24744,28.058842],[91.24759,28.058205],[91.24741,28.0573],[91.24693,28.056185],[91.246376,28.05576],[91.24595,28.055372],[91.2458,28.055065],[91.2457,28.054583],[91.24575,28.054276],[91.24647,28.054005],[91.247375,28.05366],[91.24826,28.053196],[91.248604,28.052984],[91.24897,28.052523],[91.24947,28.051386],[91.25,28.05042],[91.249626,28.050268],[91.24913,28.050268],[91.24879,28.05019],[91.248436,28.049726],[91.24799,28.048687],[91.24772,28.048512],[91.24744,28.047628],[91.24705,28.046934],[91.24678,28.04643],[91.24668,28.04522],[91.24645,28.044313],[91.24618,28.043966],[91.2458,28.043348],[91.24545,28.04306],[91.24491,28.04283],[91.242744,28.04198],[91.242615,28.041903],[91.242546,28.041538],[91.2425,28.04073],[91.24245,28.040382],[91.24194,28.04017],[91.24094,28.039804],[91.24078,28.039457],[91.24048,28.039341],[91.24001,28.039167],[91.23994,28.038725],[91.23974,28.03863],[91.23921,28.03809],[91.2389,28.038109],[91.238625,28.037357],[91.238396,28.03647],[91.23831,28.035372],[91.23823,28.03439],[91.238144,28.033253],[91.23826,28.032982],[91.23826,28.031942],[91.23808,28.030884],[91.23807,28.029976],[91.23793,28.029764],[91.23751,28.029245],[91.23693,28.02882],[91.23645,28.028706],[91.23591,28.028725],[91.23562,28.028627],[91.23534,28.028435],[91.23504,28.028183],[91.23448,28.02803],[91.23389,28.02803],[91.23331,28.028147],[91.23279,28.028261],[91.23213,28.028069],[91.2315,28.02776],[91.23103,28.02726],[91.23016,28.025757],[91.22967,28.02514],[91.229065,28.025005],[91.22868,28.024485],[91.22828,28.023966],[91.2279,28.023619],[91.227356,28.02333],[91.22695,28.02296],[91.22655,28.02246],[91.225815,28.022],[91.22526,28.021788],[91.22478,28.021729],[91.224174,28.021557],[91.22377,28.021343],[91.22342,28.021055],[91.223,28.02069],[91.22237,28.02036],[91.22092,28.019802],[91.220184,28.019476],[91.21955,28.019224],[91.21882,28.019032],[91.21809,28.018665],[91.217125,28.01834],[91.215866,28.008701],[91.215935,28.007534],[91.215935,28.006756],[91.2159,28.006046],[91.215836,28.005009],[91.21592,28.00418],[91.21591,28.003174],[91.21575,28.002466],[91.21544,28.001888],[91.21532,28.001513],[91.21515,28.00099],[91.21474,27.999979],[91.214775,27.999168],[91.21466,27.998705],[91.213905,27.997723],[91.21404,27.9959],[91.21468,27.995031],[91.21544,27.994045],[91.21567,27.993322],[91.21567,27.991817],[91.21483,27.991442],[91.214775,27.99098],[91.21462,27.990717],[91.21411,27.990255],[91.21364,27.989763],[91.21312,27.989504],[91.21188,27.989504],[91.21023,27.987854],[91.20907,27.986813],[91.20852,27.98687],[91.20794,27.98687],[91.20716,27.986696],[91.20629,27.986406],[91.20522,27.985943],[91.203804,27.985655],[91.203026,27.985453],[91.20227,27.985712],[91.20169,27.986032],[91.20108,27.986233],[91.20059,27.98635],[91.19998,27.986261],[91.19952,27.986261],[91.19882,27.986494],[91.19819,27.986668],[91.19767,27.986637],[91.19729,27.986523],[91.19653,27.98658],[91.19538,27.986637],[91.19469,27.986668],[91.19382,27.986637],[91.19243,27.986637],[91.191414,27.986668],[91.19078,27.986727],[91.190285,27.98687],[91.18983,27.987188],[91.18945,27.98768],[91.189186,27.988201],[91.18911,27.988781],[91.18856,27.989157],[91.18809,27.989447],[91.187485,27.98962],[91.186676,27.990112],[91.18601,27.990429],[91.18526,27.990545],[91.18459,27.990746],[91.18421,27.991125],[91.18375,27.991703],[91.18314,27.99234],[91.182304,27.993034],[91.18158,27.993555],[91.18076,27.99393],[91.17952,27.994596],[91.177666,27.995699],[91.17531,27.997215],[91.172874,27.998962],[91.17106,27.999798],[91.169846,28.000256],[91.16871,28.001394],[91.16779,28.001698],[91.16134,27.998812],[91.16103,27.997444],[91.15898,27.99714],[91.158455,27.99714],[91.15807,27.997065],[91.15716,27.99623],[91.15671,27.994938],[91.15633,27.992964],[91.15519,27.99304],[91.1542,27.99304],[91.15397,27.99266],[91.153366,27.991901],[91.15238,27.991293],[91.149414,27.99099],[91.14835,27.99099],[91.147285,27.991066],[91.14639,27.99112],[91.14546,27.991373],[91.144,27.991728],[91.14273,27.992022],[91.14168,27.992264],[91.14081,27.992392],[91.14003,27.992504],[91.13952,27.992674],[91.13901,27.99294],[91.13849,27.99321],[91.138054,27.993507],[91.137474,27.993746],[91.13669,27.994072],[91.13581,27.994383],[91.13499,27.994608],[91.13437,27.994822],[91.13383,27.99512],[91.13326,27.995358],[91.1326,27.995558],[91.1318,27.995712],[91.13131,27.995796],[91.13092,27.995697],[91.13062,27.99553],[91.13026,27.995245],[91.12983,27.995188],[91.129295,27.995176],[91.12905,27.995289],[91.12878,27.99543],[91.12862,27.99543],[91.12837,27.995417],[91.12741,27.995232],[91.1273,27.995245],[91.12724,27.995613],[91.1272,27.995728],[91.12617,27.995401],[91.12564,27.995203],[91.12484,27.994892],[91.124504,27.994764],[91.12399,27.994652],[91.12346,27.994568],[91.12305,27.994555],[91.12275,27.994524],[91.12148,27.994116],[91.120865,27.993917],[91.12006,27.993492],[91.1196,27.993408],[91.11917,27.993408],[91.11868,27.993507],[91.11799,27.993649],[91.117355,27.993834],[91.11718,27.993847],[91.117,27.993395],[91.116844,27.993254],[91.11663,27.993084],[91.11625,27.99294],[91.11564,27.992659],[91.115135,27.992363],[91.11502,27.99201],[91.11482,27.991812],[91.11449,27.991741],[91.11421,27.991953],[91.113846,27.992222],[91.11348,27.99228],[91.11305,27.992207],[91.112236,27.992151],[91.11187,27.992207],[91.11135,27.992334],[91.111,27.99259],[91.11078,27.992916],[91.1105,27.993069],[91.11003,27.993238],[91.10955,27.993492],[91.1092,27.993746],[91.10868,27.993988],[91.10825,27.99434],[91.1078,27.99485],[91.107414,27.995401],[91.107155,27.995909],[91.10706,27.996376],[91.10729,27.99694],[91.1063,27.998213],[91.10587,27.99817],[91.10427,27.99838],[91.10346,27.99855],[91.10291,27.998735],[91.102554,27.99895],[91.10207,27.999388],[91.10155,27.999979],[91.10129,28.000431],[91.101,28.000551],[91.1,27.999434],[91.09941,27.998838],[91.099,27.998648],[91.098175,27.998482],[91.09715,27.998243],[91.095795,27.998196],[91.09498,27.998075],[91.09418,27.99803],[91.0937,27.997791],[91.093216,27.997362],[91.09251,27.997555],[91.0916,27.997671],[91.0912,27.997807],[91.090935,27.998129],[91.09052,27.998383],[91.0902,27.998537],[91.09,27.998877],[91.08984,27.999233],[91.08961,27.999695],[91.08944,28],[91.08929,28.000204],[91.089134,28.000544],[91.088974,28.000713],[91.088554,28.000866],[91.08793,28.001188],[91.08747,28.001513],[91.0872,28.001205],[91.08688,28.001036],[91.08635,28.000952],[91.08585,28.000952],[91.08527,28.001087],[91.08456,28.001291],[91.08407,28.001581],[91.083435,28.001734],[91.082664,28.001818],[91.08205,28.00187],[91.08148,28.001818],[91.08113,28.00187],[91.08065,28.00187],[91.08039,28.00192],[91.080086,28.002142],[91.07964,28.002516],[91.079185,28.00277],[91.07877,28.003094],[91.0783,28.003466],[91.07805,28.00364],[91.07754,28.003672],[91.07718,28.00362],[91.07693,28.003773],[91.07664,28.004063],[91.076355,28.004251],[91.07578,28.004284],[91.0755,28.004166],[91.07509,28.003944],[91.07487,28.003672],[91.074745,28.00318],[91.07454,28.002686],[91.07414,28.001835],[91.0738,28.001257],[91.073654,28.001139],[91.07336,28.001122],[91.073135,28.001087],[91.07307,28.000952],[91.07272,28.000153],[91.07249,27.999506],[91.07252,27.999268],[91.07267,27.998571],[91.072945,27.997686],[91.0731,27.997007],[91.073135,27.995663],[91.07308,27.994898],[91.07258,27.992704],[91.071365,27.992485],[91.07094,27.992365],[91.0703,27.991905],[91.06984,27.992094],[91.06954,27.992178],[91.06893,27.992212],[91.06814,27.9924],[91.067505,27.992636],[91.06649,27.993078],[91.06557,27.993656],[91.06491,27.994337],[91.06448,27.994814],[91.06404,27.995205],[91.06363,27.995562],[91.063324,27.995972],[91.06296,27.996517],[91.062355,27.99688],[91.06205,27.997044],[91.06174,27.9971],[91.061195,27.997149],[91.060555,27.997288],[91.05994,27.997509],[91.059204,27.99778],[91.05864,27.997963],[91.058136,27.998291],[91.05769,27.998478],[91.057144,27.99871],[91.05658,27.99898],[91.05608,27.999084],[91.05564,27.99898],[91.05509,27.998665],[91.05498,27.998909],[91.05482,27.999434],[91.05453,28.000065],[91.05416,28.000416],[91.053604,28.00074],[91.05292,28.001091],[91.05228,28.001434],[91.05196,28.001953],[91.051834,28.002316],[91.05175,28.00272],[91.051476,28.003435],[91.05121,28.00429],[91.051056,28.00495],[91.05085,28.005783],[91.05062,28.007153],[91.049774,28.007132],[91.04878,28.00706],[91.04823,28.00706],[91.04756,28.00715],[91.046234,28.007376],[91.0432,28.006721],[91.042755,28.006422],[91.042114,28.005934],[91.04107,28.006702],[91.04066,28.00715],[91.04024,28.007864],[91.03982,28.008406],[91.03916,28.00893],[91.0387,28.009378],[91.0382,28.009754],[91.03775,28.01007],[91.03731,28.010202],[91.03676,28.010279],[91.036255,28.010391],[91.03581,28.010803],[91.03534,28.011028],[91.03457,28.0114],[91.0341,28.011757],[91.03345,28.012299],[91.03285,28.012768],[91.032455,28.013048],[91.032326,28.01333],[91.03221,28.013948],[91.03178,28.014341],[91.03135,28.014547],[91.03096,28.014547],[91.030304,28.014696],[91.02968,28.014997],[91.02908,28.015594],[91.02844,28.016232],[91.02828,28.016756],[91.02796,28.017506],[91.02761,28.018085],[91.0275,28.01859],[91.02748,28.019115],[91.02748,28.019901],[91.02738,28.020164],[91.027115,28.020369],[91.026794,28.020557],[91.02671,28.020744],[91.026596,28.021399],[91.02646,28.021717],[91.026184,28.02198],[91.02594,28.022411],[91.02585,28.022804],[91.02579,28.023384],[91.02554,28.023497],[91.02514,28.023645],[91.02476,28.02387],[91.024216,28.024078],[91.023766,28.02417],[91.02334,28.024319],[91.02277,28.024414],[91.02231,28.024508],[91.02155,28.024712],[91.02133,28.024376],[91.02106,28.024021],[91.02094,28.023703],[91.0209,28.02329],[91.02083,28.022934],[91.02072,28.022596],[91.02027,28.022],[91.020004,28.02213],[91.019646,28.022335],[91.01905,28.022484],[91.01828,28.022615],[91.01759,28.022709],[91.01686,28.022861],[91.016235,28.023008],[91.015495,28.02316],[91.01474,28.023252],[91.01412,28.02329],[91.01367,28.023197],[91.013016,28.02303],[91.01261,28.023008],[91.01201,28.022953],[91.010925,28.022953],[91.00999,28.022861],[91.00923,28.022505],[91.00827,28.021717],[91.007515,28.021212],[91.00665,28.021456],[91.00611,28.021511],[91.00542,28.021418],[91.004745,28.021288],[91.0039,28.021212],[91.00358,28.0212],[91.00345,28.021194],[91.0031,28.02123],[91.00246,28.021082],[91.00188,28.021082],[91.00122,28.021118],[91.000595,28.021194],[91.0002,28.02125],[90.999825,28.021362],[90.99944,28.02138],[90.99928,28.021494],[90.99909,28.02181],[90.998886,28.022316],[90.99873,28.022411],[90.998566,28.022429],[90.99829,28.022335],[90.997665,28.022148],[90.997185,28.022],[90.99694,28.021774],[90.99653,28.021736],[90.996284,28.021679],[90.99611,28.021511],[90.9958,28.02123],[90.99531,28.02095],[90.99503,28.02067],[90.99484,28.020481],[90.99464,28.020369],[90.994095,28.020033],[90.99372,28.019865],[90.99316,28.019733],[90.99305,28.019602],[90.99268,28.019302],[90.9921,28.018778],[90.99153,28.01831],[90.99102,28.01758],[90.99072,28.017467],[90.99044,28.016869],[90.99021,28.016737],[90.990005,28.016363],[90.98996,28.01597],[90.989975,28.015463],[90.99018,28.014977],[90.990234,28.014622],[90.990295,28.013891],[90.99034,28.01348],[90.990326,28.012993],[90.99031,28.012674],[90.99018,28.012543],[90.99008,28.01213],[90.99008,28.011776],[90.98999,28.011457],[90.99005,28.010296],[90.990036,28.009604],[90.98999,28.009304],[90.98996,28.009005],[90.989784,28.008669],[90.98962,28.008368],[90.989334,28.007132],[90.98909,28.006386],[90.98866,28.005465],[90.988495,28.005447],[90.98814,28.00541],[90.98767,28.00541],[90.98739,28.00541],[90.98696,28.005505],[90.98673,28.005522],[90.985985,28.00554],[90.98584,28.005428],[90.98548,28.005074],[90.98498,28.004623],[90.984505,28.004211],[90.98417,28.003986],[90.98387,28.004007],[90.983665,28.003967],[90.98319,28.003462],[90.98283,28.003088],[90.982185,28.002544],[90.98157,28.00219],[90.980835,28.001835],[90.98029,28.001759],[90.97962,28.00174],[90.97885,28.001684],[90.978424,28.001627],[90.978165,28.001572],[90.97795,28.00159],[90.97767,28.001703],[90.977425,28.001759],[90.97707,28.001722],[90.97651,28.00159],[90.976326,28.00191],[90.97608,28.00219],[90.9755,28.002544],[90.97515,28.002733],[90.97469,28.003181],[90.97411,28.003407],[90.973236,28.004044],[90.972786,28.004343],[90.9724,28.004492],[90.971344,28.004549],[90.97116,28.004961],[90.970856,28.005596],[90.96998,28.006794],[90.97052,28.007675],[90.97026,28.008068],[90.96927,28.008873],[90.968666,28.009117],[90.967545,28.009323],[90.966995,28.009249],[90.96666,28.009304],[90.96644,28.009266],[90.96612,28.009172],[90.965935,28.009155],[90.96514,28.009287],[90.964005,28.009249],[90.963646,28.00951],[90.963455,28.009867],[90.96303,28.010183],[90.96232,28.010504],[90.96179,28.01084],[90.96136,28.011158],[90.96094,28.011663],[90.96067,28.012074],[90.96043,28.012638],[90.96015,28.012974],[90.95977,28.01333],[90.959045,28.013704],[90.958954,28.014433],[90.958725,28.014902],[90.95805,28.015463],[90.95713,28.016043],[90.956566,28.016289],[90.9562,28.016268],[90.95547,28.016064],[90.95508,28.016195],[90.95445,28.016588],[90.95391,28.016756],[90.953445,28.016905],[90.95301,28.017225],[90.952805,28.017561],[90.952736,28.017954],[90.952675,28.018442],[90.95253,28.01874],[90.95213,28.019228],[90.9517,28.019657],[90.95142,28.020052],[90.9511,28.0205],[90.95084,28.020706],[90.95043,28.020802],[90.94957,28.021082],[90.94921,28.021399],[90.94889,28.021736],[90.948555,28.022],[90.94822,28.02226],[90.94803,28.02258],[90.94777,28.022972],[90.947655,28.023365],[90.94742,28.023626],[90.94678,28.023703],[90.946106,28.023907],[90.94599,28.024376],[90.9459,28.0249],[90.94573,28.025331],[90.94545,28.02593],[90.94522,28.02679],[90.944984,28.02756],[90.945015,28.028084],[90.945015,28.02842],[90.945114,28.028833],[90.945244,28.029245],[90.945244,28.029617],[90.94519,28.029974],[90.94549,28.030872],[90.94633,28.032202],[90.94635,28.032875],[90.945946,28.0336],[90.94563,28.033863],[90.94523,28.03391],[90.944855,28.034004],[90.94442,28.034243],[90.94359,28.035362],[90.94333,28.035456],[90.94309,28.035456],[90.94271,28.03541],[90.94242,28.035765],[90.94235,28.036028],[90.94168,28.036528],[90.940994,28.036764],[90.939735,28.03698],[90.938644,28.038218],[90.93757,28.038218],[90.93705,28.038145],[90.936,28.038239],[90.93581,28.038692],[90.935715,28.038763],[90.935425,28.038929],[90.93514,28.038979],[90.934784,28.038929],[90.934715,28.039358],[90.93447,28.039738],[90.93392,28.040167],[90.93341,28.040453],[90.9329,28.040737],[90.93184,28.041168],[90.93124,28.041286],[90.9306,28.04107],[90.93,28.041666],[90.92963,28.041903],[90.92918,28.042103],[90.92889,28.04215],[90.92863,28.042292],[90.92858,28.04272],[90.92841,28.042746],[90.92841,28.042889],[90.92846,28.043316],[90.928535,28.043673],[90.92856,28.04445],[90.92854,28.04456],[90.92823,28.044456],[90.9277,28.044102],[90.926704,28.043476],[90.92573,28.042982],[90.92484,28.042458],[90.92401,28.042055],[90.92315,28.041483],[90.92287,28.041151],[90.922775,28.040747],[90.92263,28.039984],[90.92244,28.039722],[90.922066,28.039747],[90.9218,28.039963],[90.920616,28.039984],[90.91944,28.039341],[90.918915,28.038794],[90.9188,28.038294],[90.91878,28.037867],[90.918564,28.037653],[90.918495,28.037535],[90.91868,28.036987],[90.91888,28.03632],[90.91928,28.035275],[90.91954,28.034916],[90.920395,28.034275],[90.92091,28.033846],[90.920944,28.03361],[90.92085,28.03325],[90.9207,28.033228],[90.920395,28.033085],[90.91999,28.032894],[90.91961,28.032656],[90.91907,28.032228],[90.91885,28.031895],[90.918655,28.031656],[90.918564,28.031347],[90.91842,28.030895],[90.918106,28.030539],[90.91752,28.030014],[90.91709,28.029896],[90.91661,28.029705],[90.91592,28.029135],[90.915565,28.029062],[90.91513,28.028801],[90.91507,28.028635],[90.91487,28.028183],[90.91452,28.028015],[90.91383,28.028112],[90.91302,28.028112],[90.91276,28.027683],[90.9125,28.027113],[90.91212,28.026754],[90.911385,28.026516],[90.91097,28.026516],[90.91064,28.026707],[90.91012,28.026945],[90.909706,28.026945],[90.90902,28.026754],[90.90864,28.026613],[90.90784,28.026827],[90.90731,28.026636],[90.90688,28.026207],[90.906525,28.025757],[90.90612,28.025661],[90.90581,28.025805],[90.90491,28.026136],[90.90431,28.02654],[90.903786,28.02678],[90.90291,28.026875],[90.902504,28.027279],[90.90172,28.027946],[90.90119,28.028326],[90.900764,28.028444],[90.9001,28.02847],[90.89874,28.02847],[90.89784,28.028587],[90.89693,28.028778],[90.89587,28.028994],[90.89387,28.029062],[90.894104,28.030252],[90.89469,28.030493],[90.89526,28.031488],[90.89572,28.032228],[90.8961,28.032537],[90.8971,28.034418],[90.89781,28.034624],[90.898506,28.03593],[90.89843,28.036533],[90.898125,28.03701],[90.89755,28.037344],[90.89708,28.0377],[90.8966,28.038105],[90.89581,28.038675],[90.895195,28.03901],[90.894455,28.039127],[90.894264,28.039772],[90.89379,28.040272],[90.89293,28.040747],[90.89232,28.041033],[90.89153,28.041222],[90.89067,28.041342],[90.88934,28.041603],[90.888275,28.041864],[90.887344,28.042507],[90.8874,28.042889],[90.88661,28.043507],[90.886086,28.04334],[90.88551,28.043268],[90.884964,28.043173],[90.884796,28.043198],[90.884346,28.043364],[90.88377,28.04334],[90.88258,28.043055],[90.88235,28.042889],[90.8818,28.042912],[90.881424,28.043316],[90.88085,28.043554],[90.88019,28.043459],[90.87982,28.043459],[90.87919,28.043673],[90.87825,28.044388],[90.87804,28.04529],[90.87792,28.045338],[90.87725,28.045506],[90.8769,28.045172],[90.87652,28.045078],[90.87599,28.045244],[90.875755,28.045006],[90.874825,28.045147],[90.874115,28.045172],[90.87371,28.045197],[90.872826,28.0456],[90.87219,28.045837],[90.87178,28.046171],[90.87159,28.046862],[90.871376,28.047218],[90.87109,28.047434],[90.87076,28.047623],[90.87019,28.047789],[90.86993,28.047743],[90.86971,28.047789],[90.86923,28.047861],[90.86893,28.04798],[90.868454,28.04817],[90.86807,28.04836],[90.86814,28.048767],[90.86774,28.048742],[90.86738,28.048908],[90.86629,28.049454],[90.86565,28.049763],[90.865456,28.050076],[90.86465,28.051003],[90.86393,28.051811],[90.86336,28.051859],[90.86276,28.052025],[90.86231,28.05224],[90.86167,28.052143],[90.86096,28.05205],[90.86029,28.052073],[90.8596,28.052216],[90.8581,28.052334],[90.85767,28.05255],[90.85736,28.052858],[90.85663,28.053286],[90.85553,28.053524],[90.85484,28.053524],[90.854294,28.053406],[90.85363,28.053118],[90.85279,28.052692],[90.85275,28.052525],[90.85263,28.051977],[90.85258,28.05155],[90.85258,28.050812],[90.85268,28.049576],[90.8526,28.048122],[90.85268,28.047623],[90.85275,28.046457],[90.851295,28.045862],[90.850464,28.046171],[90.84997,28.046314],[90.84949,28.04667],[90.8486,28.046623],[90.84782,28.046646],[90.84737,28.046696],[90.84692,28.046839],[90.846634,28.047052],[90.84623,28.047337],[90.84452,28.047434],[90.84342,28.04741],[90.842285,28.047504],[90.841255,28.047504],[90.84027,28.047552],[90.83966,28.047575],[90.839,28.047764],[90.83816,28.048195],[90.83737,28.048504],[90.836525,28.048979],[90.83607,28.049097],[90.83527,28.047934],[90.83514,28.047861],[90.83502,28.047718],[90.8349,28.04767],[90.83471,28.047695],[90.83435,28.047764],[90.83288,28.047695],[90.83253,28.047598],[90.83233,28.047337],[90.83216,28.047123],[90.831924,28.04698],[90.83133,28.046646],[90.83086,28.046171],[90.830475,28.045528],[90.830025,28.044579],[90.82959,28.044506],[90.82883,28.043957],[90.82862,28.043673],[90.82853,28.043198],[90.82812,28.04303],[90.828026,28.042791],[90.82788,28.04234],[90.82686,28.04227],[90.82632,28.042389],[90.82588,28.042889],[90.82559,28.043055],[90.824455,28.04272],[90.82283,28.042364],[90.82196,28.042625],[90.82172,28.04284],[90.82169,28.043482],[90.821266,28.04377],[90.82048,28.044315],[90.81996,28.04502],[90.819084,28.046345],[90.81873,28.047216],[90.818535,28.04733],[90.817894,28.047094],[90.81699,28.047226],[90.81576,28.047281],[90.81536,28.047245],[90.81514,28.047112],[90.813614,28.046494],[90.81319,28.046587],[90.812355,28.04665],[90.81087,28.046934],[90.80957,28.04851],[90.80812,28.049347],[90.806206,28.049633],[90.80312,28.049192],[90.80192,28.04888],[90.80098,28.048525],[90.800316,28.048056],[90.79937,28.04665],[90.79902,28.046227],[90.79847,28.046263],[90.79689,28.04531],[90.7959,28.045824],[90.795456,28.045897],[90.79498,28.046041],[90.79472,28.046007],[90.79472,28.04619],[90.79461,28.046448],[90.79443,28.046595],[90.79432,28.046705],[90.7941,28.047146],[90.793945,28.047256],[90.79388,28.047697],[90.79352,28.048029],[90.79256,28.047918],[90.79131,28.047403],[90.78928,28.044756],[90.788994,28.0445],[90.78855,28.044315],[90.78825,28.043985],[90.78803,28.043802],[90.78708,28.043728],[90.78627,28.043581],[90.78561,28.043325],[90.78568,28.04303],[90.78524,28.0427],[90.78499,28.04259],[90.78465,28.042553],[90.78417,28.042736],[90.78344,28.0427],[90.783005,28.042883],[90.78278,28.042809],[90.78168,28.04178],[90.78113,28.041485],[90.7805,28.041597],[90.77984,28.041891],[90.7795,28.0427],[90.779396,28.043396],[90.7791,28.043673],[90.778824,28.043892],[90.77841,28.04417],[90.77826,28.04461],[90.778076,28.04502],[90.7778,28.045223],[90.77757,28.045443],[90.77726,28.04559],[90.776955,28.045618],[90.77637,28.045734],[90.77562,28.046013],[90.775276,28.04635],[90.77499,28.046629],[90.77461,28.046804],[90.77461,28.047272],[90.77421,28.04784],[90.77365,28.04872],[90.77365,28.04898],[90.773605,28.050358],[90.77364,28.05128],[90.7732,28.051922],[90.772865,28.051937],[90.77273,28.05188],[90.77217,28.051672],[90.771706,28.051352],[90.770744,28.050884],[90.76976,28.050577],[90.769104,28.050371],[90.7669,28.049362],[90.76581,28.049246],[90.76528,28.048754],[90.76468,28.048203],[90.764305,28.048117],[90.764534,28.048],[90.76445,28.047886],[90.76291,28.046843],[90.76135,28.048088],[90.76103,28.048521],[90.76068,28.049013],[90.76028,28.049072],[90.75964,28.049246],[90.758804,28.049274],[90.75852,28.049505],[90.757996,28.050055],[90.7573,28.050549],[90.757065,28.05049],[90.7564,28.0502],[90.75609,28.050114],[90.75554,28.050228],[90.75476,28.05049],[90.75354,28.051155],[90.753426,28.051184],[90.75276,28.051039],[90.75229,28.050865],[90.75172,28.050865],[90.75146,28.051039],[90.75068,28.051155],[90.75004,28.05153],[90.74957,28.051935],[90.74925,28.05185],[90.74925,28.052254],[90.74873,28.052109],[90.74819,28.051935],[90.74781,28.051907],[90.747345,28.05208],[90.74685,28.052427],[90.74631,28.052572],[90.74521,28.053005],[90.744316,28.053267],[90.74384,28.053093],[90.74338,28.053469],[90.742805,28.053932],[90.74168,28.05425],[90.74095,28.05451],[90.74029,28.054686],[90.739655,28.055437],[90.73931,28.055466],[90.73844,28.056334],[90.7378,28.056707],[90.737045,28.057],[90.73647,28.057463],[90.7358,28.05781],[90.73502,28.058157],[90.73442,28.058416],[90.73378,28.058794],[90.733376,28.059399],[90.73294,28.059662],[90.73243,28.060213],[90.731834,28.060175],[90.73136,28.060139],[90.731026,28.060102],[90.73088,28.06047],[90.72989,28.060873],[90.728935,28.061243],[90.72805,28.061535],[90.72754,28.061865],[90.727135,28.062012],[90.72624,28.062765],[90.72607,28.064333],[90.72531,28.064825],[90.72526,28.06635],[90.725365,28.066498],[90.725365,28.067305],[90.725006,28.06815],[90.72449,28.068556],[90.72382,28.068775],[90.723495,28.06885],[90.7218,28.069143],[90.720116,28.069473],[90.719154,28.06988],[90.718094,28.069841],[90.71633,28.069769],[90.71438,28.069769],[90.71217,28.06988],[90.711,28.069916],[90.70998,28.0701],[90.709274,28.070135],[90.70865,28.069841],[90.70832,28.069841],[90.70802,28.069769],[90.707695,28.069695],[90.7074,28.069805],[90.70703,28.069805],[90.70644,28.07021],[90.70637,28.07032],[90.70622,28.07032],[90.70582,28.070171],[90.70552,28.070356],[90.70541,28.070797],[90.70505,28.070944],[90.70468,28.07124],[90.70343,28.07124],[90.70317,28.072561],[90.70288,28.07267],[90.70255,28.072746],[90.70236,28.07293],[90.70211,28.073553],[90.70196,28.07407],[90.70167,28.074472],[90.70107,28.074802],[90.70063,28.075758],[90.700676,28.077744],[90.69897,28.078543],[90.698364,28.078924],[90.69818,28.079058],[90.69783,28.079365],[90.69761,28.079573],[90.69696,28.079779],[90.696815,28.079794],[90.6965,28.079735],[90.6963,28.079748],[90.69602,28.079836],[90.69583,28.07997],[90.695656,28.080088],[90.695465,28.080132],[90.69527,28.080116],[90.695114,28.080177],[90.69482,28.080338],[90.69467,28.080383],[90.69446,28.080397],[90.693756,28.080412],[90.693016,28.080471],[90.69147,28.08078],[90.69044,28.080029],[90.68866,28.079248],[90.68752,28.07894],[90.686905,28.078793],[90.68628,28.078262],[90.68463,28.07704],[90.68329,28.07639],[90.682205,28.07561],[90.68213,28.075476],[90.68195,28.07539],[90.68187,28.074883],[90.68178,28.074554],[90.68148,28.074314],[90.68121,28.074224],[90.68115,28.074165],[90.68101,28.073866],[90.68103,28.07342],[90.68097,28.072882],[90.68008,28.071806],[90.67912,28.07124],[90.6787,28.070581],[90.67774,28.069565],[90.67622,28.068462],[90.67246,28.06667],[90.67063,28.06658],[90.670395,28.066044],[90.66998,28.065145],[90.66974,28.064518],[90.66974,28.06389],[90.67028,28.06246],[90.67016,28.062038],[90.66992,28.061531],[90.66956,28.061142],[90.66905,28.060814],[90.66861,28.060368],[90.66819,28.060219],[90.66783,28.05956],[90.66769,28.05956],[90.66696,28.05977],[90.66589,28.06013],[90.66535,28.059978],[90.66526,28.0598],[90.665115,28.05923],[90.66493,28.059202],[90.66451,28.059141],[90.66431,28.058964],[90.663826,28.058605],[90.66326,28.058395],[90.66255,28.057829],[90.66228,28.05717],[90.66084,28.056993],[90.65985,28.057022],[90.65902,28.056812],[90.65851,28.056932],[90.6581,28.056932],[90.658005,28.056633],[90.65777,28.056364],[90.65729,28.056187],[90.65663,28.056246],[90.65615,28.056664],[90.65564,28.057081],[90.65517,28.05753],[90.65493,28.05744],[90.65442,28.05735],[90.653915,28.05738],[90.653496,28.057201],[90.65278,28.056904],[90.651825,28.056633],[90.65156,28.056364],[90.65036,28.055288],[90.64905,28.054604],[90.64648,28.052244],[90.645226,28.051437],[90.64239,28.051346],[90.64128,28.049795],[90.63918,28.048779],[90.63737,28.047344],[90.63653,28.047344],[90.63539,28.04675],[90.63506,28.046719],[90.63307,28.047367],[90.63002,28.046568],[90.62951,28.046242],[90.62838,28.046179],[90.62704,28.046001],[90.62473,28.046509],[90.6245,28.047554],[90.62046,28.047585],[90.61936,28.047792],[90.618675,28.047672],[90.61703,28.048271],[90.61488,28.047403],[90.61434,28.045494],[90.612305,28.044209],[90.61174,28.043434],[90.60837,28.040745],[90.60764,28.03937],[90.60436,28.036951],[90.60233,28.034891],[90.601524,28.033754],[90.60004,28.03271],[90.59373,28.028051],[90.59254,28.027452],[90.59057,28.026499],[90.5894,28.026947],[90.58845,28.026289],[90.58815,28.025482],[90.587875,28.024765],[90.58707,28.023481],[90.584564,28.022915],[90.58346,28.02321],[90.58313,28.02378],[90.58238,28.024557],[90.58146,28.025812],[90.58166,28.027365],[90.58149,28.028648],[90.580765,28.028708],[90.58017,28.030142],[90.5799,28.03035],[90.57805,28.030052],[90.57697,28.030231],[90.57513,28.029959],[90.57447,28.031479],[90.57299,28.033098],[90.57204,28.033302],[90.57224,28.035276],[90.571686,28.036997],[90.57158,28.03872],[90.570465,28.03892],[90.5688,28.042261],[90.56763,28.042313],[90.56707,28.043476],[90.56565,28.044033],[90.56449,28.045553],[90.56257,28.046919],[90.5612,28.047476],[90.560036,28.048439],[90.55882,28.048843],[90.55786,28.0493],[90.5572,28.050362],[90.55188,28.051325],[90.54905,28.050058],[90.54647,28.051022],[90.54419,28.052387],[90.53873,28.053095],[90.53625,28.053755],[90.53558,28.05426],[90.53381,28.054768],[90.53093,28.054869],[90.526726,28.059628],[90.524445,28.06069],[90.51817,28.062815],[90.51477,28.06307],[90.507286,28.066309],[90.50496,28.065905],[90.50389,28.065195],[90.50267,28.063526],[90.49717,28.060593],[90.49498,28.058666],[90.49205,28.058512],[90.4886,28.055325],[90.4881,28.053299],[90.484856,28.05097],[90.48232,28.051424],[90.479645,28.050413],[90.47433,28.049196],[90.47301,28.049196],[90.46966,28.048388],[90.46866,28.04859],[90.46688,28.048286],[90.46521,28.048439],[90.459946,28.047577],[90.45696,28.047628],[90.45539,28.047173],[90.44947,28.050362],[90.449165,28.051678],[90.44705,28.05405],[90.44562,28.057652],[90.44466,28.061855],[90.44278,28.06414],[90.44104,28.064383],[90.439224,28.06409],[90.437546,28.063074],[90.4361,28.063728],[90.43465,28.065546],[90.43123,28.065546],[90.42861,28.06671],[90.42418,28.067945],[90.41807,28.06598],[90.41712,28.06598],[90.40804,28.071436],[90.402,28.069908],[90.40033,28.0686],[90.397644,28.065329],[90.394875,28.065037],[90.38994,28.062565],[90.38612,28.062635],[90.3803,28.06171],[90.37467,28.06421],[90.371994,28.066528],[90.37053,28.071337],[90.369514,28.072392],[90.36808,28.074646],[90.368095,28.081957],[90.36208,28.096981],[90.35933,28.0984],[90.35783,28.100092],[90.355606,28.101892],[90.3532,28.106518],[90.35106,28.105623],[90.348885,28.105415],[90.346985,28.107237],[90.34317,28.111177],[90.340454,28.11287],[90.339134,28.115108],[90.33605,28.120077],[90.33137,28.128357],[90.32609,28.13569],[90.31597,28.143278],[90.31343,28.146675],[90.30885,28.152794],[90.30626,28.156118],[90.30319,28.15618],[90.29926,28.155554],[90.29713,28.155855],[90.295364,28.157515],[90.294044,28.160044],[90.29044,28.163963],[90.28386,28.159586],[90.28166,28.158937],[90.27981,28.158669],[90.27814,28.157965],[90.27699,28.156153],[90.27556,28.155334],[90.27226,28.156155],[90.2652,28.154522],[90.26358,28.153442],[90.258995,28.147429],[90.25723,28.144138],[90.2547,28.142944],[90.25213,28.147429],[90.24969,28.150484],[90.24587,28.15368],[90.24307,28.151657],[90.23629,28.151056],[90.23247,28.150244],[90.22669,28.148813],[90.22092,28.147907],[90.21753,28.149197],[90.21161,28.147764],[90.20923,28.148003],[90.20581,28.151934],[90.19797,28.156258],[90.19597,28.158691],[90.18651,28.16394],[90.18627,28.164944],[90.18847,28.168377],[90.18692,28.17469],[90.18117,28.180498],[90.17458,28.182598],[90.16872,28.185747],[90.16509,28.189804],[90.16103,28.19214],[90.152626,28.192427],[90.15121,28.193575],[90.144844,28.192722],[90.14252,28.193079],[90.13926,28.19358],[90.13196,28.193151],[90.12332,28.194237],[90.11866,28.192966],[90.12138,28.184002],[90.12387,28.176065],[90.122536,28.17013],[90.11405,28.166435],[90.11121,28.164314],[90.106,28.161285],[90.1034,28.160723],[90.09994,28.15965],[90.0954,28.156622],[90.09182,28.152502],[90.089584,28.151533],[90.08001,28.15553],[90.0739,28.155775],[90.07081,28.156803],[90.06469,28.155775],[90.06069,28.156502],[90.05432,28.154978],[90.05362,28.153948],[90.05185,28.150244],[90.04567,28.142921],[90.042274,28.136818],[90.038666,28.137144],[90.03141,28.138937],[90.02608,28.14152],[90.02358,28.144045],[90.0257,28.148012],[90.02429,28.155594],[90.02308,28.156406],[90.021194,28.158806],[90.01992,28.16109],[90.019035,28.161974],[90.01762,28.164045],[90.015686,28.165997],[90.01417,28.16906],[90.011116,28.16912],[90.00487,28.16974],[90.00215,28.169447],[90.000755,28.170918],[89.999016,28.17195],[89.99869,28.173044],[89.99626,28.173996],[89.99616,28.175182],[89.99669,28.176943],[89.99526,28.178085],[89.99379,28.17837],[89.991455,28.180698],[89.987465,28.181746],[89.98613,28.183504],[89.98537,28.185453],[89.98337,28.187338],[89.980484,28.19033],[89.978485,28.19267],[89.97692,28.194561],[89.973694,28.192747],[89.97214,28.191807],[89.97071,28.190779],[89.96848,28.190893],[89.96683,28.191132],[89.96427,28.189646],[89.96041,28.190477],[89.959366,28.188917],[89.958015,28.185118],[89.957184,28.184364],[89.95651,28.183422],[89.95523,28.183584],[89.954544,28.183641],[89.94952,28.183012],[89.945755,28.181942],[89.945145,28.184282],[89.94327,28.184572],[89.942024,28.18523],[89.94151,28.186035],[89.941414,28.187174],[89.941154,28.188234],[89.9408,28.18855],[89.93918,28.188993],[89.93868,28.189392],[89.93708,28.188978],[89.93588,28.189362],[89.93496,28.189316],[89.93313,28.188349],[89.93008,28.187668],[89.927444,28.187325],[89.92145,28.18761],[89.92016,28.188442],[89.91882,28.188396],[89.917206,28.187937],[89.91551,28.187523],[89.91469,28.187246],[89.91376,28.186647],[89.91293,28.185682],[89.91193,28.184809],[89.910866,28.183937],[89.90976,28.183062],[89.908936,28.18228],[89.90717,28.18133],[89.90392,28.1823],[89.903145,28.1826],[89.901985,28.182922],[89.90075,28.183475],[89.90029,28.183338],[89.89996,28.183247],[89.89808,28.183199],[89.896706,28.183107],[89.89648,28.185131],[89.896194,28.187937],[89.89564,28.189316],[89.89495,28.190052],[89.89398,28.190834],[89.892784,28.191982],[89.891594,28.19304],[89.89044,28.194098],[89.88902,28.195158],[89.888054,28.195845],[89.887596,28.196215],[89.887505,28.196491],[89.88796,28.197687],[89.88851,28.199478],[89.88865,28.2004],[89.88792,28.20118],[89.886536,28.202055],[89.88516,28.20279],[89.884514,28.20348],[89.88364,28.204584],[89.88272,28.205643],[89.88171,28.206516],[89.880554,28.207436],[89.87927,28.208218],[89.877754,28.209505],[89.87642,28.210241],[89.87537,28.210747],[89.87403,28.211529],[89.872925,28.211988],[89.87192,28.213047],[89.871124,28.214058],[89.87095,28.2153],[89.87104,28.216772],[89.87104,28.217968],[89.87081,28.219116],[89.87021,28.22022],[89.86975,28.221277],[89.869156,28.22206],[89.86764,28.223164],[89.866165,28.224129],[89.86556,28.224588],[89.86409,28.22491],[89.863495,28.225142],[89.86299,28.226612],[89.862526,28.227945],[89.862206,28.228865],[89.86147,28.22997],[89.86046,28.23006],[89.85904,28.229832],[89.85779,28.229418],[89.85668,28.229464],[89.85573,28.229097],[89.85471,28.228178],[89.85411,28.227531],[89.85356,28.227257],[89.85292,28.227211],[89.85214,28.226889],[89.85089,28.226845],[89.84975,28.226706],[89.848045,28.226475],[89.84616,28.226198],[89.8446,28.225922],[89.84299,28.225693],[89.841515,28.225555],[89.84032,28.225325],[89.83866,28.225325],[89.837975,28.225508],[89.83678,28.22666],[89.83553,28.227442],[89.83416,28.22859],[89.83319,28.230108],[89.83199,28.230984],[89.83126,28.23204],[89.83075,28.233189],[89.82978,28.234615],[89.82873,28.23604],[89.827995,28.236729],[89.8268,28.237375],[89.82538,28.23788],[89.824326,28.238155],[89.82267,28.238392],[89.82133,28.239048],[89.81913,28.240807],[89.81761,28.240496],[89.81642,28.239862],[89.81547,28.23915],[89.81393,28.238516],[89.81262,28.238277],[89.81155,28.2382],[89.80985,28.23832],[89.80894,28.23824],[89.80787,28.237883],[89.80716,28.237568],[89.80633,28.237526],[89.80569,28.237644],[89.80506,28.238121],[89.80446,28.239029],[89.8034,28.240534],[89.80241,28.241446],[89.80126,28.242197],[89.800545,28.24279],[89.799484,28.244413],[89.79817,28.246986],[89.79635,28.246946],[89.79477,28.246866],[89.79366,28.246748],[89.792946,28.24655],[89.79283,28.245996],[89.79272,28.244333],[89.79251,28.243029],[89.79184,28.241089],[89.79105,28.238277],[89.79041,28.236338],[89.78998,28.235033],[89.78954,28.234402],[89.788666,28.233631],[89.78789,28.23313],[89.78746,28.232666],[89.78712,28.231613],[89.78683,28.230774],[89.78651,28.23005],[89.78632,28.229584],[89.786194,28.229145],[89.78615,28.229008],[89.78536,28.228796],[89.78458,28.228506],[89.78363,28.228394],[89.782715,28.228268],[89.7815,28.228045],[89.78043,28.22783],[89.77941,28.227947],[89.77846,28.228582],[89.77795,28.228067],[89.77751,28.227552],[89.77708,28.2268],[89.77655,28.226086],[89.77608,28.225807],[89.77536,28.225578],[89.77494,28.225267],[89.77469,28.224957],[89.77429,28.224659],[89.77379,28.224459],[89.77323,28.223951],[89.77276,28.222723],[89.771614,28.222685],[89.77078,28.222803],[89.77007,28.222841],[89.76904,28.222883],[89.76912,28.221893],[89.76909,28.22135],[89.77011,28.22022],[89.77063,28.220032],[89.771164,28.219673],[89.77157,28.218699],[89.77225,28.217697],[89.77292,28.216747],[89.77328,28.21572],[89.77371,28.21449],[89.77422,28.213503],[89.7747,28.212435],[89.77513,28.212036],[89.77617,28.211405],[89.77775,28.21081],[89.77898,28.210691],[89.780205,28.210691],[89.78099,28.210257],[89.78159,28.209822],[89.78183,28.208673],[89.78258,28.207962],[89.78274,28.207565],[89.78254,28.20713],[89.781425,28.205547],[89.78032,28.204002],[89.77985,28.203012],[89.77953,28.202261],[89.77953,28.201155],[89.77889,28.200401],[89.77763,28.19953],[89.776405,28.198896],[89.7753,28.198145],[89.77506,28.197512],[89.77474,28.195929],[89.773674,28.195097],[89.77209,28.194067],[89.770744,28.193316],[89.76908,28.193197],[89.76841,28.191893],[89.76789,28.190348],[89.766945,28.188923],[89.76599,28.188171],[89.765205,28.186722],[89.76549,28.185848],[89.76577,28.184958],[89.76588,28.183737],[89.76579,28.18267],[89.7656,28.182394],[89.765205,28.182472],[89.764366,28.18362],[89.76374,28.18445],[89.76327,28.184689],[89.76223,28.185362],[89.76149,28.185757],[89.76097,28.185837],[89.76009,28.185955],[89.75823,28.185678],[89.75555,28.186707],[89.75475,28.186707],[89.75432,28.186707],[89.754,28.186827],[89.75257,28.187222],[89.75131,28.188091],[89.750404,28.188765],[89.74953,28.189716],[89.74894,28.189993],[89.74807,28.19023],[89.747574,28.190207],[89.74654,28.18959],[89.745415,28.18886],[89.744316,28.188372],[89.743645,28.188715],[89.74268,28.189411],[89.7422,28.189995],[89.737785,28.184786],[89.73712,28.183975],[89.73662,28.183699],[89.736145,28.183521],[89.735565,28.183065],[89.7349,28.182222],[89.73456,28.181637],[89.73413,28.181004],[89.73365,28.180532],[89.73294,28.180176],[89.732254,28.179853],[89.73173,28.1792],[89.73125,28.1783],[89.73061,28.177273],[89.729965,28.17633],[89.72886,28.175303],[89.72796,28.17466],[89.72723,28.174402],[89.72654,28.17423],[89.726364,28.174059],[89.72615,28.17363],[89.72598,28.17346],[89.725555,28.173246],[89.72423,28.173073],[89.72329,28.172817],[89.72247,28.172432],[89.72175,28.172089],[89.72098,28.171747],[89.720505,28.171318],[89.72033,28.17119],[89.720116,28.171017],[89.719475,28.17119],[89.71862,28.171618],[89.71802,28.172089],[89.717545,28.17256],[89.71729,28.173073],[89.716866,28.17376],[89.71656,28.174189],[89.71643,28.174402],[89.71613,28.174572],[89.71566,28.175173],[89.715195,28.175774],[89.71472,28.176157],[89.714294,28.176586],[89.7131,28.176844],[89.71164,28.177187],[89.709625,28.178001],[89.70868,28.178598],[89.707436,28.178814],[89.7056,28.17907],[89.70401,28.17967],[89.70324,28.180098],[89.70239,28.180141],[89.70097,28.180141],[89.699814,28.180141],[89.69904,28.180271],[89.69806,28.180271],[89.697075,28.18044],[89.69639,28.180784],[89.69536,28.181425],[89.694336,28.181383],[89.69322,28.181255],[89.692406,28.181084],[89.69167,28.180954],[89.690956,28.181126],[89.69031,28.181469],[89.689575,28.182112],[89.68898,28.182583],[89.68842,28.182798],[89.6874,28.183096],[89.68658,28.18327],[89.68564,28.18344],[89.684906,28.183783],[89.68431,28.183952],[89.6829,28.184254],[89.68273,28.18481],[89.681404,28.18421],[89.68029,28.183653],[89.67968,28.183096],[89.679,28.182669],[89.67806,28.18224],[89.67724,28.18194],[89.676254,28.181425],[89.67527,28.180742],[89.67493,28.180569],[89.67464,28.179626],[89.67429,28.178429],[89.67399,28.177359],[89.67335,28.176716],[89.67241,28.175945],[89.67151,28.175173],[89.67078,28.174616],[89.670525,28.17423],[89.67035,28.173288],[89.67009,28.172304],[89.66997,28.171703],[89.669624,28.170675],[89.66864,28.170675],[89.66731,28.170761],[89.66628,28.17106],[89.66555,28.171532],[89.66474,28.17179],[89.66435,28.171875],[89.6632,28.171146],[89.66247,28.170933],[89.661995,28.171017],[89.661095,28.171232],[89.66043,28.171528],[89.65867,28.169113],[89.65838,28.168657],[89.65798,28.168388],[89.65753,28.168344],[89.656906,28.168488],[89.65602,28.16843],[89.65523,28.168571],[89.65446,28.168915],[89.65358,28.169325],[89.65314,28.169468],[89.65231,28.169596],[89.65156,28.169924],[89.65072,28.170067],[89.6497,28.170305],[89.648895,28.17059],[89.64842,28.170708],[89.64777,28.170305],[89.64709,28.16971],[89.646416,28.16921],[89.64613,28.169163],[89.645515,28.169258],[89.6448,28.169685],[89.64416,28.170233],[89.643684,28.171017],[89.6432,28.171827],[89.64245,28.173113],[89.6423,28.173326],[89.64123,28.173256],[89.64023,28.172995],[89.63849,28.172256],[89.63769,28.171923],[89.636856,28.17178],[89.635826,28.171423],[89.63478,28.170948],[89.633736,28.170305],[89.632454,28.169186],[89.63138,28.168211],[89.63049,28.167543],[89.62888,28.166903],[89.62729,28.166616],[89.62648,28.166426],[89.62574,28.166094],[89.62517,28.165451],[89.624985,28.16507],[89.62408,28.165545],[89.62267,28.166307],[89.6217,28.166878],[89.62034,28.167852],[89.619576,28.167782],[89.61881,28.167877],[89.617966,28.168306],[89.61708,28.168186],[89.61432,28.168234],[89.61287,28.168022],[89.61213,28.1679],[89.61149,28.167997],[89.61099,28.168022],[89.61032,28.1679],[89.60966,28.167782],[89.6087,28.16745],[89.60721,28.166935],[89.60631,28.166378],[89.604675,28.166206],[89.60322,28.16612],[89.60254,28.16595],[89.60138,28.165436],[89.60061,28.165009],[89.60035,28.164837],[89.60005,28.164495],[89.59856,28.16415],[89.597565,28.16415],[89.59654,28.163895],[89.59636,28.161848],[89.596115,28.159845],[89.595795,28.158697],[89.59562,28.157427],[89.59536,28.15596],[89.59546,28.155228],[89.59606,28.154055],[89.59668,28.153906],[89.59738,28.153639],[89.59792,28.153004],[89.597755,28.152464],[89.59698,28.151978],[89.595894,28.151709],[89.59465,28.151731],[89.5937,28.151854],[89.592834,28.150217],[89.59209,28.14885],[89.59142,28.147896],[89.59089,28.146944],[89.590836,28.146551],[89.59089,28.146112],[89.59071,28.14577],[89.5902,28.145233],[89.5891,28.144548],[89.58813,28.143742],[89.58744,28.143105],[89.58644,28.142422],[89.58563,28.142128],[89.58468,28.141615],[89.58419,28.141127],[89.58366,28.140491],[89.583015,28.139978],[89.58228,28.139154],[89.58169,28.138556],[89.580956,28.1377],[89.5804,28.136969],[89.57989,28.136114],[89.578865,28.134615],[89.578094,28.133587],[89.57788,28.132988],[89.57783,28.132044],[89.577705,28.130932],[89.577194,28.130245],[89.57646,28.129433],[89.575386,28.12849],[89.573425,28.127075],[89.573,28.12549],[89.57192,28.12275],[89.57145,28.120995],[89.57111,28.119839],[89.57085,28.11941],[89.57035,28.118567],[89.57008,28.118477],[89.56925,28.118567],[89.568306,28.118834],[89.56706,28.119442],[89.56629,28.119856],[89.56545,28.120018],[89.56462,28.119965],[89.56382,28.119999],[89.56283,28.120321],[89.56204,28.120646],[89.56111,28.120802],[89.55957,28.121016],[89.55888,28.120674],[89.55811,28.120289],[89.55687,28.119646],[89.55592,28.1193],[89.554596,28.118704],[89.5531,28.117846],[89.55129,28.116604],[89.550575,28.115791],[89.5507,28.114677],[89.55087,28.11335],[89.55104,28.112192],[89.55151,28.110952],[89.55177,28.109924],[89.552025,28.108637],[89.55246,28.107609],[89.55267,28.106667],[89.55263,28.105768],[89.55246,28.10457],[89.550446,28.104183],[89.54894,28.103628],[89.54791,28.103071],[89.54689,28.101786],[89.54612,28.1005],[89.54479,28.097973],[89.54359,28.096989],[89.542175,28.09549],[89.54089,28.094206],[89.53922,28.09262],[89.537766,28.091377],[89.536476,28.09018],[89.535835,28.089363],[89.53541,28.088636],[89.5352,28.088379],[89.532425,28.087605],[89.531296,28.089031],[89.53044,28.090136],[89.53014,28.090263],[89.53013,28.090565],[89.52895,28.09031],[89.527885,28.089582],[89.5274,28.089874],[89.527176,28.089764],[89.52642,28.090042],[89.52574,28.090393],[89.52517,28.090635],[89.5248,28.090837],[89.52417,28.090727],[89.52343,28.090654],[89.52302,28.090654],[89.52148,28.090914],[89.519936,28.091211],[89.51895,28.091618],[89.518234,28.092083],[89.51766,28.092361],[89.516884,28.092638],[89.515114,28.093513],[89.513115,28.094162],[89.511955,28.094402],[89.51105,28.093939],[89.51016,28.093771],[89.5097,28.093697],[89.50884,28.092585],[89.507965,28.091637],[89.50739,28.091005],[89.50752,28.088614],[89.506615,28.087538],[89.50634,28.086998],[89.50604,28.08646],[89.50578,28.086166],[89.50602,28.085285],[89.506546,28.084452],[89.50673,28.083931],[89.506714,28.083525],[89.506516,28.083002],[89.50623,28.082218],[89.506,28.081741],[89.50595,28.081455],[89.505905,28.081074],[89.505905,28.080742],[89.50555,28.080526],[89.50488,28.080265],[89.50424,28.079958],[89.50336,28.079504],[89.50252,28.079027],[89.501884,28.078459],[89.501335,28.077934],[89.500336,28.077244],[89.49965,28.076338],[89.499245,28.075672],[89.49893,28.075054],[89.49817,28.074795],[89.49767,28.074318],[89.496956,28.073673],[89.49625,28.073008],[89.49638,28.071604],[89.49646,28.070248],[89.49636,28.069748],[89.49607,28.069296],[89.495674,28.069033],[89.495125,28.068964],[89.49417,28.068989],[89.493484,28.068914],[89.49286,28.068748],[89.49229,28.068487],[89.491104,28.067749],[89.49039,28.067202],[89.490074,28.06675],[89.48968,28.065966],[89.48946,28.065275],[89.48923,28.064823],[89.48886,28.064537],[89.48844,28.06418],[89.48815,28.063776],[89.487526,28.063683],[89.48677,28.063349],[89.48604,28.06311],[89.48515,28.062801],[89.48478,28.062634],[89.48544,28.06173],[89.48523,28.060587],[89.4847,28.059587],[89.484276,28.058588],[89.48392,28.057543],[89.48339,28.056755],[89.482895,28.05609],[89.48208,28.055162],[89.48111,28.054472],[89.48021,28.053713],[89.47961,28.053139],[89.47939,28.052664],[89.4788,28.052164],[89.478,28.051592],[89.47745,28.051165],[89.47708,28.05069],[89.47671,28.05038],[89.47628,28.05007],[89.475685,28.049736],[89.47535,28.049118],[89.475044,28.048428],[89.474846,28.047525],[89.47492,28.046408],[89.47502,28.045145],[89.47506,28.044596],[89.47435,28.04443],[89.47337,28.044146],[89.47252,28.043812],[89.471634,28.043526],[89.4708,28.043146],[89.46969,28.042717],[89.46879,28.042265],[89.46806,28.041742],[89.46771,28.04148],[89.46714,28.040745],[89.46669,28.040243],[89.46631,28.03972],[89.46593,28.038887],[89.46564,28.038124],[89.4655,28.037483],[89.46531,28.037031],[89.465004,28.036816],[89.46424,28.03665],[89.463165,28.036245],[89.46274,28.036007],[89.46224,28.035723],[89.461815,28.035532],[89.46062,28.035246],[89.46019,28.034771],[89.460106,28.034508],[89.460075,28.034199],[89.46001,28.033817],[89.459694,28.03344],[89.45972,28.032606],[89.459854,28.031868],[89.45998,28.031273],[89.460144,28.030582],[89.46214,28.030298],[89.46277,28.030107],[89.4645,28.028585],[89.46526,28.0278],[89.46588,28.027441],[89.46626,28.02711],[89.46695,28.026394],[89.467735,28.026371],[89.46859,28.026228],[89.469,28.025919],[89.46952,28.025394],[89.46979,28.024847],[89.47,28.024538],[89.470215,28.024445],[89.47042,28.024181],[89.47071,28.02399],[89.47088,28.023968],[89.47118,28.023468],[89.47128,28.023252],[89.47124,28.022657],[89.47133,28.02254],[89.47147,28.022398],[89.47157,28.022205],[89.47159,28.02197],[89.47152,28.021612],[89.471115,28.021206],[89.47088,28.020899],[89.470764,28.020613],[89.47061,28.019875],[89.470474,28.019138],[89.47033,28.01833],[89.470085,28.017708],[89.469925,28.01721],[89.46985,28.01671],[89.46961,28.01609],[89.46945,28.015877],[89.469284,28.015543],[89.469025,28.014877],[89.46885,28.014616],[89.46852,28.014284],[89.468,28.013832],[89.467636,28.013523],[89.467476,28.013285],[89.46677,28.013094],[89.46614,28.012854],[89.46531,28.012667],[89.46459,28.01257],[89.463905,28.012333],[89.46307,28.012499],[89.461334,28.012617],[89.4605,28.012188],[89.45984,28.011524],[89.45922,28.010855],[89.45903,28.01057],[89.45836,28.010359],[89.457886,28.010025],[89.45748,28.010025],[89.45682,28.009691],[89.45612,28.009548],[89.45538,28.00931],[89.4546,28.008928],[89.45335,28.00838],[89.45286,28.008238],[89.45262,28.007788],[89.452324,28.00731],[89.451935,28.007215],[89.45144,28.007193],[89.45115,28.006382],[89.4516,28.006239],[89.45225,28.00593],[89.4527,28.005598],[89.45296,28.005264],[89.45317,28.004883],[89.45325,28.004528],[89.453224,28.003384],[89.45327,28.002909],[89.45291,28.002575],[89.45282,28.002314],[89.452835,28.001863],[89.45291,28.0016],[89.4531,28.001316],[89.45336,28.001076],[89.45353,28.001007],[89.45364,28.00003],[89.45344,27.999624],[89.45341,27.999222],[89.45344,27.998793],[89.45346,27.998531],[89.453606,27.998293],[89.45391,27.99796],[89.45427,27.997652],[89.45448,27.997366],[89.45436,27.997078],[89.45432,27.996819],[89.454384,27.9962],[89.45336,27.995604],[89.453384,27.994368],[89.45315,27.99401],[89.45336,27.993486],[89.45358,27.993084],[89.45329,27.992369],[89.45306,27.991678],[89.45289,27.99113],[89.45262,27.990347],[89.452324,27.98987],[89.4516,27.989323],[89.451035,27.988586],[89.45053,27.987658],[89.45099,27.98718],[89.45146,27.986347],[89.45184,27.98561],[89.45153,27.9848],[89.45144,27.983112],[89.451035,27.982683],[89.451485,27.981184],[89.451584,27.98071],[89.451675,27.979662],[89.451775,27.978949],[89.45196,27.978163],[89.452225,27.977592],[89.45217,27.977186],[89.452194,27.976759],[89.45227,27.976475],[89.45201,27.97564],[89.451744,27.975021],[89.45135,27.974476],[89.45099,27.973785],[89.450676,27.9735],[89.45036,27.973095],[89.449745,27.972786],[89.448845,27.972239],[89.44804,27.971739],[89.4478,27.971333],[89.44756,27.971071],[89.44715,27.970858],[89.446846,27.970287],[89.446625,27.96974],[89.44633,27.969358],[89.44606,27.968834],[89.44568,27.968216],[89.44541,27.967907],[89.44496,27.967648],[89.4443,27.967098],[89.44392,27.966671],[89.44318,27.966217],[89.442444,27.96586],[89.44188,27.965527],[89.44151,27.965315],[89.44106,27.965218],[89.44075,27.964884],[89.44033,27.964743],[89.43975,27.964506],[89.43938,27.964409],[89.43902,27.964218],[89.43912,27.963816],[89.439255,27.963078],[89.43938,27.962696],[89.43959,27.961887],[89.43973,27.961342],[89.43947,27.960602],[89.439354,27.959984],[89.43923,27.959055],[89.43904,27.958176],[89.43885,27.957415],[89.43873,27.956938],[89.43873,27.956202],[89.43885,27.955605],[89.43914,27.954536],[89.43923,27.954203],[89.43745,27.953274],[89.43657,27.952656],[89.43573,27.952059],[89.435,27.951466],[89.43442,27.950918],[89.43412,27.950632],[89.434044,27.950298],[89.43409,27.94973],[89.43412,27.94854],[89.43412,27.947802],[89.433945,27.947397],[89.43362,27.947111],[89.43328,27.946943],[89.43309,27.946707],[89.43292,27.946516],[89.43216,27.94635],[89.43138,27.946398],[89.43073,27.946325],[89.430046,27.946325],[89.429665,27.946278],[89.429184,27.946016],[89.42881,27.945803],[89.42831,27.945778],[89.42767,27.94585],[89.42724,27.94566],[89.42679,27.945398],[89.42631,27.945301],[89.42562,27.945301],[89.424835,27.94535],[89.424126,27.945494],[89.42342,27.945517],[89.42289,27.945564],[89.422646,27.945469],[89.42213,27.945042],[89.421364,27.944588],[89.420975,27.944399],[89.42041,27.944279],[89.41984,27.943851],[89.41934,27.943327],[89.41895,27.942589],[89.41874,27.942019],[89.4186,27.941614],[89.41817,27.941305],[89.417816,27.940878],[89.4175,27.939972],[89.4175,27.939497],[89.4175,27.939022],[89.41713,27.93864],[89.416794,27.938261],[89.416626,27.937664],[89.41646,27.936998],[89.41613,27.936451],[89.415764,27.93619],[89.41537,27.935762],[89.41501,27.935404],[89.41486,27.935238],[89.414345,27.935165],[89.413765,27.935308],[89.413414,27.935429],[89.41292,27.935331],[89.41246,27.935118],[89.41203,27.934809],[89.411606,27.9345],[89.410416,27.934166],[89.41061,27.933073],[89.41072,27.93231],[89.41092,27.931667],[89.41139,27.930765],[89.411934,27.9296],[89.41227,27.928766],[89.41258,27.927837],[89.41303,27.927029],[89.413414,27.92603],[89.41356,27.92553],[89.41294,27.925291],[89.41237,27.925102],[89.411865,27.924934],[89.41151,27.924768],[89.410866,27.924839],[89.41046,27.924553],[89.40992,27.924294],[89.40961,27.923935],[89.40946,27.923721],[89.40896,27.923315],[89.408485,27.923079],[89.40723,27.922626],[89.40692,27.922295],[89.406586,27.92208],[89.40616,27.921865],[89.40553,27.921865],[89.40498,27.921865],[89.40437,27.92184],[89.40375,27.92196],[89.40337,27.921936],[89.40296,27.921816],[89.40245,27.921555],[89.401924,27.921152],[89.40161,27.920818],[89.40125,27.920698],[89.40106,27.920319],[89.40087,27.920128],[89.400665,27.920128],[89.39997,27.920055],[89.39949,27.91989],[89.39904,27.919676],[89.39859,27.919128],[89.39835,27.918438],[89.39835,27.917011],[89.398254,27.916582],[89.39812,27.916035],[89.39804,27.915108],[89.398186,27.914131],[89.39851,27.913275],[89.3989,27.91249],[89.39906,27.912157],[89.398964,27.91161],[89.39869,27.910894],[89.39851,27.91011],[89.39842,27.909395],[89.398254,27.909018],[89.39806,27.908705],[89.39732,27.907993],[89.39714,27.907827],[89.39678,27.907827],[89.396454,27.907873],[89.396164,27.90792],[89.39602,27.907873],[89.39573,27.907398],[89.39567,27.907206],[89.395256,27.907064],[89.39497,27.907019],[89.39483,27.90673],[89.39473,27.906422],[89.39447,27.90621],[89.39412,27.90609],[89.39393,27.90578],[89.39364,27.905375],[89.39352,27.90516],[89.39314,27.905066],[89.392975,27.90447],[89.392876,27.903923],[89.39269,27.903542],[89.39254,27.903162],[89.39238,27.902758],[89.3924,27.902283],[89.39238,27.901854],[89.39221,27.901424],[89.392044,27.900688],[89.391785,27.900354],[89.39167,27.899998],[89.39169,27.899641],[89.39174,27.899166],[89.391716,27.898546],[89.39157,27.898094],[89.39121,27.897785],[89.39081,27.897549],[89.39048,27.897404],[89.39038,27.896976],[89.3904,27.896236],[89.39043,27.89557],[89.39038,27.894762],[89.39017,27.894428],[89.38988,27.894217],[89.38981,27.89367],[89.38973,27.893074],[89.38948,27.89274],[89.389336,27.892359],[89.389305,27.891764],[89.38924,27.891289],[89.38926,27.890718],[89.38912,27.890265],[89.38843,27.889885],[89.387856,27.889576],[89.387,27.889315],[89.38588,27.889076],[89.38472,27.888813],[89.38325,27.88822],[89.382484,27.887648],[89.38181,27.886957],[89.38117,27.88634],[89.38055,27.885817],[89.379524,27.88534],[89.378174,27.884865],[89.37731,27.88427],[89.37627,27.883747],[89.37582,27.88339],[89.37541,27.883293],[89.37494,27.88227],[89.37439,27.881414],[89.37392,27.88058],[89.37384,27.87994],[89.37368,27.879295],[89.37349,27.87882],[89.37308,27.87844],[89.37286,27.878132],[89.372604,27.877417],[89.37239,27.876797],[89.37192,27.876204],[89.370865,27.875513],[89.37023,27.874775],[89.36975,27.874228],[89.36937,27.873846],[89.3692,27.87311],[89.36894,27.87268],[89.36873,27.872301],[89.36847,27.871967],[89.3682,27.871801],[89.36775,27.871778],[89.367256,27.871872],[89.364395,27.871824],[89.363945,27.872015],[89.36352,27.871824],[89.3629,27.87192],[89.3618,27.871872],[89.361046,27.87192],[89.360565,27.872015],[89.36021,27.87204],[89.3599,27.872015],[89.359566,27.872063],[89.3594,27.87204],[89.35928,27.871897],[89.35911,27.871563],[89.35852,27.871277],[89.35811,27.87092],[89.357544,27.870802],[89.35706,27.870516],[89.35642,27.870039],[89.35474,27.86878],[89.3533,27.86809],[89.352066,27.867947],[89.35174,27.867756],[89.34985,27.8654],[89.34958,27.86535],[89.34743,27.865664],[89.34703,27.865566],[89.34533,27.864283],[89.34453,27.863592],[89.34308,27.863686],[89.3417,27.86352],[89.34135,27.863567],[89.34106,27.863592],[89.34077,27.863474],[89.34041,27.863306],[89.34022,27.863043],[89.33962,27.862854],[89.33915,27.862783],[89.3387,27.86264],[89.33853,27.86245],[89.338295,27.862309],[89.33806,27.862045],[89.337555,27.861807],[89.33739,27.861687],[89.33732,27.861593],[89.33688,27.861403],[89.33651,27.861021],[89.33625,27.860691],[89.33596,27.860403],[89.33559,27.860094],[89.334915,27.859903],[89.33441,27.859667],[89.3338,27.859047],[89.33368,27.858786],[89.33365,27.858452],[89.33341,27.858238],[89.33306,27.857811],[89.3293,27.85374],[89.32859,27.85417],[89.327065,27.854597],[89.32594,27.85455],[89.32509,27.854263],[89.32502,27.854431],[89.32485,27.85493],[89.3232,27.854488],[89.323,27.85437],[89.32218,27.854214],[89.32116,27.85398],[89.32085,27.853863],[89.32061,27.8539],[89.320145,27.853823],[89.319595,27.8539],[89.318695,27.854214],[89.31713,27.85437],[89.31611,27.854528],[89.31569,27.854408],[89.315254,27.854408],[89.31451,27.854567],[89.31338,27.85445],[89.313065,27.85445],[89.31271,27.854567],[89.31177,27.855427],[89.311104,27.855232],[89.3108,27.855152],[89.31052,27.855232],[89.309654,27.855543],[89.308876,27.857422],[89.30791,27.857422],[89.30747,27.856915],[89.30692,27.856325],[89.3063,27.855701],[89.30591,27.855349],[89.305,27.854803],[89.30352,27.854057],[89.30097,27.853743],[89.30047,27.853666],[89.30007,27.853666],[89.299255,27.853394],[89.298744,27.853157],[89.29808,27.852688],[89.297066,27.852062],[89.296005,27.851435],[89.29515,27.850733],[89.29409,27.849792],[89.29214,27.847837],[89.29198,27.847563],[89.2917,27.846312],[89.29119,27.845451],[89.29069,27.844591],[89.29049,27.843925],[89.28998,27.843338],[89.289276,27.842167],[89.28905,27.841892],[89.288734,27.841734],[89.28834,27.841696],[89.2881,27.841618],[89.287834,27.84146],[89.28751,27.84103],[89.28705,27.840288],[89.286385,27.839544],[89.28564,27.839073],[89.28474,27.838762],[89.28376,27.838604],[89.28282,27.838488],[89.28193,27.838097],[89.280945,27.836843],[89.2802,27.835985],[89.27985,27.835827],[89.27962,27.835436],[89.27903,27.834616],[89.27848,27.834263],[89.278206,27.833988],[89.278206,27.833675],[89.27758,27.832775],[89.27758,27.832384],[89.27722,27.831955],[89.27699,27.831718],[89.27625,27.831327],[89.275894,27.830858],[89.273476,27.8282],[89.2732,27.82816],[89.27089,27.828512],[89.267975,27.827898],[89.26734,27.827639],[89.26663,27.827265],[89.26627,27.82679],[89.26643,27.82589],[89.26647,27.82546],[89.26627,27.825031],[89.26561,27.824482],[89.26483,27.823778],[89.26616,27.822487],[89.26671,27.820845],[89.26682,27.819944],[89.26666,27.819006],[89.26666,27.818653],[89.26756,27.81572],[89.26819,27.812902],[89.26581,27.81208],[89.26382,27.811182],[89.262634,27.810516],[89.26111,27.809225],[89.25982,27.808403],[89.25818,27.807543],[89.25684,27.806917],[89.25529,27.806526],[89.25391,27.806055],[89.253204,27.806017],[89.25196,27.80586],[89.25023,27.805431],[89.24906,27.804962],[89.244835,27.802143],[89.243546,27.802067],[89.241234,27.802849],[89.240105,27.803045],[89.23799,27.803474],[89.23689,27.803083],[89.23588,27.80277],[89.23553,27.802458],[89.23564,27.79925],[89.23463,27.79882],[89.23463,27.797684],[89.23478,27.797058],[89.23494,27.796629],[89.23509,27.796316],[89.23513,27.795767],[89.235176,27.794712],[89.235374,27.793852],[89.23553,27.792717],[89.23498,27.79209],[89.23478,27.79166],[89.23451,27.791424],[89.23416,27.790878],[89.2335,27.79041],[89.23279,27.789665],[89.2322,27.788803],[89.231766,27.788296],[89.23161,27.787983],[89.2318,27.785679],[89.231575,27.78518],[89.2313,27.78479],[89.2309,27.784508],[89.22996,27.784142],[89.226,27.783838],[89.225555,27.78367],[89.22543,27.782824],[89.22539,27.781258],[89.22528,27.779812],[89.22515,27.778978],[89.225075,27.77808],[89.22519,27.776918],[89.22512,27.776125],[89.2249,27.77555],[89.22429,27.774652],[89.22368,27.773962],[89.222855,27.773022],[89.222565,27.771746],[89.2223,27.770533],[89.22218,27.76996],[89.22263,27.76889],[89.222725,27.768097],[89.22263,27.767],[89.22248,27.766193],[89.22239,27.765255],[89.22226,27.763496],[89.22088,27.762054],[89.22009,27.7609],[89.219734,27.760212],[89.219666,27.758596],[89.2196,27.757706],[89.2196,27.757412],[89.22098,27.757444],[89.22204,27.75731],[89.22295,27.75672],[89.22342,27.756128],[89.22365,27.755205],[89.22391,27.754644],[89.224144,27.753624],[89.224304,27.752077],[89.22427,27.751087],[89.224304,27.750332],[89.22467,27.749409],[89.22507,27.748617],[89.22585,27.747663],[89.22658,27.747137],[89.226906,27.746643],[89.22649,27.745983],[89.22582,27.745455],[89.22487,27.744995],[89.224236,27.744896],[89.22375,27.7447],[89.22339,27.744305],[89.22312,27.743744],[89.22309,27.742855],[89.22295,27.742064],[89.222725,27.741669],[89.22207,27.741274],[89.22157,27.741175],[89.22101,27.741077],[89.22091,27.740253],[89.22065,27.737883],[89.22204,27.737123],[89.222725,27.736729],[89.22385,27.736565],[89.22494,27.736301],[89.22572,27.73607],[89.22632,27.735249],[89.226944,27.734753],[89.228065,27.734194],[89.228424,27.73235],[89.22872,27.731165],[89.2275,27.730703],[89.22624,27.730143],[89.225525,27.729485],[89.224464,27.728296],[89.22375,27.727673],[89.22312,27.727015],[89.2222,27.726454],[89.22088,27.725863],[89.22016,27.725304],[89.21956,27.724543],[89.21864,27.723557],[89.21742,27.723293],[89.21516,27.722834],[89.21304,27.722305],[89.21143,27.721909],[89.210014,27.72158],[89.208664,27.721184],[89.207085,27.720987],[89.205635,27.721087],[89.20471,27.721317],[89.204185,27.721546],[89.20369,27.721844],[89.19839,27.721514],[89.197136,27.721514],[89.19641,27.719175],[89.196014,27.717234],[89.195755,27.715586],[89.19536,27.714006],[89.19502,27.712654],[89.19486,27.711569],[89.194664,27.71078],[89.194176,27.709923],[89.19362,27.708933],[89.19331,27.708044],[89.193115,27.706234],[89.193016,27.704258],[89.193054,27.701262],[89.191895,27.700602],[89.19108,27.699944],[89.18999,27.69935],[89.18917,27.698923],[89.18834,27.698462],[89.18765,27.697672],[89.186935,27.697044],[89.185905,27.69609],[89.18505,27.695366],[89.184326,27.694574],[89.18387,27.694212],[89.1841,27.69306],[89.184425,27.691282],[89.184654,27.6898],[89.18475,27.688547],[89.18475,27.687231],[89.183205,27.68664],[89.18169,27.68598],[89.180336,27.685123],[89.178795,27.683937],[89.17813,27.683245],[89.17738,27.681995],[89.17761,27.68104],[89.17823,27.68002],[89.17876,27.67913],[89.17962,27.677778],[89.18044,27.67689],[89.18107,27.676067],[89.18156,27.674849],[89.17982,27.673597],[89.17876,27.673267],[89.17714,27.6733],[89.17629,27.673267],[89.175766,27.673038],[89.17523,27.672478],[89.174576,27.672115],[89.17368,27.671755],[89.173355,27.671389],[89.1729,27.670732],[89.172134,27.669876],[89.17168,27.669285],[89.17145,27.668625],[89.17116,27.667667],[89.17086,27.666649],[89.1676,27.66622],[89.165985,27.666252],[89.164604,27.665989],[89.164,27.665989],[89.16364,27.66609],[89.160645,27.66161],[89.15956,27.660622],[89.15887,27.659798],[89.15824,27.659073],[89.157684,27.658745],[89.15722,27.658249],[89.15676,27.657854],[89.156235,27.657494],[89.15541,27.657032],[89.154724,27.656504],[89.14974,27.654203],[89.148994,27.653614],[89.144844,27.65041],[89.14187,27.64903],[89.140526,27.648088],[89.14009,27.647999],[89.1406,27.646711],[89.140854,27.64577],[89.14106,27.64468],[89.141235,27.643827],[89.14142,27.643158],[89.14156,27.64276],[89.14245,27.64225],[89.142,27.64198],[89.14051,27.64129],[89.138985,27.640945],[89.13734,27.640745],[89.13648,27.64071],[89.13536,27.64015],[89.13408,27.639585],[89.133095,27.63935],[89.13274,27.639042],[89.13224,27.638117],[89.13186,27.637737],[89.13132,27.637356],[89.13087,27.636612],[89.13094,27.635834],[89.130806,27.634872],[89.130646,27.63431],[89.13074,27.633892],[89.130806,27.633366],[89.13037,27.632933],[89.12996,27.63264],[89.12946,27.63208],[89.13012,27.631155],[89.13112,27.630358],[89.132,27.629795],[89.1325,27.629578],[89.13284,27.626894],[89.13253,27.62577],[89.13177,27.623741],[89.13085,27.622236],[89.12979,27.62073],[89.129776,27.618809],[89.12958,27.61736],[89.12806,27.61486],[89.12643,27.61477],[89.12599,27.614857],[89.125404,27.615105],[89.12502,27.615372],[89.12479,27.615793],[89.124565,27.616255],[89.12435,27.616463],[89.1242,27.616549],[89.123856,27.616526],[89.12339,27.616407],[89.12276,27.615988],[89.12238,27.615805],[89.12201,27.615664],[89.12167,27.615696],[89.12139,27.615944],[89.12073,27.61685],[89.12011,27.617746],[89.119446,27.618341],[89.11852,27.618937],[89.11766,27.619246],[89.11683,27.619436],[89.11566,27.619461],[89.11481,27.61934],[89.11376,27.619104],[89.11311,27.618912],[89.11266,27.618986],[89.111374,27.619246],[89.11071,27.619366],[89.11019,27.619366],[89.10981,27.620626],[89.109406,27.621601],[89.10917,27.622005],[89.10857,27.62272],[89.10762,27.62448],[89.10614,27.623909],[89.10479,27.62348],[89.10358,27.623077],[89.10238,27.622671],[89.1011,27.622362],[89.100105,27.622269],[89.0993,27.622244],[89.09906,27.623053],[89.09851,27.623743],[89.09793,27.624361],[89.09767,27.624813],[89.09641,27.62586],[89.09539,27.626528],[89.094536,27.62586],[89.09367,27.625288],[89.09309,27.625004],[89.092064,27.624836],[89.090965,27.624836],[89.0902,27.624788],[89.08954,27.624788],[89.08899,27.624788],[89.088615,27.624718],[89.088486,27.623959],[89.0883,27.62372],[89.08678,27.622911],[89.08644,27.622648],[89.08618,27.62241],[89.08554,27.622814],[89.08463,27.622768],[89.08395,27.622648],[89.083115,27.622314],[89.08207,27.621794],[89.08128,27.621435],[89.08068,27.621292],[89.08021,27.621244],[89.07966,27.621338],[89.07897,27.621626],[89.07831,27.62196],[89.07692,27.620745],[89.07571,27.619816],[89.07495,27.619316],[89.07419,27.619055],[89.07355,27.618986],[89.07238,27.619007],[89.07226,27.618841],[89.071526,27.618816],[89.07076,27.61877],[89.07043,27.618628],[89.07024,27.61839],[89.06986,27.618103],[89.06936,27.617817],[89.068886,27.617533],[89.06867,27.617342],[89.06838,27.617008],[89.0681,27.616556],[89.06786,27.616224],[89.06745,27.615843],[89.067024,27.615582],[89.06629,27.615273],[89.06584,27.615177],[89.06418,27.615034],[89.06377,27.614985],[89.06343,27.614843],[89.062744,27.614748],[89.06222,27.61482],[89.06113,27.61432],[89.06087,27.614058],[89.06096,27.613749],[89.060715,27.613535],[89.06065,27.61299],[89.060295,27.61251],[89.06018,27.61094],[89.059296,27.609776],[89.058655,27.609442],[89.05801,27.608967],[89.05753,27.6088],[89.057106,27.608444],[89.05687,27.608038],[89.05675,27.607729],[89.05156,27.60754],[89.05132,27.607754],[89.05087,27.607635],[89.050156,27.607014],[89.04935,27.606302],[89.048584,27.605494],[89.04816,27.604826],[89.04756,27.604303],[89.04689,27.603388],[89.04602,27.60237],[89.045334,27.601053],[89.044556,27.600065],[89.04339,27.599258],[89.04256,27.59872],[89.04142,27.597881],[89.04091,27.597282],[89.04013,27.596174],[89.04007,27.595846],[89.04046,27.59516],[89.04039,27.59426],[89.04019,27.592674],[89.03992,27.59105],[89.03969,27.590826],[89.03921,27.590378],[89.03881,27.590078],[89.03858,27.589952],[89.03818,27.589758],[89.037735,27.589632],[89.03746,27.589437],[89.037834,27.588066],[89.03791,27.58595],[89.037735,27.585398],[89.03663,27.584118],[89.03629,27.583086],[89.0359,27.582552],[89.03544,27.582163],[89.03512,27.581022],[89.03489,27.580578],[89.03428,27.580044],[89.034,27.578568],[89.033554,27.577784],[89.03231,27.577072],[89.03107,27.576876],[89.02971,27.577019],[89.02843,27.576984],[89.02768,27.577091],[89.026596,27.576574],[89.0261,27.576504],[89.02538,27.576538],[89.02431,27.576094],[89.02343,27.575916],[89.02224,27.575846],[89.02078,27.575489],[89.01811,27.575117],[89.017235,27.575045],[89.01638,27.575117],[89.0152,27.57467],[89.01487,27.57437],[89.01455,27.574245],[89.01353,27.574013],[89.01327,27.573479],[89.012825,27.573034],[89.012115,27.57259],[89.01098,27.572039],[89.01025,27.571648],[89.0095,27.571041],[89.00908,27.570475],[89.00852,27.57001],[89.00739,27.568836],[89.00701,27.568657],[89.006744,27.568462],[89.00671,27.568125],[89.0066,27.567787],[89.0063,27.567537],[89.00583,27.56736],[89.00557,27.567183],[89.00549,27.56702],[89.00553,27.56679],[89.0056,27.566505],[89.0056,27.566238],[89.005585,27.56599],[89.00537,27.565636],[89.00505,27.565313],[89.00468,27.564905],[89.00446,27.564425],[89.00442,27.564014],[89.00446,27.563305],[89.00428,27.562574],[89.00338,27.561508],[89.00285,27.561028],[89.002686,27.56067],[89.002594,27.560139],[89.00235,27.559748],[89.00194,27.559265],[89.00143,27.55891],[89.001175,27.558678],[89.00091,27.558216],[89.00011,27.557682],[88.999374,27.55731],[88.998665,27.557095],[88.99853,27.5569],[88.99853,27.556562],[88.99904,27.555637],[88.99928,27.555283],[88.99974,27.55512],[89.000534,27.55514],[89.0016,27.555601],[89.00226,27.555725],[89.002914,27.555742],[89.0035,27.555565],[89.00445,27.554873],[89.00477,27.554462],[89.005,27.553963],[89.005104,27.553574],[89.00517,27.553074],[89.005554,27.552523],[89.00571,27.551935],[89.005745,27.551544],[89.00577,27.551046],[89.00569,27.550621],[89.00557,27.550068],[89.00532,27.549696],[89.00501,27.549482],[89.00454,27.549198],[89.004234,27.549107],[89.00397,27.548948],[89.00347,27.548521],[89.00311,27.548288],[89.00227,27.548023],[89.00094,27.54749],[89.00043,27.547096],[88.99997,27.546833],[88.99965,27.54667],[88.99933,27.546598],[88.99897,27.546368],[88.99857,27.545782],[88.99848,27.545479],[88.99848,27.545124],[88.99854,27.544537],[88.998505,27.544287],[88.998085,27.543983],[88.99774,27.543808],[88.9974,27.543219],[88.99722,27.542847],[88.996796,27.54242],[88.99667,27.542152],[88.99649,27.541689],[88.9964,27.541227],[88.996475,27.540783],[88.99646,27.540266],[88.9963,27.539787],[88.99539,27.538559],[88.9947,27.537811],[88.99411,27.53728],[88.99341,27.536852],[88.9913,27.53614],[88.99093,27.536034],[88.990524,27.5358],[88.98986,27.53518],[88.98911,27.534788],[88.988716,27.5342],[88.98747,27.532867],[88.98623,27.531836],[88.98493,27.530464],[88.984505,27.530092],[88.98393,27.529913],[88.983345,27.529966],[88.98301,27.52995],[88.98286,27.52986],[88.982506,27.529594],[88.98205,27.529398],[88.981606,27.529308],[88.98043,27.529165],[88.98016,27.529184],[88.97956,27.529432],[88.97908,27.529663],[88.978905,27.529716],[88.97865,27.529716],[88.97847,27.529646],[88.97712,27.52849],[88.97678,27.528152],[88.976585,27.52801],[88.975685,27.527548],[88.97559,27.52744],[88.9755,27.527155],[88.9755,27.52696],[88.975716,27.524967],[88.97577,27.523918],[88.97575,27.52351],[88.975624,27.522762],[88.97547,27.522085],[88.97519,27.52109],[88.974976,27.520662],[88.974655,27.520094],[88.973976,27.519167],[88.973564,27.518528],[88.97338,27.51835],[88.97214,27.51753],[88.972,27.517372],[88.97184,27.517086],[88.97177,27.516748],[88.97177,27.516375],[88.97182,27.515985],[88.97182,27.515823],[88.97171,27.51561],[88.97154,27.515398],[88.971306,27.515253],[88.97109,27.515131],[88.97097,27.514935],[88.97403,27.513279],[88.97455,27.512854],[88.97547,27.51175],[88.97624,27.510723],[88.976685,27.5101],[88.97762,27.508953],[88.97831,27.50814],[88.9789,27.507113],[88.97954,27.505964],[88.98001,27.505222],[88.9803,27.504665],[88.98067,27.50372],[88.98087,27.502909],[88.98121,27.501898],[88.98188,27.500378],[88.98262,27.49918],[88.98326,27.498236],[88.983894,27.49729],[88.98447,27.496294],[88.98492,27.495434],[88.98553,27.494081],[88.98659,27.491755],[88.98572,27.491217],[88.9848,27.490875],[88.98369,27.490423],[88.98299,27.490444],[88.9823,27.490189],[88.98131,27.489653],[88.98023,27.489073],[88.97953,27.4886],[88.97876,27.488043],[88.978065,27.487356],[88.97757,27.48714],[88.977234,27.486498],[88.97714,27.48611],[88.977104,27.485916],[88.97667,27.485596],[88.97624,27.485188],[88.97592,27.484886],[88.97579,27.48463],[88.9757,27.483944],[88.97572,27.483448],[88.97562,27.483192],[88.97545,27.48302],[88.9752,27.48285],[88.97504,27.482613],[88.974785,27.482485],[88.97371,27.482206],[88.973366,27.48227],[88.972466,27.482056],[88.97187,27.481712],[88.971436,27.48124],[88.971176,27.480682],[88.971115,27.480145],[88.970985,27.47905],[88.97083,27.478407],[88.97075,27.477976],[88.97062,27.477697],[88.97049,27.477356],[88.97036,27.477247],[88.9698,27.477118],[88.969284,27.476948],[88.96877,27.476711],[88.96831,27.476389],[88.9677,27.47598],[88.96697,27.475594],[88.96639,27.475424],[88.96603,27.475296],[88.96567,27.474909],[88.96547,27.474716],[88.96549,27.473255],[88.96549,27.472828],[88.96545,27.47257],[88.965195,27.472013],[88.964935,27.471434],[88.96484,27.47096],[88.96502,27.470251],[88.96527,27.469223],[88.96545,27.468601],[88.965614,27.467955],[88.96575,27.46714],[88.96594,27.466454],[88.96612,27.465702],[88.966286,27.464952],[88.96637,27.464159],[88.96648,27.463129],[88.96657,27.462118],[88.966675,27.461283],[88.96689,27.460531],[88.96706,27.46023],[88.96729,27.45991],[88.96658,27.4592],[88.96575,27.458342],[88.96495,27.45757],[88.96439,27.45684],[88.963974,27.45626],[88.963646,27.455616],[88.96326,27.454996],[88.96294,27.454523],[88.96246,27.4542],[88.96205,27.453836],[88.96173,27.45332],[88.96133,27.452806],[88.96107,27.452375],[88.96083,27.451925],[88.960754,27.451262],[88.96066,27.450468],[88.960304,27.45019],[88.95982,27.449438],[88.95948,27.448792],[88.95924,27.448193],[88.9591,27.447851],[88.95927,27.446863],[88.95931,27.446325],[88.95931,27.446003],[88.95923,27.445381],[88.95901,27.444609],[88.95871,27.443966],[88.95847,27.443342],[88.95826,27.442656],[88.95802,27.441517],[88.95779,27.44066],[88.95764,27.43991],[88.957466,27.43948],[88.95721,27.438986],[88.95665,27.438086],[88.95635,27.437763],[88.9562,27.437483],[88.95614,27.437181],[88.95592,27.436754],[88.9559,27.436518],[88.95588,27.436304],[88.95594,27.436111],[88.95609,27.435873],[88.95631,27.43568],[88.9571,27.434736],[88.9574,27.434156],[88.957825,27.433472],[88.958275,27.43287],[88.9586,27.432419],[88.95879,27.432077],[88.95903,27.431755],[88.95927,27.431583],[88.95959,27.431324],[88.95982,27.43109],[88.96002,27.43051],[88.96013,27.429674],[88.96026,27.429201],[88.96062,27.428535],[88.96096,27.428062],[88.96144,27.427614],[88.96189,27.427334],[88.96245,27.426863],[88.96324,27.426369],[88.964096,27.425833],[88.96464,27.425552],[88.96484,27.425295],[88.96446,27.42403],[88.964264,27.42332],[88.96394,27.422033],[88.96371,27.421305],[88.96356,27.420874],[88.96349,27.420403],[88.96347,27.420166],[88.96349,27.41978],[88.96349,27.41961],[88.963005,27.418922],[88.96249,27.418299],[88.96205,27.417934],[88.961586,27.417656],[88.96094,27.417313],[88.960236,27.417011],[88.9595,27.41684],[88.95833,27.416733],[88.95744,27.416517],[88.95665,27.41622],[88.95583,27.41596],[88.95491,27.415552],[88.95405,27.415188],[88.953026,27.414629],[88.95238,27.414244],[88.95182,27.413923],[88.9515,27.413599],[88.95072,27.412441],[88.95057,27.412224],[88.9509,27.411901],[88.95149,27.411581],[88.95225,27.411373],[88.9531,27.411074],[88.95396,27.410852],[88.954445,27.410534],[88.95467,27.410212],[88.9549,27.410055],[88.955444,27.410097],[88.95604,27.410067],[88.956375,27.409946],[88.9567,27.409456],[88.956726,27.409082],[88.95691,27.408651],[88.95751,27.408056],[88.958206,27.407558],[88.95876,27.407288],[88.959496,27.407242],[88.96027,27.407139],[88.961586,27.406563],[88.96302,27.406],[88.963394,27.40556],[88.96368,27.404726],[88.96391,27.404146],[88.96423,27.403154],[88.964264,27.402391],[88.96428,27.402058],[88.96438,27.40164],[88.96493,27.401077],[88.96614,27.400057],[88.96669,27.399616],[88.96718,27.399408],[88.967674,27.399343],[88.96832,27.399292],[88.968895,27.399073],[88.969734,27.398481],[88.97002,27.398281],[88.97023,27.397905],[88.97048,27.397474],[88.970665,27.396914],[88.970665,27.39619],[88.97077,27.395672],[88.970955,27.395353],[88.971245,27.395071],[88.971504,27.394634],[88.971466,27.394306],[88.97144,27.393848],[88.97157,27.393402],[88.971954,27.393007],[88.97221,27.39265],[88.97242,27.391636],[88.972534,27.391258],[88.97272,27.390963],[88.97314,27.390596],[88.97457,27.38834],[88.975876,27.385153],[88.97549,27.38159],[88.97749,27.379114],[88.97743,27.376429],[88.9764,27.374493],[88.97777,27.372938],[88.97691,27.37114],[88.97749,27.369608],[88.97847,27.367706],[88.97937,27.364374],[88.98069,27.363201],[88.97925,27.360928],[88.97938,27.358887],[88.97743,27.357964],[88.97731,27.356064],[88.97817,27.355064],[88.98057,27.35472],[88.982605,27.353262],[88.983826,27.351608],[88.98608,27.351437],[88.988525,27.35038],[88.98904,27.347958],[88.99178,27.346655],[88.995544,27.346655],[88.99698,27.34611],[88.99665,27.344368],[88.99879,27.342812],[88.99852,27.340979],[88.99802,27.340199],[88.999725,27.338394],[89.002235,27.336697],[89.00184,27.33588],[89.00255,27.335136],[89.00223,27.333807],[89.003334,27.3323],[89.00198,27.32996],[89.00287,27.32957],[89.003,27.328411],[89.00442,27.32755],[89.00467,27.326996],[89.00205,27.325016],[89.00114,27.324738],[89.000725,27.324564],[88.99993,27.32416],[88.999374,27.32375],[88.99886,27.323278],[88.998474,27.322935],[88.99792,27.322548],[88.997444,27.322248],[88.996475,27.321884],[88.99564,27.321518],[88.99459,27.32111],[88.99401,27.320875],[88.993256,27.320404],[88.992165,27.31978],[88.99117,27.319221],[88.99041,27.319115],[88.98955,27.31905],[88.98867,27.318987],[88.98794,27.318943],[88.98744,27.318964],[88.98704,27.318987],[88.98682,27.31888],[88.98635,27.318472],[88.98594,27.318256],[88.985535,27.317999],[88.98491,27.31772],[88.98442,27.317398],[88.98397,27.317055],[88.98337,27.316753],[88.98264,27.31654],[88.9821,27.316412],[88.981415,27.316025],[88.98105,27.315767],[88.98072,27.31551],[88.98051,27.314974],[88.980446,27.314415],[88.98023,27.313944],[88.97998,27.313643],[88.97961,27.313341],[88.97897,27.313086],[88.97828,27.312763],[88.97772,27.312141],[88.97725,27.31141],[88.977,27.310638],[88.97669,27.309843],[88.97616,27.309309],[88.975685,27.308771],[88.97545,27.308365],[88.974785,27.307312],[88.97476,27.307055],[88.974335,27.306454],[88.97423,27.30611],[88.9741,27.306004],[88.97379,27.305918],[88.97309,27.305874],[88.97255,27.305788],[88.97199,27.305769],[88.97148,27.305616],[88.970795,27.3054],[88.97056,27.305424],[88.970146,27.305769],[88.96995,27.305983],[88.96972,27.306152],[88.969376,27.306389],[88.968925,27.306776],[88.96858,27.307034],[88.96828,27.30712],[88.96793,27.307226],[88.96736,27.307528],[88.96702,27.307783],[88.96669,27.308214],[88.966095,27.30888],[88.96551,27.309372],[88.965,27.309694],[88.964264,27.309996],[88.96317,27.310165],[88.96251,27.310207],[88.962105,27.310207],[88.961716,27.310446],[88.96122,27.310896],[88.96062,27.311497],[88.96021,27.311777],[88.95972,27.311884],[88.959656,27.311947],[88.95937,27.31227],[88.95907,27.312763],[88.958885,27.313086],[88.95854,27.314308],[88.95837,27.314865],[88.95813,27.315468],[88.95792,27.315853],[88.95761,27.31622],[88.957184,27.316605],[88.9568,27.31682],[88.95667,27.316969],[88.956436,27.317398],[88.956154,27.317783],[88.95594,27.318129],[88.955536,27.318644],[88.955124,27.319073],[88.95484,27.319221],[88.95455,27.319565],[88.954445,27.319717],[88.9541,27.319824],[88.95401,27.319931],[88.95388,27.319952],[88.95377,27.32023],[88.95367,27.32036],[88.953545,27.320446],[88.95311,27.320446],[88.95285,27.320553],[88.952644,27.320553],[88.95234,27.320618],[88.95197,27.32081],[88.95178,27.321026],[88.95171,27.32126],[88.95148,27.321474],[88.95124,27.32169],[88.951096,27.32197],[88.95092,27.322378],[88.95067,27.322935],[88.95034,27.323534],[88.95015,27.323835],[88.95015,27.324245],[88.95,27.324738],[88.94968,27.32493],[88.94955,27.325424],[88.94925,27.326088],[88.9486,27.326797],[88.948456,27.327032],[88.94753,27.327784],[88.94676,27.328943],[88.94648,27.329266],[88.94566,27.329845],[88.94545,27.330315],[88.945145,27.330553],[88.94365,27.332418],[88.94232,27.333342],[88.941696,27.334373],[88.94144,27.33504],[88.94092,27.335102],[88.94068,27.335423],[88.94002,27.33583],[88.9389,27.335917],[88.93849,27.336132],[88.93845,27.33641],[88.937645,27.336754],[88.93721,27.337183],[88.93697,27.337484],[88.936714,27.337635],[88.936226,27.337656],[88.935936,27.337355],[88.93551,27.337055],[88.93536,27.33697],[88.935295,27.336777],[88.935165,27.336712],[88.93513,27.336605],[88.93502,27.336496],[88.935,27.336325],[88.93495,27.336153],[88.93481,27.33607],[88.93461,27.335983],[88.934425,27.335896],[88.93431,27.33579],[88.934265,27.335703],[88.93388,27.335552],[88.9336,27.335508],[88.93326,27.335508],[88.93309,27.335403],[88.93288,27.33538],[88.93261,27.33538],[88.93236,27.335403],[88.93191,27.335403],[88.9318,27.33538],[88.931694,27.335423],[88.931564,27.335508],[88.93142,27.335508],[88.93126,27.335531],[88.931114,27.335617],[88.93096,27.33583],[88.9307,27.336153],[88.930214,27.33628],[88.93,27.336088],[88.929504,27.335747],[88.92928,27.335638],[88.92883,27.335508],[88.92837,27.33536],[88.92781,27.335188],[88.92748,27.335125],[88.92736,27.335081],[88.92734,27.335016],[88.92736,27.334972],[88.92736,27.3348],[88.92725,27.334717],[88.92716,27.334587],[88.92696,27.334373],[88.92682,27.334114],[88.92676,27.333942],[88.92663,27.333708],[88.92625,27.333471],[88.92625,27.333021],[88.9263,27.332764],[88.92633,27.332571],[88.9263,27.332397],[88.92639,27.332012],[88.92641,27.331947],[88.9265,27.331839],[88.9265,27.331776],[88.92665,27.331474],[88.92684,27.331263],[88.92696,27.331154],[88.926994,27.330917],[88.926926,27.330553],[88.92684,27.330296],[88.92658,27.330166],[88.92633,27.330017],[88.92622,27.329887],[88.92594,27.329824],[88.92574,27.329758],[88.925575,27.32963],[88.9254,27.32948],[88.92515,27.32937],[88.92498,27.3292],[88.924805,27.329115],[88.92463,27.32888],[88.924286,27.328665],[88.92387,27.32845],[88.923515,27.328363],[88.92328,27.328192],[88.92298,27.328085],[88.9224,27.32785],[88.92225,27.327658],[88.92197,27.327635],[88.921906,27.327614],[88.921844,27.327505],[88.921745,27.327465],[88.92173,27.327385],[88.92149,27.327333],[88.921364,27.327286],[88.92125,27.326878],[88.92094,27.326391],[88.92016,27.325865],[88.92001,27.325708],[88.919914,27.325407],[88.920204,27.323803],[88.9201,27.322832],[88.920135,27.32262],[88.92016,27.32237],[88.92012,27.322166],[88.920044,27.321964],[88.91999,27.321465],[88.91998,27.321201],[88.919914,27.321018],[88.919914,27.32086],[88.919815,27.320494],[88.919716,27.320164],[88.91963,27.319927],[88.91963,27.31964],[88.919685,27.319298],[88.91962,27.319113],[88.91955,27.318863],[88.919426,27.318678],[88.919266,27.318548],[88.919136,27.31822],[88.91894,27.317997],[88.91852,27.317629],[88.91826,27.31742],[88.91815,27.31726],[88.91772,27.31697],[88.91715,27.316355],[88.91702,27.316315],[88.916824,27.316143],[88.91648,27.315342],[88.916336,27.315159],[88.91613,27.31424],[88.9158,27.313805],[88.91559,27.313581],[88.915436,27.313122],[88.91514,27.312504],[88.91505,27.31228],[88.91498,27.312057],[88.91488,27.31194],[88.914825,27.311546],[88.91485,27.311375],[88.914825,27.311176],[88.91479,27.310495],[88.91468,27.310219],[88.91408,27.309233],[88.91384,27.309076],[88.91341,27.308418],[88.91289,27.307314],[88.91259,27.30717],[88.912346,27.307026],[88.91222,27.306908],[88.912155,27.306776],[88.91211,27.306684],[88.91202,27.306644],[88.91191,27.306606],[88.911766,27.30641],[88.91158,27.306278],[88.911125,27.30608],[88.91076,27.305698],[88.91041,27.305449],[88.91004,27.305279],[88.90967,27.305174],[88.909294,27.30487],[88.90884,27.304201],[88.908966,27.303898],[88.90922,27.303493],[88.909256,27.303308],[88.909256,27.303097],[88.90917,27.302967],[88.90914,27.302729],[88.90911,27.302586],[88.909164,27.302244],[88.90923,27.302021],[88.909454,27.301718],[88.90986,27.301298],[88.9105,27.300444],[88.911255,27.299604],[88.91141,27.299288],[88.91156,27.298958],[88.911995,27.297487],[88.91269,27.296095],[88.91305,27.295044],[88.91352,27.293941],[88.91406,27.292875],[88.914444,27.291903],[88.91472,27.291391],[88.91478,27.291313],[88.914734,27.291128],[88.91467,27.290749],[88.914444,27.290012],[88.914154,27.289474],[88.91371,27.28908],[88.91341,27.288397],[88.913025,27.287897],[88.91276,27.287437],[88.912254,27.286846],[88.91163,27.285782],[88.911095,27.284994],[88.91073,27.284704],[88.91057,27.284416],[88.9103,27.284178],[88.90963,27.283009],[88.90874,27.281958],[88.908646,27.281605],[88.9086,27.280985],[88.90862,27.28075],[88.90874,27.280474],[88.90893,27.280119],[88.90907,27.2797],[88.90917,27.279396],[88.90928,27.279068],[88.90928,27.27895],[88.90893,27.27811],[88.90858,27.277346],[88.90824,27.276821],[88.90795,27.27623],[88.907776,27.275888],[88.907455,27.275599],[88.90708,27.275232],[88.906624,27.274773],[88.90629,27.274364],[88.90597,27.274168],[88.905556,27.27409],[88.90543,27.273972],[88.90493,27.273499],[88.90449,27.272972],[88.90392,27.272644],[88.90343,27.272564],[88.903145,27.272629],[88.902435,27.273031],[88.90234,27.273058],[88.90134,27.273699],[88.90066,27.27388],[88.90017,27.27402],[88.90003,27.27402],[88.89967,27.273878],[88.89937,27.273684],[88.89911,27.273256],[88.898994,27.272635],[88.89885,27.271538],[88.89877,27.270834],[88.89766,27.270382],[88.89636,27.27051],[88.89572,27.27051],[88.89541,27.270435],[88.89496,27.27012],[88.894226,27.269619],[88.89382,27.269438],[88.89324,27.269274],[88.89271,27.269154],[88.892075,27.268913],[88.89152,27.268673],[88.890625,27.26829],[88.88986,27.268623],[88.889015,27.268267],[88.88786,27.267958],[88.886894,27.267553],[88.88594,27.267315],[88.88439,27.266554],[88.883446,27.26615],[88.88239,27.265577],[88.880684,27.26391],[88.87971,27.263067],[88.87921,27.262724],[88.86442,27.265072],[88.830864,27.264183],[88.82654,27.256826],[88.802284,27.248365],[88.80253,27.247435],[88.80308,27.246101],[88.80329,27.245268],[88.80327,27.244127],[88.80336,27.2432],[88.803604,27.242437],[88.80398,27.241177],[88.8041,27.240105],[88.80403,27.239344],[88.80398,27.238226],[88.80408,27.237535],[88.80436,27.236895],[88.80446,27.235823],[88.80429,27.23568],[88.80398,27.23537],[88.80372,27.235062],[88.803406,27.234632],[88.80315,27.233776],[88.802956,27.233088],[88.80267,27.232563],[88.80243,27.23185],[88.80222,27.231064],[88.801956,27.230492],[88.80164,27.230017],[88.801315,27.229492],[88.80153,27.229183],[88.80193,27.228683],[88.80201,27.228304],[88.801956,27.227566],[88.802055,27.226852],[88.80222,27.226185],[88.80236,27.225376],[88.80253,27.224806],[88.80291,27.224236],[88.80315,27.223593],[88.80315,27.223093],[88.80303,27.222307],[88.80301,27.22176],[88.803246,27.220713],[88.80322,27.220047],[88.80303,27.219095],[88.802795,27.218601],[88.80225,27.217888],[88.80164,27.217175],[88.8014,27.216318],[88.801254,27.215425],[88.80115,27.214819],[88.8009,27.21407],[88.800476,27.213213],[88.80015,27.212605],[88.79997,27.211855],[88.799866,27.210964],[88.799934,27.210022],[88.79974,27.209103],[88.79947,27.20846],[88.79908,27.208025],[88.798615,27.207556],[88.798164,27.206999],[88.79795,27.206427],[88.797516,27.206026],[88.79679,27.20568],[88.79615,27.204985],[88.79604,27.204672],[88.79615,27.203543],[88.79601,27.203186],[88.79538,27.202469],[88.79483,27.202099],[88.79431,27.20181],[88.7938,27.201267],[88.793655,27.200579],[88.79349,27.200005],[88.79288,27.199148],[88.792625,27.198517],[88.79219,27.197886],[88.79165,27.197168],[88.79108,27.19677],[88.790764,27.196138],[88.79025,27.195335],[88.78968,27.194532],[88.78907,27.193819],[88.78882,27.192816],[88.78887,27.19207],[88.78916,27.191612],[88.78982,27.191097],[88.79039,27.190495],[88.79034,27.189577],[88.79016,27.188776],[88.78996,27.187716],[88.78962,27.186626],[88.78945,27.18614],[88.78907,27.185308],[88.78882,27.18485],[88.78836,27.184534],[88.7879,27.184334],[88.787636,27.18402],[88.78706,27.18299],[88.7867,27.182701],[88.78615,27.182758],[88.78561,27.182903],[88.78486,27.182903],[88.78394,27.182846],[88.78291,27.182846],[88.78265,27.183332],[88.782455,27.183876],[88.78191,27.184448],[88.781364,27.184448],[88.78034,27.184248],[88.77942,27.18402],[88.77853,27.18379],[88.777954,27.183447],[88.77747,27.182875],[88.77675,27.182243],[88.77612,27.18187],[88.775604,27.181755],[88.77512,27.18187],[88.77418,27.18296],[88.77303,27.182215],[88.77235,27.182043],[88.77137,27.18167],[88.770164,27.181128],[88.76876,27.180553],[88.76848,27.180153],[88.76796,27.179693],[88.76724,27.179407],[88.76647,27.17912],[88.76569,27.178377],[88.76506,27.177774],[88.764694,27.177143],[88.764496,27.176657],[88.764435,27.176111],[88.76424,27.175655],[88.763695,27.174938],[88.76331,27.17425],[88.76272,27.17322],[88.76223,27.172674],[88.76142,27.172445],[88.76108,27.172216],[88.760796,27.171528],[88.76054,27.171156],[88.76028,27.170355],[88.75982,27.16938],[88.75962,27.16829],[88.75931,27.167433],[88.75851,27.166485],[88.7573,27.165255],[88.75748,27.16474],[88.757614,27.164194],[88.75759,27.163563],[88.757324,27.16299],[88.757095,27.162333],[88.75707,27.161673],[88.75702,27.160727],[88.75698,27.160185],[88.75696,27.15944],[88.75675,27.158607],[88.75696,27.158262],[88.75744,27.158033],[88.757904,27.157833],[88.75828,27.157549],[88.75876,27.15686],[88.75908,27.15643],[88.75933,27.155771],[88.75948,27.1552],[88.75999,27.154713],[88.76014,27.154253],[88.76008,27.152992],[88.75959,27.152761],[88.75899,27.152506],[88.75853,27.15199],[88.757645,27.151217],[88.75698,27.150814],[88.756386,27.150557],[88.75561,27.150442],[88.754745,27.150442],[88.75369,27.150614],[88.75252,27.150642],[88.75197,27.150528],[88.75151,27.150126],[88.750854,27.14947],[88.750305,27.148867],[88.749825,27.148264],[88.749504,27.147577],[88.74894,27.146662],[88.74814,27.145887],[88.747215,27.144827],[88.74661,27.143652],[88.746475,27.142965],[88.746475,27.14185],[88.74736,27.141848],[88.74933,27.14159],[88.75017,27.141504],[88.75099,27.141333],[88.751686,27.141104],[88.752716,27.140615],[88.75346,27.140358],[88.75458,27.140358],[88.75538,27.14033],[88.756584,27.140184],[88.75759,27.140184],[88.75868,27.140041],[88.75954,27.140215],[88.76014,27.140415],[88.760765,27.140472],[88.76174,27.140387],[88.76277,27.140472],[88.76324,27.140558],[88.76375,27.140472],[88.76455,27.140358],[88.765495,27.139984],[88.76659,27.139212],[88.76764,27.138323],[88.76839,27.13775],[88.76942,27.137262],[88.76982,27.137148],[88.77007,27.13712],[88.77076,27.137178],[88.77105,27.137129],[88.77194,27.136808],[88.77309,27.136593],[88.77359,27.136309],[88.773834,27.135916],[88.77398,27.135736],[88.77473,27.135666],[88.77562,27.13563],[88.77651,27.13563],[88.77694,27.13556],[88.777725,27.135344],[88.77833,27.135166],[88.77915,27.135023],[88.78119,27.134882],[88.782295,27.134844],[88.78326,27.134844],[88.78448,27.134844],[88.78554,27.134987],[88.78732,27.135202],[88.788536,27.135237],[88.789856,27.13538],[88.79136,27.135593],[88.79243,27.135736],[88.7935,27.135952],[88.79511,27.136309],[88.79611,27.136559],[88.796715,27.136879],[88.79811,27.137415],[88.79907,27.137808],[88.7999,27.138092],[88.800575,27.1382],[88.800896,27.138342],[88.801285,27.138807],[88.801636,27.139057],[88.80239,27.139341],[88.80318,27.139448],[88.80353,27.138914],[88.80403,27.138235],[88.80431,27.137592],[88.80442,27.136879],[88.80457,27.136059],[88.804634,27.135843],[88.8051,27.135416],[88.80571,27.134987],[88.80663,27.134632],[88.8071,27.134167],[88.80731,27.133953],[88.80768,27.133417],[88.80792,27.133026],[88.808,27.132454],[88.808136,27.131954],[88.80835,27.131668],[88.80868,27.131134],[88.808784,27.13074],[88.809135,27.13024],[88.809456,27.12967],[88.809845,27.129313],[88.8101,27.12892],[88.81031,27.128456],[88.81078,27.128136],[88.81095,27.12792],[88.81103,27.12753],[88.81117,27.12703],[88.81156,27.126741],[88.81203,27.126637],[88.81252,27.126492],[88.81328,27.125992],[88.81424,27.125208],[88.81478,27.125065],[88.819595,27.121675],[88.82041,27.121317],[88.82313,27.12146],[88.82805,27.118961],[88.82959,27.118069],[88.83034,27.117535],[88.83091,27.117035],[88.83159,27.116535],[88.83212,27.116108],[88.833015,27.115393],[88.83387,27.114786],[88.83437,27.114714],[88.83491,27.114714],[88.83562,27.11482],[88.836334,27.11507],[88.83723,27.115393],[88.83772,27.115679],[88.83851,27.115786],[88.83933,27.115786],[88.83986,27.115713],[88.840256,27.115463],[88.84083,27.115002],[88.841255,27.114893],[88.84158,27.11457],[88.8419,27.114286],[88.842186,27.11393],[88.842476,27.113537],[88.84261,27.112288],[88.842476,27.112072],[88.84229,27.111715],[88.84204,27.111465],[88.842224,27.11136],[88.84272,27.111216],[88.84329,27.11111],[88.84383,27.111073],[88.84472,27.111181],[88.846504,27.112003],[88.846794,27.112003],[88.84697,27.11186],[88.8474,27.111431],[88.84772,27.111038],[88.84804,27.110788],[88.84858,27.110361],[88.84875,27.110111],[88.84904,27.109539],[88.84953,27.108612],[88.84985,27.10829],[88.85033,27.108147],[88.851036,27.108076],[88.8519,27.108147],[88.8529,27.108326],[88.85422,27.108612],[88.85564,27.109005],[88.85739,27.109362],[88.85939,27.109505],[88.86039,27.109539],[88.86182,27.109575],[88.86271,27.109716],[88.86368,27.109966],[88.86439,27.110039],[88.86506,27.110004],[88.865845,27.109861],[88.86639,27.109789],[88.86695,27.109966],[88.867676,27.110146],[88.86835,27.110361],[88.86928,27.110361],[88.869995,27.109861],[88.87049,27.109146],[88.87092,27.108147],[88.871025,27.107506],[88.8711,27.106684],[88.870995,27.106113],[88.87078,27.104685],[88.87078,27.103508],[88.87095,27.10208],[88.87117,27.100973],[88.87163,27.100473],[88.8722,27.100117],[88.87267,27.099617],[88.87313,27.099188],[88.87331,27.098726],[88.8736,27.097834],[88.87378,27.097296],[88.87395,27.096546],[88.87399,27.09619],[88.87381,27.09569],[88.87363,27.094906],[88.87341,27.094229],[88.87331,27.09369],[88.87341,27.093157],[88.8736,27.092798],[88.87413,27.09223],[88.8747,27.09148],[88.875275,27.090908],[88.87581,27.090372],[88.87605,27.090052],[88.87605,27.089693],[88.875916,27.089159],[88.8757,27.088839],[88.87516,27.088339],[88.87502,27.088053],[88.87502,27.08759],[88.87499,27.08709],[88.87484,27.086767],[88.874626,27.086376],[88.874664,27.08609],[88.87481,27.085447],[88.87513,27.084948],[88.87534,27.084412],[88.875275,27.083984],[88.87505,27.083591],[88.87473,27.083305],[88.8741,27.082735],[88.873886,27.082306],[88.87392,27.081451],[88.873886,27.08013],[88.87392,27.078915],[88.8741,27.07756],[88.874344,27.076773],[88.87456,27.076345],[88.8751,27.075775],[88.87566,27.075417],[88.876305,27.075132],[88.8767,27.074667],[88.876945,27.07424],[88.87699,27.073812],[88.876595,27.073277],[88.8762,27.07274],[88.8752,27.071884],[88.87499,27.071278],[88.87513,27.07067],[88.87552,27.069849],[88.87605,27.069136],[88.8771,27.068422],[88.877945,27.067923],[88.87838,27.067244],[88.87913,27.066744],[88.87952,27.066353],[88.87981,27.06571],[88.87988,27.065138],[88.87984,27.064674],[88.87981,27.064104],[88.87984,27.063532],[88.88002,27.062996],[88.88027,27.062569],[88.88045,27.062246],[88.88059,27.06189],[88.880516,27.061497],[88.88038,27.061356],[88.87984,27.060928],[88.879196,27.060356],[88.8791,27.06007],[88.87913,27.059679],[88.8791,27.05907],[88.87888,27.058],[88.87852,27.057072],[88.8782,27.055538],[88.87816,27.054573],[88.8782,27.053467],[88.87827,27.052645],[88.8783,27.051504],[88.87845,27.050968],[88.87859,27.050468],[88.87866,27.049791],[88.87866,27.049435],[88.87878,27.049149],[88.87884,27.048862],[88.87878,27.048363],[88.87852,27.048042],[88.87799,27.047829],[88.87741,27.0474],[88.87699,27.0469],[88.87645,27.046152],[88.876274,27.045544],[88.876274,27.04508],[88.87645,27.04458],[88.87681,27.044115],[88.8771,27.043688],[88.87713,27.043404],[88.876884,27.043116],[88.876595,27.042866],[88.87638,27.042616],[88.876305,27.042046],[88.87649,27.041546],[88.87678,27.04119],[88.8771,27.040833],[88.877556,27.040655],[88.8783,27.040405],[88.87913,27.040155],[88.87981,27.040047],[88.88034,27.039976],[88.880486,27.039797],[88.88062,27.03944],[88.8807,27.039118],[88.88066,27.038763],[88.880516,27.038084],[88.880554,27.037369],[88.88066,27.036764],[88.8807,27.036335],[88.880516,27.03587],[88.88023,27.03555],[88.87981,27.035408],[88.87905,27.035158],[88.87845,27.034836],[88.87799,27.034443],[88.877625,27.033909],[88.87741,27.033302],[88.877235,27.032087],[88.8772,27.031195],[88.877304,27.030231],[88.87738,27.029482],[88.87727,27.028519],[88.877235,27.027233],[88.87716,27.02659],[88.87681,27.025879],[88.87666,27.025164],[88.87666,27.02452],[88.87673,27.023808],[88.876884,27.023165],[88.87684,27.022842],[88.87684,27.022238],[88.87702,27.021416],[88.876945,27.02081],[88.87673,27.020489],[88.875916,27.020382],[88.87481,27.020382],[88.87438,27.020132],[88.87402,27.019632],[88.87384,27.018703],[88.87392,27.01799],[88.87441,27.017345],[88.87545,27.016455],[88.875626,27.015884],[88.8757,27.014885],[88.87556,27.013742],[88.87524,27.012743],[88.874596,27.01178],[88.87378,27.010853],[88.87331,27.008959],[88.87317,27.007462],[88.873276,27.005533],[88.87324,27.003819],[88.87317,27.002499],[88.87278,27.000643],[88.87189,26.998144],[88.87045,26.996325],[88.87021,26.995361],[88.87024,26.99479],[88.8711,26.992113],[88.87217,26.990221],[88.8727,26.989542],[88.87352,26.988758],[88.874054,26.987509],[88.8742,26.986403],[88.8739,26.9839],[88.87301,26.977562],[88.87238,26.97024],[88.87262,26.964685],[88.87238,26.963007],[88.87337,26.957382],[88.87461,26.954168],[88.87595,26.95256],[88.87712,26.951847],[88.88104,26.952473],[88.88533,26.957293],[88.89271,26.961538],[88.89866,26.968678],[88.90699,26.978907],[88.911674,26.984793],[88.91649,26.989437],[88.92015,26.99149],[88.92197,26.993183],[88.94676,26.974882],[88.95069,26.971668],[88.95203,26.969704],[88.95229,26.967293],[88.95184,26.966578],[88.95184,26.965954],[88.95212,26.965418],[88.95229,26.964792],[88.95229,26.964169],[88.95203,26.96399],[88.95176,26.96363],[88.951584,26.963007],[88.95176,26.962738],[88.95229,26.962204],[88.95319,26.961758],[88.95346,26.960596],[88.953545,26.959793],[88.95363,26.959257],[88.953995,26.958454],[88.95409,26.957739],[88.95381,26.957293],[88.953545,26.95649],[88.95346,26.955866],[88.9539,26.953453],[88.95409,26.952827],[88.95381,26.952381],[88.95328,26.951935],[88.95292,26.9514],[88.95292,26.950954],[88.95328,26.950508],[88.95363,26.949703],[88.95346,26.949257],[88.95337,26.9489],[88.95328,26.948185],[88.95292,26.947382],[88.952385,26.946043],[88.951675,26.945597],[88.95132,26.945238],[88.9506,26.944078],[88.950424,26.943365],[88.94953,26.94274],[88.94907,26.942293],[88.94872,26.940775],[88.94792,26.939615],[88.946396,26.93622],[88.945335,26.934793],[88.94506,26.932917],[88.94661,26.932165],[88.947784,26.931498],[88.97087,26.920517],[88.979324,26.918545],[88.98636,26.91967],[88.993965,26.923613],[88.99847,26.92812],[89.003815,26.930372],[89.00973,26.93347],[89.01396,26.937977],[89.01621,26.938257],[89.01931,26.932625],[89.02212,26.928402],[89.02663,26.92474],[89.03282,26.923897],[89.041855,26.9264],[89.04476,26.922039],[89.04927,26.916092],[89.049995,26.910616],[89.048904,26.904703],[89.04676,26.898363],[89.052605,26.900148],[89.0562,26.900242],[89.06211,26.901367],[89.06775,26.903275],[89.07015,26.904078],[89.07569,26.897793],[89.0956,26.890951],[89.0947,26.886578],[89.092476,26.880327],[89.09239,26.878363],[89.093285,26.872828],[89.09266,26.871578],[89.104225,26.863688],[89.10378,26.861382],[89.10351,26.859129],[89.10181,26.850399],[89.10125,26.839136],[89.1021,26.835756],[89.10576,26.832376],[89.10998,26.827871],[89.11392,26.825619],[89.1204,26.823647],[89.124626,26.822239],[89.12688,26.819424],[89.131096,26.812101],[89.13532,26.811256],[89.141235,26.81182],[89.15757,26.815481],[89.17672,26.821114],[89.18038,26.821114],[89.18291,26.819986],[89.18883,26.815762],[89.19249,26.813509],[89.19615,26.814072],[89.20375,26.817734],[89.2122,26.819986],[89.2215,26.821676],[89.231064,26.821676],[89.24177,26.819424],[89.258095,26.815481],[89.26232,26.815481],[89.265144,26.817734],[89.269226,26.823124],[89.27422,26.828596],[89.27556,26.829561],[89.28119,26.830404],[89.285416,26.832657],[89.29274,26.838009],[89.30456,26.844204],[89.31188,26.847301],[89.31752,26.851526],[89.321175,26.851526],[89.32428,26.85068],[89.32399,26.847021],[89.3254,26.845331],[89.32653,26.845331],[89.330185,26.846174],[89.347084,26.850117],[89.3637,26.856874],[89.372475,26.859898],[89.37894,26.862303],[89.38056,26.861242],[89.38061,26.861208],[89.381454,26.860569],[89.38218,26.860186],[89.38361,26.85924],[89.38373,26.859058],[89.38452,26.856813],[89.38472,26.856401],[89.3857,26.854033],[89.38735,26.849554],[89.38862,26.845884],[89.390144,26.841911],[89.40737,26.840605],[89.41401,26.840374],[89.41772,26.8386],[89.42136,26.836914],[89.42303,26.835978],[89.42366,26.835598],[89.42702,26.836473],[89.42845,26.836702],[89.43062,26.83754],[89.43428,26.83996],[89.44041,26.84124],[89.442825,26.838852],[89.44527,26.835554],[89.4475,26.833586],[89.45064,26.830832],[89.44919,26.826532],[89.45037,26.818241],[89.45127,26.817451],[89.45597,26.81209],[89.45706,26.810764],[89.46212,26.807177],[89.467735,26.804892],[89.468636,26.804369],[89.47321,26.803106],[89.47659,26.80223],[89.47701,26.80282],[89.47769,26.803566],[89.47878,26.804422],[89.480095,26.804594],[89.48221,26.804136],[89.48472,26.803566],[89.48803,26.802937],[89.491684,26.80288],[89.49437,26.802824],[89.497,26.803167],[89.49962,26.803907],[89.50225,26.80545],[89.50539,26.808363],[89.5075,26.81076],[89.508965,26.81109],[89.509026,26.811764],[89.51037,26.811987],[89.51138,26.812828],[89.51262,26.813084],[89.516106,26.813026],[89.516884,26.812717],[89.51787,26.81179],[89.519295,26.811287],[89.51958,26.811707],[89.519775,26.812943],[89.520004,26.813139],[89.521126,26.813084],[89.523315,26.813393],[89.5257,26.812857],[89.526375,26.812464],[89.52835,26.812475],[89.52864,26.81259],[89.52932,26.813446],[89.52972,26.813618],[89.53063,26.81373],[89.53166,26.813787],[89.53229,26.81413],[89.53275,26.814474],[89.53343,26.814417],[89.53429,26.81413],[89.5352,26.81373],[89.53583,26.813217],[89.5364,26.812704],[89.537544,26.812704],[89.538284,26.812874],[89.53966,26.81276],[89.54102,26.81236],[89.54291,26.811733],[89.54589,26.810572],[89.54927,26.811539],[89.55349,26.812946],[89.55715,26.813509],[89.5594,26.812666],[89.56157,26.811293],[89.5625,26.810694],[89.562225,26.809849],[89.56235,26.80935],[89.563354,26.805344],[89.56645,26.799992],[89.56926,26.798302],[89.5749,26.796896],[89.58334,26.794924],[89.587006,26.792953],[89.58982,26.792107],[89.59574,26.791826],[89.59968,26.789011],[89.60249,26.78704],[89.60728,26.78704],[89.619385,26.781408],[89.62248,26.781126],[89.63065,26.78366],[89.63347,26.782816],[89.63854,26.779436],[89.641914,26.777466],[89.64474,26.777184],[89.646706,26.775494],[89.64924,26.770708],[89.64811,26.766203],[89.64523,26.76235],[89.643265,26.756254],[89.64175,26.753284],[89.63733,26.7469],[89.63707,26.746796],[89.63654,26.7464],[89.636246,26.745876],[89.63428,26.745506],[89.63165,26.74401],[89.626236,26.741882],[89.62534,26.741224],[89.62492,26.739885],[89.62356,26.7397],[89.62164,26.738413],[89.62156,26.737389],[89.62161,26.73623],[89.62133,26.735258],[89.621376,26.73405],[89.619644,26.732712],[89.61907,26.7325],[89.61901,26.732054],[89.61859,26.731081],[89.617935,26.730215],[89.617966,26.729084],[89.617676,26.728165],[89.62109,26.725956],[89.623146,26.724245],[89.62418,26.723679],[89.625435,26.722874],[89.63154,26.725216],[89.63286,26.7255],[89.633934,26.725729],[89.6352,26.725899],[89.63634,26.725557],[89.63725,26.724758],[89.63816,26.723959],[89.63874,26.723501],[89.6397,26.722929],[89.64102,26.722816],[89.645134,26.722816],[89.64599,26.72253],[89.647194,26.7219],[89.648155,26.721046],[89.64862,26.720531],[89.64885,26.719503],[89.64902,26.717505],[89.65227,26.717962],[89.654495,26.717962],[89.65633,26.718191],[89.65775,26.71859],[89.65907,26.719675],[89.66061,26.722132],[89.66146,26.723845],[89.662605,26.725101],[89.66318,26.72613],[89.66444,26.727158],[89.66569,26.7283],[89.66763,26.730127],[89.66901,26.731726],[89.66952,26.733212],[89.6698,26.736465],[89.669914,26.738407],[89.670204,26.73955],[89.67055,26.739891],[89.67471,26.740063],[89.67711,26.739834],[89.678825,26.739378],[89.68122,26.73795],[89.68351,26.736523],[89.685905,26.735552],[89.68877,26.734524],[89.690475,26.734238],[89.69533,26.736523],[89.697845,26.737152],[89.69881,26.73755],[89.69967,26.737036],[89.70053,26.735779],[89.70115,26.734808],[89.70303,26.733894],[89.70515,26.733324],[89.70703,26.732752],[89.70852,26.731895],[89.710236,26.731497],[89.71246,26.730925],[89.714294,26.730698],[89.71663,26.730011],[89.71806,26.729555],[89.71868,26.728642],[89.719025,26.727785],[89.71972,26.72687],[89.72051,26.72613],[89.72177,26.725557],[89.72331,26.72453],[89.724,26.724188],[89.72577,26.723387],[89.728,26.723558],[89.73028,26.724644],[89.730736,26.7247],[89.73131,26.72436],[89.73233,26.724644],[89.73302,26.725044],[89.733536,26.725557],[89.733826,26.726187],[89.73411,26.726757],[89.73485,26.726927],[89.73599,26.727043],[89.73673,26.727272],[89.737305,26.728071],[89.73776,26.728355],[89.7385,26.72847],[89.7393,26.729042],[89.739815,26.729326],[89.74107,26.72944],[89.74387,26.729612],[89.74524,26.729954],[89.7465,26.730698],[89.74827,26.731953],[89.750496,26.733837],[89.75164,26.734922],[89.753525,26.734238],[89.75466,26.733381],[89.75546,26.732468],[89.7562,26.731213],[89.756775,26.730127],[89.75746,26.728584],[89.75791,26.726301],[89.75791,26.724472],[89.75764,26.72116],[89.75729,26.718475],[89.757835,26.716364],[89.76709,26.710934],[89.76822,26.709362],[89.76873,26.707893],[89.76928,26.704853],[89.76962,26.70393],[89.77062,26.7027],[89.77085,26.702015],[89.810715,26.711151],[89.862564,26.70253],[89.86245,26.70647],[89.862625,26.710638],[89.863075,26.71378],[89.86371,26.717033],[89.86388,26.719719],[89.863075,26.723145],[89.8624,26.72537],[89.86142,26.728056],[89.86102,26.72977],[89.860855,26.732168],[89.86034,26.73508],[89.860596,26.736628],[89.86495,26.735659],[89.90211,26.722836],[89.968575,26.72199],[89.996635,26.727934],[90.01644,26.732128],[90.04495,26.729807],[90.07351,26.736097],[90.121666,26.749039],[90.190636,26.767998],[90.18997,26.771494],[90.190475,26.773348],[90.19233,26.77503],[90.19408,26.777445],[90.19424,26.77801],[90.19424,26.779804],[90.19502,26.78076],[90.1952,26.781153],[90.1952,26.78132],[90.193054,26.783625],[90.1925,26.784466],[90.19231,26.78523],[90.19148,26.786207],[90.190926,26.787048],[90.18536,26.789576],[90.183685,26.799292],[90.191826,26.815914],[90.20042,26.835007],[90.21976,26.849554],[90.24787,26.859772],[90.30217,26.849888],[90.343895,26.873137],[90.34535,26.875662],[90.34647,26.877796],[90.34749,26.879648],[90.34749,26.881054],[90.34777,26.882343],[90.347435,26.883692],[90.34738,26.887457],[90.34805,26.887905],[90.35187,26.892284],[90.352936,26.894642],[90.353386,26.896496],[90.35501,26.898012],[90.35519,26.89891],[90.354675,26.90127],[90.417854,26.904638],[90.430824,26.89571],[90.483604,26.859638],[90.49534,26.852303],[90.52646,26.830738],[90.53995,26.82029],[90.54656,26.816587],[90.585754,26.803503],[90.63383,26.794855],[90.64624,26.778177],[90.678696,26.785847],[90.69969,26.76936],[90.725266,26.768658],[90.742355,26.774399],[90.82217,26.776356],[90.962,26.78761],[90.95789,26.784338],[90.95717,26.782587],[90.95803,26.782776],[90.99552,26.790691],[91.010475,26.788345],[91.055595,26.781256],[91.10151,26.824108],[91.14921,26.812502],[91.181854,26.814924],[91.2395,26.814034],[91.283,26.800896],[91.29522,26.794329]]]}}
