{"type":"Feature","id":"relation/2538627","properties":{"type":"relation","id":2538627,"tags":{"admin_level":"8","boundary":"administrative","name":"городское поселение Венёв","name:ar":"فينيوف","name:az":"Venyov","name:de":"Wenjow","name:diq":"Venyov","name:en":"Venyov","name:eo":"Venjov","name:fa":"ونیوف","name:fi":"Venjov","name:fr":"Veniov","name:it":"Venëv","name:ja":"ヴェニョーフ","name:ko":"베네프","name:nn":"Venjov","name:no":"Venjov","name:pl":"Weniow","name:tl":"Venyov","name:war":"Venyov","name:zh":"韋尼奧夫","official_name":"городское поселение Город Венёв","official_status":"ru:городское поселение","oktmo:user":"70612101","type":"boundary","wikidata":"Q23898597","wikipedia":"ru:Муниципальное образование город Венёв"},"labels":[{"id":"node/355945765","role":"admin_centre","coordinates":[38.26656,54.350624]}]},"geometry":{"type":"Polygon","coordinates":[[[38.2344,54.361702],[38.230736,54.365425],[38.225803,54.36835],[38.22177,54.366318],[38.207592,54.355457],[38.214344,54.34004],[38.207592,54.33878],[38.208,54.33437],[38.2134,54.332245],[38.21772,54.332245],[38.218937,54.331223],[38.216103,54.32768],[38.217854,54.326576],[38.210564,54.320595],[38.210697,54.31705],[38.21691,54.314133],[38.222984,54.310196],[38.224064,54.308544],[38.226196,54.30817],[38.230564,54.30874],[38.233788,54.310986],[38.23959,54.314842],[38.251064,54.31445],[38.253113,54.312996],[38.264587,54.315514],[38.275257,54.31654],[38.27377,54.31898],[38.28079,54.324177],[38.26891,54.33063],[38.268776,54.335197],[38.266083,54.34012],[38.267876,54.340443],[38.274452,54.34041],[38.276447,54.341145],[38.276104,54.342587],[38.273914,54.34273],[38.274002,54.343395],[38.2761,54.343323],[38.2761,54.343594],[38.274628,54.34483],[38.27622,54.34614],[38.27555,54.34691],[38.276894,54.348534],[38.278522,54.34922],[38.280285,54.349655],[38.28389,54.35072],[38.28521,54.351288],[38.286236,54.351833],[38.286453,54.35231],[38.286407,54.35268],[38.286163,54.353085],[38.28569,54.35351],[38.28467,54.35395],[38.282207,54.353855],[38.281208,54.35371],[38.280605,54.35375],[38.279556,54.354107],[38.27932,54.354317],[38.27873,54.355545],[38.27861,54.35648],[38.27802,54.35651],[38.276993,54.35694],[38.277378,54.35754],[38.277172,54.357773],[38.27783,54.358116],[38.278,54.359104],[38.277966,54.35964],[38.27665,54.360947],[38.27626,54.361458],[38.27629,54.36236],[38.276463,54.363003],[38.276924,54.36481],[38.277332,54.36608],[38.275604,54.366413],[38.27314,54.366306],[38.27327,54.36439],[38.275345,54.364403],[38.27524,54.36118],[38.274685,54.36108],[38.274685,54.357807],[38.2734,54.35782],[38.273228,54.357655],[38.271618,54.357777],[38.27153,54.360954],[38.27177,54.36223],[38.268394,54.362278],[38.265373,54.36238],[38.25675,54.36213],[38.255802,54.364006],[38.25515,54.363678],[38.25341,54.36324],[38.252895,54.36299],[38.252213,54.36235],[38.251717,54.3619],[38.25064,54.361504],[38.249767,54.361427],[38.246502,54.36005],[38.246826,54.360554],[38.245514,54.36139],[38.242683,54.360367],[38.242897,54.363003],[38.240536,54.363052],[38.239445,54.361877],[38.23955,54.36133],[38.23886,54.359478],[38.239033,54.358643],[38.23824,54.358643],[38.23528,54.36194],[38.2344,54.361702]]]}}
