{"type":"Feature","id":"relation/290162","properties":{"type":"relation","id":290162,"tags":{"ISO3166-1":"WF","ISO3166-1:alpha2":"WF","ISO3166-1:alpha3":"WLF","ISO3166-1:numeric":"876","ISO3166-2":"WF","ISO3166-2:2":"FR-WF","admin_level":"3","boundary":"administrative","capital_city":"Mata'utu","country_code_fips":"WF","currency":"XPF","flag":"http://upload.wikimedia.org/wikipedia/commons/d/d2/Flag_of_Wallis_and_Futuna.svg","int_name":"Wallis and Futuna Islands","is_in:continent":"Oceania","is_in:country":"France","is_in:country_code":"FR","is_in:ocean":"Pacific","land_area":"administrative","name":"Wallis-et-Futuna","name:af":"Wallis-en-Futuna","name:ak":"Wallis ne Futuna","name:am":"ዋሊስ እና ፉቱና ደሴቶች","name:an":"Wallis e Futuna","name:ar":"جزر واليس وفوتونا","name:ast":"Wallis y Futuna","name:az":"Valis və Futuna","name:be":"Уоліс і Футуна","name:be-tarask":"Ўоліс і Футуна","name:bg":"Уолис и Футуна","name:bm":"Walisi-ni-Futuna","name:bn":"ওয়ালিস ও ফুটুনা","name:bpy":"ৱাল্লিস বারো ফুটুনা","name:br":"Wallis ha Futuna","name:bs":"Valis i Futuna Ostrva","name:ca":"Wallis i Futuna","name:cs":"Wallis a Futuna","name:cy":"Wallis a Futuna","name:da":"Wallis og Futuna","name:de":"Wallis und Futuna","name:dv":"ވާލީ އަދި ފުތޫނާ","name:dz":"ཝལ་ལིས྄་ ཨེནཌ་ ཕུ་ཏུ་ན་","name:ee":"Wallis kple Futuna nutome","name:el":"Ουώλλις και Φουτούνα","name:en":"Wallis and Futuna","name:eo":"Valiso kaj Futuno","name:es":"Wallis y Futuna","name:et":"Wallis ja Futuna","name:eu":"Wallis eta Futuna","name:fa":"والیس و فوتونا","name:ff":"Walis e Futuna","name:fi":"Wallis- ja Futunasaaret","name:fo":"Wallis og Futuna","name:fr":"Wallis-et-Futuna","name:frp":"Valis-et-Futuna","name:fur":"Wallis e Futuna","name:fy":"Wallis en Fûtûna","name:ga":"Vailís agus Futúna","name:gd":"Uallas agus Futuna","name:gl":"Wallis e Futuna","name:gu":"વૉલિસ એંડ ફ્યુચુના આઇલેન્ડ્સ","name:ha":"Walis Da Futuna","name:he":"איי ווליס ופוטונה","name:hi":"वालिस और फ़्यूचूना","name:hr":"Wallis i Futuna","name:hu":"Wallis és Futuna","name:id":"Wallis dan Futuna","name:io":"Wallis e Futuna Insuli","name:is":"Wallis- og Fútúnaeyjar","name:it":"Wallis e Futuna","name:ja":"ウォリス・フツナ","name:jv":"Wallis lan Futuna","name:ka":"ვალისი და ფუტუნა","name:kab":"Wallis d Futuna","name:ki":"Walis na Futuna","name:kl":"Wallis aamma Futuna","name:km":"វ៉ាលីស និង​ហ្វូទូណា","name:kn":"ವಾಲಿಸ್ ಮತ್ತು ಫುಟುನಾ","name:ko":"왈리스 퓌튀나","name:ks":"والِس تہٕ فیوٗچوٗنا","name:ksh":"Wallis un Futuna","name:kw":"Wallis ha Futuna","name:la":"Vallis et Futuna","name:lb":"Wallis a Futuna","name:lg":"Walisi ne Futuna","name:lij":"Wallis e Fortuna","name:ln":"Walisɛ mpé Futuna","name:lo":"ວາລິສແລະຟຸຕູນາ","name:lt":"Volisas ir Futūna","name:lv":"Volisa un Futuna","name:mg":"Wallis sy Futuna","name:mk":"Волис и Футуна острови","name:ml":"വാലിസ് ആൻഡ് ഫ്യുചൂന","name:mn":"Уоллис ба Футуна","name:mr":"वालिस व फुतुना","name:ms":"Wallis dan Futuna","name:mt":"Wallis and Futuna","name:nan":"Wallis kap Futuna","name:ne":"वालिस र फुटुना","name:nl":"Wallis en Futuna","name:nn":"Wallis- og Futunaøyane","name:no":"Wallis- og Futunaøyene","name:oc":"Wallis e Futuna","name:or":"ୱାଲିସ୍ ଏବଂ ଫୁତୁନା","name:pl":"Wallis i Futuna","name:pt":"Wallis e Futuna","name:rm":"Wallis e Futuna","name:rn":"Walisi na Futuna","name:ro":"Wallis şi Futuna","name:ru":"Уоллис и Футуна","name:se":"Wallis ja Futuna","name:sg":"Walîsi na Futuna","name:sh":"Wallis i Futuna","name:si":"වැලිස් සහ ෆුටුනා","name:sk":"Wallis a Futuna","name:sl":"Wallis in Futuna","name:sr":"Валис и Футуна","name:sv":"Wallis- och Futunaöarna","name:sw":"Wallis na Futuna","name:ta":"வலிசும் புட்டூனாவும்","name:te":"వాలిస్ మరియు ఫ్యుత్యునా","name:th":"หมู่เกาะวาลลิสและหมู่เกาะฟุตูนา","name:ti":"ዋሊስ እና ፉቱና ደሴቶች","name:to":"ʻUvea mo Futuna","name:tr":"Wallis ve Futuna Adaları","name:ug":"Wallis we Futuna Taqim Aralliri","name:uk":"Волліс і Футуна","name:ur":"ویلیز اور فیوٹیونا","name:vi":"Wallis và Futuna","name:wo":"Wallis ak Futuna","name:yo":"Orílẹ́ède Wali ati futuna","name:zh":"瓦利斯和富图纳群岛","name:zu":"i-Wallis ne-Futuna","official_name":"Territoire des Îles Wallis-et-Futuna","official_name:en":"Territory of Wallis and Futuna Islands","official_name:fr":"Territoire des Îles Wallis-et-Futuna","place":"archipelago","population":"12197","ref:INSEE":"986","timezone":"Pacific/Wallis","type":"boundary","wikidata":"Q35555","wikipedia":"fr:Wallis-et-Futuna"},"labels":[{"id":"node/678283718","role":"admin_centre","coordinates":[-176.17401,-13.282042]},{"id":"node/424298155","role":"label","coordinates":[-177.14897,-13.817332]}]},"geometry":{"type":"MultiPolygon","coordinates":[[[[-176.18842,-13.197202],[-176.18816,-13.196816],[-176.18921,-13.196819],[-176.18921,-13.197076],[-176.18842,-13.197202]]],[[[-176.18816,-13.196558],[-176.18755,-13.19587],[-176.1871,-13.195782],[-176.1871,-13.195523],[-176.18816,-13.195785],[-176.18816,-13.196558]]],[[[-176.18288,-13.200921],[-176.18288,-13.2006645],[-176.18236,-13.200663],[-176.18262,-13.19989],[-176.18341,-13.200408],[-176.18341,-13.200923],[-176.18288,-13.200921]]],[[[-176.21262,-13.358722],[-176.21217,-13.358645],[-176.21184,-13.358387],[-176.21178,-13.358175],[-176.2122,-13.357842],[-176.21317,-13.35749],[-176.21321,-13.357917],[-176.2131,-13.3585005],[-176.21262,-13.358722]]],[[[-176.19853,-13.185648],[-176.19846,-13.185438],[-176.19855,-13.185144],[-176.19858,-13.184849],[-176.19861,-13.184625],[-176.1989,-13.184566],[-176.19897,-13.184868],[-176.1989,-13.185339],[-176.19872,-13.1855545],[-176.19853,-13.185648]]],[[[-176.19368,-13.358404],[-176.19312,-13.3579645],[-176.1925,-13.357874],[-176.19232,-13.3577175],[-176.19211,-13.357626],[-176.19215,-13.357451],[-176.19255,-13.357269],[-176.19377,-13.357718],[-176.19418,-13.358067],[-176.19424,-13.358587],[-176.19368,-13.358404]]],[[[-176.16801,-13.220486],[-176.16772,-13.220094],[-176.16768,-13.219777],[-176.16766,-13.21917],[-176.16783,-13.218719],[-176.1683,-13.218268],[-176.17017,-13.218084],[-176.17021,-13.218719],[-176.16928,-13.219701],[-176.16905,-13.220481],[-176.16801,-13.220486]]],[[[-176.15218,-13.27572],[-176.152,-13.275591],[-176.15193,-13.275438],[-176.15189,-13.275265],[-176.15196,-13.27517],[-176.15213,-13.275244],[-176.15228,-13.27537],[-176.15265,-13.275519],[-176.15291,-13.275623],[-176.15285,-13.275831],[-176.15262,-13.275944],[-176.15218,-13.27572]]],[[[-176.21024,-13.376025],[-176.21024,-13.376029],[-176.21027,-13.37602],[-176.21027,-13.376017],[-176.21028,-13.3760195],[-176.21028,-13.376027],[-176.21028,-13.376039],[-176.21028,-13.376049],[-176.21028,-13.376057],[-176.21027,-13.376062],[-176.21024,-13.376058],[-176.21024,-13.37605],[-176.21022,-13.3760395],[-176.21024,-13.376025]]],[[[-176.21011,-13.37584],[-176.21013,-13.375836],[-176.21014,-13.375836],[-176.21016,-13.37584],[-176.21016,-13.375853],[-176.21017,-13.375861],[-176.21017,-13.375863],[-176.21016,-13.375877],[-176.21014,-13.375876],[-176.21014,-13.37588],[-176.21011,-13.375867],[-176.21011,-13.375853],[-176.2101,-13.375846],[-176.21011,-13.37584]]],[[[-176.12479,-13.28897],[-176.12492,-13.288085],[-176.12543,-13.287848],[-176.12581,-13.288055],[-176.12611,-13.28811],[-176.12631,-13.288073],[-176.127,-13.288293],[-176.12737,-13.288288],[-176.12866,-13.288127],[-176.12926,-13.288228],[-176.12863,-13.288891],[-176.12787,-13.289385],[-176.12703,-13.289355],[-176.1259,-13.28972],[-176.12524,-13.28956],[-176.12479,-13.28897]]],[[[-176.20464,-13.187034],[-176.20444,-13.186758],[-176.2043,-13.186207],[-176.20401,-13.1857815],[-176.20375,-13.18527],[-176.20372,-13.184495],[-176.20367,-13.1842985],[-176.20346,-13.184237],[-176.20352,-13.183928],[-176.2038,-13.183505],[-176.20395,-13.183244],[-176.20427,-13.183268],[-176.20499,-13.184796],[-176.20483,-13.185528],[-176.20502,-13.186865],[-176.20464,-13.187034]]],[[[-176.2144,-13.388481],[-176.21443,-13.389835],[-176.21384,-13.389089],[-176.21332,-13.388617],[-176.2133,-13.387824],[-176.21317,-13.387468],[-176.213,-13.38707],[-176.21306,-13.386751],[-176.21317,-13.386615],[-176.21338,-13.386435],[-176.21355,-13.386383],[-176.2137,-13.386358],[-176.21368,-13.386581],[-176.21347,-13.38713],[-176.2136,-13.387825],[-176.21376,-13.388104],[-176.21405,-13.388061],[-176.2144,-13.388481]]],[[[-176.13351,-13.275151],[-176.13274,-13.27585],[-176.13197,-13.275029],[-176.13156,-13.274536],[-176.13072,-13.274131],[-176.13014,-13.27377],[-176.1301,-13.273515],[-176.13017,-13.273244],[-176.13057,-13.272989],[-176.13083,-13.272964],[-176.1311,-13.273126],[-176.13133,-13.27338],[-176.1313,-13.27365],[-176.13165,-13.274384],[-176.13286,-13.275432],[-176.13342,-13.274961],[-176.13351,-13.275151]]],[[[-176.14578,-13.282873],[-176.14499,-13.2827425],[-176.14444,-13.28208],[-176.14429,-13.281472],[-176.14453,-13.279995],[-176.14491,-13.279376],[-176.14502,-13.278607],[-176.1457,-13.278535],[-176.14717,-13.278949],[-176.14816,-13.279145],[-176.14838,-13.279728],[-176.14842,-13.280177],[-176.14842,-13.280693],[-176.14862,-13.281622],[-176.14853,-13.282032],[-176.14801,-13.281979],[-176.14758,-13.28256],[-176.14647,-13.282928],[-176.14578,-13.282873]]],[[[-176.21022,-13.375942],[-176.21024,-13.375942],[-176.21027,-13.375937],[-176.21028,-13.375937],[-176.21028,-13.375944],[-176.21028,-13.375952],[-176.21028,-13.375964],[-176.21028,-13.375973],[-176.21027,-13.375976],[-176.21024,-13.375983],[-176.21022,-13.375994],[-176.2102,-13.375993],[-176.21019,-13.375983],[-176.2102,-13.375978],[-176.2102,-13.375969],[-176.21019,-13.375963],[-176.21019,-13.37596],[-176.21019,-13.375952],[-176.2102,-13.375946],[-176.21022,-13.375942]]],[[[-176.17598,-13.206866],[-176.17554,-13.206749],[-176.17566,-13.206405],[-176.176,-13.20592],[-176.1763,-13.20554],[-176.17683,-13.204896],[-176.17772,-13.204131],[-176.17816,-13.203738],[-176.17873,-13.203392],[-176.17934,-13.203163],[-176.18088,-13.2035055],[-176.18152,-13.203943],[-176.18146,-13.204211],[-176.18079,-13.204063],[-176.18024,-13.204264],[-176.17934,-13.205011],[-176.17886,-13.205354],[-176.1779,-13.205643],[-176.17708,-13.206057],[-176.17688,-13.206248],[-176.17665,-13.206561],[-176.17598,-13.206866]]],[[[-176.14754,-13.274004],[-176.1468,-13.273809],[-176.14569,-13.273248],[-176.14548,-13.272626],[-176.14491,-13.272214],[-176.14491,-13.271761],[-176.1454,-13.271421],[-176.14651,-13.2707815],[-176.14696,-13.270587],[-176.1475,-13.27057],[-176.14836,-13.271241],[-176.14838,-13.27142],[-176.14868,-13.271542],[-176.14949,-13.27136],[-176.1501,-13.271497],[-176.15013,-13.271841],[-176.15082,-13.27174],[-176.15112,-13.271894],[-176.15125,-13.272313],[-176.15118,-13.2727585],[-176.1518,-13.273364],[-176.15155,-13.273637],[-176.15112,-13.273797],[-176.14969,-13.273486],[-176.14925,-13.273821],[-176.14754,-13.274004]]],[[[-176.19191,-13.194729],[-176.19157,-13.194709],[-176.19121,-13.194622],[-176.19089,-13.19403],[-176.19081,-13.19319],[-176.19109,-13.192229],[-176.19206,-13.191214],[-176.19272,-13.19063],[-176.19351,-13.189766],[-176.19438,-13.188964],[-176.19566,-13.188104],[-176.1969,-13.187293],[-176.1984,-13.186482],[-176.19908,-13.185983],[-176.19934,-13.185983],[-176.20087,-13.187284],[-176.20131,-13.187665],[-176.20197,-13.188445],[-176.20439,-13.18938],[-176.20433,-13.190026],[-176.20265,-13.189075],[-176.20152,-13.188812],[-176.19945,-13.188103],[-176.1989,-13.188299],[-176.19482,-13.191656],[-176.19405,-13.192346],[-176.19339,-13.193446],[-176.19293,-13.193658],[-176.19243,-13.193958],[-176.19228,-13.194345],[-176.19191,-13.194729]]],[[[-176.17036,-13.388414],[-176.16972,-13.387812],[-176.16873,-13.386379],[-176.16835,-13.384857],[-176.16806,-13.3835745],[-176.16805,-13.382679],[-176.16786,-13.381858],[-176.16805,-13.380889],[-176.16823,-13.378913],[-176.16884,-13.3776245],[-176.16919,-13.376093],[-176.16977,-13.374017],[-176.16974,-13.368857],[-176.16986,-13.368405],[-176.17044,-13.367734],[-176.17139,-13.367723],[-176.1739,-13.368905],[-176.1743,-13.369365],[-176.17374,-13.36984],[-176.17267,-13.370962],[-176.1719,-13.372482],[-176.17145,-13.375633],[-176.17194,-13.377007],[-176.17259,-13.377956],[-176.17262,-13.378928],[-176.17241,-13.379513],[-176.17146,-13.37994],[-176.17041,-13.379585],[-176.1699,-13.38009],[-176.16954,-13.381394],[-176.16995,-13.383566],[-176.17046,-13.384872],[-176.17107,-13.385956],[-176.17166,-13.386566],[-176.17209,-13.386533],[-176.17241,-13.386797],[-176.17229,-13.387425],[-176.17146,-13.38874],[-176.17085,-13.388755],[-176.17036,-13.388414]]],[[[-176.21098,-13.380104],[-176.21094,-13.379737],[-176.21098,-13.3795],[-176.21109,-13.379385],[-176.21107,-13.379216],[-176.21077,-13.37878],[-176.2105,-13.378308],[-176.2102,-13.377631],[-176.21005,-13.377381],[-176.20999,-13.3773],[-176.20999,-13.377158],[-176.21017,-13.376859],[-176.21036,-13.376655],[-176.21054,-13.376459],[-176.21094,-13.376509],[-176.21129,-13.3764715],[-176.21141,-13.376522],[-176.21146,-13.37661],[-176.21152,-13.376647],[-176.21164,-13.376641],[-176.21194,-13.376195],[-176.21252,-13.375271],[-176.21327,-13.3750305],[-176.21385,-13.37369],[-176.21371,-13.372512],[-176.21394,-13.371396],[-176.21411,-13.371184],[-176.21574,-13.371229],[-176.21637,-13.371013],[-176.2168,-13.37033],[-176.21777,-13.36791],[-176.21838,-13.366985],[-176.21898,-13.366565],[-176.22058,-13.365276],[-176.22086,-13.365555],[-176.22054,-13.366344],[-176.22018,-13.367465],[-176.22041,-13.371112],[-176.21935,-13.370975],[-176.21838,-13.371423],[-176.21779,-13.372429],[-176.21735,-13.3749],[-176.21794,-13.37658],[-176.21887,-13.377412],[-176.21945,-13.377401],[-176.22011,-13.377774],[-176.22021,-13.379436],[-176.21835,-13.378452],[-176.21571,-13.378186],[-176.21179,-13.380107],[-176.21098,-13.380104]]],[[[-176.22392,-13.363089],[-176.22394,-13.363001],[-176.22398,-13.362945],[-176.22406,-13.36289],[-176.22414,-13.362822],[-176.22421,-13.36278],[-176.22432,-13.362752],[-176.2244,-13.36273],[-176.22449,-13.362721],[-176.22455,-13.362723],[-176.22462,-13.362716],[-176.22466,-13.36272],[-176.22472,-13.36274],[-176.22478,-13.362755],[-176.22484,-13.3627615],[-176.22485,-13.362767],[-176.22487,-13.362783],[-176.22496,-13.362811],[-176.22504,-13.362848],[-176.22508,-13.362872],[-176.22517,-13.362883],[-176.22519,-13.362897],[-176.22522,-13.362925],[-176.22525,-13.362932],[-176.22528,-13.362925],[-176.22528,-13.362892],[-176.2253,-13.362868],[-176.22533,-13.362872],[-176.22534,-13.362905],[-176.22534,-13.362943],[-176.22534,-13.362978],[-176.22533,-13.362997],[-176.22537,-13.363035],[-176.2254,-13.363085],[-176.22545,-13.363137],[-176.22545,-13.36319],[-176.22545,-13.363265],[-176.22545,-13.363302],[-176.22545,-13.363352],[-176.22543,-13.363408],[-176.22542,-13.363457],[-176.22534,-13.363593],[-176.22525,-13.36376],[-176.22522,-13.363835],[-176.22517,-13.363911],[-176.22511,-13.363995],[-176.22502,-13.364097],[-176.22493,-13.364213],[-176.22484,-13.364291],[-176.2248,-13.364347],[-176.22476,-13.36441],[-176.22473,-13.364448],[-176.2247,-13.364471],[-176.22462,-13.364491],[-176.22458,-13.364498],[-176.22452,-13.36448],[-176.22446,-13.364428],[-176.22441,-13.364393],[-176.2244,-13.364351],[-176.2244,-13.364309],[-176.22441,-13.364287],[-176.22438,-13.364249],[-176.22435,-13.364202],[-176.2243,-13.3641615],[-176.22427,-13.364128],[-176.22423,-13.3641205],[-176.22415,-13.3641205],[-176.22401,-13.36413],[-176.22386,-13.364149],[-176.22377,-13.364186],[-176.22371,-13.364213],[-176.22363,-13.364223],[-176.22356,-13.364216],[-176.22353,-13.364168],[-176.22348,-13.364133],[-176.22342,-13.364122],[-176.22334,-13.364097],[-176.22333,-13.364053],[-176.22333,-13.364013],[-176.22334,-13.363955],[-176.22339,-13.363872],[-176.22343,-13.363839],[-176.22343,-13.363812],[-176.22345,-13.363779],[-176.22346,-13.36376],[-176.22351,-13.363746],[-176.22356,-13.363708],[-176.2236,-13.363681],[-176.22362,-13.363619],[-176.22365,-13.363583],[-176.22366,-13.363559],[-176.22371,-13.363528],[-176.22375,-13.3635025],[-176.22379,-13.363459],[-176.22383,-13.363372],[-176.22388,-13.363227],[-176.22392,-13.363089]]],[[[-178.05011,-14.353292],[-178.04932,-14.353806],[-178.04887,-14.35418],[-178.04852,-14.354532],[-178.04855,-14.355172],[-178.04868,-14.35567],[-178.04869,-14.355795],[-178.04869,-14.355889],[-178.04863,-14.356343],[-178.04866,-14.357234],[-178.04854,-14.357849],[-178.04839,-14.3581],[-178.04843,-14.358451],[-178.04839,-14.359203],[-178.04811,-14.359465],[-178.04794,-14.359932],[-178.04753,-14.360543],[-178.04703,-14.360916],[-178.04695,-14.360798],[-178.04695,-14.360537],[-178.04681,-14.360465],[-178.04643,-14.360641],[-178.04596,-14.360805],[-178.04573,-14.360646],[-178.04521,-14.360482],[-178.04405,-14.360683],[-178.04373,-14.360913],[-178.04298,-14.360913],[-178.04282,-14.361059],[-178.0426,-14.361175],[-178.04262,-14.361592],[-178.04243,-14.362185],[-178.04227,-14.362071],[-178.04204,-14.36169],[-178.04182,-14.361605],[-178.04175,-14.361223],[-178.04156,-14.361254],[-178.0412,-14.360877],[-178.04088,-14.3607855],[-178.04053,-14.360415],[-178.04028,-14.36041],[-178.04002,-14.360104],[-178.03966,-14.3598585],[-178.03912,-14.359701],[-178.03891,-14.359166],[-178.03845,-14.358967],[-178.03836,-14.358608],[-178.03786,-14.358245],[-178.03764,-14.357663],[-178.03745,-14.3572],[-178.03203,-14.353621],[-178.02933,-14.351615],[-178.02722,-14.34992],[-178.02419,-14.347818],[-178.02034,-14.345251],[-178.01823,-14.344194],[-178.01616,-14.343355],[-178.01143,-14.341457],[-178.01047,-14.340848],[-178.00659,-14.339481],[-178.00572,-14.339521],[-178.00227,-14.337346],[-178.00122,-14.33652],[-178.00105,-14.335674],[-178.00166,-14.335351],[-178.00305,-14.334801],[-178.00404,-14.334368],[-178.00456,-14.333657],[-178.0051,-14.333688],[-178.00577,-14.333101],[-178.00595,-14.332435],[-178.0069,-14.332474],[-178.0077,-14.332752],[-178.00818,-14.332122],[-178.00958,-14.332254],[-178.01454,-14.33272],[-178.01678,-14.332389],[-178.0186,-14.332207],[-178.019,-14.332265],[-178.01979,-14.332313],[-178.02017,-14.332506],[-178.02043,-14.332424],[-178.02104,-14.332226],[-178.02121,-14.332335],[-178.0215,-14.332358],[-178.0217,-14.332241],[-178.02238,-14.332204],[-178.02385,-14.331907],[-178.0245,-14.331659],[-178.02606,-14.330834],[-178.02687,-14.330186],[-178.02754,-14.329396],[-178.02824,-14.328412],[-178.02878,-14.327442],[-178.02914,-14.326482],[-178.02959,-14.3257675],[-178.02971,-14.325164],[-178.02956,-14.324939],[-178.02962,-14.324658],[-178.02954,-14.324337],[-178.02971,-14.32389],[-178.03044,-14.323586],[-178.03233,-14.323384],[-178.03296,-14.32344],[-178.03368,-14.323445],[-178.03511,-14.323157],[-178.03543,-14.323227],[-178.03606,-14.323049],[-178.0363,-14.3229],[-178.03745,-14.3226595],[-178.03804,-14.3226595],[-178.03836,-14.322987],[-178.03888,-14.32301],[-178.0394,-14.322963],[-178.03949,-14.322738],[-178.04004,-14.322637],[-178.04056,-14.322714],[-178.04108,-14.32259],[-178.04158,-14.322362],[-178.04199,-14.322318],[-178.04225,-14.322233],[-178.04268,-14.322395],[-178.04329,-14.322536],[-178.04372,-14.322395],[-178.04425,-14.322474],[-178.04448,-14.322653],[-178.0453,-14.322824],[-178.04578,-14.323032],[-178.04608,-14.323244],[-178.04645,-14.323683],[-178.04712,-14.323787],[-178.04755,-14.323794],[-178.04845,-14.323682],[-178.05005,-14.324258],[-178.05045,-14.32444],[-178.05144,-14.3246],[-178.05296,-14.325083],[-178.05318,-14.325068],[-178.05357,-14.325248],[-178.05373,-14.325566],[-178.05406,-14.325613],[-178.0552,-14.325497],[-178.05582,-14.325566],[-178.05609,-14.325752],[-178.05692,-14.326102],[-178.05734,-14.326164],[-178.0581,-14.32662],[-178.05971,-14.327911],[-178.06105,-14.328897],[-178.06291,-14.330196],[-178.06418,-14.330749],[-178.06485,-14.331004],[-178.0655,-14.331479],[-178.06644,-14.3320875],[-178.06743,-14.332805],[-178.06819,-14.33362],[-178.06877,-14.334514],[-178.06947,-14.335341],[-178.07008,-14.336204],[-178.07039,-14.336994],[-178.07047,-14.337878],[-178.07039,-14.338617],[-178.07019,-14.339377],[-178.07004,-14.340322],[-178.07019,-14.340749],[-178.07063,-14.341108],[-178.07108,-14.3417015],[-178.07147,-14.34223],[-178.07185,-14.342591],[-178.07214,-14.342785],[-178.07246,-14.343751],[-178.07285,-14.3447895],[-178.07321,-14.345626],[-178.07327,-14.346155],[-178.07314,-14.346377],[-178.07321,-14.346522],[-178.0732,-14.346769],[-178.073,-14.347015],[-178.07275,-14.347139],[-178.07262,-14.347344],[-178.07268,-14.347582],[-178.07208,-14.34812],[-178.07022,-14.348594],[-178.06924,-14.348876],[-178.0687,-14.349229],[-178.06844,-14.349547],[-178.06844,-14.349775],[-178.06812,-14.349998],[-178.06815,-14.350302],[-178.06804,-14.3504715],[-178.06767,-14.350789],[-178.06735,-14.350846],[-178.06708,-14.350631],[-178.06653,-14.350707],[-178.06593,-14.350355],[-178.06517,-14.350108],[-178.06427,-14.350016],[-178.0637,-14.349812],[-178.06277,-14.349353],[-178.06172,-14.34937],[-178.06084,-14.349402],[-178.06046,-14.349413],[-178.06001,-14.349416],[-178.05893,-14.3495],[-178.0581,-14.349713],[-178.0569,-14.349899],[-178.05573,-14.35023],[-178.05463,-14.3505745],[-178.05334,-14.351344],[-178.05264,-14.351816],[-178.05203,-14.352203],[-178.05074,-14.352913],[-178.05011,-14.353292]]],[[[-178.097,-14.308586],[-178.09464,-14.308725],[-178.09183,-14.309999],[-178.09106,-14.310363],[-178.0902,-14.310567],[-178.08961,-14.310681],[-178.08821,-14.311146],[-178.0876,-14.311473],[-178.08708,-14.311618],[-178.08632,-14.311521],[-178.08473,-14.312258],[-178.08171,-14.312391],[-178.07831,-14.312328],[-178.07642,-14.312351],[-178.07565,-14.312443],[-178.07486,-14.312451],[-178.07375,-14.312405],[-178.07358,-14.312427],[-178.07298,-14.31238],[-178.07294,-14.312699],[-178.07286,-14.3128195],[-178.07266,-14.3128195],[-178.07098,-14.312611],[-178.06865,-14.312322],[-178.06808,-14.312403],[-178.06754,-14.312376],[-178.06677,-14.312319],[-178.06624,-14.312425],[-178.06612,-14.312653],[-178.06581,-14.312653],[-178.0656,-14.312601],[-178.06561,-14.312377],[-178.06519,-14.3122225],[-178.06503,-14.3121395],[-178.06474,-14.3121195],[-178.06462,-14.312193],[-178.0645,-14.312118],[-178.06372,-14.311909],[-178.06297,-14.311661],[-178.06264,-14.311571],[-178.06009,-14.311238],[-178.05995,-14.311183],[-178.05992,-14.311058],[-178.05994,-14.310841],[-178.05988,-14.310831],[-178.05887,-14.309658],[-178.05406,-14.308007],[-178.05379,-14.307694],[-178.05399,-14.307054],[-178.05394,-14.306462],[-178.05531,-14.306159],[-178.05676,-14.306674],[-178.05775,-14.3065815],[-178.05838,-14.306187],[-178.0592,-14.306091],[-178.06041,-14.306198],[-178.06169,-14.306367],[-178.06253,-14.306193],[-178.06343,-14.306355],[-178.0643,-14.306162],[-178.06503,-14.305768],[-178.06761,-14.30393],[-178.06918,-14.302388],[-178.06975,-14.302048],[-178.07014,-14.301626],[-178.07083,-14.301032],[-178.0711,-14.300961],[-178.07138,-14.300772],[-178.07195,-14.300238],[-178.07251,-14.300086],[-178.07271,-14.299966],[-178.07286,-14.299828],[-178.07312,-14.299583],[-178.07332,-14.299539],[-178.07347,-14.299544],[-178.07373,-14.29959],[-178.07407,-14.299594],[-178.07431,-14.299548],[-178.07443,-14.299469],[-178.07455,-14.299413],[-178.07469,-14.299444],[-178.07484,-14.299368],[-178.07497,-14.299418],[-178.07515,-14.299537],[-178.0753,-14.299563],[-178.07571,-14.299501],[-178.07605,-14.299499],[-178.0762,-14.299577],[-178.07649,-14.299462],[-178.07706,-14.299212],[-178.0777,-14.298952],[-178.07822,-14.298672],[-178.07831,-14.298666],[-178.07841,-14.298698],[-178.0786,-14.2989235],[-178.07881,-14.299106],[-178.07896,-14.299193],[-178.07913,-14.299264],[-178.07939,-14.299256],[-178.07964,-14.299231],[-178.08005,-14.299163],[-178.08075,-14.298846],[-178.08159,-14.2985735],[-178.08241,-14.298263],[-178.08284,-14.297941],[-178.08328,-14.297612],[-178.08325,-14.297349],[-178.08318,-14.297258],[-178.08315,-14.297014],[-178.08316,-14.296954],[-178.08322,-14.296944],[-178.08333,-14.297115],[-178.0834,-14.297245],[-178.08354,-14.297549],[-178.08414,-14.29768],[-178.0852,-14.297656],[-178.08574,-14.297617],[-178.08652,-14.297463],[-178.0873,-14.297437],[-178.0876,-14.297396],[-178.08789,-14.297325],[-178.08849,-14.2970915],[-178.08919,-14.296713],[-178.08948,-14.296452],[-178.0895,-14.2964325],[-178.0897,-14.296128],[-178.08997,-14.295833],[-178.09023,-14.295503],[-178.09047,-14.295223],[-178.09074,-14.294958],[-178.09137,-14.294572],[-178.09692,-14.291195],[-178.0972,-14.290689],[-178.09772,-14.290794],[-178.09871,-14.290015],[-178.10002,-14.2888975],[-178.10112,-14.288134],[-178.10165,-14.287273],[-178.10245,-14.285887],[-178.10373,-14.284088],[-178.10454,-14.283176],[-178.10518,-14.282583],[-178.10585,-14.282067],[-178.10632,-14.281761],[-178.10641,-14.281591],[-178.10652,-14.281442],[-178.1068,-14.281413],[-178.10777,-14.280698],[-178.10825,-14.280101],[-178.10867,-14.279997],[-178.10909,-14.279836],[-178.10965,-14.279286],[-178.1105,-14.278376],[-178.11128,-14.277821],[-178.11192,-14.277598],[-178.1131,-14.276948],[-178.11346,-14.276754],[-178.11375,-14.27656],[-178.11554,-14.275606],[-178.11617,-14.275269],[-178.11638,-14.275056],[-178.11647,-14.274887],[-178.11658,-14.274755],[-178.11676,-14.2746725],[-178.11713,-14.274133],[-178.11728,-14.2735615],[-178.1172,-14.273222],[-178.11783,-14.273048],[-178.11823,-14.272675],[-178.11864,-14.272107],[-178.11992,-14.270608],[-178.12042,-14.270144],[-178.12135,-14.2691765],[-178.12257,-14.26825],[-178.12387,-14.2672615],[-178.12463,-14.266576],[-178.1249,-14.266106],[-178.12508,-14.26568],[-178.12503,-14.265312],[-178.12485,-14.265117],[-178.1245,-14.264828],[-178.1244,-14.264655],[-178.12433,-14.264467],[-178.12428,-14.26432],[-178.12444,-14.264086],[-178.12444,-14.263845],[-178.1246,-14.26362],[-178.12477,-14.2636595],[-178.12498,-14.2637415],[-178.12546,-14.263666],[-178.12593,-14.26384],[-178.12639,-14.263859],[-178.12685,-14.263737],[-178.12804,-14.263513],[-178.12848,-14.262835],[-178.12958,-14.262156],[-178.1298,-14.261799],[-178.13014,-14.261368],[-178.13069,-14.260119],[-178.1312,-14.259475],[-178.1318,-14.259207],[-178.13264,-14.2591095],[-178.13295,-14.259217],[-178.1329,-14.258918],[-178.13304,-14.258727],[-178.13318,-14.258771],[-178.13335,-14.258986],[-178.13382,-14.25868],[-178.13493,-14.258445],[-178.1356,-14.258123],[-178.13629,-14.258252],[-178.13647,-14.258767],[-178.13731,-14.258833],[-178.13799,-14.259013],[-178.13852,-14.258641],[-178.13882,-14.258257],[-178.13924,-14.25774],[-178.14001,-14.256904],[-178.14069,-14.256538],[-178.14137,-14.25615],[-178.14272,-14.255553],[-178.14441,-14.254997],[-178.14505,-14.254759],[-178.14651,-14.254206],[-178.14734,-14.254158],[-178.14815,-14.254263],[-178.14894,-14.25467],[-178.14949,-14.254719],[-178.15048,-14.254433],[-178.15137,-14.254403],[-178.15225,-14.254418],[-178.15228,-14.254392],[-178.15315,-14.253785],[-178.15327,-14.253698],[-178.15375,-14.251912],[-178.15471,-14.250858],[-178.15515,-14.249326],[-178.15498,-14.248997],[-178.15483,-14.249011],[-178.15466,-14.248966],[-178.1545,-14.248721],[-178.15445,-14.248527],[-178.15465,-14.248591],[-178.15483,-14.248515],[-178.15497,-14.248695],[-178.15503,-14.24828],[-178.15506,-14.247957],[-178.15489,-14.247929],[-178.15474,-14.247867],[-178.15479,-14.24772],[-178.1551,-14.24761],[-178.15512,-14.24748],[-178.1551,-14.247235],[-178.1552,-14.24693],[-178.1553,-14.246679],[-178.15523,-14.246426],[-178.15523,-14.246191],[-178.15538,-14.246393],[-178.15547,-14.2467785],[-178.15555,-14.246525],[-178.1558,-14.246928],[-178.15591,-14.2471895],[-178.1562,-14.247262],[-178.15645,-14.247432],[-178.15753,-14.247507],[-178.15868,-14.24711],[-178.15875,-14.246361],[-178.15977,-14.247179],[-178.16048,-14.248376],[-178.16075,-14.248653],[-178.16112,-14.248711],[-178.16154,-14.248616],[-178.16197,-14.248363],[-178.16246,-14.248299],[-178.16313,-14.248153],[-178.16336,-14.248054],[-178.16386,-14.247999],[-178.16434,-14.247788],[-178.16463,-14.247527],[-178.16501,-14.247317],[-178.16592,-14.246698],[-178.16621,-14.246461],[-178.16644,-14.246421],[-178.16661,-14.2462435],[-178.16693,-14.245833],[-178.16728,-14.245632],[-178.16748,-14.245473],[-178.1679,-14.245326],[-178.16827,-14.245124],[-178.16885,-14.244418],[-178.16924,-14.24409],[-178.16982,-14.243628],[-178.17026,-14.243234],[-178.17072,-14.242849],[-178.1711,-14.242572],[-178.17192,-14.242137],[-178.17313,-14.241576],[-178.174,-14.241287],[-178.1746,-14.241084],[-178.1749,-14.240996],[-178.17561,-14.240837],[-178.1763,-14.240721],[-178.17664,-14.240728],[-178.17703,-14.2408695],[-178.17737,-14.241028],[-178.17801,-14.241446],[-178.1786,-14.241972],[-178.17873,-14.242227],[-178.1788,-14.24265],[-178.1789,-14.242837],[-178.17902,-14.243394],[-178.17937,-14.244226],[-178.18008,-14.245263],[-178.18034,-14.245818],[-178.1804,-14.24583],[-178.18056,-14.245779],[-178.18062,-14.245887],[-178.18062,-14.245974],[-178.18073,-14.246106],[-178.18068,-14.246198],[-178.18059,-14.246174],[-178.18039,-14.246141],[-178.18018,-14.246257],[-178.18011,-14.246526],[-178.18011,-14.246659],[-178.18004,-14.246752],[-178.18004,-14.246919],[-178.18,-14.247461],[-178.17984,-14.247613],[-178.17969,-14.247727],[-178.17972,-14.247973],[-178.17982,-14.24817],[-178.17995,-14.24868],[-178.18019,-14.249122],[-178.18083,-14.250042],[-178.18134,-14.251116],[-178.18155,-14.251559],[-178.18167,-14.252008],[-178.18164,-14.25242],[-178.18156,-14.252735],[-178.18156,-14.25323],[-178.18161,-14.253705],[-178.18173,-14.253965],[-178.18175,-14.254156],[-178.18169,-14.25438],[-178.18163,-14.254483],[-178.18152,-14.2544985],[-178.18118,-14.25476],[-178.18103,-14.254975],[-178.18088,-14.2552395],[-178.18079,-14.255843],[-178.18056,-14.256202],[-178.17996,-14.256485],[-178.17975,-14.256658],[-178.17957,-14.256933],[-178.17928,-14.257584],[-178.17903,-14.258255],[-178.17815,-14.261169],[-178.17679,-14.263871],[-178.17659,-14.264973],[-178.1766,-14.266064],[-178.17647,-14.266328],[-178.1763,-14.266689],[-178.17593,-14.267243],[-178.17487,-14.269508],[-178.1748,-14.269962],[-178.17438,-14.271009],[-178.17332,-14.272698],[-178.17241,-14.274206],[-178.17192,-14.275174],[-178.17159,-14.275828],[-178.17137,-14.277065],[-178.17157,-14.277383],[-178.17197,-14.277701],[-178.17204,-14.277874],[-178.17175,-14.27804],[-178.17123,-14.278199],[-178.17104,-14.278727],[-178.17064,-14.279365],[-178.1696,-14.281749],[-178.16954,-14.282295],[-178.16972,-14.282653],[-178.16904,-14.285823],[-178.16862,-14.28654],[-178.16844,-14.287135],[-178.16856,-14.287206],[-178.16838,-14.287739],[-178.1685,-14.287846],[-178.16852,-14.2882805],[-178.16888,-14.288677],[-178.1689,-14.289177],[-178.16719,-14.289829],[-178.16666,-14.290159],[-178.16594,-14.29117],[-178.16435,-14.292249],[-178.16379,-14.292519],[-178.16338,-14.292702],[-178.16293,-14.292797],[-178.16238,-14.2927065],[-178.16174,-14.292532],[-178.16125,-14.292413],[-178.1608,-14.292248],[-178.15999,-14.292212],[-178.1596,-14.292396],[-178.15927,-14.292719],[-178.15909,-14.293072],[-178.15895,-14.293317],[-178.15889,-14.294107],[-178.15897,-14.295045],[-178.15965,-14.295474],[-178.15959,-14.295634],[-178.15996,-14.2957945],[-178.16023,-14.2959175],[-178.16017,-14.2957325],[-178.16031,-14.295671],[-178.16054,-14.296176],[-178.1604,-14.296236],[-178.16028,-14.296035],[-178.16023,-14.296102],[-178.16003,-14.29618],[-178.15945,-14.29605],[-178.15935,-14.296247],[-178.15936,-14.296283],[-178.15958,-14.296688],[-178.15962,-14.29688],[-178.15958,-14.297176],[-178.15952,-14.297175],[-178.15941,-14.297102],[-178.15933,-14.296863],[-178.1593,-14.296694],[-178.15932,-14.296589],[-178.15932,-14.296448],[-178.1593,-14.296359],[-178.15926,-14.296343],[-178.15916,-14.296472],[-178.15915,-14.2966585],[-178.15897,-14.296685],[-178.15889,-14.296612],[-178.15848,-14.296921],[-178.15825,-14.297409],[-178.15819,-14.297823],[-178.15842,-14.298307],[-178.15869,-14.298622],[-178.15894,-14.298833],[-178.15901,-14.298982],[-178.15895,-14.299148],[-178.15887,-14.299274],[-178.15834,-14.300244],[-178.15804,-14.300871],[-178.15752,-14.30133],[-178.15694,-14.301977],[-178.15561,-14.302859],[-178.15536,-14.30321],[-178.15495,-14.303598],[-178.1536,-14.303853],[-178.15137,-14.304442],[-178.15115,-14.304517],[-178.1504,-14.304791],[-178.15004,-14.305517],[-178.14949,-14.305751],[-178.14929,-14.306161],[-178.14885,-14.30653],[-178.14825,-14.306367],[-178.1475,-14.306644],[-178.14635,-14.306852],[-178.1458,-14.307674],[-178.14543,-14.307966],[-178.14485,-14.307879],[-178.14438,-14.307437],[-178.14362,-14.307408],[-178.14304,-14.307517],[-178.14297,-14.307542],[-178.1417,-14.308105],[-178.14066,-14.30993],[-178.14003,-14.310296],[-178.13928,-14.310309],[-178.1385,-14.311096],[-178.1374,-14.311057],[-178.13521,-14.310781],[-178.1316,-14.311501],[-178.1314,-14.311533],[-178.13116,-14.311451],[-178.13112,-14.311499],[-178.13103,-14.311499],[-178.13095,-14.311392],[-178.13092,-14.31125],[-178.13087,-14.310921],[-178.13086,-14.310423],[-178.13052,-14.310139],[-178.12996,-14.3097105],[-178.1296,-14.309428],[-178.12914,-14.309354],[-178.12901,-14.30933],[-178.12863,-14.309174],[-178.12819,-14.309132],[-178.12746,-14.309168],[-178.12708,-14.309248],[-178.12698,-14.309409],[-178.12688,-14.30952],[-178.12672,-14.309479],[-178.12643,-14.309498],[-178.12587,-14.309653],[-178.12535,-14.3097315],[-178.12506,-14.309808],[-178.12433,-14.30986],[-178.12354,-14.309795],[-178.12288,-14.309741],[-178.12032,-14.30956],[-178.11996,-14.309615],[-178.1195,-14.309654],[-178.11859,-14.309915],[-178.1177,-14.309947],[-178.11746,-14.309994],[-178.11699,-14.310042],[-178.11649,-14.310072],[-178.11581,-14.310334],[-178.11578,-14.310473],[-178.11534,-14.310577],[-178.11525,-14.310447],[-178.11487,-14.310588],[-178.11348,-14.310916],[-178.11261,-14.311164],[-178.11215,-14.311207],[-178.11192,-14.311238],[-178.11195,-14.311436],[-178.1118,-14.311444],[-178.11179,-14.31139],[-178.11075,-14.31155],[-178.109,-14.311418],[-178.10709,-14.311428],[-178.10477,-14.310665],[-178.10359,-14.310338],[-178.10071,-14.309728],[-178.10007,-14.309376],[-178.09938,-14.30909],[-178.097,-14.308586]]],[[[-176.1713,-13.283044],[-176.17084,-13.282397],[-176.17056,-13.2819805],[-176.17079,-13.281864],[-176.17099,-13.281767],[-176.17108,-13.281692],[-176.17097,-13.281537],[-176.17079,-13.281414],[-176.17052,-13.281116],[-176.17053,-13.28099],[-176.17041,-13.28077],[-176.17055,-13.280684],[-176.16905,-13.27819],[-176.16899,-13.278073],[-176.16884,-13.278082],[-176.16873,-13.277873],[-176.16878,-13.277777],[-176.1683,-13.276816],[-176.16809,-13.276192],[-176.16772,-13.275511],[-176.16745,-13.275409],[-176.1674,-13.275184],[-176.16751,-13.275017],[-176.16705,-13.274184],[-176.16682,-13.274105],[-176.16689,-13.273957],[-176.16512,-13.271362],[-176.1644,-13.270276],[-176.164,-13.270106],[-176.1639,-13.269903],[-176.1639,-13.269569],[-176.1638,-13.269485],[-176.1637,-13.269241],[-176.16344,-13.268733],[-176.16335,-13.268389],[-176.16316,-13.267647],[-176.16301,-13.267199],[-176.16287,-13.266943],[-176.16261,-13.2665615],[-176.1625,-13.266424],[-176.16246,-13.266353],[-176.16249,-13.266273],[-176.1624,-13.266163],[-176.16225,-13.26573],[-176.16222,-13.265486],[-176.16231,-13.265284],[-176.16258,-13.265217],[-176.16281,-13.265165],[-176.16292,-13.265009],[-176.1631,-13.263869],[-176.16298,-13.263568],[-176.16324,-13.263469],[-176.16356,-13.263702],[-176.16411,-13.263406],[-176.16434,-13.263564],[-176.16466,-13.263214],[-176.16496,-13.26258],[-176.16522,-13.26169],[-176.16547,-13.258842],[-176.16588,-13.258283],[-176.16599,-13.257375],[-176.16612,-13.256785],[-176.1665,-13.255743],[-176.16635,-13.255379],[-176.16676,-13.254811],[-176.16724,-13.25433],[-176.16762,-13.253727],[-176.1683,-13.253012],[-176.16924,-13.252516],[-176.17021,-13.252317],[-176.1713,-13.252475],[-176.17221,-13.252261],[-176.17361,-13.252084],[-176.17424,-13.2520485],[-176.17477,-13.25172],[-176.17519,-13.25119],[-176.1753,-13.251046],[-176.1757,-13.250467],[-176.17624,-13.249638],[-176.17673,-13.248522],[-176.17722,-13.247448],[-176.17773,-13.247031],[-176.17786,-13.246804],[-176.17776,-13.246694],[-176.17773,-13.246537],[-176.17784,-13.246499],[-176.17793,-13.246493],[-176.17805,-13.24651],[-176.17818,-13.246565],[-176.17824,-13.246508],[-176.17819,-13.24643],[-176.1781,-13.246305],[-176.17812,-13.24619],[-176.17822,-13.246092],[-176.17839,-13.246151],[-176.17847,-13.24626],[-176.1791,-13.245597],[-176.17941,-13.244877],[-176.17953,-13.244283],[-176.17946,-13.244215],[-176.17955,-13.243565],[-176.17973,-13.241764],[-176.17992,-13.241009],[-176.17992,-13.240812],[-176.1801,-13.24043],[-176.1801,-13.240139],[-176.18005,-13.239985],[-176.18013,-13.238986],[-176.18015,-13.238396],[-176.18033,-13.23774],[-176.18031,-13.237458],[-176.1804,-13.2373905],[-176.18063,-13.237408],[-176.18082,-13.237143],[-176.18112,-13.236703],[-176.18121,-13.236664],[-176.1813,-13.236737],[-176.18155,-13.236222],[-176.18237,-13.235102],[-176.18275,-13.234648],[-176.18294,-13.234554],[-176.1833,-13.234264],[-176.18362,-13.233937],[-176.18407,-13.2336235],[-176.18454,-13.233161],[-176.18468,-13.232935],[-176.18483,-13.232596],[-176.18489,-13.232289],[-176.18495,-13.232001],[-176.18497,-13.231073],[-176.18459,-13.230919],[-176.18468,-13.230179],[-176.18475,-13.230025],[-176.18509,-13.229488],[-176.18518,-13.228718],[-176.18529,-13.228257],[-176.18542,-13.2279005],[-176.18561,-13.227554],[-176.18541,-13.227427],[-176.18555,-13.227135],[-176.18578,-13.227221],[-176.18593,-13.227036],[-176.18616,-13.226708],[-176.18634,-13.226489],[-176.18651,-13.22643],[-176.18672,-13.226335],[-176.187,-13.226084],[-176.18721,-13.225718],[-176.18738,-13.22551],[-176.18752,-13.225123],[-176.1876,-13.224902],[-176.18784,-13.224679],[-176.18814,-13.224634],[-176.18846,-13.224581],[-176.18867,-13.224662],[-176.18887,-13.224771],[-176.18903,-13.22476],[-176.18913,-13.22471],[-176.18918,-13.224538],[-176.18929,-13.224458],[-176.18968,-13.224542],[-176.18983,-13.224506],[-176.19,-13.224517],[-176.19011,-13.224589],[-176.1901,-13.224736],[-176.19019,-13.22478],[-176.19043,-13.22464],[-176.19075,-13.224403],[-176.19081,-13.224342],[-176.19093,-13.224323],[-176.1912,-13.224065],[-176.19164,-13.223675],[-176.1922,-13.223396],[-176.1923,-13.223317],[-176.1925,-13.223127],[-176.19276,-13.222839],[-176.19287,-13.2227],[-176.19295,-13.222582],[-176.19296,-13.22243],[-176.19331,-13.222318],[-176.19382,-13.222052],[-176.1943,-13.221639],[-176.195,-13.221173],[-176.19557,-13.220817],[-176.19595,-13.220511],[-176.19612,-13.220312],[-176.1974,-13.219455],[-176.19775,-13.219305],[-176.19814,-13.219087],[-176.19835,-13.218862],[-176.19844,-13.218837],[-176.19856,-13.218848],[-176.19867,-13.2189245],[-176.19882,-13.219051],[-176.19899,-13.219125],[-176.19917,-13.219148],[-176.19948,-13.219157],[-176.19984,-13.219151],[-176.2002,-13.219105],[-176.20049,-13.219052],[-176.20053,-13.218977],[-176.20065,-13.218957],[-176.20071,-13.218887],[-176.20074,-13.218726],[-176.20079,-13.218102],[-176.20079,-13.217536],[-176.20079,-13.21708],[-176.20097,-13.217072],[-176.20097,-13.217528],[-176.20094,-13.2181015],[-176.2009,-13.218899],[-176.20093,-13.219002],[-176.20105,-13.219132],[-176.20117,-13.219287],[-176.20256,-13.219666],[-176.20312,-13.219803],[-176.20354,-13.2199335],[-176.20384,-13.219947],[-176.20746,-13.221626],[-176.2089,-13.222263],[-176.20993,-13.222795],[-176.21045,-13.223036],[-176.21097,-13.223091],[-176.21175,-13.223117],[-176.2126,-13.22305],[-176.21277,-13.22318],[-176.21289,-13.223323],[-176.2129,-13.226012],[-176.21355,-13.227057],[-176.21681,-13.230363],[-176.21724,-13.230528],[-176.21753,-13.230533],[-176.21777,-13.230408],[-176.21802,-13.230473],[-176.2182,-13.230682],[-176.2182,-13.231036],[-176.21867,-13.231797],[-176.2196,-13.23299],[-176.21991,-13.233556],[-176.22046,-13.233937],[-176.22078,-13.23454],[-176.22104,-13.234931],[-176.22093,-13.235173],[-176.22064,-13.235312],[-176.22002,-13.23593],[-176.22,-13.236692],[-176.2205,-13.238597],[-176.22089,-13.239179],[-176.22154,-13.240226],[-176.2215,-13.241069],[-176.22171,-13.241282],[-176.22179,-13.2417755],[-176.22168,-13.242789],[-176.22278,-13.245047],[-176.2233,-13.246284],[-176.22299,-13.2464],[-176.22289,-13.246882],[-176.22284,-13.247414],[-176.22308,-13.247515],[-176.22316,-13.247842],[-176.22298,-13.248352],[-176.22322,-13.249304],[-176.22368,-13.250141],[-176.22429,-13.251043],[-176.22485,-13.252048],[-176.22528,-13.25237],[-176.22589,-13.25246],[-176.226,-13.252818],[-176.22586,-13.253671],[-176.22606,-13.254321],[-176.22614,-13.255106],[-176.22566,-13.255954],[-176.22562,-13.257147],[-176.22563,-13.258966],[-176.22589,-13.259344],[-176.22626,-13.259912],[-176.2268,-13.260533],[-176.22676,-13.261312],[-176.2265,-13.261778],[-176.22598,-13.262283],[-176.22513,-13.263096],[-176.2241,-13.2639265],[-176.22412,-13.265075],[-176.22392,-13.266072],[-176.224,-13.267662],[-176.2239,-13.268318],[-176.22412,-13.268812],[-176.22449,-13.269597],[-176.2246,-13.27062],[-176.22484,-13.271561],[-176.22435,-13.273462],[-176.22418,-13.274169],[-176.22408,-13.27475],[-176.22417,-13.275575],[-176.2242,-13.276296],[-176.22404,-13.276562],[-176.22432,-13.276633],[-176.22437,-13.27682],[-176.22466,-13.277236],[-176.22467,-13.277946],[-176.22499,-13.278617],[-176.22528,-13.278808],[-176.2261,-13.278868],[-176.22656,-13.279489],[-176.22682,-13.280099],[-176.2271,-13.281639],[-176.22762,-13.281976],[-176.22786,-13.282193],[-176.22813,-13.282363],[-176.2291,-13.282893],[-176.23055,-13.283267],[-176.23096,-13.283845],[-176.23367,-13.284436],[-176.23502,-13.284282],[-176.23627,-13.284158],[-176.23706,-13.284452],[-176.23837,-13.285142],[-176.24042,-13.286029],[-176.24094,-13.286443],[-176.24141,-13.286969],[-176.24203,-13.287304],[-176.24294,-13.287567],[-176.24348,-13.287512],[-176.24373,-13.28722],[-176.24411,-13.287126],[-176.24489,-13.287449],[-176.24532,-13.287889],[-176.24605,-13.287919],[-176.24686,-13.288118],[-176.2479,-13.288723],[-176.24847,-13.289022],[-176.24901,-13.289174],[-176.24982,-13.28933],[-176.25012,-13.289352],[-176.25037,-13.289308],[-176.2505,-13.289365],[-176.25037,-13.289473],[-176.2504,-13.2896],[-176.2505,-13.289771],[-176.25064,-13.290216],[-176.25084,-13.290587],[-176.25076,-13.290939],[-176.25055,-13.291716],[-176.25026,-13.292467],[-176.24986,-13.293025],[-176.24974,-13.294197],[-176.24951,-13.295259],[-176.24953,-13.296032],[-176.24971,-13.296784],[-176.24866,-13.297928],[-176.24841,-13.298815],[-176.24808,-13.300198],[-176.24843,-13.301263],[-176.24852,-13.302089],[-176.2493,-13.303665],[-176.24951,-13.303748],[-176.24986,-13.303665],[-176.25009,-13.304469],[-176.25017,-13.305242],[-176.25018,-13.306244],[-176.25003,-13.306782],[-176.24963,-13.307831],[-176.24911,-13.30829],[-176.24878,-13.309083],[-176.24843,-13.3096895],[-176.24835,-13.310389],[-176.24854,-13.310608],[-176.24843,-13.310922],[-176.2483,-13.311223],[-176.24811,-13.31138],[-176.24776,-13.311809],[-176.24753,-13.312623],[-176.2471,-13.313215],[-176.24643,-13.313884],[-176.24567,-13.314241],[-176.24452,-13.314512],[-176.24303,-13.314233],[-176.2427,-13.314247],[-176.24104,-13.314213],[-176.24026,-13.314483],[-176.23955,-13.3155775],[-176.23843,-13.315431],[-176.23756,-13.315066],[-176.23618,-13.314541],[-176.23524,-13.314213],[-176.23488,-13.31418],[-176.23466,-13.314325],[-176.23457,-13.314583],[-176.2349,-13.315089],[-176.23477,-13.315369],[-176.23509,-13.316442],[-176.23503,-13.317109],[-176.23505,-13.317801],[-176.2348,-13.318688],[-176.23412,-13.319044],[-176.23236,-13.319623],[-176.23232,-13.319686],[-176.23236,-13.320273],[-176.23213,-13.320318],[-176.23216,-13.320749],[-176.23216,-13.320877],[-176.23207,-13.320993],[-176.2321,-13.32206],[-176.23218,-13.323225],[-176.23225,-13.32501],[-176.2323,-13.326478],[-176.23195,-13.326634],[-176.2316,-13.325892],[-176.23164,-13.325852],[-176.2321,-13.325583],[-176.23212,-13.325253],[-176.23201,-13.324168],[-176.23198,-13.322244],[-176.23193,-13.320898],[-176.23193,-13.32033],[-176.23177,-13.3203125],[-176.23174,-13.31941],[-176.23132,-13.319349],[-176.23102,-13.319508],[-176.2308,-13.320127],[-176.2302,-13.320506],[-176.22981,-13.320803],[-176.2294,-13.320908],[-176.22919,-13.320912],[-176.22888,-13.320905],[-176.22876,-13.320758],[-176.22852,-13.320841],[-176.22842,-13.321067],[-176.2283,-13.321005],[-176.22813,-13.321092],[-176.22807,-13.320937],[-176.22784,-13.320996],[-176.2275,-13.320969],[-176.22702,-13.320726],[-176.22675,-13.3204565],[-176.22661,-13.320399],[-176.22658,-13.320323],[-176.22655,-13.320319],[-176.22653,-13.320353],[-176.22661,-13.320512],[-176.22672,-13.320789],[-176.22684,-13.321142],[-176.227,-13.321324],[-176.22713,-13.321293],[-176.22726,-13.321285],[-176.2274,-13.3213215],[-176.22755,-13.321301],[-176.22787,-13.321294],[-176.22827,-13.321381],[-176.22836,-13.321477],[-176.22836,-13.321706],[-176.22858,-13.321777],[-176.22858,-13.321874],[-176.2279,-13.322206],[-176.22789,-13.321956],[-176.22812,-13.321893],[-176.22809,-13.321572],[-176.22755,-13.321449],[-176.2273,-13.321555],[-176.22725,-13.321503],[-176.22717,-13.321437],[-176.22711,-13.321545],[-176.22711,-13.321637],[-176.227,-13.321679],[-176.2268,-13.321418],[-176.22665,-13.32111],[-176.22649,-13.321286],[-176.2265,-13.321425],[-176.22664,-13.321668],[-176.22676,-13.321845],[-176.2267,-13.321933],[-176.22662,-13.321952],[-176.22632,-13.321446],[-176.22615,-13.321498],[-176.2261,-13.321414],[-176.22623,-13.3212805],[-176.22633,-13.321157],[-176.22629,-13.321038],[-176.22635,-13.320948],[-176.2265,-13.321003],[-176.22658,-13.320935],[-176.22644,-13.3206215],[-176.22633,-13.320257],[-176.22588,-13.320115],[-176.22552,-13.320117],[-176.22516,-13.320289],[-176.22482,-13.320469],[-176.22481,-13.320888],[-176.22472,-13.321316],[-176.22455,-13.321332],[-176.22449,-13.321604],[-176.22458,-13.321786],[-176.2245,-13.321942],[-176.22452,-13.322091],[-176.22472,-13.322154],[-176.2248,-13.322374],[-176.2249,-13.322929],[-176.22548,-13.322947],[-176.2259,-13.322918],[-176.22589,-13.323072],[-176.22583,-13.323182],[-176.22578,-13.323211],[-176.22571,-13.323202],[-176.22557,-13.32317],[-176.22551,-13.32309],[-176.22502,-13.3230715],[-176.22496,-13.323092],[-176.22495,-13.323234],[-176.22496,-13.323363],[-176.22499,-13.323443],[-176.22505,-13.32346],[-176.22542,-13.323496],[-176.22548,-13.323442],[-176.22556,-13.323428],[-176.22566,-13.323488],[-176.22562,-13.323657],[-176.22507,-13.323607],[-176.22498,-13.323687],[-176.22484,-13.324039],[-176.22476,-13.324501],[-176.22495,-13.324947],[-176.2252,-13.325829],[-176.22531,-13.326352],[-176.2252,-13.326814],[-176.22508,-13.327192],[-176.2237,-13.327754],[-176.2231,-13.328294],[-176.22192,-13.328698],[-176.22118,-13.328904],[-176.22087,-13.328698],[-176.22064,-13.3288],[-176.22041,-13.329142],[-176.22026,-13.329274],[-176.22005,-13.328982],[-176.21997,-13.32904],[-176.22006,-13.329281],[-176.22,-13.329375],[-176.21906,-13.331247],[-176.21887,-13.331961],[-176.21872,-13.332389],[-176.21867,-13.332842],[-176.21886,-13.332852],[-176.2189,-13.333099],[-176.21873,-13.333221],[-176.21904,-13.333465],[-176.2191,-13.33384],[-176.21904,-13.33424],[-176.21863,-13.334259],[-176.21815,-13.335279],[-176.21812,-13.335675],[-176.21782,-13.335943],[-176.2177,-13.336028],[-176.21768,-13.336181],[-176.21767,-13.336376],[-176.21768,-13.336614],[-176.21744,-13.336833],[-176.21707,-13.337054],[-176.21695,-13.337199],[-176.2169,-13.33734],[-176.21695,-13.337462],[-176.21674,-13.337757],[-176.21657,-13.337727],[-176.21658,-13.337819],[-176.21666,-13.337887],[-176.21675,-13.33836],[-176.2165,-13.338465],[-176.21642,-13.338624],[-176.21678,-13.338779],[-176.21706,-13.339004],[-176.21732,-13.3392725],[-176.21733,-13.339579],[-176.21744,-13.339769],[-176.21765,-13.340183],[-176.21812,-13.340569],[-176.21819,-13.340837],[-176.21832,-13.341213],[-176.21837,-13.341933],[-176.21843,-13.342574],[-176.21864,-13.343044],[-176.21846,-13.343535],[-176.21857,-13.343796],[-176.21889,-13.34393],[-176.22127,-13.343067],[-176.22255,-13.342563],[-176.22368,-13.342144],[-176.22382,-13.342344],[-176.22374,-13.342447],[-176.22084,-13.343533],[-176.21953,-13.344012],[-176.21915,-13.344182],[-176.21863,-13.344425],[-176.21844,-13.344566],[-176.2184,-13.345833],[-176.21866,-13.347362],[-176.21883,-13.34766],[-176.21886,-13.348016],[-176.21877,-13.348237],[-176.21861,-13.3483515],[-176.21863,-13.348524],[-176.21828,-13.348642],[-176.218,-13.348621],[-176.21771,-13.348603],[-176.21764,-13.348424],[-176.21768,-13.348226],[-176.21753,-13.347914],[-176.21768,-13.3476],[-176.2175,-13.347225],[-176.21747,-13.346923],[-176.21735,-13.346753],[-176.2172,-13.346736],[-176.2168,-13.346797],[-176.21646,-13.347105],[-176.21619,-13.34741],[-176.21619,-13.347542],[-176.2163,-13.347711],[-176.21632,-13.347828],[-176.21628,-13.347985],[-176.21614,-13.348131],[-176.21599,-13.348234],[-176.21565,-13.347961],[-176.21547,-13.348086],[-176.21516,-13.348401],[-176.2149,-13.348627],[-176.21474,-13.3488865],[-176.2147,-13.348955],[-176.21477,-13.349017],[-176.21487,-13.349032],[-176.21503,-13.349195],[-176.21509,-13.349054],[-176.21521,-13.348891],[-176.21529,-13.348888],[-176.21533,-13.348975],[-176.21538,-13.349124],[-176.21544,-13.34925],[-176.21553,-13.34924],[-176.21562,-13.349275],[-176.21565,-13.349354],[-176.21564,-13.349502],[-176.21547,-13.349757],[-176.21544,-13.349921],[-176.21538,-13.350002],[-176.21518,-13.350029],[-176.21506,-13.349974],[-176.21494,-13.3498335],[-176.21463,-13.34957],[-176.21426,-13.3493595],[-176.21399,-13.349212],[-176.21365,-13.348962],[-176.21318,-13.34871],[-176.21288,-13.348573],[-176.21272,-13.348608],[-176.2126,-13.348548],[-176.21255,-13.348534],[-176.21239,-13.348663],[-176.21219,-13.348592],[-176.21207,-13.348594],[-176.21184,-13.348739],[-176.21138,-13.3491745],[-176.21121,-13.349408],[-176.21104,-13.349442],[-176.21071,-13.349308],[-176.21027,-13.349712],[-176.20917,-13.350332],[-176.20876,-13.3507395],[-176.20868,-13.351102],[-176.20866,-13.351377],[-176.20844,-13.351492],[-176.207,-13.35177],[-176.20663,-13.351832],[-176.20648,-13.352191],[-176.2056,-13.352209],[-176.20499,-13.352148],[-176.20457,-13.351512],[-176.20415,-13.351037],[-176.20395,-13.35103],[-176.20378,-13.350854],[-176.20357,-13.35079],[-176.2034,-13.35051],[-176.20335,-13.350147],[-176.20363,-13.350046],[-176.20355,-13.349904],[-176.20369,-13.349727],[-176.20372,-13.34958],[-176.20366,-13.349409],[-176.2035,-13.349475],[-176.20334,-13.34923],[-176.2035,-13.349122],[-176.20328,-13.348792],[-176.20284,-13.34826],[-176.20229,-13.347372],[-176.20213,-13.347276],[-176.20207,-13.3471985],[-176.20197,-13.346988],[-176.2018,-13.346925],[-176.20166,-13.347053],[-176.20107,-13.346391],[-176.20102,-13.346191],[-176.20084,-13.345986],[-176.20071,-13.346012],[-176.20065,-13.345949],[-176.20068,-13.345688],[-176.20068,-13.345394],[-176.1996,-13.343984],[-176.1992,-13.344374],[-176.199,-13.34422],[-176.1994,-13.343772],[-176.19917,-13.343604],[-176.19905,-13.343659],[-176.19888,-13.343617],[-176.19873,-13.343474],[-176.19827,-13.343178],[-176.19786,-13.342958],[-176.19711,-13.34279],[-176.1971,-13.342884],[-176.19728,-13.343001],[-176.19727,-13.343282],[-176.19722,-13.343398],[-176.19713,-13.343474],[-176.19687,-13.34345],[-176.19664,-13.343351],[-176.19672,-13.343236],[-176.19687,-13.343142],[-176.19688,-13.3429985],[-176.19696,-13.342939],[-176.197,-13.342864],[-176.19702,-13.342781],[-176.19666,-13.342841],[-176.19637,-13.343007],[-176.19609,-13.343079],[-176.19568,-13.343744],[-176.19543,-13.344502],[-176.19301,-13.344887],[-176.19258,-13.344731],[-176.19162,-13.344586],[-176.19063,-13.344638],[-176.19017,-13.344993],[-176.19005,-13.345508],[-176.18956,-13.3457985],[-176.1892,-13.34613],[-176.18889,-13.34647],[-176.18872,-13.346792],[-176.18854,-13.347007],[-176.18839,-13.347489],[-176.1879,-13.347958],[-176.18744,-13.348072],[-176.1872,-13.348186],[-176.1865,-13.34848],[-176.18585,-13.348498],[-176.18562,-13.3489065],[-176.18529,-13.348971],[-176.1848,-13.349303],[-176.18446,-13.349211],[-176.18422,-13.349354],[-176.18379,-13.349312],[-176.18338,-13.349016],[-176.183,-13.349194],[-176.18211,-13.348563],[-176.18147,-13.347542],[-176.18124,-13.347341],[-176.18091,-13.346965],[-176.1801,-13.346539],[-176.1795,-13.346003],[-176.179,-13.34589],[-176.17868,-13.346205],[-176.17735,-13.345557],[-176.17616,-13.345213],[-176.17563,-13.343053],[-176.17525,-13.342131],[-176.17528,-13.341672],[-176.17566,-13.341241],[-176.17607,-13.34114],[-176.17673,-13.34048],[-176.17728,-13.340105],[-176.17833,-13.339561],[-176.17911,-13.33895],[-176.1794,-13.33892],[-176.17964,-13.338712],[-176.17978,-13.338482],[-176.18019,-13.338533],[-176.18051,-13.338334],[-176.1814,-13.3383465],[-176.18239,-13.338322],[-176.1828,-13.338698],[-176.18321,-13.338955],[-176.1837,-13.339142],[-176.18413,-13.339258],[-176.18452,-13.339388],[-176.18518,-13.339125],[-176.18571,-13.338824],[-176.18622,-13.338479],[-176.18658,-13.338123],[-176.18681,-13.337852],[-176.18697,-13.337621],[-176.18706,-13.337351],[-176.18694,-13.33723],[-176.18697,-13.337068],[-176.18706,-13.336931],[-176.18727,-13.336918],[-176.18755,-13.336066],[-176.18745,-13.336013],[-176.18748,-13.33586],[-176.18765,-13.335872],[-176.18773,-13.33562],[-176.18777,-13.33532],[-176.18777,-13.335191],[-176.18768,-13.335096],[-176.18764,-13.334863],[-176.18784,-13.334669],[-176.18776,-13.333633],[-176.18744,-13.333131],[-176.18723,-13.33285],[-176.1869,-13.332614],[-176.18596,-13.332036],[-176.18533,-13.331706],[-176.18507,-13.331565],[-176.18523,-13.331327],[-176.18665,-13.33114],[-176.18806,-13.331391],[-176.18903,-13.331976],[-176.18942,-13.33209],[-176.19028,-13.331766],[-176.19061,-13.331404],[-176.18983,-13.330498],[-176.18889,-13.3303],[-176.18913,-13.329792],[-176.18916,-13.329535],[-176.18895,-13.32937],[-176.18861,-13.329396],[-176.1886,-13.329276],[-176.18864,-13.329203],[-176.18895,-13.329046],[-176.1894,-13.329162],[-176.18953,-13.3290615],[-176.18979,-13.328685],[-176.18985,-13.328314],[-176.18958,-13.328337],[-176.18956,-13.327941],[-176.18993,-13.327913],[-176.18985,-13.327497],[-176.18983,-13.326959],[-176.18933,-13.326272],[-176.18796,-13.324801],[-176.18785,-13.324808],[-176.18771,-13.324852],[-176.18758,-13.324828],[-176.18744,-13.324589],[-176.1875,-13.324445],[-176.18745,-13.324297],[-176.1873,-13.324197],[-176.18721,-13.324118],[-176.18706,-13.324095],[-176.1868,-13.323899],[-176.18675,-13.323747],[-176.18661,-13.323609],[-176.18651,-13.323451],[-176.18661,-13.323238],[-176.18665,-13.32298],[-176.18669,-13.322871],[-176.18684,-13.322834],[-176.18703,-13.322911],[-176.18716,-13.323027],[-176.18738,-13.323007],[-176.18777,-13.322525],[-176.18793,-13.321988],[-176.18814,-13.321137],[-176.18849,-13.321122],[-176.18875,-13.320872],[-176.18883,-13.32058],[-176.18883,-13.320222],[-176.18867,-13.320058],[-176.1888,-13.319714],[-176.18877,-13.319301],[-176.18861,-13.318754],[-176.1883,-13.317929],[-176.18787,-13.316266],[-176.18724,-13.314577],[-176.18695,-13.314108],[-176.18668,-13.313567],[-176.18657,-13.313022],[-176.1862,-13.312628],[-176.18567,-13.312684],[-176.18509,-13.312394],[-176.18451,-13.312221],[-176.18445,-13.311701],[-176.18445,-13.311167],[-176.1848,-13.31085],[-176.1851,-13.310702],[-176.18541,-13.310383],[-176.18564,-13.310381],[-176.18578,-13.310329],[-176.1859,-13.310214],[-176.1863,-13.310143],[-176.18666,-13.309621],[-176.1872,-13.309129],[-176.18733,-13.308744],[-176.18756,-13.30811],[-176.18753,-13.307429],[-176.18721,-13.306797],[-176.18651,-13.305792],[-176.18575,-13.305166],[-176.18497,-13.305035],[-176.18465,-13.305162],[-176.18321,-13.306116],[-176.18216,-13.306708],[-176.18175,-13.306699],[-176.18066,-13.306222],[-176.17976,-13.305285],[-176.17984,-13.303931],[-176.18019,-13.302526],[-176.17992,-13.301668],[-176.17975,-13.301264],[-176.18031,-13.300989],[-176.1805,-13.299653],[-176.18106,-13.298958],[-176.18231,-13.298646],[-176.18254,-13.2985935],[-176.18275,-13.298515],[-176.18295,-13.298277],[-176.18304,-13.297986],[-176.18317,-13.297784],[-176.1832,-13.297525],[-176.18317,-13.297008],[-176.1831,-13.296534],[-176.18304,-13.296272],[-176.18294,-13.2961035],[-176.18285,-13.295918],[-176.18266,-13.295746],[-176.18236,-13.295667],[-176.18222,-13.295203],[-176.18257,-13.295032],[-176.18257,-13.294857],[-176.1821,-13.29374],[-176.18173,-13.293877],[-176.18163,-13.293597],[-176.18184,-13.293504],[-176.1818,-13.293148],[-176.18123,-13.292357],[-176.18109,-13.29218],[-176.18045,-13.290829],[-176.1792,-13.289601],[-176.17769,-13.287037],[-176.17729,-13.286442],[-176.17665,-13.285447],[-176.17615,-13.284711],[-176.17587,-13.284497],[-176.17578,-13.284565],[-176.17564,-13.284481],[-176.17525,-13.2841835],[-176.17465,-13.284666],[-176.17429,-13.284816],[-176.17378,-13.284471],[-176.17256,-13.283338],[-176.17241,-13.283361],[-176.17227,-13.283348],[-176.17203,-13.2832775],[-176.17183,-13.283426],[-176.17006,-13.284639],[-176.17001,-13.28464],[-176.16998,-13.284659],[-176.16998,-13.284698],[-176.1696,-13.284969],[-176.16943,-13.285314],[-176.16939,-13.285246],[-176.1693,-13.285334],[-176.16927,-13.285417],[-176.1693,-13.285522],[-176.16925,-13.285642],[-176.16907,-13.285756],[-176.16843,-13.284708],[-176.16951,-13.284008],[-176.1699,-13.284594],[-176.16998,-13.284551],[-176.17,-13.284525],[-176.17075,-13.284023],[-176.17078,-13.284039],[-176.17082,-13.284],[-176.1708,-13.28395],[-176.17155,-13.283434],[-176.1713,-13.283044]]],[[[-176.21017,-13.375814],[-176.21016,-13.375822],[-176.21016,-13.375818],[-176.21014,-13.375807],[-176.21016,-13.37579],[-176.21016,-13.3757715],[-176.21017,-13.375744],[-176.21017,-13.375719],[-176.2102,-13.375659],[-176.21022,-13.375612],[-176.21022,-13.3755865],[-176.2102,-13.375551],[-176.2102,-13.37553],[-176.21022,-13.375519],[-176.21024,-13.375497],[-176.2102,-13.375483],[-176.21019,-13.375472],[-176.21017,-13.37546],[-176.21017,-13.375432],[-176.21019,-13.375408],[-176.2102,-13.375378],[-176.21027,-13.37536],[-176.2103,-13.375356],[-176.21033,-13.375358],[-176.21037,-13.375366],[-176.21039,-13.375386],[-176.21039,-13.37541],[-176.2104,-13.37541],[-176.21045,-13.375418],[-176.21051,-13.3754425],[-176.21053,-13.37546],[-176.21057,-13.375484],[-176.21062,-13.375511],[-176.21062,-13.375524],[-176.21062,-13.375541],[-176.21062,-13.3755665],[-176.2106,-13.375597],[-176.2106,-13.375624],[-176.21057,-13.375658],[-176.21056,-13.375688],[-176.21056,-13.375709],[-176.21056,-13.375737],[-176.21057,-13.375771],[-176.21056,-13.375804],[-176.21054,-13.375827],[-176.21053,-13.375846],[-176.2105,-13.3758545],[-176.2105,-13.375858],[-176.21046,-13.3758545],[-176.21045,-13.3758545],[-176.21043,-13.375861],[-176.21042,-13.375871],[-176.21039,-13.375888],[-176.21039,-13.375904],[-176.21037,-13.375921],[-176.21036,-13.375923],[-176.21034,-13.375931],[-176.21033,-13.375933],[-176.21033,-13.375923],[-176.21033,-13.375908],[-176.21033,-13.375892],[-176.2103,-13.37588],[-176.2103,-13.375877],[-176.21028,-13.375883],[-176.21028,-13.375877],[-176.21027,-13.375874],[-176.21027,-13.375878],[-176.21022,-13.375883],[-176.2102,-13.375885],[-176.21019,-13.3758745],[-176.21019,-13.375856],[-176.21017,-13.37584],[-176.21017,-13.375828],[-176.21017,-13.375814]]]]}}
