{"type":"Feature","id":"relation/536773","properties":{"type":"relation","id":536773,"tags":{"ISO3166-1":"MV","ISO3166-1:alpha2":"MV","ISO3166-1:alpha3":"MDV","ISO3166-1:numeric":"462","admin_level":"2","boundary":"administrative","flag":"http://upload.wikimedia.org/wikipedia/commons/0/0f/Flag_of_Maldives.svg","is_in:continent":"Asia","name":"ދިވެހިރާއްޖެ","name:af":"Maldive","name:am":"ማልዲቭስ","name:ar":"ملديف","name:ast":"Les Maldives","name:az":"Maldiv","name:be":"Мальдзівы","name:bg":"Малдиви","name:bm":"Maldivi","name:bn":"মালদ্বীপ","name:bo":"མལ་དྭིབ།","name:br":"Maldivez","name:bs":"Maldivi","name:ca":"Maldives","name:chr":"ᎹᎵᏗᏫᏍ","name:cs":"Maledivy","name:da":"Maldiverne","name:de":"Malediven","name:dv":"ދިވެހިރާއްޖެ","name:dz":"མཱལ་དིབས","name:ee":"maldivesdukɔ","name:el":"Μαλδίβες","name:en":"Maldives","name:eo":"Maldivoj","name:es":"Maldivas","name:et":"Maldiivid","name:eu":"Maldivak","name:fa":"مالدیو","name:ff":"Maldiiwe","name:fi":"Malediivit","name:fo":"Maldivuoyggjarnar","name:fr":"Maldives","name:fur":"Maldivis","name:fy":"de Maldiven","name:ga":"Oileáin Mhaildíve","name:gd":"Na h-Eileanan Mhaladaibh","name:gl":"Maldivas","name:gu":"માલદિવ્સ","name:gv":"Ny Maldeevaghyn","name:ha":"Maldibi","name:haw":"Maladiwa","name:he":"מלדיבים","name:hi":"मालदीव","name:hr":"Maldivi","name:hu":"Maldív-szigetek","name:hy":"Մալդիվներ","name:id":"Maladewa","name:ig":"Maldivesa","name:is":"Maldíveyjar","name:it":"Maldive","name:ja":"モルディブ","name:ka":"მალდივის კუნძულები","name:kab":"Maldib","name:ki":"Modivu","name:km":"ម៉ាល់ឌីវ","name:kn":"ಮಾಲ್ಡಿವ್ಸ್","name:ko":"몰디브","name:ks":"مالدیٖو","name:ksh":"de Mallediive","name:ku":"Maldîv","name:la":"Insulae Maldivae","name:lb":"Malediven","name:lg":"Bizinga by'eMalidive","name:ln":"Madívɛ","name:lo":"ມັນດິຟ","name:lt":"Maldyvai","name:lv":"Maldīvija","name:mg":"Maldiva","name:mk":"Малдиви","name:ml":"മാലിദ്വീപ്","name:mn":"Мальдив","name:mr":"मालदीव्ज","name:ms":"Maldiv","name:my":"မော်လဒိုက်","name:ne":"माल्दिभ्स","name:nl":"Malediven","name:nn":"Maldivane","name:no":"Maldivene","name:or":"ମାଳଦ୍ବୀପ","name:pl":"Malediwy","name:pt":"Maldivas","name:rm":"Maldivas","name:rn":"Moludave","name:ro":"Maldive","name:ru":"Мальдивы","name:se":"Malediivvat","name:sg":"Maldîva","name:si":"මාල දිවයින","name:sk":"Maledivy","name:sl":"Maldivi","name:so":"Maaldiqeen","name:sq":"Maldivit","name:sr":"Малдиви","name:sv":"Maldiverna","name:sw":"Modivu","name:ta":"மாலத்தீவு","name:te":"మాల్దీవులు","name:th":"ประเทศมัลดีฟส์","name:ti":"ማልዲቭስ","name:to":"Malativisi","name:tr":"Maldivler","name:tt":"Мальдивлар","name:tzl":"Divehins","name:uk":"Мальдіви","name:ur":"مالدیو","name:vi":"Maldives","name:yo":"Orílẹ́ède Maladifi","name:zh":"马尔代夫","name:zh_pinyin":"Mǎěrdàifū","name:zu":"i-Maldives","official_name:be":"Мальдыўская Рэспубліка","official_name:et":"Maldiivi Vabariik","official_name:id":"Republik Maladewa","official_name:it":"Repubblica delle Maledive","official_name:ku":"Komara Maldîvan","official_name:lb":"Republik Malediven","official_name:lt":"Maldyvų Respublika","official_name:lv":"Maldīvijas Republika","official_name:pl":"Republika Malediwów","official_name:ru":"Мальдивская Республика","official_name:sv":"Republiken Maldiverna","population":"328536","timezone":"Indian/Maldives","type":"boundary","wikidata":"Q826","wikipedia":"en:Maldives"},"labels":[{"id":"node/424311641","role":"label","coordinates":[73.32879,4.7064347]},{"id":"node/3385374395","role":"admin_centre","coordinates":[73.510735,4.1779876]}]},"geometry":{"type":"Polygon","coordinates":[[[72.49918,4.6383214],[72.53541,4.2395253],[72.51352,4.1247644],[72.51145,4.1115694],[72.504524,4.055187],[72.50303,4.0333266],[72.50089,3.8768277],[72.49718,3.7950368],[72.49696,3.7857988],[72.497,3.6272109],[72.49922,3.597394],[72.53468,3.3724732],[72.58985,2.9832625],[72.622955,2.767532],[72.62361,2.7633746],[72.66633,2.5397983],[72.68597,2.3962727],[72.71579,1.8838252],[72.74741,1.3400524],[72.79029,0.6258529],[72.793365,0.54975736],[72.78879,0.52116007],[72.786255,0.4871229],[72.789474,0.4531448],[72.80397,0.3730134],[72.83648,-0.0647332],[72.864624,-0.4438493],[72.87678,-0.6074197],[72.88323,-0.6452874],[72.89673,-0.6812256],[72.92573,-0.74054754],[72.93234,-0.7553749],[72.955894,-0.7951507],[72.966446,-0.8090394],[72.99812,-0.84209067],[73.01757,-0.85820305],[73.06082,-0.88553315],[73.068596,-0.8891451],[73.09784,-0.90002555],[73.1284,-0.9061918],[73.159546,-0.9074935],[73.174545,-0.90693957],[73.213974,-0.9014887],[73.25154,-0.888275],[73.28575,-0.8678232],[73.3052,-0.853379],[73.32079,-0.84053457],[73.35274,-0.8113674],[73.379616,-0.7813418],[73.38698,-0.7705041],[73.61201,-0.41492507],[73.62894,-0.38171208],[73.63947,-0.3459197],[73.70652,-0.0040821],[73.76056,0.23534329],[73.78504,0.39633387],[73.788,0.4310208],[73.78684,1.3854208],[73.78594,2.1205797],[73.82849,2.4489615],[73.85434,2.6484601],[73.935104,3.1909554],[73.96838,3.429649],[73.97009,3.4670672],[73.95015,3.782082],[73.92255,4.467427],[73.92229,4.4718213],[73.87898,5.091613],[73.85866,5.3821845],[73.853294,5.416324],[73.84217,5.4490376],[73.82562,5.479357],[73.820915,5.4852767],[73.75431,5.736954],[73.653145,6.119056],[73.61649,6.2574015],[73.52015,6.620926],[73.47561,6.7918153],[73.43271,6.949017],[73.42573,6.976949],[73.42352,6.984616],[73.41202,7.0216675],[73.401665,7.0476832],[73.38653,7.0737753],[73.36767,7.097312],[73.35989,7.105648],[73.33041,7.131611],[73.29643,7.15135],[72.987144,7.2924905],[72.94634,7.3060412],[72.903595,7.3106246],[72.89721,7.3106236],[72.8465,7.30413],[72.79204,7.2899504],[72.76345,7.280163],[72.726494,7.2643194],[72.69943,7.250199],[72.674835,7.2321515],[72.670944,7.2288165],[72.64514,7.2021756],[72.62467,7.1712527],[72.61857,7.1598625],[72.60271,7.1209636],[72.51174,6.8074265],[72.36251,6.2926445],[72.35548,6.2557945],[72.35542,6.218279],[72.36931,6.065795],[72.4585,5.0858164],[72.49918,4.6383214]]]}}
