{"type":"Feature","id":"relation/1029112","properties":{"type":"relation","id":1029112,"tags":{"addr:country":"RU","addr:region":"Мурманская область","admin_level":"6","area":"yes","boundary":"administrative","int_name":"Koutero District","name":"Ковдорский район","name:en":"Koutero District","name:fi":"Kouteron piiri","name:ru":"Ковдорский район","official_status":"ru:городской округ","oktmo:user":"47703000","type":"boundary","wikidata":"Q2707279","wikipedia":"ru:Городской округ Ковдорский район"},"labels":[{"id":"node/304025149","role":"admin_centre","coordinates":[30.474106,67.56305]}]},"geometry":{"type":"Polygon","coordinates":[[[30.01734,67.67357],[30.271875,67.58612],[30.304758,67.5498],[30.415533,67.42608],[30.458597,67.39024],[30.587002,67.28218],[30.753447,67.14124],[31.770712,67.437294],[31.943571,67.47888],[31.964792,67.48398],[31.983213,67.60102],[31.949715,67.68901],[31.73132,67.720955],[31.760746,67.833984],[31.748348,67.86977],[31.737015,67.91535],[31.738646,67.93481],[31.767828,67.96364],[31.783978,67.9714],[31.329136,67.89329],[31.17047,67.86555],[30.745272,67.8191],[30.01734,67.67357]]]}}
