{"type":"Feature","id":"relation/69348","properties":{"type":"relation","id":69348,"tags":{"addr:city":"Hoenheim","addr:postcode":"67800","admin_level":"8","boundary":"administrative","name":"Hoenheim","name:als":"Hönheim","name:ca":"Hoenheim","name:ceb":"Hoenheim","name:de":"Hönheim","name:en":"Hoenheim","name:es":"Hoenheim","name:eu":"Hoenheim","name:it":"Hoenheim","name:la":"Hoenheim","name:lb":"Hoenheim","name:ms":"Hoenheim","name:nl":"Hoenheim","name:oc":"Hoenheim","name:pfl":"Heene","name:pl":"Hoenheim","name:pms":"Hoenheim","name:pt":"Hoenheim","name:ro":"Hoenheim","name:sk":"Hoenheim","name:sv":"Hoenheim","name:uk":"Оенайм","name:vi":"Hoenheim","name:vo":"Hoenheim","name:war":"Hoenheim","ref:INSEE":"67204","type":"boundary","website":"http://www.ville-hoenheim.fr","wikipedia":"fr:Hoenheim"},"labels":[{"id":"node/26692107","role":"admin_centre","coordinates":[7.7552857,48.62505]}]},"geometry":{"type":"Polygon","coordinates":[[[7.768087,48.616817],[7.7681117,48.6169],[7.76812,48.616943],[7.7686615,48.618767],[7.769062,48.620052],[7.76925,48.620678],[7.769985,48.62199],[7.770275,48.622417],[7.770801,48.62286],[7.771391,48.62327],[7.7718544,48.623543],[7.772142,48.62369],[7.773255,48.62426],[7.7762594,48.62563],[7.7775154,48.626167],[7.7784076,48.62649],[7.776768,48.628742],[7.7758446,48.629646],[7.7756233,48.629772],[7.7754154,48.62968],[7.7750645,48.62947],[7.770567,48.626915],[7.77007,48.626637],[7.769832,48.626503],[7.7693563,48.626225],[7.768397,48.625717],[7.767651,48.62542],[7.762791,48.629524],[7.763979,48.630173],[7.7646646,48.630516],[7.7651863,48.630802],[7.770113,48.633465],[7.7724953,48.63198],[7.778874,48.63547],[7.77846,48.636066],[7.7783256,48.63642],[7.778494,48.636784],[7.778941,48.63712],[7.781225,48.63768],[7.7826576,48.63806],[7.7826295,48.63818],[7.7812185,48.638233],[7.781213,48.638298],[7.781173,48.638393],[7.7809854,48.638622],[7.7807336,48.63896],[7.780549,48.638847],[7.7803965,48.638885],[7.779641,48.638466],[7.7794733,48.638577],[7.7710576,48.634052],[7.7659864,48.633183],[7.7625685,48.63256],[7.7575917,48.631645],[7.7586966,48.629353],[7.758254,48.629066],[7.7576447,48.628727],[7.757319,48.628517],[7.755992,48.627777],[7.7546244,48.626965],[7.7545047,48.627285],[7.754502,48.627415],[7.7544646,48.627525],[7.7544475,48.62783],[7.7546153,48.62841],[7.7546415,48.62863],[7.7538786,48.627968],[7.7537847,48.627968],[7.753653,48.62796],[7.75366,48.628113],[7.7509365,48.62736],[7.750837,48.626957],[7.75055,48.626793],[7.7506814,48.626675],[7.7489834,48.626965],[7.7489243,48.626835],[7.7463307,48.626766],[7.7461257,48.62635],[7.7428203,48.62514],[7.7427583,48.62589],[7.740133,48.625687],[7.740103,48.625507],[7.7369347,48.62515],[7.7370534,48.62469],[7.735265,48.624443],[7.732901,48.623722],[7.7320876,48.6235],[7.73067,48.62319],[7.730576,48.623173],[7.7304907,48.62315],[7.730413,48.623135],[7.730299,48.62311],[7.72893,48.622814],[7.7283463,48.622715],[7.727912,48.622665],[7.7270207,48.62252],[7.7269974,48.62246],[7.7263722,48.622356],[7.7260723,48.622643],[7.725468,48.622513],[7.724532,48.62261],[7.722938,48.622723],[7.722813,48.62271],[7.7222953,48.622723],[7.721397,48.62264],[7.7212267,48.622665],[7.721026,48.623085],[7.7196383,48.623005],[7.71963,48.622917],[7.717333,48.62345],[7.7169333,48.623455],[7.716981,48.623108],[7.717114,48.622932],[7.7179866,48.622177],[7.717832,48.62217],[7.7175975,48.622383],[7.7175674,48.621296],[7.7175736,48.620007],[7.717904,48.620014],[7.718965,48.620094],[7.7188616,48.621277],[7.71955,48.621296],[7.719495,48.620377],[7.719985,48.620323],[7.7203197,48.620327],[7.722833,48.620934],[7.7230663,48.620697],[7.7235646,48.62079],[7.72416,48.619453],[7.726098,48.619656],[7.726093,48.619293],[7.7278695,48.619442],[7.729198,48.61949],[7.73034,48.619606],[7.7314177,48.619713],[7.7315717,48.619167],[7.7334657,48.619423],[7.7334967,48.618996],[7.7344303,48.61903],[7.7354183,48.619064],[7.735418,48.619083],[7.735418,48.619102],[7.735927,48.619106],[7.735942,48.619102],[7.7361755,48.619083],[7.736204,48.619164],[7.736954,48.619118],[7.7379313,48.619072],[7.7396927,48.619102],[7.7397037,48.619015],[7.7397795,48.619026],[7.739791,48.618935],[7.7411003,48.61905],[7.74179,48.619072],[7.744047,48.619087],[7.7451324,48.619095],[7.745155,48.619034],[7.7466936,48.61903],[7.7467465,48.61903],[7.752151,48.618896],[7.7522216,48.618893],[7.7538853,48.618828],[7.7548466,48.6188],[7.75584,48.618786],[7.756076,48.618786],[7.7570143,48.618782],[7.7605834,48.6188],[7.7606106,48.618855],[7.760632,48.618942],[7.7606697,48.61899],[7.7608447,48.619072],[7.760796,48.619415],[7.7614017,48.61945],[7.761587,48.619644],[7.7617235,48.619846],[7.761728,48.619884],[7.76184,48.620026],[7.761839,48.620064],[7.761801,48.620155],[7.7618456,48.620525],[7.7618294,48.620525],[7.7617407,48.620712],[7.762003,48.620743],[7.762035,48.620705],[7.763267,48.62011],[7.764595,48.619377],[7.7663965,48.618366],[7.7666965,48.618168],[7.7667675,48.61811],[7.7668824,48.618004],[7.767113,48.617718],[7.7673984,48.617382],[7.76747,48.617294],[7.767643,48.617104],[7.7677155,48.61701],[7.767847,48.61693],[7.7679343,48.6169],[7.7679896,48.616837],[7.768087,48.616817]]]}}
