{"type":"Feature","id":"relation/3629334","properties":{"type":"relation","id":3629334,"tags":{"admin_level":"8","boundary":"administrative","name":"Сватове","name:de":"Swatowe","name:en":"Svatove","name:fa":"اسواتوفه","name:fr":"Svatove","name:nn":"Svatove","name:pl":"Swatowe","name:ro":"Svatove","name:ru":"Сватово","name:uk":"Сватове","name:vi":"Svatove","name:zh":"斯瓦托韋","place":"town","type":"boundary"},"labels":[{"id":"node/1419442319","role":"admin_centre","coordinates":[38.15513,49.415062]}]},"geometry":{"type":"Polygon","coordinates":[[[38.12719,49.4038],[38.140007,49.387474],[38.135777,49.38286],[38.13952,49.37715],[38.14264,49.372387],[38.14803,49.37413],[38.145386,49.37771],[38.15157,49.380108],[38.15088,49.383537],[38.162346,49.38319],[38.15941,49.37796],[38.170963,49.373753],[38.177307,49.37372],[38.174908,49.382336],[38.18504,49.383717],[38.1847,49.39281],[38.214222,49.395557],[38.19019,49.405342],[38.18436,49.41049],[38.18813,49.42079],[38.175087,49.446198],[38.15775,49.44431],[38.15346,49.43762],[38.127018,49.43985],[38.125664,49.44233],[38.112766,49.444996],[38.10985,49.440357],[38.11329,49.439156],[38.112427,49.435387],[38.12273,49.43298],[38.122387,49.422165],[38.123314,49.42023],[38.1223,49.41464],[38.121662,49.411156],[38.12685,49.409637],[38.13062,49.407383],[38.12719,49.4038]]]}}
