{"type":"Feature","id":"relation/3942320","properties":{"type":"relation","id":3942320,"tags":{"addr:postcode":"85180","admin_level":"9","boundary":"administrative","koatuu":"1422485801","name":"Тарасівка","name:be":"Тарасаўка","name:en":"Tarasivka","name:prefix":"село","name:ru":"Тарасовка","name:uk":"Тарасівка","place":"village","population":"425","type":"boundary","wikidata":"Q4451761","wikipedia":"uk:Тарасівка (Костянтинівський район)","wikipedia:ru":"Тарасовка (Константиновский район)"},"labels":[{"id":"node/256615513","role":"admin_centre","coordinates":[37.55238,48.348507]}]},"geometry":{"type":"Polygon","coordinates":[[[37.57479,48.33332],[37.566704,48.33727],[37.567764,48.339565],[37.556587,48.34362],[37.556927,48.34602],[37.55716,48.354267],[37.552856,48.35969],[37.55038,48.363388],[37.54753,48.36244],[37.55086,48.358677],[37.55024,48.35255],[37.54887,48.34122],[37.56041,48.33672],[37.565754,48.334824],[37.572548,48.3304],[37.57513,48.33177],[37.575638,48.331947],[37.5765,48.332626],[37.57479,48.33332]]]}}
