{"type":"Feature","id":"relation/5400890","properties":{"type":"relation","id":5400890,"tags":{"admin_level":"7","border_type":"município","boundary":"administrative","ine:code":"1106","is_in":"Portugal","is_in:continent":"Europe","is_in:country":"Portugal","is_in:country_code":"PT","is_in:iso_3166_2":"PT-11","name":"Lisboa","name:ace":"Lisbon","name:am":"ሊዝቦን","name:an":"Lisbona","name:ar":"لشبونة","name:arc":"ܠܫܒܘܢܐ","name:arz":"ليشبوا","name:ast":"Lisboa","name:ba":"Лиссабон","name:bat-smg":"Lisabuona","name:be":"Лісабон","name:be-tarask":"Лісабон","name:bg":"Лисабон","name:bn":"লিসবন","name:bo":"ལི་སི་བཱོན།","name:br":"Lisbon","name:bs":"Lisabon","name:ca":"Lisboa","name:ckb":"لیسبۆن","name:co":"Lisbona","name:crh":"Lisbon","name:cs":"Lisabon","name:csb":"Lisabón","name:cv":"Лиссабон","name:cy":"Lisbon","name:da":"Lissabon","name:de":"Lissabon","name:diq":"Lizbon","name:ee":"Lisbon","name:el":"Λισαβόνα","name:en":"Lisbon","name:eo":"Lisbono","name:es":"Lisboa","name:et":"Lissabon","name:eu":"Lisboa","name:ext":"Lisboa","name:fa":"لیسبون","name:fi":"Lissabon","name:fo":"Lisboa","name:fr":"Lisbonne","name:frp":"Lisbona","name:fur":"Lisbone","name:fy":"Lissabon","name:ga":"Liospóin","name:gd":"Lisbon","name:gl":"Lisboa","name:gn":"Lisimbã","name:gv":"Lisboa","name:haw":"Likepona","name:he":"ליסבון","name:hi":"लिस्बन","name:hif":"Lisbon","name:hr":"Lisabon","name:hsb":"Lisabon","name:ht":"Lisbòn","name:hu":"Lisszabon","name:hy":"Լիսաբոն","name:ia":"Lisbona","name:id":"Lisboa","name:ie":"Lisboa","name:ilo":"Lisbon","name:io":"Lisboa","name:is":"Lissabon","name:it":"Lisbona","name:ja":"リスボン","name:jv":"Lisabon","name:ka":"ლისაბონი","name:kab":"Lisbun","name:kk":"Лиссабон","name:kn":"ಲಿಸ್ಬೊನ್","name:ko":"리스본","name:ku":"Lîzbon","name:kv":"Лиссабон","name:kw":"Lisboa","name:ky":"Лиссабон","name:la":"Olisipo","name:lad":"Lisboa","name:lij":"Lisbonn-a","name:lmo":"Lisbuna","name:ln":"Lisboa","name:lt":"Lisabona","name:lv":"Lisabona","name:mi":"Rihipone","name:mk":"Лисабон","name:ml":"ലിസ്‌ബൺ","name:mr":"लिस्बन","name:mrj":"Лиссабон","name:ms":"Lisbon","name:mwl":"Lisboua","name:my":"လစ်စဘွန်းမြို့","name:myv":"Лиссабон ош","name:mzn":"لیسبون","name:nah":"Lisboa","name:nl":"Lissabon","name:nn":"Lisboa","name:no":"Lisboa","name:nov":"Lisboa","name:oc":"Lisbona","name:os":"Лиссабон","name:pap":"Lisboa","name:pl":"Lizbona","name:pms":"Lisbon-a","name:pnb":"لزبن","name:pt":"Lisboa","name:qu":"Lisboa","name:rm":"Lisbona","name:rmy":"Lisbon","name:rn":"Lisboa","name:ro":"Lisabona","name:roa-rup":"Lisabon","name:ru":"Лиссабон","name:sa":"लिस्बन","name:sah":"Лиссабон","name:sc":"Lisbona","name:scn":"Lisbona","name:sco":"Lisbon","name:sh":"Lisabon","name:simple":"Lisbon","name:sk":"Lisabon","name:sl":"Lizbona","name:sq":"Lisbona","name:sr":"Лисабон","name:srn":"Lisbon","name:st":"Lisbon","name:sv":"Lissabon","name:sw":"Lisbon","name:szl":"Lizbůna","name:ta":"லிஸ்பன்","name:te":"లిస్బన్","name:tet":"Lizboa","name:tg":"Лиссабон","name:th":"ลิสบอน","name:tl":"Lisboa","name:tr":"Lizbon","name:tt":"Лиссабон","name:tw":"Lisbon","name:ty":"Lisboa","name:tzl":"Lispovia","name:udm":"Лиссабон","name:ug":"لىسبون","name:uk":"Лісабон","name:ur":"لزبن","name:vec":"Łisbóna","name:vi":"Lisboa","name:vo":"Lisboa","name:war":"Lisboa","name:wo":"Lisbon","name:yi":"ליסבאן","name:yo":"Lisbon","name:zh":"里斯本","name:zh-min-nan":"Lisboa","name:zh_pinyin":"Lǐsīběn","official_name":"Município de Lisboa","place":"city","population":"547733","population:date":"2011","start_date":"1147","type":"boundary","website":"http://www.cm-lisboa.pt/","wikidata":"Q597","wikipedia":"pt:Lisboa"},"labels":[{"id":"node/265958490","role":"admin_centre","coordinates":[-9.136505,38.707794]}]},"geometry":{"type":"Polygon","coordinates":[[[-9.094631,38.75324],[-9.094614,38.7533],[-9.094463,38.753273],[-9.094246,38.75338],[-9.094078,38.75327],[-9.09351,38.753235],[-9.09319,38.753258],[-9.092914,38.753304],[-9.092235,38.753548],[-9.091891,38.75375],[-9.092331,38.75437],[-9.092006,38.75462],[-9.091666,38.755264],[-9.091318,38.756657],[-9.09123,38.75677],[-9.090666,38.758907],[-9.090665,38.75902],[-9.090749,38.759033],[-9.090579,38.75996],[-9.0906315,38.761097],[-9.0909395,38.761883],[-9.091714,38.76331],[-9.091915,38.76476],[-9.09189,38.76602],[-9.092115,38.766026],[-9.09203,38.76708],[-9.091385,38.767044],[-9.091358,38.767315],[-9.092008,38.76735],[-9.091731,38.77078],[-9.091796,38.770782],[-9.091757,38.771317],[-9.091688,38.771317],[-9.091527,38.773277],[-9.091466,38.773277],[-9.091465,38.773235],[-9.091299,38.773266],[-9.091266,38.773655],[-9.091498,38.773666],[-9.091424,38.77463],[-9.0910425,38.77463],[-9.090776,38.77471],[-9.090902,38.774803],[-9.091405,38.77487],[-9.090878,38.781452],[-9.088975,38.781998],[-9.088228,38.78646],[-9.08766,38.788742],[-9.087437,38.79085],[-9.087135,38.792953],[-9.086332,38.796227],[-9.089955,38.796196],[-9.091657,38.796204],[-9.09231,38.796177],[-9.0925255,38.796204],[-9.092551,38.796295],[-9.0926,38.796272],[-9.09282,38.796272],[-9.093059,38.796314],[-9.093057,38.79634],[-9.0931225,38.796345],[-9.093124,38.796314],[-9.0932865,38.796337],[-9.093816,38.796455],[-9.095046,38.796688],[-9.095511,38.796753],[-9.096008,38.796757],[-9.096295,38.79673],[-9.096843,38.796604],[-9.097524,38.796303],[-9.097924,38.79616],[-9.098178,38.79612],[-9.098559,38.796135],[-9.098653,38.79617],[-9.099397,38.796368],[-9.100736,38.791737],[-9.1009865,38.790062],[-9.101022,38.789352],[-9.100955,38.787712],[-9.100322,38.783195],[-9.099126,38.77522],[-9.100761,38.775173],[-9.103714,38.774975],[-9.105066,38.774887],[-9.106236,38.774803],[-9.1066475,38.77487],[-9.107858,38.775723],[-9.108453,38.776222],[-9.110053,38.777225],[-9.110989,38.778687],[-9.1112,38.778893],[-9.11184,38.779346],[-9.112588,38.779743],[-9.113102,38.78008],[-9.114291,38.780563],[-9.114892,38.780636],[-9.117359,38.781425],[-9.1195755,38.782043],[-9.120341,38.782585],[-9.120457,38.782513],[-9.120716,38.782677],[-9.121607,38.78264],[-9.122039,38.78336],[-9.122979,38.783066],[-9.123949,38.782806],[-9.124856,38.78283],[-9.12586,38.782997],[-9.126555,38.783295],[-9.128294,38.783855],[-9.129115,38.784008],[-9.129625,38.784027],[-9.129781,38.783997],[-9.131389,38.784348],[-9.133778,38.78487],[-9.133929,38.784847],[-9.135647,38.78513],[-9.1364155,38.785423],[-9.137064,38.78581],[-9.137795,38.78614],[-9.13977,38.7868],[-9.139903,38.786846],[-9.140367,38.78695],[-9.141149,38.787197],[-9.141744,38.78773],[-9.141685,38.7878],[-9.14234,38.788403],[-9.142524,38.788517],[-9.142785,38.78854],[-9.145092,38.788143],[-9.145295,38.788483],[-9.145516,38.78905],[-9.146003,38.79153],[-9.145987,38.791626],[-9.145467,38.791595],[-9.14541,38.791634],[-9.145395,38.79184],[-9.145501,38.792053],[-9.14554,38.79253],[-9.1456995,38.793125],[-9.146102,38.794113],[-9.147513,38.794575],[-9.1479645,38.79476],[-9.148163,38.794758],[-9.148319,38.7947],[-9.148614,38.794777],[-9.14934,38.795143],[-9.149452,38.795254],[-9.149669,38.795643],[-9.149887,38.795853],[-9.151404,38.795654],[-9.151451,38.795296],[-9.1523285,38.794846],[-9.152393,38.79453],[-9.152434,38.79445],[-9.152797,38.794304],[-9.15291,38.794468],[-9.153727,38.794437],[-9.153852,38.79459],[-9.154443,38.794544],[-9.154564,38.794502],[-9.154816,38.79429],[-9.154997,38.794],[-9.155067,38.793762],[-9.155154,38.7937],[-9.15573,38.793667],[-9.156442,38.793896],[-9.157226,38.793007],[-9.157354,38.79293],[-9.15786,38.792896],[-9.157982,38.792843],[-9.158142,38.79236],[-9.158407,38.792286],[-9.15847,38.79223],[-9.158486,38.79215],[-9.158414,38.792076],[-9.159258,38.791634],[-9.159661,38.790684],[-9.160122,38.79051],[-9.160685,38.790028],[-9.160793,38.790035],[-9.160866,38.789574],[-9.1617155,38.788757],[-9.161804,38.788704],[-9.162405,38.788635],[-9.163118,38.788082],[-9.163552,38.788143],[-9.163675,38.7881],[-9.163923,38.787872],[-9.163854,38.78747],[-9.165109,38.786594],[-9.165351,38.786606],[-9.165494,38.78619],[-9.16578,38.78608],[-9.165972,38.786297],[-9.166425,38.786232],[-9.167131,38.786366],[-9.167204,38.78634],[-9.167287,38.786037],[-9.168662,38.785942],[-9.168848,38.785767],[-9.169034,38.785763],[-9.169297,38.785557],[-9.169392,38.78553],[-9.169655,38.785267],[-9.169578,38.785004],[-9.170232,38.78367],[-9.170472,38.783665],[-9.170861,38.783497],[-9.171099,38.78321],[-9.171118,38.78302],[-9.171193,38.78288],[-9.172196,38.782734],[-9.172398,38.782608],[-9.172814,38.78215],[-9.173226,38.781925],[-9.173253,38.78207],[-9.173583,38.781998],[-9.173502,38.781277],[-9.173733,38.781193],[-9.173907,38.780567],[-9.175131,38.780235],[-9.175217,38.78026],[-9.175683,38.780407],[-9.175892,38.78036],[-9.176446,38.77986],[-9.177423,38.780067],[-9.177668,38.78019],[-9.178042,38.780228],[-9.179013,38.77984],[-9.17918,38.779877],[-9.179324,38.779858],[-9.179561,38.779453],[-9.179954,38.779312],[-9.180439,38.779167],[-9.181651,38.778988],[-9.181935,38.77874],[-9.182867,38.77858],[-9.183115,38.77854],[-9.183458,38.778027],[-9.183918,38.777546],[-9.184946,38.776638],[-9.185674,38.776226],[-9.1857395,38.775932],[-9.185874,38.77588],[-9.186034,38.775887],[-9.187452,38.77564],[-9.187925,38.775097],[-9.188233,38.77449],[-9.189054,38.77439],[-9.189125,38.77433],[-9.189374,38.774025],[-9.189656,38.773373],[-9.189837,38.77335],[-9.190294,38.773117],[-9.190374,38.772972],[-9.191626,38.772377],[-9.192153,38.77204],[-9.192295,38.772057],[-9.192614,38.772305],[-9.193177,38.772278],[-9.193209,38.772232],[-9.192984,38.771725],[-9.193062,38.771713],[-9.194416,38.77087],[-9.195237,38.76995],[-9.195527,38.769764],[-9.195914,38.769638],[-9.196035,38.76954],[-9.195988,38.769276],[-9.196382,38.76884],[-9.197005,38.768288],[-9.197068,38.768124],[-9.196928,38.767853],[-9.197249,38.767464],[-9.198507,38.76567],[-9.197695,38.764366],[-9.197386,38.76421],[-9.197471,38.76405],[-9.197635,38.76338],[-9.197837,38.763348],[-9.198377,38.763412],[-9.198645,38.76338],[-9.199795,38.762806],[-9.200354,38.762672],[-9.200441,38.762615],[-9.200701,38.76197],[-9.1994505,38.761456],[-9.1989,38.761555],[-9.198176,38.760956],[-9.198132,38.760582],[-9.198124,38.760536],[-9.197837,38.760586],[-9.197828,38.760475],[-9.198053,38.75906],[-9.198059,38.759056],[-9.198283,38.758984],[-9.1999035,38.7588],[-9.200151,38.75862],[-9.202321,38.75785],[-9.202856,38.75771],[-9.203972,38.75702],[-9.206185,38.75718],[-9.206345,38.75705],[-9.206602,38.75663],[-9.206865,38.756516],[-9.20693,38.75649],[-9.2070675,38.756477],[-9.207236,38.75655],[-9.2074175,38.756542],[-9.207936,38.756336],[-9.208081,38.756134],[-9.207913,38.755642],[-9.207932,38.755573],[-9.209061,38.754906],[-9.20875,38.754246],[-9.208991,38.754013],[-9.208688,38.753338],[-9.210269,38.75105],[-9.211252,38.750557],[-9.211416,38.750477],[-9.20572,38.743034],[-9.205625,38.742836],[-9.205389,38.740673],[-9.205355,38.740356],[-9.205094,38.737705],[-9.209914,38.73009],[-9.207954,38.724163],[-9.208167,38.723866],[-9.2103815,38.722538],[-9.21121,38.721992],[-9.214432,38.720757],[-9.215744,38.72004],[-9.2187605,38.718224],[-9.219235,38.717663],[-9.219884,38.71686],[-9.222284,38.71401],[-9.22244,38.71376],[-9.222618,38.713295],[-9.223246,38.710743],[-9.2233305,38.71008],[-9.223147,38.708927],[-9.223013,38.70854],[-9.2221985,38.70708],[-9.222143,38.70681],[-9.222189,38.70666],[-9.222243,38.70657],[-9.222463,38.706406],[-9.223905,38.705685],[-9.225532,38.70471],[-9.225825,38.7045],[-9.226069,38.70419],[-9.226986,38.699364],[-9.227134,38.69902],[-9.227457,38.69866],[-9.227346,38.698402],[-9.227164,38.698265],[-9.227248,38.697998],[-9.226407,38.69758],[-9.227237,38.696808],[-9.227913,38.69711],[-9.228684,38.69737],[-9.229835,38.695324],[-9.229608,38.695198],[-9.22893,38.694824],[-9.225672,38.692997],[-9.224745,38.692535],[-9.224283,38.692387],[-9.223704,38.69227],[-9.223203,38.692223],[-9.221787,38.692333],[-9.220871,38.692547],[-9.220175,38.692772],[-9.219145,38.69324],[-9.21888,38.693195],[-9.218903,38.692997],[-9.218844,38.69276],[-9.218586,38.692482],[-9.218225,38.692265],[-9.217376,38.69183],[-9.216985,38.691715],[-9.216499,38.69174],[-9.216261,38.69189],[-9.21605,38.691715],[-9.216101,38.691475],[-9.216017,38.691414],[-9.215902,38.691395],[-9.215798,38.691452],[-9.21574,38.691635],[-9.215628,38.691673],[-9.21503,38.691708],[-9.213925,38.69193],[-9.21387,38.69174],[-9.213805,38.69175],[-9.213862,38.69194],[-9.199273,38.694595],[-9.19926,38.694546],[-9.199124,38.694572],[-9.199141,38.694633],[-9.198546,38.694736],[-9.198535,38.694687],[-9.198394,38.69471],[-9.198409,38.69476],[-9.197821,38.694866],[-9.197806,38.69482],[-9.197668,38.694847],[-9.197682,38.69489],[-9.196632,38.69508],[-9.196589,38.694836],[-9.196478,38.69486],[-9.196576,38.69509],[-9.195534,38.695274],[-9.195489,38.6951],[-9.19532,38.695133],[-9.195375,38.6953],[-9.19502,38.695362],[-9.195003,38.69514],[-9.194938,38.69514],[-9.194886,38.695152],[-9.194904,38.695385],[-9.193598,38.695618],[-9.193595,38.695484],[-9.193479,38.695507],[-9.193517,38.695633],[-9.192371,38.69584],[-9.187498,38.69672],[-9.187411,38.696735],[-9.1794405,38.69818],[-9.179433,38.69795],[-9.179271,38.69798],[-9.179337,38.69808],[-9.179101,38.698112],[-9.1787405,38.698307],[-9.17593,38.69879],[-9.1759,38.6987],[-9.175903,38.69865],[-9.175586,38.698704],[-9.175418,38.69811],[-9.175517,38.698093],[-9.175464,38.697895],[-9.163258,38.70013],[-9.163326,38.700413],[-9.162551,38.70086],[-9.162603,38.701057],[-9.161871,38.701195],[-9.157316,38.70201],[-9.157035,38.7021],[-9.15706,38.702198],[-9.157181,38.702217],[-9.159249,38.701984],[-9.161176,38.70186],[-9.161532,38.702106],[-9.161856,38.702106],[-9.161852,38.702423],[-9.161397,38.70242],[-9.161207,38.702583],[-9.159245,38.702553],[-9.159069,38.70337],[-9.156937,38.70375],[-9.157253,38.704258],[-9.156013,38.70448],[-9.155747,38.703598],[-9.154903,38.70375],[-9.155111,38.704456],[-9.154941,38.70467],[-9.1520195,38.705193],[-9.151202,38.705338],[-9.149284,38.705692],[-9.148866,38.705524],[-9.148841,38.70558],[-9.1488905,38.705597],[-9.148812,38.70571],[-9.148403,38.705544],[-9.148493,38.705418],[-9.148409,38.705383],[-9.148285,38.705578],[-9.147935,38.70543],[-9.148066,38.705242],[-9.147981,38.705208],[-9.147857,38.705402],[-9.14704,38.705067],[-9.14716,38.70488],[-9.147103,38.70486],[-9.146984,38.70504],[-9.146609,38.704887],[-9.146689,38.704704],[-9.146572,38.70487],[-9.146298,38.704765],[-9.146317,38.704643],[-9.146273,38.70464],[-9.146259,38.704765],[-9.14592,38.70478],[-9.145823,38.70445],[-9.14608,38.704414],[-9.146072,38.704327],[-9.145651,38.704407],[-9.14581,38.704803],[-9.145331,38.704887],[-9.145267,38.704575],[-9.145422,38.704533],[-9.145411,38.704456],[-9.144901,38.704517],[-9.144985,38.704613],[-9.145144,38.704594],[-9.145234,38.704906],[-9.144779,38.70499],[-9.144678,38.70466],[-9.144743,38.704655],[-9.144715,38.704575],[-9.144249,38.704643],[-9.144278,38.704746],[-9.144577,38.704704],[-9.144662,38.70502],[-9.143947,38.70516],[-9.143867,38.704872],[-9.143108,38.705116],[-9.142781,38.705143],[-9.141432,38.705498],[-9.141216,38.705544],[-9.139753,38.70587],[-9.139506,38.705982],[-9.136467,38.706726],[-9.136449,38.706676],[-9.136396,38.706688],[-9.136162,38.706505],[-9.136077,38.70639],[-9.135947,38.706425],[-9.135963,38.706554],[-9.135897,38.70681],[-9.13584,38.706825],[-9.135865,38.70689],[-9.135483,38.70699],[-9.135439,38.706932],[-9.135284,38.706974],[-9.135199,38.706997],[-9.134966,38.70642],[-9.135078,38.70637],[-9.134948,38.706177],[-9.134237,38.706367],[-9.134139,38.706184],[-9.134287,38.706135],[-9.134268,38.70606],[-9.133942,38.70617],[-9.133982,38.706245],[-9.13406,38.706207],[-9.134155,38.70639],[-9.133594,38.706566],[-9.1335,38.706383],[-9.133628,38.70633],[-9.133605,38.706257],[-9.13324,38.706367],[-9.133282,38.706448],[-9.13342,38.70641],[-9.133514,38.706593],[-9.1329565,38.70677],[-9.13286,38.706585],[-9.133004,38.706547],[-9.132961,38.70646],[-9.13195,38.706787],[-9.131995,38.70686],[-9.132781,38.70661],[-9.132877,38.706802],[-9.132439,38.70694],[-9.132422,38.706913],[-9.130839,38.70751],[-9.129127,38.708263],[-9.1290245,38.7083],[-9.128932,38.708347],[-9.128641,38.70801],[-9.125228,38.709854],[-9.122163,38.7128],[-9.122113,38.71285],[-9.1200485,38.71483],[-9.12007,38.714935],[-9.12013,38.714977],[-9.119543,38.715538],[-9.117298,38.717087],[-9.115488,38.71886],[-9.11535,38.718994],[-9.110078,38.72415],[-9.109919,38.724308],[-9.109423,38.72399],[-9.1089325,38.724007],[-9.105339,38.727016],[-9.105106,38.727398],[-9.104945,38.72974],[-9.105088,38.72984],[-9.1038065,38.731712],[-9.102638,38.73366],[-9.102284,38.734303],[-9.099847,38.738777],[-9.097696,38.74229],[-9.097728,38.742302],[-9.0974245,38.743088],[-9.097092,38.742992],[-9.097085,38.74317],[-9.097159,38.743183],[-9.097172,38.74314],[-9.097405,38.743176],[-9.097107,38.744255],[-9.096771,38.74419],[-9.096783,38.744156],[-9.096721,38.74415],[-9.096668,38.744305],[-9.096727,38.744316],[-9.096742,38.744274],[-9.097083,38.744343],[-9.0968075,38.745342],[-9.095747,38.74516],[-9.095766,38.745113],[-9.095696,38.7451],[-9.095645,38.745266],[-9.095711,38.74528],[-9.095731,38.745228],[-9.096789,38.745407],[-9.095477,38.750156],[-9.094547,38.750004],[-9.094519,38.74997],[-9.094697,38.74934],[-9.094525,38.74931],[-9.094325,38.750042],[-9.093696,38.749935],[-9.093702,38.74991],[-9.093371,38.74988],[-9.093393,38.749805],[-9.093223,38.749783],[-9.093163,38.750004],[-9.093334,38.750027],[-9.093358,38.74993],[-9.095442,38.750256],[-9.094631,38.75324]]]}}
