{"type":"Feature","id":"relation/3684806","properties":{"type":"relation","id":3684806,"tags":{"addr:country":"RU","addr:district":"Кунгурский район","addr:postcode":"617433","addr:region":"Пермский край","addr:subdistrict":"Кыласовское сельское поселение","boundary":"administrative","landuse":"residential","name":"Напарино","name:ru":"Напарино","official_status":"ru:деревня","place":"hamlet","population":"6","population:date":"2010","type":"boundary"},"labels":[]},"geometry":{"type":"Polygon","coordinates":[[[56.67705,57.566162],[56.676414,57.566902],[56.670605,57.566525],[56.6703,57.566917],[56.669983,57.567062],[56.669678,57.56743],[56.669178,57.56755],[56.668163,57.567406],[56.66725,57.56734],[56.667095,57.567722],[56.666454,57.568066],[56.665848,57.5678],[56.66583,57.565742],[56.66617,57.56566],[56.667095,57.565792],[56.668236,57.56578],[56.669586,57.56557],[56.670586,57.56539],[56.670876,57.565228],[56.672264,57.565075],[56.672405,57.56514],[56.67367,57.565132],[56.675552,57.56493],[56.67564,57.565502],[56.67705,57.566162]]]}}
