{"type":"Feature","id":"relation/6077490","properties":{"type":"relation","id":6077490,"tags":{"admin_level":"10","admin_type:FR":"quartier","alt_name":"Île Bassas da India;Basse de Judie","alt_name:de":"Bassas da India Insel","alt_name:en":"Bassas da India Island","alt_name:fr":"Île Bassas da India;Basse de Judie","alt_name:lv":"Bassas-da-India salas","alt_name:pt":"Ilha Bassas da Índia","alt_name:ru":"Остров Басас-да-Индия","alt_name:uk":"Острів Басас-да-Індія","border_type":"territorial","boundary":"administrative","country_code_fips":"BS","int_name":"Bassas da India","maritime":"yes","name":"Bassas da India","name:ar":"بصاص الهند","name:be":"Басас-да-Індыя","name:ca":"Bassas da India","name:de":"Bassas da India","name:el":"Ύφαλος Ινδίας","name:en":"Bassas da India","name:eo":"Bassas da India","name:es":"Bassas da India","name:fi":"Bassas da India","name:fr":"Bassas da India","name:ku":"Bassas da India","name:lv":"Bassas-da-India","name:nl":"Bassas da India","name:pl":"Bassas da India","name:pt":"Bassas da Índia","name:ru":"Басас-да-Индия","name:sv":"Bassas da India","name:uk":"Басас-да-Індія","name:zh":"印度礁","old_name":"Baixo da Judia","old_name:es":"Baixo da Judia","place":"island","type":"boundary","wikipedia":"fr:Bassas da India"},"labels":[{"id":"node/4076777486","role":"label","coordinates":[39.683952,-21.48142]}]},"geometry":{"type":"Polygon","coordinates":[[[39.4235,-21.531292],[39.427116,-21.547033],[39.4357,-21.572159],[39.44966,-21.602072],[39.46862,-21.629473],[39.481922,-21.645092],[39.51303,-21.673994],[39.549778,-21.696377],[39.56009,-21.701332],[39.60062,-21.716175],[39.64202,-21.72443],[39.655254,-21.72587],[39.70924,-21.725348],[39.74363,-21.71957],[39.757553,-21.716211],[39.792706,-21.704603],[39.825783,-21.688593],[39.8397,-21.68044],[39.859478,-21.667439],[39.880936,-21.650343],[39.908695,-21.6214],[39.914856,-21.613562],[39.93376,-21.58469],[39.94823,-21.55307],[39.959293,-21.511667],[39.961098,-21.47175],[39.953,-21.4243],[39.930004,-21.373577],[39.90713,-21.343412],[39.881035,-21.319412],[39.856853,-21.296923],[39.813934,-21.266018],[39.779884,-21.2504],[39.74676,-21.241245],[39.730797,-21.237919],[39.696342,-21.23446],[39.658234,-21.236101],[39.605907,-21.247253],[39.571163,-21.258133],[39.539055,-21.273415],[39.512638,-21.290176],[39.49071,-21.307339],[39.46677,-21.332506],[39.44356,-21.36557],[39.42852,-21.39545],[39.41891,-21.427235],[39.413864,-21.471176],[39.418022,-21.510157],[39.4235,-21.531292]]]}}
