{"type":"Feature","id":"relation/2216724","properties":{"type":"relation","id":2216724,"tags":{"ISO3166-2":"UZ-TK","addr:country":"UZ","addr:postcode":"100000","addr:region":"Toshkent Viloyati","admin_level":"4","alt_name:ru":"Ташкентъ","alt_name:uz":"Тошкент","alt_name:vi":"Toshkent","border_type":"region","boundary":"administrative","capital":"yes","int_name":"Tashkent","is_in:country":"O'zbekiston","name":"Toshkent","name:ace":"Tashkent","name:af":"Tasjkent","name:am":"ታሽኬንት","name:ar":"طشقند","name:az":"Daşkənd","name:be":"Ташкент","name:be-tarask":"Ташкент","name:bg":"Ташкент","name:bn":"তাশখন্দ","name:bo":"ཐ་ཧྲི་ཀན།","name:br":"Tochkent","name:bs":"Taškent","name:ca":"Taixkent","name:ckb":"تاشکەند","name:crh":"Taşkent","name:cs":"Taškent","name:cv":"Ташкент","name:cy":"Tashkent","name:da":"Tasjkent","name:de":"Taschkent","name:el":"Τασκένδη","name:en":"Tashkent","name:eo":"Taŝkento","name:es":"Taskent","name:et":"Toshkent","name:eu":"Tashkent","name:fa":"تاشکند","name:fi":"Taškent","name:fr":"Tachkent","name:fy":"Tasjkent","name:ga":"Tashkent","name:gd":"Tashkent","name:gl":"Tashkent","name:he":"טשקנט","name:hi":"ताशकन्द","name:hif":"Tashkent","name:hr":"Taškent","name:hsb":"Taškent","name:ht":"Tachkènt","name:hu":"Taskent","name:hy":"Տաշքենդ","name:id":"Tashkent","name:ie":"Tashkent","name:io":"Tashkent","name:is":"Taskent","name:it":"Tashkent","name:ja":"タシュケント","name:ka":"ტაშკენტი","name:kk":"Ташкент","name:kn":"ತಾಷ್ಕೆಂಟ್","name:ko":"타슈켄트","name:ku":"Taşkent, Ûzbêkistan","name:kv":"Ташкент","name:ky":"Ташкен","name:la":"Lithopolis","name:lmo":"Taškent","name:lt":"Taškentas","name:lv":"Taškenta","name:mhr":"Ташкент","name:mk":"Ташкент","name:ml":"താഷ്കന്റ്","name:mn":"Ташкент","name:mr":"ताश्कंद","name:ms":"Tashkent","name:myv":"Ташкент ош","name:mzn":"تاشکند","name:nl":"Tasjkent","name:nn":"Tasjkent","name:no":"Tasjkent","name:nov":"Tashkent","name:oc":"Tashkent","name:os":"Ташкент","name:pl":"Taszkent","name:pms":"Tashkent","name:pnb":"تاشقند","name:ps":"تاشكند","name:pt":"Tashkent","name:ro":"Tașkent","name:ru":"Ташкент","name:sah":"Ташкент","name:sco":"Tashkent","name:sh":"Taškent","name:simple":"Tashkent","name:sk":"Taškent","name:sq":"Tashkenti","name:sr":"Ташкент","name:sv":"Tasjkent","name:sw":"Tashkent","name:ta":"தாஷ்கந்து","name:te":"తాష్కెంట్","name:tg":"Тошканд","name:th":"ทาชเคนต์","name:tk":"Daşkent","name:tl":"Tashkent","name:tr":"Taşkent","name:tt":"Ташкент","name:udm":"Ташкент","name:ug":"Tashkent","name:uk":"Ташкент","name:ur":"تاشقند","name:uz":"Toshkent","name:vec":"Taškent","name:vep":"Taškent","name:vi":"Tashkent","name:vo":"Toshkent","name:war":"Tashkent","name:yi":"טאשקענט","name:yo":"Tashkent","name:zh":"塔什干","name:zh-min-nan":"Tashkent","old_name":"Chach","old_name:ru":"Ташкентъ; Чач; Шаш; Джадж; Бинкент","old_name:vi":"Khang Cư","place":"city","population":"3000000","type":"boundary","wikidata":"Q269","wikipedia":"ru:Ташкент"},"labels":[{"id":"node/27524773","role":"admin_centre","coordinates":[69.27871,41.312336]}]},"geometry":{"type":"MultiPolygon","coordinates":[[[[69.46824,41.405083],[69.46963,41.405685],[69.470825,41.406975],[69.47157,41.407562],[69.47099,41.40813],[69.46906,41.407074],[69.46789,41.407166],[69.46698,41.40793],[69.466415,41.407597],[69.46443,41.409298],[69.473526,41.41463],[69.47172,41.415676],[69.464455,41.41214],[69.46431,41.41185],[69.464,41.410637],[69.46347,41.41033],[69.4631,41.409588],[69.46212,41.408978],[69.46238,41.40875],[69.454735,41.404408],[69.45277,41.404476],[69.45055,41.404743],[69.45081,41.405163],[69.44656,41.40635],[69.44463,41.406906],[69.443924,41.40729],[69.44343,41.407707],[69.439,41.40564],[69.440765,41.403522],[69.436104,41.401234],[69.43557,41.400993],[69.43348,41.402744],[69.43378,41.402885],[69.43334,41.403458],[69.433914,41.403866],[69.43376,41.404514],[69.43567,41.40534],[69.43475,41.406525],[69.43149,41.407402],[69.42977,41.407047],[69.42913,41.4067],[69.42952,41.406227],[69.430275,41.405704],[69.43213,41.402927],[69.43055,41.402172],[69.43012,41.402515],[69.42969,41.402523],[69.42761,41.400402],[69.42822,41.399654],[69.42801,41.39961],[69.42823,41.399235],[69.428375,41.39925],[69.428246,41.398483],[69.42908,41.398434],[69.43029,41.399014],[69.431625,41.399284],[69.43296,41.39942],[69.43382,41.399426],[69.43805,41.39759],[69.43866,41.39749],[69.439575,41.397472],[69.44137,41.397648],[69.448204,41.3994],[69.450005,41.40002],[69.451065,41.400364],[69.45297,41.40071],[69.45604,41.401604],[69.457344,41.40116],[69.45997,41.40165],[69.46535,41.40388],[69.46824,41.405083]]],[[[69.23207,41.17134],[69.23609,41.169098],[69.23664,41.16954],[69.23753,41.170235],[69.23817,41.17072],[69.23861,41.170826],[69.239006,41.170963],[69.24005,41.17072],[69.24052,41.171036],[69.24792,41.170628],[69.24859,41.170624],[69.248795,41.171135],[69.25963,41.170555],[69.26175,41.18404],[69.26144,41.185566],[69.261,41.18669],[69.26022,41.18794],[69.25951,41.18892],[69.258705,41.189724],[69.25741,41.19095],[69.25629,41.19171],[69.25683,41.191895],[69.25863,41.1928],[69.260605,41.19441],[69.26381,41.196686],[69.28037,41.203487],[69.28126,41.204407],[69.28343,41.204773],[69.28617,41.20484],[69.28749,41.205112],[69.2884,41.20555],[69.28881,41.20561],[69.289276,41.205772],[69.29036,41.20633],[69.2908,41.206715],[69.29114,41.20713],[69.29194,41.20789],[69.29234,41.208176],[69.29276,41.20821],[69.29285,41.2082],[69.29499,41.20803],[69.295235,41.208103],[69.29598,41.208584],[69.29722,41.209362],[69.30106,41.211834],[69.30185,41.212196],[69.30255,41.212433],[69.3087,41.214535],[69.3102,41.21507],[69.31104,41.21541],[69.316895,41.21948],[69.3173,41.219788],[69.31876,41.221558],[69.32038,41.223457],[69.321205,41.22453],[69.32221,41.221443],[69.32281,41.220062],[69.324005,41.221012],[69.327095,41.22408],[69.32969,41.223465],[69.3304,41.22515],[69.330505,41.225487],[69.33064,41.225517],[69.330765,41.225956],[69.3314,41.22588],[69.33206,41.225876],[69.33214,41.225887],[69.33232,41.225876],[69.333015,41.22589],[69.333664,41.225735],[69.334236,41.22568],[69.335236,41.225677],[69.33506,41.225346],[69.33483,41.22499],[69.33445,41.224476],[69.33403,41.223972],[69.33393,41.223713],[69.33388,41.223454],[69.333855,41.223297],[69.334206,41.22335],[69.33487,41.223545],[69.334946,41.22388],[69.336784,41.224525],[69.33762,41.22519],[69.33849,41.22545],[69.33885,41.22577],[69.33941,41.226597],[69.33938,41.226994],[69.33922,41.22721],[69.339226,41.22755],[69.33931,41.227783],[69.340355,41.228374],[69.34078,41.228447],[69.3416,41.228725],[69.34259,41.22765],[69.343376,41.227657],[69.34534,41.22539],[69.34586,41.225304],[69.346375,41.224617],[69.34786,41.225094],[69.34898,41.225452],[69.35039,41.231716],[69.35206,41.233112],[69.3645,41.243523],[69.36522,41.243702],[69.36556,41.243694],[69.36854,41.24351],[69.37303,41.247044],[69.374535,41.246174],[69.37468,41.24609],[69.37514,41.24623],[69.375626,41.246166],[69.37423,41.243378],[69.37638,41.24238],[69.37848,41.242863],[69.378975,41.242943],[69.37967,41.242805],[69.381454,41.242542],[69.381935,41.242542],[69.3829,41.242893],[69.38293,41.24279],[69.38372,41.24204],[69.38737,41.238853],[69.39248,41.242115],[69.393555,41.243935],[69.39347,41.245457],[69.39276,41.24758],[69.38409,41.254467],[69.396835,41.263237],[69.39792,41.26483],[69.39779,41.265514],[69.39586,41.265976],[69.39012,41.266502],[69.3844,41.27072],[69.37434,41.278145],[69.37445,41.279568],[69.37168,41.28482],[69.37727,41.28651],[69.377,41.28961],[69.37306,41.290596],[69.373116,41.292118],[69.37067,41.29311],[69.36665,41.297638],[69.36926,41.298973],[69.37461,41.30068],[69.37586,41.301537],[69.37716,41.302486],[69.379684,41.303627],[69.38205,41.30483],[69.380554,41.306038],[69.37984,41.30571],[69.37829,41.305115],[69.374664,41.30477],[69.37498,41.30224],[69.371025,41.301594],[69.369995,41.30138],[69.3692,41.3012],[69.36922,41.301167],[69.36933,41.30082],[69.366714,41.30053],[69.36653,41.300434],[69.36406,41.300106],[69.36317,41.300087],[69.3626,41.300835],[69.361755,41.3012],[69.36198,41.301617],[69.36149,41.301815],[69.36088,41.302387],[69.36048,41.303112],[69.360085,41.30393],[69.36048,41.304405],[69.360435,41.304604],[69.36042,41.30468],[69.36032,41.305084],[69.36007,41.305386],[69.36007,41.305622],[69.34879,41.30746],[69.35003,41.30999],[69.35024,41.312557],[69.35221,41.31404],[69.35844,41.317936],[69.36238,41.320835],[69.3742,41.3296],[69.37534,41.330555],[69.37642,41.331566],[69.3778,41.333176],[69.37919,41.334827],[69.379234,41.336216],[69.37892,41.337612],[69.378876,41.338028],[69.37991,41.339195],[69.38054,41.340286],[69.38047,41.34155],[69.3845,41.34116],[69.3849,41.34108],[69.385735,41.34095],[69.387085,41.339756],[69.39294,41.342102],[69.39499,41.339096],[69.4076,41.344025],[69.40722,41.344864],[69.40604,41.346306],[69.40249,41.350666],[69.402245,41.35128],[69.40191,41.351746],[69.40149,41.352394],[69.40115,41.35265],[69.40095,41.35304],[69.4005,41.353626],[69.39882,41.355587],[69.39854,41.35545],[69.39822,41.355034],[69.397484,41.354904],[69.39728,41.354717],[69.397064,41.3547],[69.396324,41.354965],[69.39528,41.35443],[69.39493,41.354908],[69.39517,41.355972],[69.39527,41.356106],[69.39536,41.35669],[69.39541,41.357494],[69.39591,41.360737],[69.398094,41.36086],[69.40082,41.362377],[69.40066,41.36604],[69.404526,41.36778],[69.40289,41.369663],[69.398285,41.366985],[69.39615,41.36767],[69.39441,41.36543],[69.393715,41.365604],[69.39201,41.36604],[69.38932,41.366158],[69.38598,41.364952],[69.38361,41.364223],[69.37901,41.363094],[69.37537,41.36191],[69.37337,41.361805],[69.37025,41.36225],[69.36357,41.363102],[69.362015,41.362408],[69.36051,41.360912],[69.35837,41.358295],[69.356575,41.35636],[69.35538,41.355686],[69.35403,41.35531],[69.35193,41.355133],[69.35107,41.355145],[69.35042,41.35533],[69.34884,41.35566],[69.34538,41.356487],[69.344376,41.356544],[69.34354,41.35619],[69.33828,41.35955],[69.33582,41.36143],[69.335625,41.36155],[69.32599,41.369022],[69.32462,41.37006],[69.32413,41.37079],[69.322815,41.373653],[69.31944,41.381428],[69.31883,41.382755],[69.3185,41.383514],[69.317924,41.383873],[69.316986,41.38438],[69.31498,41.385],[69.31171,41.385136],[69.30802,41.38478],[69.30354,41.384335],[69.300674,41.383945],[69.29743,41.383865],[69.29061,41.383778],[69.29017,41.383793],[69.289894,41.383667],[69.288185,41.38364],[69.2866,41.38368],[69.285095,41.3838],[69.28353,41.384197],[69.28234,41.384586],[69.28099,41.38521],[69.27954,41.386127],[69.27806,41.38711],[69.27739,41.387558],[69.26506,41.395454],[69.26397,41.396084],[69.26178,41.39713],[69.25916,41.397675],[69.25773,41.39786],[69.25626,41.397934],[69.23895,41.398636],[69.23587,41.398476],[69.23415,41.398098],[69.23247,41.397686],[69.229355,41.39597],[69.22798,41.39509],[69.222496,41.391693],[69.21574,41.387375],[69.21371,41.38698],[69.211716,41.38697],[69.21127,41.38669],[69.21111,41.38553],[69.21046,41.384],[69.18274,41.366703],[69.17436,41.361572],[69.16888,41.356834],[69.1667,41.353756],[69.1657,41.35109],[69.165054,41.348446],[69.16504,41.34837],[69.16457,41.345184],[69.16437,41.34237],[69.163315,41.335064],[69.162346,41.333054],[69.16161,41.33186],[69.15991,41.33074],[69.15952,41.330666],[69.15905,41.330654],[69.159065,41.330437],[69.159164,41.330074],[69.15917,41.329712],[69.159294,41.32953],[69.159424,41.32937],[69.15948,41.32919],[69.15938,41.329056],[69.15923,41.32891],[69.15906,41.328716],[69.1589,41.32848],[69.158646,41.328323],[69.158455,41.328228],[69.15798,41.328285],[69.15788,41.32828],[69.15782,41.32826],[69.15777,41.328217],[69.1577,41.328094],[69.15748,41.32792],[69.15739,41.32779],[69.15725,41.3277],[69.15704,41.32744],[69.15682,41.327312],[69.15664,41.327244],[69.15639,41.327248],[69.156166,41.327263],[69.15594,41.32726],[69.15565,41.327362],[69.15544,41.3274],[69.15521,41.327473],[69.15505,41.32741],[69.15499,41.32736],[69.15486,41.32723],[69.1548,41.327065],[69.15473,41.326946],[69.15465,41.32684],[69.15459,41.326706],[69.154495,41.326603],[69.15448,41.326515],[69.154495,41.326435],[69.15451,41.32631],[69.15462,41.32621],[69.15474,41.325996],[69.154655,41.325912],[69.154465,41.325836],[69.15437,41.325764],[69.154175,41.325623],[69.15408,41.32553],[69.154045,41.325443],[69.15386,41.325382],[69.153625,41.32531],[69.153564,41.32528],[69.15354,41.325188],[69.15374,41.324917],[69.15396,41.324657],[69.154015,41.324547],[69.154015,41.324455],[69.15392,41.324226],[69.153915,41.32412],[69.1539,41.324043],[69.15364,41.323715],[69.1536,41.32338],[69.15381,41.323162],[69.15435,41.322826],[69.15451,41.32264],[69.15461,41.322422],[69.1546,41.322353],[69.15455,41.32231],[69.15446,41.322212],[69.15432,41.32193],[69.15429,41.32159],[69.154,41.3214],[69.15374,41.321247],[69.15366,41.321182],[69.1536,41.3211],[69.1536,41.32103],[69.153656,41.320965],[69.153885,41.320896],[69.154106,41.320854],[69.15432,41.320786],[69.15439,41.320656],[69.15426,41.32053],[69.1541,41.320484],[69.153755,41.320637],[69.15349,41.3206],[69.153244,41.320503],[69.15295,41.32047],[69.152794,41.320454],[69.15262,41.320362],[69.15228,41.319977],[69.152084,41.31975],[69.15192,41.319454],[69.1519,41.31926],[69.1518,41.31895],[69.151535,41.318676],[69.151146,41.318115],[69.15064,41.31738],[69.15035,41.316925],[69.15011,41.316425],[69.149826,41.316135],[69.149765,41.315865],[69.149734,41.31566],[69.149536,41.31546],[69.14927,41.315357],[69.149055,41.31524],[69.14884,41.315067],[69.148506,41.314774],[69.14832,41.314545],[69.14833,41.31415],[69.14833,41.313927],[69.148285,41.313824],[69.148254,41.313766],[69.14816,41.313698],[69.14809,41.31369],[69.14792,41.313435],[69.14785,41.313366],[69.14777,41.313293],[69.14767,41.313225],[69.14764,41.31318],[69.14754,41.313118],[69.14748,41.313137],[69.14747,41.31319],[69.14741,41.313225],[69.14728,41.313236],[69.14711,41.3136],[69.14698,41.313725],[69.146736,41.313736],[69.14663,41.313663],[69.14658,41.313545],[69.14664,41.313396],[69.146904,41.313183],[69.14706,41.312992],[69.1474,41.312412],[69.14751,41.31206],[69.14751,41.31189],[69.14761,41.311783],[69.14772,41.311733],[69.14793,41.311775],[69.14805,41.311764],[69.148094,41.311703],[69.14815,41.311623],[69.14808,41.311356],[69.14794,41.311275],[69.14762,41.31116],[69.1474,41.310818],[69.147285,41.310345],[69.14732,41.310074],[69.147575,41.309948],[69.14771,41.309948],[69.14788,41.309967],[69.14805,41.30996],[69.148285,41.30997],[69.14839,41.309937],[69.14847,41.30983],[69.14846,41.309628],[69.1485,41.309376],[69.14866,41.30915],[69.14873,41.308876],[69.14897,41.30849],[69.149086,41.308155],[69.14889,41.307583],[69.14891,41.30738],[69.14893,41.30715],[69.148796,41.30703],[69.1487,41.30683],[69.14873,41.306583],[69.14875,41.305923],[69.14871,41.305695],[69.14868,41.305573],[69.148506,41.30511],[69.14793,41.304302],[69.14758,41.304054],[69.14724,41.303875],[69.146805,41.303886],[69.1465,41.303795],[69.14609,41.303165],[69.14597,41.303024],[69.145805,41.302906],[69.1455,41.302834],[69.14532,41.302765],[69.14495,41.302162],[69.14485,41.302002],[69.144684,41.30173],[69.14472,41.30144],[69.14495,41.301155],[69.14498,41.300976],[69.144905,41.30064],[69.14435,41.30028],[69.143974,41.30018],[69.143745,41.300182],[69.14338,41.300156],[69.14319,41.300095],[69.143036,41.29997],[69.14291,41.29984],[69.14287,41.299664],[69.14292,41.299507],[69.14305,41.29926],[69.143,41.29902],[69.14288,41.298798],[69.14271,41.298695],[69.142494,41.298622],[69.142235,41.298443],[69.14199,41.298286],[69.141846,41.298054],[69.14175,41.29778],[69.14157,41.29749],[69.141525,41.297337],[69.14141,41.297127],[69.1413,41.297035],[69.14125,41.29696],[69.141205,41.29685],[69.14113,41.29676],[69.141014,41.29671],[69.14093,41.296665],[69.140854,41.29665],[69.14039,41.296654],[69.1402,41.296543],[69.140076,41.296387],[69.14016,41.296173],[69.1402,41.296013],[69.14018,41.295948],[69.140144,41.295883],[69.13996,41.29581],[69.13987,41.29576],[69.13981,41.295673],[69.13971,41.29545],[69.13958,41.295338],[69.13943,41.29523],[69.13929,41.295162],[69.13915,41.295124],[69.13862,41.295013],[69.13844,41.294926],[69.13838,41.29471],[69.13838,41.29448],[69.1385,41.294304],[69.13869,41.294106],[69.13876,41.29393],[69.138725,41.29375],[69.1386,41.2935],[69.138504,41.29313],[69.13842,41.29268],[69.13826,41.292408],[69.13746,41.291965],[69.136925,41.291687],[69.13675,41.29154],[69.13669,41.29142],[69.1365,41.29118],[69.1362,41.29092],[69.13605,41.290836],[69.1358,41.290844],[69.13553,41.290848],[69.13521,41.29077],[69.13506,41.290672],[69.135,41.290478],[69.13488,41.290173],[69.13455,41.28996],[69.1342,41.289864],[69.13398,41.28984],[69.13376,41.289772],[69.13372,41.289665],[69.13375,41.28953],[69.13387,41.289368],[69.13407,41.28916],[69.1341,41.289074],[69.13411,41.288982],[69.13406,41.288834],[69.13398,41.28875],[69.13387,41.288696],[69.13372,41.288666],[69.13353,41.288677],[69.13338,41.288677],[69.1332,41.28863],[69.132866,41.28846],[69.1324,41.288185],[69.132126,41.288002],[69.131996,41.287766],[69.13193,41.287613],[69.13194,41.28743],[69.132416,41.286896],[69.132744,41.28648],[69.13311,41.286022],[69.13351,41.28555],[69.13398,41.284966],[69.13441,41.28449],[69.13471,41.284348],[69.13493,41.284115],[69.13496,41.28383],[69.1349,41.28354],[69.134544,41.28323],[69.13438,41.282898],[69.13426,41.28266],[69.13424,41.282444],[69.13441,41.28209],[69.1343,41.28169],[69.13424,41.28138],[69.134056,41.281113],[69.13375,41.280895],[69.133385,41.28076],[69.13308,41.28051],[69.13292,41.280266],[69.13295,41.280064],[69.133316,41.279346],[69.13346,41.27913],[69.133484,41.279003],[69.13346,41.278923],[69.133354,41.27887],[69.13324,41.27884],[69.13304,41.27881],[69.13261,41.27896],[69.132164,41.27907],[69.131836,41.27903],[69.131546,41.278946],[69.131325,41.278725],[69.13122,41.27856],[69.13108,41.278427],[69.13102,41.278313],[69.13087,41.278114],[69.13069,41.277798],[69.130684,41.277588],[69.1306,41.27738],[69.130394,41.277184],[69.130005,41.276882],[69.12959,41.276554],[69.12879,41.276093],[69.12854,41.27573],[69.128426,41.275547],[69.12833,41.275333],[69.12838,41.275097],[69.12835,41.274525],[69.12818,41.274075],[69.127686,41.27378],[69.12744,41.273624],[69.12723,41.273434],[69.12683,41.272923],[69.126396,41.27265],[69.12569,41.272156],[69.12558,41.271854],[69.12558,41.271675],[69.12563,41.27155],[69.12567,41.271156],[69.125725,41.270832],[69.12562,41.27059],[69.1255,41.2703],[69.1253,41.27009],[69.12505,41.270004],[69.12474,41.270016],[69.124176,41.27006],[69.123604,41.27006],[69.12309,41.269993],[69.122894,41.269936],[69.122795,41.26982],[69.12278,41.26958],[69.12286,41.269173],[69.12291,41.268555],[69.12289,41.267937],[69.12266,41.267654],[69.122055,41.26694],[69.12191,41.26652],[69.12188,41.265503],[69.1225,41.265682],[69.12258,41.26607],[69.12261,41.26646],[69.12286,41.266865],[69.123146,41.267136],[69.12362,41.26727],[69.1241,41.267258],[69.125275,41.26685],[69.12631,41.267403],[69.12838,41.26813],[69.13021,41.26863],[69.13149,41.268997],[69.13187,41.269295],[69.13266,41.27011],[69.13365,41.271023],[69.13473,41.27187],[69.13526,41.272316],[69.1361,41.272614],[69.13712,41.27307],[69.13743,41.273422],[69.138885,41.27456],[69.13988,41.275246],[69.1404,41.275867],[69.14076,41.276474],[69.14093,41.276962],[69.14088,41.27732],[69.14087,41.277634],[69.141014,41.27785],[69.14138,41.277824],[69.14188,41.277958],[69.14316,41.27865],[69.1436,41.27908],[69.14425,41.279793],[69.14482,41.28048],[69.14529,41.280575],[69.14558,41.280716],[69.14576,41.28092],[69.14653,41.281216],[69.14695,41.28122],[69.147484,41.280983],[69.14635,41.277126],[69.14628,41.27654],[69.14627,41.275772],[69.14635,41.275314],[69.14645,41.27377],[69.14652,41.272648],[69.146515,41.27166],[69.14665,41.269966],[69.14675,41.2681],[69.14681,41.265327],[69.147064,41.26397],[69.14792,41.261955],[69.14858,41.26105],[69.148705,41.26095],[69.14962,41.259933],[69.15351,41.257004],[69.15516,41.255947],[69.15738,41.25464],[69.16046,41.25264],[69.16119,41.25216],[69.162636,41.250965],[69.163994,41.248875],[69.16532,41.244938],[69.16639,41.241776],[69.16615,41.23974],[69.16535,41.238472],[69.16531,41.23707],[69.16453,41.23589],[69.16323,41.235195],[69.17207,41.225075],[69.17304,41.223877],[69.17429,41.222736],[69.17443,41.22256],[69.17404,41.221764],[69.17424,41.2216],[69.17546,41.221268],[69.17394,41.21751],[69.17363,41.216663],[69.17564,41.21473],[69.18517,41.210823],[69.18535,41.21101],[69.18539,41.211143],[69.18537,41.211346],[69.18541,41.211475],[69.18563,41.211494],[69.18583,41.211475],[69.18606,41.2114],[69.18629,41.21136],[69.186516,41.211575],[69.18645,41.211754],[69.186356,41.21191],[69.186584,41.212334],[69.18661,41.212463],[69.18645,41.212498],[69.18613,41.212467],[69.18586,41.21251],[69.185646,41.21256],[69.18548,41.21266],[69.18539,41.212826],[69.1855,41.213005],[69.185585,41.213215],[69.185684,41.21341],[69.1857,41.213543],[69.18562,41.213696],[69.18535,41.213882],[69.185326,41.214054],[69.18536,41.214165],[69.185425,41.214264],[69.18565,41.21433],[69.18581,41.214382],[69.185936,41.21452],[69.18599,41.21471],[69.1862,41.21492],[69.18628,41.2151],[69.186066,41.21535],[69.1859,41.215485],[69.18579,41.21567],[69.18561,41.215836],[69.1856,41.2159],[69.18563,41.215954],[69.18578,41.216026],[69.18612,41.216225],[69.18639,41.216236],[69.18664,41.216217],[69.18688,41.216118],[69.18707,41.21599],[69.187325,41.21581],[69.187515,41.215755],[69.18763,41.215775],[69.18778,41.215843],[69.18782,41.215916],[69.188,41.21616],[69.18824,41.21639],[69.18837,41.21653],[69.188416,41.21658],[69.18843,41.216675],[69.18835,41.216793],[69.188255,41.21686],[69.18803,41.216988],[69.18775,41.217003],[69.18725,41.217155],[69.18695,41.217304],[69.18697,41.2175],[69.18697,41.21774],[69.18679,41.21787],[69.186584,41.21792],[69.18649,41.21804],[69.18646,41.218136],[69.18642,41.218285],[69.18638,41.21836],[69.18629,41.218403],[69.186066,41.21844],[69.18594,41.218636],[69.18578,41.218918],[69.18578,41.219196],[69.18586,41.219395],[69.18597,41.219475],[69.18601,41.219604],[69.18602,41.21975],[69.18594,41.219967],[69.18583,41.2201],[69.18579,41.220253],[69.18579,41.2204],[69.18585,41.220562],[69.185875,41.220646],[69.18596,41.220745],[69.186066,41.220753],[69.18625,41.220753],[69.18635,41.220764],[69.186646,41.22066],[69.18729,41.220493],[69.187454,41.220497],[69.18753,41.22052],[69.1876,41.22056],[69.187614,41.220623],[69.18759,41.220818],[69.18749,41.220997],[69.187325,41.221226],[69.18721,41.221554],[69.1871,41.22174],[69.18692,41.221935],[69.1868,41.221996],[69.18671,41.222084],[69.18662,41.222195],[69.18655,41.22234],[69.18651,41.22242],[69.18652,41.2225],[69.18656,41.22257],[69.186615,41.2226],[69.18672,41.222626],[69.186844,41.2226],[69.18712,41.222397],[69.18739,41.22228],[69.18773,41.222164],[69.188095,41.222122],[69.18876,41.222336],[69.189064,41.222553],[69.18914,41.2228],[69.18885,41.22285],[69.18861,41.222744],[69.18844,41.222862],[69.18817,41.223137],[69.188,41.223324],[69.187805,41.22364],[69.18797,41.223873],[69.18841,41.223938],[69.188866,41.2239],[69.189384,41.22408],[69.19036,41.224384],[69.1906,41.22457],[69.19135,41.224995],[69.19171,41.22508],[69.19176,41.225254],[69.19162,41.225506],[69.19137,41.22563],[69.19127,41.225876],[69.19116,41.22596],[69.19109,41.226074],[69.19109,41.22616],[69.19149,41.226284],[69.19251,41.22657],[69.19259,41.226624],[69.19261,41.22669],[69.19257,41.226955],[69.192474,41.22721],[69.19256,41.227276],[69.19341,41.227444],[69.19348,41.227474],[69.19351,41.22757],[69.193474,41.22763],[69.19296,41.22815],[69.19294,41.22819],[69.19294,41.228233],[69.19296,41.228268],[69.19301,41.228294],[69.19306,41.22832],[69.19356,41.228394],[69.19403,41.228413],[69.19415,41.22849],[69.1943,41.22872],[69.19442,41.228947],[69.194405,41.229176],[69.19436,41.229343],[69.19427,41.229473],[69.19424,41.229618],[69.19427,41.229748],[69.19446,41.229954],[69.194466,41.230053],[69.194435,41.230186],[69.19438,41.230335],[69.1943,41.230366],[69.194275,41.23041],[69.19427,41.230503],[69.1943,41.230576],[69.19462,41.230675],[69.1949,41.230698],[69.19513,41.23075],[69.19575,41.231167],[69.196465,41.231945],[69.19646,41.232033],[69.1964,41.232124],[69.19638,41.232193],[69.19646,41.23229],[69.19661,41.232327],[69.19695,41.23239],[69.197624,41.232506],[69.1979,41.232624],[69.19811,41.232807],[69.19819,41.23308],[69.198265,41.23333],[69.198204,41.23343],[69.19782,41.23368],[69.197784,41.23377],[69.1978,41.233906],[69.19789,41.234043],[69.19809,41.23422],[69.198296,41.23424],[69.19868,41.234264],[69.19898,41.234177],[69.199234,41.23411],[69.199326,41.23412],[69.19943,41.23416],[69.19955,41.234283],[69.19982,41.234642],[69.200264,41.234863],[69.20054,41.23497],[69.20072,41.235085],[69.20081,41.23531],[69.20083,41.23557],[69.20047,41.236225],[69.20001,41.236526],[69.19987,41.236706],[69.199936,41.23681],[69.20053,41.237106],[69.20073,41.23711],[69.201004,41.2371],[69.201164,41.237247],[69.20145,41.2375],[69.20161,41.237743],[69.201744,41.237904],[69.2016,41.23806],[69.20137,41.23812],[69.20092,41.23894],[69.200905,41.239025],[69.200935,41.239082],[69.200966,41.239155],[69.201225,41.239365],[69.201294,41.239468],[69.20132,41.2396],[69.20118,41.23975],[69.201126,41.23986],[69.201164,41.240025],[69.2013,41.24021],[69.20151,41.240326],[69.20174,41.240383],[69.20192,41.24037],[69.202415,41.240124],[69.20252,41.240078],[69.20267,41.240078],[69.20278,41.24017],[69.203064,41.24044],[69.20346,41.24068],[69.20364,41.240894],[69.203636,41.241467],[69.20379,41.24185],[69.2042,41.24217],[69.20435,41.242382],[69.20443,41.242508],[69.20493,41.242573],[69.20516,41.24259],[69.20541,41.24254],[69.20578,41.242546],[69.20596,41.242542],[69.20614,41.242496],[69.20657,41.24234],[69.20676,41.242264],[69.20684,41.24224],[69.20697,41.242302],[69.20712,41.242405],[69.20731,41.242832],[69.20759,41.243202],[69.20769,41.24339],[69.20768,41.2435],[69.207565,41.243687],[69.20741,41.243927],[69.20738,41.244057],[69.20738,41.24416],[69.20739,41.24427],[69.20751,41.244488],[69.20778,41.244602],[69.2082,41.244823],[69.208855,41.24486],[69.20913,41.24492],[69.209465,41.245007],[69.20956,41.24506],[69.20964,41.24512],[69.209724,41.24523],[69.21003,41.245663],[69.210144,41.24577],[69.21119,41.246494],[69.21214,41.247116],[69.21261,41.247395],[69.21273,41.24748],[69.2129,41.24756],[69.21336,41.247734],[69.21385,41.247875],[69.21443,41.247795],[69.21507,41.24799],[69.21547,41.24836],[69.215675,41.2488],[69.215805,41.24916],[69.21594,41.249485],[69.216034,41.249695],[69.21609,41.24991],[69.21595,41.250095],[69.215805,41.250294],[69.21567,41.250416],[69.21574,41.250553],[69.21574,41.25066],[69.21563,41.250896],[69.21542,41.251373],[69.215416,41.251747],[69.215645,41.25237],[69.21606,41.252346],[69.21696,41.252396],[69.21701,41.25224],[69.21768,41.2461],[69.21639,41.244926],[69.212364,41.24124],[69.20469,41.2306],[69.20273,41.229088],[69.203896,41.227478],[69.20572,41.224556],[69.19012,41.205315],[69.19134,41.203568],[69.20126,41.203354],[69.203255,41.198257],[69.20154,41.19733],[69.20123,41.196922],[69.20117,41.196648],[69.19879,41.195236],[69.19703,41.19555],[69.18731,41.191723],[69.17981,41.18215],[69.19373,41.1832],[69.196625,41.18678],[69.20194,41.188576],[69.21414,41.18933],[69.22079,41.189793],[69.2231,41.189957],[69.23371,41.190735],[69.23481,41.190784],[69.235054,41.190796],[69.23505,41.190586],[69.23368,41.189327],[69.23363,41.189114],[69.23328,41.188374],[69.23338,41.188236],[69.232796,41.187363],[69.23238,41.186905],[69.23233,41.18655],[69.232315,41.186207],[69.23277,41.186016],[69.23285,41.18567],[69.23271,41.184895],[69.232796,41.184364],[69.23269,41.184067],[69.23264,41.18384],[69.23243,41.183662],[69.23226,41.18318],[69.232124,41.18298],[69.231674,41.18199],[69.230316,41.180855],[69.22702,41.177994],[69.22669,41.177597],[69.2262,41.176826],[69.22626,41.17675],[69.2267,41.176296],[69.23067,41.17227],[69.23098,41.171944],[69.23207,41.17134]],[[69.30161,41.244205],[69.31047,41.244106],[69.31235,41.243984],[69.31294,41.24384],[69.314285,41.24338],[69.31684,41.241528],[69.32123,41.23783],[69.32103,41.23758],[69.31703,41.23722],[69.31223,41.232845],[69.3109,41.23243],[69.30911,41.232174],[69.308105,41.231808],[69.30779,41.231106],[69.305504,41.22992],[69.30175,41.22859],[69.286606,41.21969],[69.28651,41.219673],[69.28011,41.218327],[69.27792,41.217747],[69.27624,41.215748],[69.27545,41.215336],[69.27319,41.21488],[69.27167,41.213997],[69.262054,41.222366],[69.24541,41.21555],[69.24227,41.23607],[69.23213,41.235683],[69.232056,41.235527],[69.23141,41.23536],[69.23086,41.234585],[69.230835,41.23326],[69.23012,41.232887],[69.22905,41.23239],[69.22852,41.231934],[69.22874,41.231136],[69.22837,41.230495],[69.22779,41.23042],[69.22713,41.2295],[69.22631,41.229156],[69.22573,41.22853],[69.22519,41.227943],[69.22516,41.227654],[69.22483,41.227318],[69.224945,41.227028],[69.22437,41.22661],[69.22402,41.225777],[69.22415,41.224823],[69.223305,41.224396],[69.22294,41.2239],[69.22257,41.22393],[69.22207,41.223755],[69.21691,41.232132],[69.215096,41.235004],[69.214165,41.23653],[69.214096,41.237663],[69.21445,41.23861],[69.21452,41.238796],[69.21503,41.239365],[69.21669,41.24086],[69.22037,41.242935],[69.22118,41.243526],[69.22231,41.243584],[69.22476,41.24371],[69.22908,41.24385],[69.23517,41.24403],[69.238754,41.24411],[69.24084,41.244194],[69.24273,41.24425],[69.30161,41.244205]]]]}}
