{"type":"Feature","id":"relation/3480776","properties":{"type":"relation","id":3480776,"tags":{"addr:country":"RU","addr:district":"Смоленский район","addr:postcode":"214522","addr:region":"Смоленская область","addr:subdistrict":"Катынское сельское поселение","admin_level":"10","boundary":"administrative","cladr:code":"67 001 000 151 00","int_name":"Katyn","is_in":"Smolensk Oblast, Russia","landuse":"residential","name":"Катынь","name:af":"Katyn","name:ar":"كَاتِين","name:az":"Katın","name:be":"Катынь","name:bg":"Катин","name:br":"Katyn","name:ca":"Katyn","name:cs":"Katyň","name:da":"Katyn","name:de":"Katyn","name:el":"Κατύν","name:en":"Katyn","name:eo":"Katyn","name:es":"Katyn","name:et":"Katõn","name:eu":"Katin","name:fa":"کاتین","name:fi":"Katyn","name:fr":"Katyń","name:ga":"Katyn","name:gl":"Katyn","name:he":"קאטין","name:hr":"Katyn","name:hu":"Katiny","name:id":"Katyn","name:is":"Katyn","name:it":"Katyń","name:ja":"カティン","name:ka":"კატინი","name:lb":"Katyn","name:lt":"Katynė","name:lv":"Katiņas","name:mk":"Катин","name:ml":"കാറ്റിൻ","name:nl":"Katyn","name:no":"Katyn","name:pl":"Katyń","name:pt":"Katyn","name:ro":"Katyn","name:ru":"Катынь","name:sh":"Katinj","name:sk":"Katyň","name:sl":"Katin","name:sr":"Катињ","name:sv":"Katyn","name:tr":"Katyn","name:uk":"Катинь","name:vi":"Katyn","name:zh":"卡廷","official_name":"село Катынь","official_status":"ru:село","place":"village","population":"1672","population:date":"2008","type":"boundary","wikipedia":"ru:Катынь"},"labels":[{"id":"node/691765232","role":"admin_centre","coordinates":[31.686897,54.773132]}]},"geometry":{"type":"Polygon","coordinates":[[[31.700747,54.77113],[31.701197,54.771564],[31.701088,54.7717],[31.700682,54.77196],[31.700718,54.77218],[31.700993,54.77238],[31.701342,54.77276],[31.700626,54.773052],[31.700325,54.773026],[31.699295,54.77338],[31.698755,54.773483],[31.698393,54.773964],[31.698902,54.7741],[31.69867,54.77477],[31.697979,54.77506],[31.697964,54.775127],[31.697926,54.77513],[31.697285,54.775135],[31.696335,54.775425],[31.695755,54.775772],[31.69482,54.7766],[31.69438,54.77685],[31.694239,54.776924],[31.694016,54.777054],[31.693357,54.777115],[31.692974,54.77705],[31.692831,54.777023],[31.69257,54.77701],[31.69193,54.776806],[31.691198,54.77651],[31.690239,54.77637],[31.689278,54.776318],[31.689209,54.77629],[31.689117,54.77598],[31.688898,54.77598],[31.688833,54.775963],[31.688744,54.77582],[31.688156,54.775604],[31.687538,54.775654],[31.687544,54.77607],[31.687506,54.776108],[31.687468,54.77612],[31.68541,54.776207],[31.685366,54.776783],[31.685358,54.776875],[31.68526,54.776905],[31.683962,54.777035],[31.683979,54.77735],[31.684116,54.7777],[31.68408,54.777752],[31.684042,54.77776],[31.682941,54.777798],[31.682905,54.777927],[31.682798,54.77797],[31.682766,54.777977],[31.682436,54.777996],[31.682373,54.77823],[31.682337,54.778255],[31.682302,54.77826],[31.679943,54.778416],[31.679924,54.778416],[31.679708,54.778374],[31.679657,54.778355],[31.679565,54.77819],[31.679554,54.778164],[31.679562,54.778152],[31.679783,54.777523],[31.679539,54.777008],[31.679491,54.776745],[31.67927,54.776592],[31.678934,54.776596],[31.678917,54.777477],[31.678879,54.777515],[31.678844,54.777523],[31.677958,54.77756],[31.677938,54.77766],[31.677933,54.77782],[31.677757,54.777863],[31.676895,54.777836],[31.676773,54.77766],[31.676529,54.777145],[31.67626,54.776756],[31.676245,54.77673],[31.676245,54.77673],[31.676256,54.776287],[31.676264,54.776264],[31.676508,54.775757],[31.67645,54.775536],[31.676207,54.77541],[31.675842,54.775265],[31.675793,54.775227],[31.675802,54.775204],[31.676,54.77485],[31.675905,54.77442],[31.675903,54.774414],[31.675903,54.77441],[31.67594,54.774006],[31.67595,54.773987],[31.676178,54.773567],[31.675245,54.773567],[31.675167,54.773525],[31.675163,54.77334],[31.675005,54.773308],[31.674917,54.773083],[31.674608,54.772346],[31.675495,54.77227],[31.675398,54.772022],[31.675386,54.772003],[31.675386,54.771996],[31.675406,54.771755],[31.67543,54.77173],[31.675941,54.771305],[31.676193,54.77119],[31.676207,54.77052],[31.675318,54.769794],[31.675117,54.768257],[31.675789,54.768284],[31.676985,54.768627],[31.677689,54.76865],[31.67866,54.768593],[31.679348,54.76845],[31.680254,54.768105],[31.680935,54.76796],[31.681759,54.767902],[31.682398,54.76777],[31.683353,54.767864],[31.684858,54.767906],[31.686209,54.767857],[31.687506,54.767628],[31.68805,54.76829],[31.688871,54.768097],[31.6914,54.76757],[31.690952,54.767117],[31.691847,54.766903],[31.692543,54.766216],[31.693071,54.7661],[31.694473,54.765934],[31.695387,54.76601],[31.69638,54.76634],[31.698093,54.767],[31.70059,54.767826],[31.700762,54.768402],[31.702005,54.769157],[31.701458,54.76925],[31.700457,54.76922],[31.699678,54.769283],[31.699049,54.769455],[31.698275,54.769756],[31.697613,54.769627],[31.697355,54.769283],[31.69692,54.768993],[31.696287,54.769062],[31.696146,54.769287],[31.696196,54.76954],[31.696346,54.769802],[31.69647,54.769955],[31.696518,54.77006],[31.696539,54.770164],[31.69656,54.770275],[31.696486,54.770355],[31.696468,54.77044],[31.69652,54.770493],[31.696608,54.770523],[31.696692,54.770546],[31.697468,54.77068],[31.697664,54.770733],[31.697863,54.77081],[31.698065,54.770916],[31.6982,54.770992],[31.698448,54.771095],[31.69908,54.77086],[31.699593,54.770885],[31.699718,54.770954],[31.699844,54.77094],[31.700037,54.770866],[31.700214,54.77077],[31.700747,54.77113]]]}}
