{"type":"Feature","id":"relation/3527811","properties":{"type":"relation","id":3527811,"tags":{"addr:country":"UA","addr:district":"Верхньодніпровський район","addr:postcode":"51653","addr:region":"Дніпропетровська область","admin_level":"8","boundary":"administrative","name":"Новомиколаївка","name:en":"Novomykolaivka","name:prefix":"селище міського типу","name:ru":"Новониколаевка","name:uk":"Новомиколаївка","place":"village","type":"boundary"},"labels":[]},"geometry":{"type":"Polygon","coordinates":[[[34.360306,48.571075],[34.35537,48.56818],[34.35433,48.56723],[34.354443,48.56678],[34.35586,48.56574],[34.356407,48.565266],[34.356834,48.564762],[34.356266,48.561226],[34.35694,48.559246],[34.35899,48.556587],[34.35531,48.555077],[34.355724,48.553978],[34.357063,48.553158],[34.363033,48.551098],[34.379517,48.545063],[34.389267,48.535637],[34.402843,48.543343],[34.399693,48.5455],[34.392582,48.54635],[34.38635,48.56802],[34.377144,48.568024],[34.375523,48.573315],[34.373898,48.57453],[34.37362,48.574516],[34.373837,48.57342],[34.373623,48.57349],[34.373245,48.57351],[34.372902,48.573452],[34.37139,48.57356],[34.368748,48.573452],[34.360306,48.571075]]]}}
