{"type":"Feature","id":"relation/336074","properties":{"type":"relation","id":336074,"tags":{"admin_level":"8","boundary":"administrative","capital":"yes","name":"Warszawa","name:ab":"Варшава","name:ace":"Warsawa","name:af":"Warskou","name:ak":"Warsaw","name:am":"ዋርሶው","name:an":"Varsovia","name:ang":"Warsaw","name:ar":"وارسو","name:arc":"ܘܐܪܣܘ","name:arz":"وارسو","name:ast":"Varsovia","name:az":"Varşava","name:ba":"Варшава","name:bat-smg":"Varšova","name:be":"Варшава","name:be-tarask":"Варшава","name:bg":"Варшава","name:bi":"Warsaw","name:bn":"ওয়ার্সা","name:bo":"ཝར་སོ།","name:br":"Varsovia","name:bs":"Varšava","name:ca":"Varsòvia","name:ckb":"وارساو","name:crh":"Varşava","name:cs":"Varšava","name:csb":"Warszawa","name:cu":"Варшава","name:cv":"Варшава","name:cy":"Warsaw","name:da":"Warszawa","name:de":"Warschau","name:diq":"Warşowa","name:dsb":"Waršawa","name:ee":"Warsaw","name:el":"Βαρσοβία","name:en":"Warsaw","name:eo":"Varsovio","name:es":"Varsovia","name:et":"Varssavi","name:eu":"Varsovia","name:fa":"ورشو","name:fi":"Varsova","name:fiu-vro":"Varssavi","name:fo":"Warszawa","name:fr":"Varsovie","name:frp":"Varsovie","name:fy":"Warsjau","name:ga":"Vársá","name:gag":"Varşava","name:gd":"Warsaw","name:gl":"Varsovia - Warszawa","name:gv":"Warszawa","name:he":"ורשה","name:hi":"वारसॉ","name:hif":"Warsaw","name:hr":"Varšava","name:hsb":"Waršawa","name:ht":"Vasovi","name:hu":"Varsó","name:hy":"Վարշավա","name:ia":"Varsovia","name:id":"Warsawa","name:ie":"Warszawa","name:io":"Warszawa","name:is":"Varsjá","name:it":"Varsavia","name:ja":"ワルシャワ","name:jv":"Warsawa","name:ka":"ვარშავა","name:kk":"Варшава","name:kl":"Warszawa","name:ko":"바르샤바","name:krc":"Варшава","name:ku":"Warşova","name:kv":"Варшава","name:kw":"Warszawa","name:ky":"Варшава","name:la":"Varsovia","name:lb":"Warschau","name:lij":"Varsavvia","name:lmo":"Varsavia","name:ln":"Warsaw","name:lt":"Varšuva","name:lv":"Varšava","name:mg":"Varsôvia","name:mi":"Pakangakite","name:mk":"Варшава","name:ml":"വാഴ്‌സ","name:mn":"Варшав","name:mr":"वर्झावा","name:mrj":"Варшава","name:ms":"Warsaw","name:mt":"Varsavja","name:my":"ဝါဆောမြို့","name:na":"Warsaw","name:nah":"Varsovia","name:nap":"Varsavia","name:nds":"Warschau","name:nl":"Warschau","name:nn":"Warszawa","name:no":"Warszawa","name:nov":"Varsava","name:oc":"Varsòvia","name:os":"Варшавæ","name:pa":"ਵਾਰਸਾ","name:pap":"Varsovia","name:pdc":"Woarschau","name:pih":"Worsaaw","name:pms":"Varsavia","name:pnb":"وارسا","name:prefix":"miasto","name:pt":"Varsóvia","name:qu":"Warszawa","name:rm":"Varsovia","name:ro":"Varșovia","name:roa-rup":"Varshava","name:ru":"Варшава","name:sah":"Варшава","name:sc":"Varsavia","name:scn":"Varsavia","name:sco":"Warsaw","name:sh":"Varšava","name:simple":"Warsaw","name:sk":"Varšava","name:sl":"Varšava","name:sq":"Varshava","name:sr":"Варшава","name:st":"Warsaw","name:sv":"Warszawa","name:sw":"Warshawa","name:szl":"Warszawa","name:ta":"வார்சா","name:tet":"Varsóvia","name:tg":"Варшава","name:th":"วอร์ซอ","name:tk":"Warşawa","name:tl":"Warsaw","name:tpi":"Woso","name:tr":"Varşova","name:tt":"Варшава","name:tzl":"Varschava","name:udm":"Варшава","name:ug":"Warshawa","name:uk":"Варшава","name:ur":"وارسا","name:uz":"Varshava","name:vec":"Varsavia","name:vep":"Varšav","name:vi":"Warszawa","name:vo":"Warszawa","name:war":"Warsovya","name:wo":"Warsaw","name:xmf":"ვარშავა","name:yi":"ווארשע","name:yo":"Warsaw","name:zh":"华沙","name:zh-min-nan":"Warszawa","name:zh-yue":"華沙","name:zu":"IWarshawa","population":"1724404","rank":"10","teryt:rm":"96","teryt:simc":"0918123","teryt:stan_na":"2009-01-01","teryt:updated_by":"teryt2osm combine.py v. 49","type":"boundary"},"labels":[{"id":"node/428339515","role":"admin_centre","coordinates":[21.006727,52.23192]}]},"geometry":{"type":"Polygon","coordinates":[[[21.043617,52.112904],[21.043716,52.11296],[21.044619,52.112675],[21.0461,52.111984],[21.04669,52.111603],[21.047392,52.111187],[21.048336,52.110703],[21.048656,52.11026],[21.04944,52.10969],[21.050451,52.10915],[21.050756,52.109013],[21.051582,52.108704],[21.051958,52.108566],[21.052507,52.108406],[21.05429,52.108044],[21.055021,52.107906],[21.056139,52.107635],[21.056482,52.107727],[21.058037,52.1072],[21.0584,52.107048],[21.060349,52.10629],[21.062325,52.105423],[21.063007,52.105026],[21.064014,52.104515],[21.064484,52.104313],[21.065716,52.103905],[21.06708,52.103306],[21.068254,52.10271],[21.069172,52.10227],[21.069456,52.102165],[21.070002,52.10201],[21.07098,52.101635],[21.072199,52.101116],[21.074207,52.10036],[21.075918,52.09952],[21.076796,52.099216],[21.077637,52.098644],[21.078306,52.09829],[21.078753,52.098118],[21.07963,52.09792],[21.079851,52.097893],[21.079977,52.097908],[21.079977,52.09785],[21.082376,52.098526],[21.082645,52.09868],[21.082987,52.09894],[21.08327,52.099228],[21.083612,52.099594],[21.085045,52.10152],[21.085417,52.10186],[21.085594,52.102005],[21.08663,52.102818],[21.087017,52.10307],[21.087486,52.1033],[21.08933,52.103943],[21.091314,52.10448],[21.091833,52.104618],[21.091892,52.10464],[21.092363,52.10464],[21.094175,52.10448],[21.094831,52.10448],[21.09544,52.104507],[21.095963,52.104546],[21.096737,52.10468],[21.097795,52.104786],[21.099922,52.10516],[21.100122,52.10518],[21.100672,52.105366],[21.101332,52.105633],[21.101555,52.105686],[21.101793,52.105705],[21.102419,52.10568],[21.103535,52.105755],[21.10349,52.105865],[21.10295,52.106407],[21.10252,52.106922],[21.10217,52.10727],[21.102026,52.107395],[21.101873,52.107506],[21.101582,52.107685],[21.101828,52.107815],[21.101582,52.10793],[21.101395,52.108006],[21.101187,52.108074],[21.100908,52.108135],[21.100658,52.108173],[21.100103,52.10837],[21.101929,52.10923],[21.104767,52.11063],[21.107317,52.111866],[21.10859,52.112484],[21.108894,52.11263],[21.109623,52.11296],[21.110096,52.11317],[21.108875,52.11447],[21.111238,52.115677],[21.116041,52.118633],[21.116539,52.118763],[21.117867,52.11853],[21.119156,52.118767],[21.120949,52.119366],[21.122852,52.120426],[21.123806,52.121105],[21.12513,52.122517],[21.126,52.124195],[21.12637,52.124126],[21.126825,52.125538],[21.12713,52.12606],[21.129524,52.127205],[21.130016,52.12691],[21.130686,52.125504],[21.131464,52.12497],[21.132412,52.12345],[21.13322,52.123005],[21.134727,52.12346],[21.13497,52.125214],[21.135406,52.126545],[21.1358,52.12767],[21.136538,52.12852],[21.13679,52.12877],[21.13708,52.12903],[21.138182,52.130215],[21.138903,52.131084],[21.138762,52.13109],[21.138659,52.131184],[21.13872,52.13132],[21.138893,52.13145],[21.139162,52.13153],[21.139416,52.13157],[21.140133,52.131577],[21.140236,52.131752],[21.140512,52.13197],[21.140549,52.1324],[21.14029,52.13259],[21.140123,52.132946],[21.141705,52.13352],[21.145166,52.135548],[21.14783,52.138454],[21.150202,52.139824],[21.151865,52.139805],[21.153652,52.140083],[21.15394,52.14053],[21.153118,52.142338],[21.153229,52.142723],[21.154684,52.143635],[21.159359,52.144127],[21.164957,52.144726],[21.168169,52.14508],[21.171423,52.145443],[21.173697,52.14609],[21.175924,52.146732],[21.175852,52.148457],[21.178335,52.14887],[21.183357,52.14968],[21.18586,52.15009],[21.1884,52.15051],[21.188576,52.149315],[21.197842,52.15024],[21.201336,52.150536],[21.202389,52.15066],[21.203337,52.1508],[21.204235,52.150898],[21.208519,52.151352],[21.212269,52.151745],[21.213657,52.151863],[21.214859,52.151997],[21.215124,52.151787],[21.217031,52.15235],[21.218204,52.152847],[21.21901,52.15319],[21.219608,52.15378],[21.220875,52.15419],[21.223997,52.15529],[21.226261,52.15604],[21.227247,52.156376],[21.229065,52.156986],[21.231836,52.157974],[21.234722,52.15891],[21.234962,52.158806],[21.23647,52.158154],[21.237844,52.157593],[21.23919,52.15703],[21.241377,52.156116],[21.24245,52.155666],[21.245071,52.154564],[21.246977,52.153774],[21.24875,52.153034],[21.247137,52.151638],[21.251402,52.149452],[21.254923,52.1476],[21.2554,52.147354],[21.255741,52.14717],[21.26202,52.152424],[21.26213,52.15252],[21.26243,52.152794],[21.262579,52.1531],[21.25405,52.157375],[21.255066,52.158234],[21.255552,52.158646],[21.255901,52.15924],[21.256105,52.159687],[21.256535,52.160572],[21.259033,52.161507],[21.260366,52.16202],[21.26066,52.162968],[21.261042,52.164402],[21.261198,52.16507],[21.261295,52.165375],[21.26146,52.16575],[21.26235,52.166622],[21.263113,52.16738],[21.267685,52.167446],[21.267614,52.168407],[21.270802,52.168518],[21.270317,52.169556],[21.267525,52.170124],[21.267334,52.173313],[21.26957,52.17336],[21.269958,52.17204],[21.27115,52.172146],[21.270275,52.173794],[21.270037,52.173943],[21.264122,52.1789],[21.260632,52.181828],[21.259766,52.182556],[21.263378,52.18397],[21.265383,52.186],[21.240229,52.19588],[21.242985,52.198383],[21.243004,52.19933],[21.245165,52.200302],[21.245731,52.20086],[21.250948,52.20249],[21.248589,52.20423],[21.248236,52.20598],[21.249088,52.20696],[21.25059,52.207752],[21.252224,52.20846],[21.25414,52.209435],[21.256802,52.209576],[21.25982,52.2099],[21.261208,52.209854],[21.261726,52.21007],[21.26059,52.21126],[21.254313,52.218067],[21.251396,52.22126],[21.250662,52.222054],[21.25053,52.2222],[21.25032,52.222485],[21.25049,52.22256],[21.249458,52.222557],[21.249477,52.222736],[21.24949,52.222847],[21.25043,52.231926],[21.254381,52.23527],[21.254768,52.23873],[21.253891,52.238647],[21.252104,52.238132],[21.248783,52.2366],[21.245422,52.236065],[21.243834,52.23607],[21.239466,52.236256],[21.237947,52.245026],[21.253716,52.24576],[21.254642,52.253166],[21.25243,52.25327],[21.250467,52.262688],[21.190453,52.2562],[21.179335,52.25667],[21.181417,52.2574],[21.182352,52.25792],[21.183113,52.258457],[21.183796,52.259197],[21.18418,52.259777],[21.184212,52.259872],[21.184406,52.26044],[21.18496,52.265537],[21.184856,52.266144],[21.18465,52.266754],[21.18432,52.2673],[21.183851,52.267788],[21.182943,52.268467],[21.180052,52.269978],[21.177675,52.271214],[21.176743,52.27177],[21.175812,52.2724],[21.175241,52.272884],[21.171629,52.276028],[21.171104,52.276485],[21.170578,52.27694],[21.171225,52.27735],[21.171738,52.281532],[21.172503,52.286533],[21.17219,52.286728],[21.17238,52.288605],[21.169237,52.2911],[21.166555,52.290634],[21.165195,52.29025],[21.16442,52.28979],[21.164318,52.289715],[21.16402,52.289364],[21.163815,52.289116],[21.163229,52.288452],[21.162766,52.28759],[21.162195,52.28663],[21.162008,52.286373],[21.161427,52.28574],[21.161491,52.285675],[21.161211,52.285492],[21.160587,52.285122],[21.159714,52.28477],[21.15913,52.284615],[21.15817,52.284367],[21.157063,52.28407],[21.156078,52.283817],[21.15562,52.2837],[21.154257,52.282764],[21.152866,52.282085],[21.151558,52.281456],[21.150743,52.28061],[21.14905,52.27935],[21.141872,52.278507],[21.141462,52.278454],[21.123907,52.27632],[21.12303,52.2762],[21.107779,52.274376],[21.104864,52.27405],[21.100107,52.284695],[21.10009,52.28472],[21.09873,52.28655],[21.098036,52.286274],[21.095627,52.28632],[21.094656,52.288094],[21.094976,52.288177],[21.088205,52.295086],[21.08753,52.2955],[21.084238,52.301556],[21.083527,52.30286],[21.085484,52.30323],[21.083555,52.307766],[21.08206,52.31162],[21.081009,52.31403],[21.079885,52.31661],[21.079437,52.317753],[21.078608,52.319866],[21.077787,52.321957],[21.082092,52.322636],[21.08951,52.32377],[21.088886,52.325382],[21.088396,52.326534],[21.087727,52.32822],[21.086279,52.33136],[21.086046,52.331966],[21.087782,52.332294],[21.087524,52.33285],[21.08669,52.332733],[21.085741,52.334732],[21.085024,52.337265],[21.08502,52.337307],[21.082603,52.33722],[21.08105,52.34306],[21.085714,52.343403],[21.081543,52.354015],[21.078678,52.35356],[21.076206,52.359135],[21.077122,52.359314],[21.073797,52.367256],[21.06608,52.365974],[21.063936,52.365616],[21.061493,52.365654],[21.060577,52.36258],[21.05407,52.363148],[21.049257,52.36175],[21.048666,52.363678],[21.0443,52.364033],[21.040802,52.362957],[21.0307,52.361687],[21.0305,52.361904],[21.02817,52.364433],[21.02753,52.36513],[21.02539,52.36337],[21.024963,52.36089],[21.024292,52.359966],[21.023458,52.35749],[21.023438,52.35743],[21.02154,52.35674],[21.020708,52.35696],[21.013645,52.356033],[21.013342,52.356823],[21.00995,52.356796],[21.008848,52.357132],[21.008295,52.358208],[21.008297,52.36013],[21.008207,52.360146],[21.00567,52.364094],[21.004383,52.363846],[21.003231,52.363647],[21.002117,52.36358],[20.99997,52.363274],[20.99943,52.36315],[20.998972,52.362877],[20.99858,52.36265],[20.997025,52.36229],[20.996355,52.362087],[20.995039,52.3619],[20.994656,52.36181],[20.991896,52.36276],[20.981833,52.359978],[20.97814,52.35897],[20.971273,52.358974],[20.970823,52.35985],[20.9661,52.368153],[20.954235,52.367855],[20.953432,52.367775],[20.953224,52.367603],[20.952986,52.36726],[20.952658,52.366524],[20.952282,52.366447],[20.951738,52.36649],[20.950891,52.366447],[20.950413,52.366413],[20.949802,52.366398],[20.94818,52.366455],[20.944891,52.366695],[20.94517,52.366215],[20.943995,52.36597],[20.943619,52.36636],[20.940952,52.36377],[20.93991,52.362488],[20.93929,52.361767],[20.935835,52.362972],[20.935476,52.362995],[20.935087,52.36324],[20.935858,52.362316],[20.939194,52.358356],[20.938871,52.358253],[20.938498,52.358112],[20.935919,52.35891],[20.935543,52.359055],[20.935104,52.35927],[20.935032,52.359295],[20.933971,52.359768],[20.933092,52.359165],[20.9329,52.35919],[20.93167,52.35842],[20.931417,52.35824],[20.930925,52.357933],[20.930136,52.35844],[20.92927,52.35894],[20.928366,52.359196],[20.92749,52.359467],[20.926863,52.35957],[20.926342,52.359627],[20.924082,52.359577],[20.922972,52.35704],[20.915136,52.35403],[20.91243,52.352974],[20.916529,52.349323],[20.920063,52.34664],[20.92146,52.34548],[20.923334,52.34363],[20.924969,52.340405],[20.92499,52.33898],[20.925396,52.337505],[20.925777,52.3361],[20.92564,52.33462],[20.925121,52.32943],[20.922585,52.32675],[20.92235,52.325104],[20.922247,52.324368],[20.92218,52.324303],[20.922058,52.32373],[20.913069,52.321835],[20.91055,52.324097],[20.910236,52.32397],[20.908958,52.32266],[20.90777,52.322224],[20.907755,52.322243],[20.90709,52.322117],[20.906929,52.32269],[20.906614,52.32336],[20.902954,52.322468],[20.899557,52.322197],[20.897713,52.32192],[20.896034,52.321686],[20.895226,52.321438],[20.894953,52.321266],[20.893013,52.31922],[20.89148,52.317623],[20.890823,52.316387],[20.890356,52.315594],[20.890095,52.314957],[20.889872,52.314438],[20.889736,52.3142],[20.889671,52.314053],[20.889658,52.313965],[20.88976,52.313725],[20.889795,52.31368],[20.889788,52.31364],[20.888649,52.3133],[20.888433,52.313236],[20.886908,52.313198],[20.879797,52.313824],[20.876345,52.31488],[20.876207,52.313953],[20.879265,52.311665],[20.880915,52.309177],[20.880142,52.308388],[20.87872,52.304905],[20.876183,52.298702],[20.876495,52.297924],[20.87647,52.297245],[20.876389,52.296608],[20.876713,52.295452],[20.877172,52.29426],[20.877148,52.29406],[20.876347,52.287415],[20.875786,52.280457],[20.881174,52.27965],[20.880148,52.273315],[20.879683,52.271263],[20.87887,52.26629],[20.878782,52.265446],[20.878687,52.265232],[20.875555,52.26215],[20.87495,52.261845],[20.8751,52.261486],[20.874838,52.261227],[20.873236,52.25966],[20.867329,52.253815],[20.863918,52.25044],[20.863678,52.250034],[20.865683,52.24979],[20.86658,52.249603],[20.867731,52.249424],[20.869345,52.24942],[20.872265,52.249344],[20.872711,52.24929],[20.873735,52.249092],[20.87449,52.248924],[20.875834,52.248672],[20.877056,52.2485],[20.877832,52.248394],[20.878809,52.24827],[20.879938,52.24809],[20.881002,52.247948],[20.881962,52.247818],[20.883501,52.247448],[20.883636,52.24742],[20.883873,52.247314],[20.884628,52.24817],[20.885027,52.247993],[20.88501,52.247295],[20.887629,52.24727],[20.89077,52.24705],[20.891075,52.246277],[20.891241,52.245342],[20.891384,52.245007],[20.892075,52.244583],[20.893152,52.24412],[20.893843,52.2439],[20.893778,52.24348],[20.893753,52.243313],[20.893621,52.242466],[20.893015,52.23985],[20.889545,52.232048],[20.887278,52.23216],[20.88192,52.232094],[20.88068,52.23205],[20.880398,52.232044],[20.879732,52.23202],[20.879547,52.231907],[20.877977,52.230938],[20.8731,52.22908],[20.872902,52.22894],[20.872786,52.22883],[20.872711,52.228676],[20.872688,52.228535],[20.872725,52.225803],[20.87268,52.225685],[20.872618,52.22566],[20.872538,52.225666],[20.8727,52.225513],[20.87289,52.22538],[20.873098,52.22525],[20.873205,52.225197],[20.873438,52.225086],[20.873655,52.225014],[20.87406,52.224937],[20.87528,52.2248],[20.874628,52.216652],[20.873087,52.216663],[20.87307,52.216545],[20.873062,52.216488],[20.873056,52.216442],[20.873049,52.21641],[20.872753,52.21523],[20.871939,52.215263],[20.87143,52.213158],[20.871092,52.211178],[20.871016,52.21038],[20.87016,52.21039],[20.870203,52.209854],[20.8709,52.20885],[20.870584,52.20884],[20.870565,52.208843],[20.86992,52.208755],[20.868649,52.208626],[20.865803,52.208305],[20.864618,52.208153],[20.864653,52.208057],[20.862684,52.20782],[20.86267,52.207863],[20.862654,52.207912],[20.86109,52.20772],[20.859602,52.20745],[20.858725,52.207264],[20.858564,52.20721],[20.858076,52.207096],[20.85743,52.206905],[20.85679,52.20668],[20.856157,52.20642],[20.85559,52.206142],[20.855078,52.205864],[20.854553,52.20554],[20.85411,52.205223],[20.85363,52.204834],[20.85322,52.204453],[20.852915,52.2041],[20.852898,52.20406],[20.85332,52.20408],[20.853336,52.20399],[20.852764,52.203922],[20.85259,52.20369],[20.852324,52.20329],[20.852102,52.20286],[20.851986,52.20235],[20.85191,52.20202],[20.85187,52.201828],[20.851854,52.201763],[20.851686,52.200974],[20.8517,52.200836],[20.85171,52.20072],[20.851715,52.20068],[20.851768,52.200275],[20.851881,52.199833],[20.852161,52.19979],[20.852158,52.199722],[20.851915,52.19972],[20.852016,52.199436],[20.852068,52.199318],[20.852724,52.197857],[20.853043,52.197254],[20.853302,52.197266],[20.853308,52.197235],[20.853065,52.197193],[20.853819,52.19526],[20.854239,52.194565],[20.854647,52.193974],[20.8562,52.192036],[20.856684,52.191296],[20.856905,52.19044],[20.856766,52.18913],[20.856443,52.188534],[20.856054,52.18797],[20.855934,52.187866],[20.856035,52.1877],[20.861633,52.189304],[20.86172,52.18922],[20.862656,52.189426],[20.864122,52.189808],[20.864712,52.18997],[20.864773,52.189953],[20.864706,52.190117],[20.865005,52.190186],[20.865074,52.1901],[20.867136,52.190777],[20.867203,52.182495],[20.869158,52.182587],[20.869486,52.182587],[20.870628,52.182495],[20.871508,52.182484],[20.872604,52.182354],[20.874521,52.18234],[20.874813,52.182358],[20.878778,52.182514],[20.87923,52.182526],[20.8794,52.182556],[20.879795,52.182552],[20.879822,52.182537],[20.88026,52.182514],[20.880672,52.182495],[20.881145,52.182484],[20.881958,52.182476],[20.885649,52.182552],[20.892307,52.182545],[20.893606,52.182545],[20.894213,52.182587],[20.894554,52.18261],[20.895664,52.18259],[20.895624,52.182537],[20.895887,52.182545],[20.897732,52.182518],[20.899275,52.184128],[20.899754,52.1842],[20.901476,52.184418],[20.901588,52.184414],[20.902086,52.18425],[20.902187,52.184174],[20.90266,52.184017],[20.902704,52.184067],[20.903927,52.183968],[20.90397,52.184113],[20.90408,52.184116],[20.909037,52.184544],[20.909088,52.184937],[20.909155,52.185295],[20.909178,52.185627],[20.909208,52.185856],[20.91045,52.18581],[20.910854,52.185787],[20.911346,52.18578],[20.913872,52.18585],[20.91477,52.18584],[20.913387,52.18346],[20.911533,52.180088],[20.911299,52.179726],[20.911215,52.179558],[20.911818,52.179443],[20.914078,52.179016],[20.914194,52.178993],[20.914387,52.17896],[20.914677,52.1789],[20.91703,52.17845],[20.916769,52.177803],[20.917637,52.17765],[20.918736,52.177444],[20.918407,52.177055],[20.918749,52.176975],[20.918991,52.17687],[20.919107,52.17675],[20.919157,52.176476],[20.919117,52.174282],[20.919147,52.17401],[20.919151,52.173317],[20.919159,52.171574],[20.919159,52.17108],[20.919542,52.17105],[20.920332,52.170994],[20.920912,52.170963],[20.921076,52.17086],[20.921335,52.1707],[20.921589,52.17054],[20.92193,52.170147],[20.922253,52.169777],[20.922495,52.169727],[20.92284,52.16956],[20.922829,52.16946],[20.923426,52.16926],[20.923384,52.168983],[20.923178,52.168865],[20.923576,52.168762],[20.92474,52.168446],[20.924742,52.167885],[20.9248,52.16769],[20.92498,52.167473],[20.925367,52.167225],[20.923895,52.166153],[20.925642,52.165615],[20.927378,52.165028],[20.92892,52.16454],[20.930454,52.16395],[20.929949,52.16332],[20.932938,52.162018],[20.934975,52.161198],[20.937237,52.160294],[20.937729,52.16013],[20.938831,52.1598],[20.94303,52.158535],[20.944504,52.158245],[20.94516,52.158062],[20.94654,52.15737],[20.947025,52.157173],[20.947765,52.156998],[20.952188,52.156372],[20.953718,52.156155],[20.953785,52.156147],[20.953764,52.15299],[20.953764,52.15295],[20.954756,52.152534],[20.95775,52.15045],[20.958437,52.149902],[20.962433,52.148087],[20.964937,52.14719],[20.96965,52.145374],[20.970543,52.14519],[20.97375,52.144535],[20.975876,52.144127],[20.97755,52.143486],[20.983452,52.140484],[20.983572,52.14019],[20.985027,52.139072],[20.980995,52.133854],[20.981071,52.13385],[20.980349,52.132896],[20.980175,52.13282],[20.980125,52.132664],[20.98003,52.13115],[20.979975,52.129433],[20.979946,52.12895],[20.979889,52.128036],[20.980185,52.127632],[20.980204,52.127346],[20.982986,52.12377],[20.989006,52.12368],[20.984861,52.120415],[20.986267,52.117603],[20.987293,52.115734],[20.987108,52.115616],[20.984524,52.112743],[20.983795,52.111874],[20.983736,52.11177],[20.983723,52.11169],[20.984364,52.111122],[20.984583,52.110966],[20.984924,52.11088],[20.986694,52.11056],[20.98651,52.110085],[20.986465,52.109924],[20.98448,52.10562],[20.987358,52.105137],[20.986856,52.1039],[20.991596,52.103115],[20.991856,52.10316],[20.99189,52.10336],[20.991926,52.10346],[20.993412,52.103477],[20.99867,52.103462],[20.999378,52.10347],[21.00027,52.103455],[21.001457,52.103477],[21.004934,52.103466],[21.007704,52.103542],[21.008759,52.103554],[21.009033,52.10355],[21.009958,52.103565],[21.011253,52.103565],[21.011671,52.103573],[21.011984,52.103573],[21.012352,52.10358],[21.013336,52.10358],[21.01516,52.10362],[21.018381,52.103657],[21.018694,52.103683],[21.018642,52.106045],[21.021185,52.10604],[21.024485,52.10608],[21.035503,52.10619],[21.035755,52.1064],[21.035181,52.10673],[21.037178,52.10809],[21.037506,52.108078],[21.038113,52.108353],[21.037933,52.10861],[21.041906,52.1113],[21.042099,52.111923],[21.043617,52.112904]]]}}
