{"type":"Feature","id":"relation/216166","properties":{"type":"relation","id":216166,"tags":{"admin_level":"8","boundary":"administrative","name":"Visegrád","name:cs":"Visegrád","name:da":"Visegrád","name:de":"Plintenburg","name:en":"Visegrád","name:eo":"Visegrád","name:es":"Visegrád","name:et":"Visegrád","name:fi":"Visegrád","name:fr":"Visegrád","name:he":"וישגרד","name:hr":"Višegrad","name:hu":"Visegrád","name:it":"Visegrád","name:ja":"ヴィシェグラード","name:ka":"ვიშეგრადი","name:ko":"비셰그라드","name:lt":"Višegradas","name:ms":"Visegrád","name:nl":"Visegrád","name:no":"Visegrád","name:pl":"Wyszehrad","name:pt":"Visegrád","name:ro":"Visegrád","name:ru":"Вишеград","name:sk":"Vyšehrad","name:sl":"Višegrad","name:sr":"Вишеград","name:sv":"Visegrád","name:tr":"Vişegrad","name:uk":"Вишеград","name:vi":"Visegrád","name:zh":"維謝格拉德","type":"boundary","wikipedia":"hu:Visegrád"},"labels":[{"id":"node/243682125","role":"admin_centre","coordinates":[18.970577,47.78489]}]},"geometry":{"type":"Polygon","coordinates":[[[18.996124,47.745686],[18.996141,47.746418],[18.995575,47.746807],[18.996675,47.74757],[19.000666,47.7514],[19.006279,47.753334],[19.008572,47.755913],[19.008482,47.75751],[19.010237,47.758644],[19.01022,47.76396],[19.01077,47.766605],[19.004007,47.76889],[19.001835,47.77193],[19.002861,47.772728],[19.003979,47.77308],[19.005108,47.775757],[19.004578,47.777298],[19.005714,47.7807],[19.005692,47.78148],[19.005133,47.782223],[19.005133,47.784885],[19.004564,47.785294],[19.00459,47.785667],[19.00401,47.78641],[19.00344,47.786804],[19.002851,47.786816],[19.002298,47.787186],[19.001173,47.787178],[19.000057,47.787945],[18.998926,47.788315],[18.99834,47.78909],[18.998333,47.789867],[18.997772,47.79061],[18.997753,47.791],[18.998358,47.791756],[18.998333,47.792145],[18.99777,47.79251],[18.997784,47.792904],[18.998901,47.793285],[18.999464,47.794403],[19.00062,47.79519],[19.00172,47.79557],[19.00287,47.796707],[19.002851,47.7971],[19.003414,47.797092],[19.003431,47.797462],[19.003992,47.797836],[19.003992,47.798214],[19.005123,47.798996],[19.00623,47.80012],[19.0068,47.80089],[19.007387,47.80128],[19.007927,47.801273],[19.00874,47.802372],[19.00905,47.802788],[19.009617,47.803165],[19.008604,47.80349],[19.008612,47.80407],[19.008936,47.80409],[19.009056,47.80431],[19.009636,47.805088],[19.00883,47.805183],[19.002775,47.805767],[18.99711,47.806343],[18.992874,47.80623],[18.987597,47.805264],[18.983511,47.80391],[18.98029,47.80571],[18.972898,47.798466],[18.966787,47.791595],[18.96095,47.781376],[18.94916,47.769634],[18.941032,47.765663],[18.933601,47.76418],[18.927217,47.765057],[18.924404,47.761627],[18.923845,47.760864],[18.923277,47.760483],[18.923277,47.7601],[18.92328,47.75934],[18.92328,47.75892],[18.923283,47.758198],[18.923285,47.757816],[18.922722,47.75744],[18.922728,47.755913],[18.92386,47.754013],[18.923864,47.753246],[18.925003,47.749825],[18.923874,47.74906],[18.922188,47.746773],[18.921623,47.74525],[18.919369,47.742584],[18.919943,47.7403],[18.920507,47.739536],[18.921076,47.739536],[18.921637,47.738777],[18.92277,47.738018],[18.923332,47.736877],[18.923904,47.736115],[18.924465,47.735737],[18.925035,47.735737],[18.926163,47.73574],[18.927284,47.73574],[18.928413,47.73536],[18.928986,47.7346],[18.930119,47.73346],[18.93068,47.73346],[18.931246,47.733837],[18.931787,47.732018],[18.931812,47.731937],[18.933504,47.731174],[18.934635,47.730034],[18.934078,47.72813],[18.93521,47.72737],[18.938034,47.72585],[18.939161,47.72547],[18.940853,47.72509],[18.941984,47.724716],[18.943186,47.725094],[18.945347,47.725464],[18.946495,47.726242],[18.947634,47.727386],[18.947659,47.72776],[18.948195,47.728146],[18.948748,47.72891],[18.950993,47.729282],[18.95384,47.73006],[18.95607,47.73005],[18.956657,47.730446],[18.957767,47.731968],[18.95833,47.731968],[18.95833,47.73234],[18.958899,47.732735],[18.958885,47.733482],[18.960587,47.735012],[18.962257,47.73615],[18.964514,47.738052],[18.966223,47.73844],[18.967913,47.737682],[18.969002,47.738415],[18.971283,47.740326],[18.974127,47.741875],[18.975246,47.74339],[18.975246,47.74378],[18.977467,47.74416],[18.979753,47.744156],[18.98373,47.744934],[18.987648,47.74531],[18.988235,47.745308],[18.989897,47.74492],[18.994444,47.744923],[18.995012,47.745308],[18.996113,47.7453],[18.996124,47.745686]]]}}
