{"type":"Feature","id":"relation/535774","properties":{"type":"relation","id":535774,"tags":{"ISO3166-1":"CV","ISO3166-1:alpha2":"CV","ISO3166-1:alpha3":"CPV","ISO3166-1:numeric":"132","admin_level":"2","boundary":"administrative","flag":"http://upload.wikimedia.org/wikipedia/commons/3/38/Flag_of_Cape_Verde.svg","is_in:continent":"Africa","long_name":"República de Cabo Verde","name":"Cabo Verde","name:cs":"Kapverdy","name:de":"Kap Verde","name:en":"Cape Verde","name:eo":"Kabo-Verdo","name:fr":"Cap-Vert","name:fy":"Kaapverdje","name:hr":"Zelenortski Otoci","name:hu":"Zöld-foki Köztársaság","name:nl":"Kaapverdië","name:ru":"Кабо-Верде","name:sr":"Зеленортска Острва","name:sv":"Kap Verde","name:ta":"கேப் வர்டி","name:tzl":"Cap Virt","name:uk":"Кабо-Верде","timezone":"Atlantic/Cape_Verde","type":"boundary","wikidata":"Q1011","wikipedia":"pt:Cabo Verde"},"labels":[{"id":"node/28095099","role":"admin_centre","coordinates":[-23.509611,14.916017]},{"id":"node/424311151","role":"label","coordinates":[-24.008394,16.000055]}]},"geometry":{"type":"Polygon","coordinates":[[[-24.35513,16.940712],[-24.583881,17.107204],[-24.901768,17.338322],[-24.946766,17.363129],[-25.01848,17.391932],[-25.052279,17.402351],[-25.08743,17.407116],[-25.122911,17.406088],[-25.157694,17.3993],[-25.190771,17.386944],[-25.433609,17.27232],[-25.46685,17.252687],[-25.495693,17.227448],[-25.519133,17.197485],[-25.54258,17.160793],[-25.560768,17.124624],[-25.57108,17.085693],[-25.573107,17.045568],[-25.57232,17.031017],[-25.568249,17.000654],[-25.55942,16.971243],[-25.51464,16.855843],[-25.489729,16.810402],[-25.478958,16.795696],[-25.45754,16.770935],[-25.426453,16.745663],[-25.386497,16.72343],[-25.276907,16.676952],[-24.936424,16.53248],[-24.69037,16.428007],[-24.575214,16.37542],[-24.883503,15.181554],[-24.952549,14.913218],[-24.961128,14.873395],[-24.965298,14.835874],[-24.962168,14.798256],[-24.95185,14.761875],[-24.934715,14.728018],[-24.911367,14.697881],[-24.88264,14.672533],[-24.853695,14.651454],[-24.818197,14.630657],[-24.779144,14.617192],[-24.758627,14.6123085],[-24.731918,14.6077385],[-24.704823,14.606623],[-24.545174,14.610445],[-24.35814,14.614922],[-23.495337,14.697392],[-23.460913,14.703521],[-23.439148,14.709285],[-23.408344,14.720059],[-23.379677,14.735436],[-23.194962,14.85377],[-22.99337,14.982843],[-22.96832,15.001667],[-22.946522,15.023989],[-22.928486,15.049284],[-22.907824,15.085985],[-22.832108,15.25042],[-22.595423,15.763596],[-22.484331,16.004015],[-22.469099,16.05255],[-22.457628,16.117868],[-22.454775,16.157],[-22.459846,16.19592],[-22.472654,16.233147],[-22.48685,16.263948],[-22.550522,16.453884],[-22.698925,16.895859],[-22.71113,16.924389],[-22.727736,16.95078],[-22.74835,16.974411],[-22.772488,16.99472],[-22.803226,17.016804],[-22.837282,17.036695],[-22.874655,17.049994],[-22.913973,17.056208],[-22.953804,17.055115],[-23.245089,17.019178],[-24.28639,16.890652],[-24.35513,16.940712]]]}}
