{"type":"Feature","id":"relation/192791","properties":{"type":"relation","id":192791,"tags":{"ISO3166-1":"GQ","ISO3166-1:alpha2":"GQ","ISO3166-1:alpha3":"GNQ","ISO3166-1:numeric":"226","admin_level":"2","boundary":"administrative","flag":"http://upload.wikimedia.org/wikipedia/commons/3/31/Flag_of_Equatorial_Guinea.svg","is_in:continent":"Africa","name":"Guinea Ecuatorial","name:af":"Ekwatoriaal-Guinee","name:als":"Äquatorialguinea","name:am":"ኢኳቶሪያል ጊኔ","name:an":"Guinea Equatorial","name:ar":"غينيا الاستوائية","name:arz":"جينيا الاستوائيه","name:ast":"Guinea Ecuatorial","name:az":"Ekvatorial Qvineya","name:bat-smg":"Ekvatuorė Gvinėjė","name:bcl":"Guineyang Ekwatoryal","name:be":"Экватарыяльная Гвінея","name:be-tarask":"Экватарыяльная Гвінэя","name:bg":"Екваториална Гвинея","name:bjn":"Guinea Katulistiwa","name:bm":"Cemajan Gine","name:bn":"বিষুবীয় গিনি","name:bo":"ཨི་ཁུའ་ཊོ་རལ་གི་ནེ།","name:bpy":"একুয়াটরিয়াল গায়ানা","name:br":"Ginea ar C'heheder","name:bs":"Ekvatorijalna Gvineja","name:bxr":"Экваторын Гвиней","name:ca":"Guinea Equatorial","name:ce":"Дуьнена асанан Гвине","name:ceb":"Gineang Ekwatoryal","name:ckb":"گینێی ئیستوایی","name:co":"Guinea Equatoriale","name:crh":"Ekvatorial Gvineya","name:cs":"Rovníková Guinea","name:cv":"Экваториаллă Гвиней","name:cy":"Guinea Gyhydeddol","name:da":"Ækvatorialguinea","name:de":"Äquatorialguinea","name:diq":"Gineya Ekwatori","name:dsb":"Ekwatorialna Guineja","name:dv":"އިކުއެޓޯރިއަލް ގިނީ","name:el":"Ισημερινή Γουινέα","name:en":"Equatorial Guinea","name:eo":"Ekvatora Gvineo","name:es":"Guinea Ecuatorial","name:et":"Ekvatoriaal-Guinea","name:eu":"Ekuatore Ginea","name:ext":"Guinea Equatorial","name:fa":"گینه استوایی","name:fi":"Päiväntasaajan Guinea","name:fiu-vro":"Ekvatoriaal-Ginea","name:fo":"Ekvatorguinea","name:fr":"Guinée équatoriale","name:frp":"Guinê èquatoriâla","name:fy":"Ekwatoriaal-Guinee","name:ga":"An Ghuine Mheánchriosach","name:gag":"Ekvatorial Gvineya","name:gd":"Gini Mheadhan-Chriosach","name:gl":"Guinea Ecuatorial","name:gv":"Guinea Chryss ny Cruinney","name:he":"גינאה המשוונית","name:hi":"भूमध्यरेखीय गिनी","name:hif":"Equatorial Guinea","name:hr":"Ekvatorska Gvineja","name:hsb":"Ekwatorialna Gineja","name:ht":"Gine ekwateryal","name:hu":"Egyenlítői-Guinea","name:hy":"Հասարակածային Գվինեա","name:ia":"Guinea Equatorial","name:id":"Guinea Khatulistiwa","name:ie":"Equatorial Guinéa","name:ilo":"Guinea Ekuatorial","name:io":"Equatorala Guinea","name:is":"Miðbaugs-Gínea","name:it":"Guinea Equatoriale","name:ja":"赤道ギニア","name:jv":"Guinea Khatulistiwa","name:ka":"ეკვატორული გვინეა","name:kaa":"Ekvatorial Gvineya","name:kk":"Экваторлық Гвинея","name:kn":"ವಿಷುವದ್ರೇಖೆಯ ಗಿನಿ","name:ko":"적도 기니","name:ku":"Gîneya Rojbendî","name:kw":"Gyni Ekwadoriel","name:la":"Guinea Aequatorensis","name:lb":"Equatorialguinea","name:lez":"Экваториал Гвинея","name:li":"Equatoriaal Guinee","name:lij":"Guinea Equatoriâ","name:lmo":"Guinea Equaturiala","name:ln":"Gine-Ekwatorial","name:lt":"Pusiaujo Gvinėja","name:lv":"Ekvatoriālā Gvineja","name:mi":"Kini Ekuatoria","name:min":"Guinea Khatulistiwa","name:mk":"Екваторска Гвинеја","name:ml":"ഇക്വറ്റോറിയൽ ഗിനി","name:mr":"इक्वेटोरीयल गिनी","name:mrj":"Экваториаль Гвиней","name:ms":"Guinea Khatulistiwa","name:mt":"Gwinea Ekwatorjali","name:my":"အီကွေတာဂီနီနိုင်ငံ","name:na":"Gini t Ekwador","name:nah":"Guinea Tlahcotlālticpac","name:nds":"Äquatoriaal-Guinea","name:ne":"इक्वेटोरियल गिनी","name:nl":"Equatoriaal Guinee","name:nn":"Ekvatorial-Guinea","name:no":"Ekvatorial-Guinea","name:nov":"Equatoral Gini","name:nso":"Equatorial Guinea","name:nv":"Gíní Nahasdzáán Ałníiʼgi Siʼánígíí","name:oc":"Guinèa Eqüatoriala","name:os":"Экваториалон Гвиней","name:pa":"ਭੂ-ਮੱਧ ਰੇਖਾਈ ਗਿਨੀ","name:pam":"Equatorial Guinea","name:pih":"Ekwatoryal Gini","name:pl":"Gwinea Równikowa","name:pms":"Guinea Equatorial","name:pnb":"استوائی گنی","name:pt":"Guiné Equatorial","name:qu":"Chawpipacha Khiniya","name:ro":"Guineea Ecuatorială","name:ru":"Экваториальная Гвинея","name:rw":"Gineya Ekwatoriyale","name:sah":"Экуатор Гуинеята","name:sc":"Guinea Ecuadoriale","name:scn":"Guinia Ecuaturiali","name:sco":"Equatorial Guinea","name:se":"Beaivvedási Guinea","name:sg":"Ginëe tî Ekuatëre","name:sh":"Ekvatorijalna Gvineja","name:simple":"Equatorial Guinea","name:sk":"Rovníková Guinea","name:sl":"Ekvatorialna Gvineja","name:sn":"Equatorial Guinea","name:so":"Ikweetiga Guinea","name:sq":"Guinea Ekuatoriale","name:sr":"Екваторијална Гвинеја","name:stq":"Äquatorioal Guinea","name:su":"Guinéa Khatulistiwa","name:sv":"Ekvatorialguinea","name:sw":"Guinea ya Ikweta","name:ta":"எக்குவடோரியல் கினி","name:tg":"Гвинеяи Истивоӣ","name:th":"ประเทศอิเควทอเรียลกินี","name:tk":"Ekwatorial Gwineýa","name:tl":"Gineang Ekwatoriyal","name:tr":"Ekvator Ginesi","name:ts":"Gineya ya le Nkaveni","name:tt":"Экваториаль Гвинея","name:ug":"ئېكۋاتور گۋىنېيىسى","name:uk":"Екваторіальна Гвінея","name:ur":"استوائی گنی","name:uz":"Ekvatorli Gvineya","name:vec":"Guinea Equatorial","name:vi":"Guinea Xích Đạo","name:vo":"Kveatora-Gineyän","name:war":"Guinea Ecuatorial","name:wo":"Gineg yamoo","name:xal":"Экватор Гвинемудин Орн","name:yi":"עקוואטארישע גינע","name:yo":"Guinea Alágedeméjì","name:zea":"Equatoriaol Hunea","name:zh":"赤道几内亚","name:zh-min-nan":"Chhiah-tō Guinea","name:zh-yue":"赤道畿內亞","name:zu":"IGini Enkabazwe","timezone":"Africa/Malabo","type":"boundary","wikidata":"Q983","wikipedia":"es:Guinea Ecuatorial"},"labels":[{"id":"node/424313853","role":"label","coordinates":[10.5170355,1.6131719]},{"id":"node/292521364","role":"admin_centre","coordinates":[8.780061,3.752828]}]},"geometry":{"type":"MultiPolygon","coordinates":[[[[9.822532,2.3488584],[9.819187,2.3501666],[9.8181715,2.3486261],[9.818254,2.3480985],[9.818993,2.347137],[9.818926,2.3459735],[9.818741,2.3450396],[9.818584,2.3436613],[9.818265,2.3425643],[9.817636,2.341549],[9.816827,2.3404374],[9.8162565,2.3398964],[9.815417,2.3396595],[9.814565,2.3395185],[9.814147,2.339056],[9.813869,2.3387733],[9.813308,2.338684],[9.812668,2.338181],[9.812203,2.337498],[9.801103,2.3491657],[9.8,2.351386],[9.797491,2.3547428],[9.786368,2.370391],[9.761856,2.3906202],[9.62112,2.4498448],[9.608957,2.4330277],[9.5983305,2.4142392],[9.592064,2.4005487],[9.586846,2.3864253],[9.58271,2.3719492],[9.579678,2.3572025],[9.576715,2.33745],[9.575657,2.3194766],[9.576224,2.3014812],[9.580067,2.2741344],[9.588075,2.2437298],[9.589821,2.2252848],[9.5933485,2.206798],[9.582509,2.1843474],[9.578296,2.173132],[9.573259,2.1558862],[9.566557,2.1216738],[9.564921,2.1055093],[9.564608,2.0892653],[9.5667,2.0642304],[9.571843,2.039772],[9.576956,2.0239067],[9.58786,1.9979825],[9.593379,1.9775878],[9.580895,1.9620725],[9.570425,1.9459355],[9.557026,1.9193226],[9.5468,1.8931955],[9.529656,1.8753587],[9.521134,1.864611],[9.51302,1.8527849],[9.498454,1.8412746],[9.473573,1.8166425],[9.454134,1.793897],[9.437369,1.76942],[9.429698,1.7552698],[9.423334,1.7410109],[9.418254,1.7267766],[9.414267,1.712199],[9.411286,1.6966754],[9.409158,1.6744436],[9.406686,1.6598301],[9.405332,1.6451482],[9.405061,1.6316373],[9.403369,1.6258717],[9.4000635,1.6188926],[9.388692,1.6051708],[9.382035,1.5957547],[9.351212,1.5720317],[9.332347,1.5539933],[9.304059,1.519313],[9.293475,1.5041614],[9.284328,1.4887035],[9.276262,1.472296],[9.2697315,1.4552197],[9.264791,1.4376179],[9.261879,1.4218006],[9.244691,1.4042295],[9.231247,1.3867892],[9.219807,1.367975],[9.210509,1.3480157],[9.203466,1.3271543],[9.201764,1.3193716],[9.186238,1.3019104],[9.179281,1.2923725],[9.164565,1.2684975],[9.153245,1.2427027],[9.145668,1.2155718],[9.14191,1.1863691],[9.141553,1.1724795],[9.142164,1.1585987],[9.143739,1.1447939],[9.146271,1.1311321],[9.149747,1.1176795],[9.15415,1.1045011],[9.159459,1.0916609],[9.1676655,1.0757172],[9.163028,1.0715749],[9.144178,1.0486698],[9.138254,1.0402247],[9.129032,1.0234643],[9.120222,1.0045701],[9.117497,0.9955342],[9.109652,0.9660394],[9.106922,0.9498049],[9.103032,0.91730094],[9.102169,0.9027327],[9.102202,0.8897793],[9.10323,0.87453204],[9.109353,0.8415472],[9.116119,0.8138172],[9.124919,0.79237115],[9.136514,0.77121776],[9.149294,0.7534473],[9.354785,0.84645647],[9.519125,0.9629838],[9.533141,0.9843895],[9.541814,0.99651927],[9.54739,1.0106097],[9.5474615,1.0226179],[9.556958,1.0202601],[9.566225,1.0197064],[9.58,1.0197217],[9.58927,1.0233922],[9.5925,1.024722],[9.597221,1.026667],[9.6022215,1.028611],[9.606943,1.0291669],[9.613888,1.028889],[9.62,1.029444],[9.623333,1.031389],[9.628333,1.033333],[9.6325,1.036111],[9.636667,1.0386109],[9.640833,1.041389],[9.644167,1.044722],[9.647778,1.048056],[9.651944,1.050556],[9.655556,1.053889],[9.659721,1.056389],[9.662569,1.0582876],[9.663889,1.0591669],[9.667777,1.061944],[9.672777,1.063611],[9.6775,1.0655559],[9.683055,1.066944],[9.689167,1.0675],[9.694722,1.068611],[9.700833,1.0691669],[9.706944,1.0697219],[9.713889,1.069444],[9.72,1.068611],[9.72611,1.067778],[9.732222,1.066944],[9.737778,1.0655559],[9.743889,1.064722],[9.7491665,1.063056],[9.753888,1.061111],[9.758611,1.058889],[9.762778,1.056111],[9.766667,1.053056],[9.770833,1.050278],[9.774167,1.046944],[9.7775,1.0433329],[9.780833,1.039722],[9.783333,1.035833],[9.786111,1.031667],[9.788055,1.026667],[9.79,1.0219439],[9.791944,1.0169439],[9.793889,1.0122219],[9.796144,1.0009886],[9.797936,1.0001502],[9.803594,1.0012908],[9.808495,1.0026529],[9.818164,1.0028676],[9.8279295,1.0041122],[9.834606,1.0045061],[9.842078,1.0039872],[9.850064,1.0027208],[9.984001,1.0026124],[10.137779,1.0024878],[10.27194,1.002937],[10.281389,1.0023713],[10.458889,1.0022275],[10.465833,1.002222],[10.71861,1.0026448],[10.954065,1.0030385],[10.957778,1.0030448],[10.964444,1.0030559],[11.292499,1.0022552],[11.30611,1.0021862],[11.3533125,1.00216],[11.3494835,1.4712998],[11.347331,1.735001],[11.347109,1.762221],[11.346666,1.8163743],[11.346543,1.8314127],[11.34692,1.8461013],[11.348233,1.897193],[11.348436,1.9051132],[11.354324,2.1342375],[11.354824,2.1536884],[11.35498,2.1597185],[11.35848,2.167062],[11.35873,2.1692393],[11.359862,2.1718924],[11.237587,2.1720178],[11.171037,2.1720862],[11.000134,2.1711872],[10.998152,2.1736152],[10.656032,2.1738605],[10.400188,2.1739812],[10.188814,2.1734166],[10.1791525,2.1623232],[10.175317,2.1625779],[10.169245,2.1613076],[10.163136,2.16312],[10.161812,2.1683445],[10.160256,2.1732664],[10.157331,2.1752994],[10.154511,2.174285],[10.150965,2.1706374],[10.145112,2.173409],[10.144167,2.1692684],[10.136991,2.1668856],[10.129586,2.1625085],[10.121554,2.156568],[10.117696,2.1567764],[10.115298,2.1639674],[10.108206,2.1668856],[10.099862,2.1632378],[10.072851,2.1622999],[10.063256,2.1643844],[10.045704,2.1738524],[10.043715,2.1654863],[10.038596,2.1654863],[10.034891,2.1623845],[10.031601,2.1654725],[10.0255,2.1674032],[10.019001,2.1709545],[10.007462,2.173233],[10.002059,2.1743],[9.995932,2.1774285],[9.990181,2.1795776],[9.988552,2.1798956],[9.987158,2.1783822],[9.986185,2.1772704],[9.983343,2.177291],[9.981895,2.178738],[9.979481,2.1797192],[9.977843,2.18033],[9.975948,2.1811616],[9.973865,2.1825006],[9.971404,2.1820667],[9.972109,2.1836503],[9.971693,2.184961],[9.969708,2.1853669],[9.967931,2.1862633],[9.965616,2.1869867],[9.964097,2.1880968],[9.962577,2.1893022],[9.961419,2.1906044],[9.959104,2.1913283],[9.95751,2.1920369],[9.955299,2.1911523],[9.953473,2.1903949],[9.950816,2.1891983],[9.948812,2.1898527],[9.948106,2.1911836],[9.947268,2.1918318],[9.945395,2.192685],[9.945211,2.1940777],[9.943698,2.1951034],[9.941594,2.195959],[9.940966,2.1980772],[9.939432,2.1986904],[9.937542,2.1981297],[9.935863,2.1974998],[9.9342785,2.1943824],[9.932476,2.1965377],[9.931228,2.1976628],[9.929346,2.198097],[9.928414,2.198819],[9.927505,2.2019308],[9.926688,2.202471],[9.925964,2.2044969],[9.9250965,2.20551],[9.923215,2.2060888],[9.922118,2.204734],[9.920899,2.203918],[9.919427,2.2037475],[9.917427,2.2033188],[9.915545,2.2036288],[9.913953,2.203484],[9.913375,2.2016027],[9.912683,2.1999097],[9.911782,2.1975508],[9.909901,2.1968274],[9.90802,2.1975508],[9.906464,2.1976721],[9.905271,2.1982741],[9.904517,2.2000532],[9.903824,2.2023265],[9.905415,2.2043521],[9.905969,2.205922],[9.906129,2.2075126],[9.903977,2.2075126],[9.902087,2.2076807],[9.901917,2.2101555],[9.901508,2.2124562],[9.9007845,2.2146268],[9.899772,2.2166526],[9.898858,2.218605],[9.897242,2.220369],[9.894562,2.221573],[9.891705,2.2221243],[9.889641,2.2230203],[9.888595,2.2243803],[9.887345,2.2261064],[9.887651,2.2290235],[9.886999,2.2308464],[9.885769,2.2317607],[9.880549,2.232881],[9.870875,2.2348602],[9.8659115,2.2367165],[9.865447,2.2392032],[9.863964,2.2407126],[9.853434,2.2430027],[9.848171,2.2456934],[9.845563,2.2524633],[9.8423,2.2640467],[9.841484,2.2731419],[9.839919,2.2768266],[9.838822,2.2794054],[9.834013,2.2846391],[9.833413,2.2870166],[9.831781,2.2934768],[9.834314,2.2982388],[9.8347,2.3014572],[9.8357525,2.3104393],[9.837498,2.3248155],[9.831359,2.3373322],[9.828767,2.342617],[9.822532,2.3488584]]],[[[5.6340485,-1.6732196],[5.6673083,-1.6717958],[5.6835775,-1.6690745],[5.6995673,-1.6650205],[5.7151675,-1.6596613],[5.7302723,-1.6530333],[5.7447777,-1.645182],[5.758586,-1.636161],[5.771601,-1.6260315],[5.788785,-1.60965],[5.8020062,-1.5939468],[5.815531,-1.5735695],[5.820184,-1.567748],[5.839279,-1.5289465],[5.84303,-1.512],[5.844476,-1.508],[5.8458276,-1.504],[5.8470855,-1.5],[5.848802,-1.494],[5.8498354,-1.49],[5.8512206,-1.484],[5.8520374,-1.4799999],[5.853104,-1.474],[5.8537107,-1.4699999],[5.854467,-1.464],[5.854869,-1.4599999],[5.85532,-1.454],[5.8555202,-1.4499999],[5.85567,-1.444],[5.8560452,-1.430504],[5.857642,-1.4075565],[5.856588,-1.3845778],[5.854162,-1.3680155],[5.850032,-1.3505565],[5.846517,-1.3394452],[5.837573,-1.3179314],[5.8261833,-1.2976058],[5.812503,-1.2787449],[5.8005753,-1.265434],[5.7875133,-1.2532493],[5.773413,-1.2422802],[5.75839,-1.232615],[5.736026,-1.2214348],[5.715575,-1.2138929],[5.6944237,-1.2086244],[5.6722083,-1.206],[5.6669307,-1.2049999],[5.660652,-1.204],[5.6524577,-1.2030001],[5.6348486,-1.202],[5.628692,-1.202],[5.611083,-1.2030001],[5.6028886,-1.204],[5.5966105,-1.2049999],[5.591333,-1.206],[5.586698,-1.207],[5.5825233,-1.208],[5.578698,-1.2089999],[5.575151,-1.2099999],[5.571832,-1.2110001],[5.565743,-1.2129999],[5.5629234,-1.214],[5.557648,-1.216],[5.552778,-1.2179999],[5.550471,-1.219],[5.5460806,-1.221],[5.54195,-1.223],[5.538043,-1.2249999],[5.533913,-1.227],[5.5300083,-1.2289999],[5.526302,-1.2310001],[5.5227723,-1.2329999],[5.517771,-1.236],[5.5099463,-1.2409999],[5.506911,-1.243],[5.5025706,-1.2459999],[5.498463,-1.249],[5.4945636,-1.252],[5.489656,-1.2559999],[5.485049,-1.26],[5.4807115,-1.2639999],[5.4776206,-1.2670001],[5.473698,-1.271],[5.469988,-1.275],[5.466472,-1.279],[5.4631395,-1.283],[5.4599776,-1.2870001],[5.456977,-1.291],[5.454128,-1.2950001],[5.451423,-1.299],[5.448856,-1.303],[5.44642,-1.307],[5.4435515,-1.3119999],[5.4413915,-1.316],[5.4393473,-1.3199999],[5.437414,-1.324],[5.4347153,-1.3299999],[5.4330463,-1.334],[5.430731,-1.3399999],[5.429308,-1.344],[5.4273505,-1.3499999],[5.4261603,-1.354],[5.4250607,-1.3579999],[5.4235425,-1.364],[5.4221673,-1.37],[5.42093,-1.3759999],[5.420198,-1.38],[5.419549,-1.384],[5.4187307,-1.39],[5.4182878,-1.3939999],[5.4177756,-1.4],[5.417535,-1.4039999],[5.4173245,-1.41],[5.417294,-1.416],[5.417444,-1.4219999],[5.417774,-1.428],[5.4180956,-1.4319999],[5.418729,-1.438],[5.4195466,-1.444],[5.42055,-1.4499999],[5.421743,-1.456],[5.42198,-1.458],[5.422281,-1.464],[5.422581,-1.4679999],[5.4231844,-1.474],[5.423688,-1.4779999],[5.4242744,-1.482],[5.4261603,-1.494],[5.4272585,-1.5],[5.4285474,-1.5059999],[5.4295144,-1.51],[5.4305696,-1.5139999],[5.431714,-1.518],[5.4336014,-1.5239999],[5.434976,-1.528],[5.436447,-1.532],[5.4380155,-1.536],[5.4405575,-1.5419999],[5.442383,-1.546],[5.4448156,-1.551],[5.4468884,-1.5550001],[5.449644,-1.56],[5.451985,-1.564],[5.45509,-1.5689999],[5.457725,-1.5729998],[5.4605007,-1.5769999],[5.4634247,-1.5809999],[5.466505,-1.5849999],[5.4697504,-1.5889999],[5.473173,-1.5929999],[5.4767847,-1.5969999],[5.4805994,-1.6009998],[5.4846334,-1.6049999],[5.488908,-1.6089998],[5.492285,-1.612],[5.4970384,-1.6159999],[5.5008097,-1.6190001],[5.503431,-1.6209999],[5.506145,-1.623],[5.5157523,-1.6312621],[5.542245,-1.6466243],[5.569785,-1.6598139],[5.6013618,-1.6691742],[5.6340485,-1.6732196]]],[[[9.086082,3.5059998],[9.088323,3.5089998],[9.090477,3.5119998],[9.094587,3.5180001],[9.09658,3.521],[9.099118,3.5249999],[9.101527,3.5289998],[9.10381,3.5329998],[9.106496,3.5379999],[9.109004,3.543],[9.110892,3.547],[9.113556,3.5529997],[9.117743,3.563],[9.119339,3.567],[9.120837,3.5709999],[9.122917,3.577],[9.124808,3.583],[9.125956,3.587],[9.127509,3.593],[9.128434,3.597],[9.129274,3.6009998],[9.13111,3.611],[9.133594,3.6209998],[9.134541,3.6249998],[9.136232,3.633],[9.137364,3.639],[9.138309,3.6449997],[9.138835,3.649],[9.13928,3.6529999],[9.139824,3.659],[9.140085,3.6629999],[9.140266,3.667],[9.140388,3.6729999],[9.1403055,3.6809998],[9.140096,3.687],[9.139705,3.6929998],[9.1391325,3.699],[9.138375,3.705],[9.137432,3.711],[9.136301,3.7169998],[9.134977,3.723],[9.133987,3.727],[9.132912,3.731],[9.131158,3.7369998],[9.130635,3.7389998],[9.130069,3.743],[9.129419,3.747],[9.127164,3.759],[9.126347,3.763],[9.125295,3.7709064],[9.113189,3.7851737],[9.098414,3.801165],[9.092029,3.8075142],[9.080571,3.8178654],[9.068493,3.8309047],[9.055149,3.847037],[9.046853,3.8561797],[9.041547,3.8605425],[9.0059395,3.8886888],[8.983254,3.9059362],[8.967267,3.9114997],[8.93191,3.925275],[8.892902,3.9419024],[8.881728,3.946176],[8.8313465,3.9604466],[8.8275585,3.9609997],[8.822915,3.9619997],[8.817627,3.963],[8.815113,3.964],[8.809161,3.967],[8.804897,3.9689999],[8.802662,3.9699998],[8.797956,3.972],[8.795471,3.9729998],[8.790186,3.975],[8.784392,3.9769998],[8.781259,3.9779997],[8.777932,3.9789999],[8.767232,3.982],[8.763399,3.983],[8.759214,3.984],[8.754571,3.985],[8.749283,3.9859998],[8.742991,3.987],[8.73478,3.988],[8.717135,3.9889998],[8.709509,3.9889998],[8.691864,3.988],[8.683653,3.987],[8.6773615,3.9859998],[8.672073,3.985],[8.66743,3.984],[8.6589155,3.982],[8.655083,3.9809997],[8.651528,3.9799998],[8.648202,3.9789999],[8.645068,3.9779997],[8.639275,3.9759998],[8.633989,3.974],[8.629108,3.972],[8.626798,3.971],[8.622398,3.9689999],[8.616277,3.966],[8.610634,3.963],[8.603618,3.9589999],[8.598581,3.9559999],[8.593731,3.9529998],[8.589123,3.95],[8.584775,3.947],[8.582006,3.945],[8.5780325,3.942],[8.573693,3.939],[8.570926,3.9369998],[8.568253,3.935],[8.564411,3.932],[8.559573,3.928],[8.555027,3.9239998],[8.550745,3.9199998],[8.546703,3.916],[8.544765,3.9139998],[8.541959,3.911],[8.538389,3.907],[8.534187,3.902],[8.530253,3.8969998],[8.528013,3.894],[8.525859,3.891],[8.5237875,3.8879998],[8.521795,3.8849998],[8.519878,3.8819997],[8.518036,3.879],[8.516266,3.876],[8.5145645,3.873],[8.512931,3.8700001],[8.510299,3.8649998],[8.5077915,3.86],[8.505894,3.856],[8.504532,3.853],[8.503835,3.852],[8.501411,3.8489997],[8.499083,3.846],[8.495398,3.8409998],[8.493298,3.838],[8.491279,3.835],[8.489338,3.8319998],[8.487472,3.8289998],[8.486728,3.8279998],[8.484791,3.8259997],[8.481983,3.823],[8.477551,3.8179998],[8.47659,3.817],[8.473403,3.8140001],[8.47035,3.8109999],[8.467424,3.8079998],[8.462686,3.803],[8.459954,3.8],[8.457324,3.797],[8.45477,3.7939997],[8.452315,3.791],[8.449956,3.7879999],[8.44695,3.784],[8.444096,3.78],[8.441387,3.7759998],[8.438815,3.7719998],[8.436376,3.768],[8.434062,3.764],[8.431339,3.759],[8.429292,3.7549999],[8.426428,3.7489998],[8.423804,3.743],[8.421411,3.7369998],[8.419937,3.7329998],[8.417908,3.727],[8.416086,3.7209997],[8.414468,3.715],[8.412997,3.7089999],[8.411674,3.703],[8.4105425,3.6969998],[8.4096,3.691],[8.408843,3.685],[8.40827,3.679],[8.407989,3.675],[8.407789,3.671],[8.407669,3.667],[8.40763,3.6629999],[8.407234,3.662],[8.404266,3.6609998],[8.398745,3.659],[8.393674,3.6569998],[8.388969,3.655],[8.384572,3.6529999],[8.380435,3.651],[8.376524,3.649],[8.371023,3.646],[8.36757,3.6439998],[8.364266,3.6419997],[8.3611,3.6399999],[8.354314,3.636],[8.351081,3.6339998],[8.346474,3.631],[8.342128,3.6279998],[8.33936,3.6259997],[8.336689,3.6239998],[8.332849,3.6209998],[8.3280115,3.6169999],[8.324577,3.614],[8.321296,3.611],[8.318155,3.6079998],[8.314171,3.6039999],[8.310385,3.6],[8.307654,3.597],[8.30418,3.593],[8.300852,3.5889997],[8.297626,3.5849998],[8.295266,3.582],[8.29147,3.577],[8.288542,3.5729997],[8.285744,3.5689998],[8.28307,3.5649998],[8.278541,3.559],[8.274998,3.5539997],[8.271678,3.5489998],[8.268567,3.544],[8.26621,3.54],[8.263957,3.536],[8.262346,3.5329998],[8.2603,3.5289998],[8.254543,3.5169997],[8.252743,3.5129998],[8.251046,3.5089998],[8.249451,3.5049999],[8.246406,3.4969997],[8.244305,3.491],[8.242414,3.485],[8.2416935,3.483],[8.240098,3.4789999],[8.238602,3.475],[8.236536,3.4689999],[8.235751,3.467],[8.233245,3.4609997],[8.230963,3.455],[8.229562,3.451],[8.227637,3.445],[8.226469,3.4409997],[8.22539,3.4369998],[8.2244005,3.4329998],[8.223078,3.427],[8.222302,3.4229999],[8.221612,3.419],[8.2210045,3.415],[8.220479,3.411],[8.218739,3.4029999],[8.2176075,3.3969998],[8.21694,3.393],[8.216353,3.389],[8.215628,3.383],[8.215055,3.3769999],[8.214774,3.373],[8.214574,3.369],[8.214454,3.3649998],[8.214425,3.359],[8.214505,3.355],[8.214666,3.351],[8.214907,3.347],[8.215229,3.343],[8.215632,3.339],[8.216117,3.335],[8.216684,3.3309999],[8.217334,3.327],[8.218466,3.3209999],[8.2197895,3.315],[8.22078,3.3109999],[8.221504,3.307],[8.2223015,3.303],[8.225027,3.291],[8.22658,3.2849998],[8.2283325,3.279],[8.229363,3.2749999],[8.230464,3.271],[8.232286,3.2649999],[8.233616,3.261],[8.235041,3.2569997],[8.236564,3.2529998],[8.239033,3.247],[8.2417345,3.241],[8.24468,3.235],[8.246801,3.227],[8.24797,3.223],[8.24923,3.2189999],[8.250584,3.215],[8.252033,3.211],[8.253579,3.207],[8.255225,3.203],[8.257888,3.1969998],[8.260792,3.191],[8.262338,3.188],[8.263949,3.185],[8.266784,3.1799998],[8.268577,3.1769998],[8.270443,3.174],[8.274372,3.168],[8.277869,3.1629999],[8.281602,3.158],[8.285585,3.1529999],[8.289842,3.148],[8.297122,3.1399999],[8.300941,3.136],[8.303949,3.133],[8.306027,3.131],[8.31037,3.127],[8.314984,3.123],[8.319898,3.119],[8.323802,3.116],[8.329281,3.112],[8.334993,3.1079998],[8.337974,3.1059997],[8.341075,3.1039999],[8.349191,3.099],[8.354312,3.096],[8.359811,3.093],[8.365758,3.0899997],[8.370019,3.0879998],[8.374562,3.086],[8.379438,3.0839999],[8.382024,3.083],[8.387544,3.0809999],[8.39051,3.08],[8.3936405,3.079],[8.396964,3.078],[8.400516,3.077],[8.407777,3.074],[8.413059,3.072],[8.418754,3.07],[8.424851,3.0679998],[8.428174,3.067],[8.4317255,3.0659997],[8.437982,3.064],[8.441305,3.063],[8.444857,3.062],[8.448687,3.0609999],[8.452867,3.06],[8.457507,3.059],[8.462791,3.0579998],[8.475188,3.056],[8.480708,3.0540001],[8.483674,3.0529997],[8.486805,3.0519998],[8.4901285,3.0509999],[8.493679,3.0499997],[8.49751,3.0489998],[8.50169,3.0479999],[8.50936,3.046],[8.51354,3.0449998],[8.51818,3.044],[8.523464,3.043],[8.529751,3.0419998],[8.537955,3.041],[8.555586,3.04],[8.566427,3.039],[8.570607,3.038],[8.57435,3.037],[8.578036,3.035],[8.581843,3.0329998],[8.58796,3.03],[8.592356,3.0279999],[8.594666,3.027],[8.599542,3.0249999],[8.602126,3.024],[8.604823,3.023],[8.610497,3.021],[8.616594,3.019],[8.619917,3.018],[8.623468,3.017],[8.627298,3.016],[8.631478,3.0149999],[8.636119,3.014],[8.641402,3.0129998],[8.647689,3.0119998],[8.655893,3.011],[8.673524,3.0099998],[8.680601,3.0099998],[8.698232,3.011],[8.706436,3.0119998],[8.712722,3.0129998],[8.718006,3.014],[8.722646,3.0149999],[8.726827,3.016],[8.730657,3.017],[8.734208,3.018],[8.737531,3.019],[8.743628,3.021],[8.74645,3.022],[8.751732,3.024],[8.754215,3.0249999],[8.758918,3.027],[8.761151,3.0279999],[8.765412,3.03],[8.76943,3.0319998],[8.773237,3.0339997],[8.776857,3.036],[8.78031,3.038],[8.783611,3.04],[8.786776,3.0419998],[8.789815,3.044],[8.79416,3.047],[8.7969265,3.0489998],[8.800899,3.0519998],[8.804674,3.055],[8.809434,3.059],[8.813908,3.063],[8.818126,3.067],[8.820145,3.0689998],[8.82307,3.072],[8.825875,3.075],[8.828568,3.078],[8.833645,3.083],[8.837518,3.087],[8.841184,3.091],[8.844656,3.095],[8.847142,3.0979998],[8.849533,3.1009998],[8.8518305,3.1039999],[8.854758,3.1079998],[8.858681,3.113],[8.862366,3.118],[8.865838,3.123],[8.869115,3.128],[8.87098,3.131],[8.872774,3.134],[8.874497,3.1369998],[8.876153,3.1399999],[8.877742,3.143],[8.879267,3.1459997],[8.880126,3.147],[8.882146,3.149],[8.885071,3.152],[8.889219,3.156],[8.892184,3.159],[8.895951,3.1629999],[8.899519,3.167],[8.90372,3.172],[8.907652,3.1769998],[8.911077,3.1809998],[8.914328,3.185],[8.919297,3.191],[8.923178,3.1959999],[8.926814,3.2009997],[8.929558,3.205],[8.934138,3.212],[8.937207,3.2169998],[8.940081,3.2220001],[8.942766,3.227],[8.945272,3.2319999],[8.948054,3.2380002],[8.950601,3.244],[8.952172,3.248],[8.954345,3.254],[8.956957,3.262],[8.959022,3.268],[8.960282,3.2719998],[8.963725,3.284],[8.964805,3.2879999],[8.9657955,3.2919998],[8.967183,3.2979999],[8.968474,3.304],[8.968928,3.3049998],[8.97111,3.3079998],[8.97389,3.3119998],[8.976529,3.316],[8.979033,3.32],[8.981409,3.324],[8.983663,3.3279998],[8.985796,3.332],[8.988321,3.337],[8.990258,3.3409998],[8.992085,3.3449998],[8.993809,3.3489997],[8.99543,3.353],[8.996953,3.3569999],[8.998377,3.3609998],[8.999707,3.3649998],[9.00153,3.371],[9.002117,3.372],[9.004756,3.376],[9.00726,3.3799999],[9.009054,3.383],[9.011338,3.387],[9.012971,3.39],[9.014539,3.393],[9.016531,3.3969998],[9.017958,3.3999999],[9.020092,3.4039998],[9.022599,3.409],[9.024481,3.4129999],[9.027104,3.419],[9.028727,3.4229999],[9.030249,3.427],[9.031673,3.431],[9.033019,3.435],[9.034875,3.439],[9.035401,3.4399998],[9.037874,3.444],[9.040219,3.448],[9.045803,3.454],[9.050176,3.4589999],[9.054267,3.464],[9.056596,3.467],[9.058835,3.47],[9.061689,3.4739997],[9.065054,3.4789999],[9.067593,3.483],[9.07061,3.488],[9.073456,3.491],[9.076187,3.494],[9.078811,3.4969997],[9.08133,3.5],[9.083754,3.503],[9.086082,3.5059998]]]]}}
