{"type":"Feature","id":"relation/3940064","properties":{"type":"relation","id":3940064,"tags":{"addr:postcode":"85043-85047","admin_level":"9","boundary":"administrative","koatuu":"1411570300","name":"Білицьке","name:ar":"بيليتسكي","name:en":"Bilytske","name:fa":"بیلیتسکه","name:fr":"Bilytske","name:ja":"ビールィツィケ","name:lt":"Bilickė","name:nn":"Bilytske","name:pl":"Biłyćkie","name:prefix":"місто","name:ro":"Bilîțke","name:ru":"Белицкое","name:uk":"Білицьке","name:vi":"Bilytske","place":"town","population":"8768","type":"boundary","wikipedia":"uk:Білицьке","wikipedia:ru":"Белицкое"},"labels":[{"id":"node/256613820","role":"admin_centre","coordinates":[37.1797,48.408184]}]},"geometry":{"type":"Polygon","coordinates":[[[37.168697,48.4166],[37.168793,48.41581],[37.168884,48.415092],[37.16902,48.41401],[37.169376,48.411125],[37.16989,48.408905],[37.17039,48.40665],[37.170753,48.405003],[37.17122,48.404297],[37.171337,48.40417],[37.17182,48.403656],[37.17215,48.402473],[37.17218,48.40229],[37.172565,48.40016],[37.17301,48.400215],[37.173332,48.400238],[37.17711,48.400677],[37.177677,48.400936],[37.179047,48.400707],[37.181763,48.400955],[37.183926,48.40115],[37.18598,48.40138],[37.18685,48.40132],[37.18771,48.401085],[37.18832,48.400703],[37.191536,48.40099],[37.191463,48.401714],[37.192387,48.401783],[37.192524,48.4016],[37.193016,48.401577],[37.193504,48.40165],[37.193474,48.402145],[37.195553,48.402378],[37.199684,48.402847],[37.198895,48.40407],[37.198277,48.404938],[37.198254,48.405388],[37.198994,48.405758],[37.199444,48.405964],[37.19922,48.40671],[37.199028,48.406868],[37.198822,48.407032],[37.197674,48.407883],[37.197403,48.408146],[37.196365,48.408993],[37.19572,48.409363],[37.194828,48.409657],[37.19466,48.409607],[37.19445,48.409645],[37.19364,48.40978],[37.19259,48.409954],[37.192116,48.41004],[37.191723,48.410114],[37.19103,48.410236],[37.188778,48.41064],[37.18776,48.411003],[37.187386,48.41129],[37.18694,48.41163],[37.18649,48.41211],[37.18639,48.41222],[37.183628,48.413113],[37.182724,48.41318],[37.181137,48.413433],[37.179256,48.413555],[37.175346,48.413498],[37.17501,48.413567],[37.17473,48.41375],[37.174263,48.41476],[37.174168,48.415264],[37.17413,48.41552],[37.171757,48.41484],[37.17137,48.414814],[37.170986,48.414967],[37.17022,48.415344],[37.169945,48.416664],[37.168697,48.4166]]]}}
