{"type":"Feature","id":"relation/4553482","properties":{"type":"relation","id":4553482,"tags":{"addr:country":"RU","addr:region":"Смоленская область","addr:subdistrict":"Краснинское городское поселение","admin_level":"10","boundary":"administrative","name":"Красный","name:de":"Krasny","name:en":"Krasny","name:ru":"Красный","place":"town","type":"boundary"},"labels":[{"id":"node/312992742","role":"admin_centre","coordinates":[31.43945,54.56944]}]},"geometry":{"type":"Polygon","coordinates":[[[31.436228,54.58951],[31.422262,54.589577],[31.422132,54.588932],[31.419416,54.588966],[31.419222,54.588306],[31.421768,54.58445],[31.422438,54.57842],[31.418943,54.57791],[31.418179,54.57275],[31.417732,54.565926],[31.418743,54.556664],[31.424215,54.556767],[31.423243,54.546017],[31.428799,54.544926],[31.449501,54.556168],[31.450775,54.56212],[31.461164,54.562126],[31.461384,54.5665],[31.461258,54.57057],[31.453928,54.574017],[31.445614,54.576893],[31.444334,54.577305],[31.443539,54.57767],[31.441954,54.579834],[31.445934,54.580708],[31.445375,54.58497],[31.44355,54.585476],[31.438257,54.58621],[31.436228,54.58951]]]}}
