{"type":"Feature","id":"relation/1538649","properties":{"type":"relation","id":1538649,"tags":{"addr:country":"RU","addr:district":"Кишертский район","addr:postcode":"617613","addr:region":"Пермский край","addr:subdistrict":"Осинцевское сельское поселение","alt_name":"дом отдыха «Красный Яр»","boundary":"administrative","landuse":"residential","name":"дом отдыха Красный Яр","official_name":"дом отдыха «Красный Яр»","oktmo:user":"57624413162","place":"hamlet","population":"139","population:date":"2015","type":"boundary","wikipedia":"ru:Дом отдыха «Красный Яр»"},"labels":[]},"geometry":{"type":"Polygon","coordinates":[[[57.470936,57.247597],[57.471024,57.247505],[57.475536,57.248375],[57.47979,57.248806],[57.483288,57.24962],[57.48484,57.249916],[57.48419,57.25131],[57.481804,57.251347],[57.479786,57.25121],[57.477386,57.25138],[57.476456,57.252125],[57.47673,57.253376],[57.47914,57.253143],[57.47924,57.25481],[57.47957,57.254784],[57.47965,57.255],[57.478973,57.255142],[57.478542,57.255463],[57.47787,57.25566],[57.47721,57.256054],[57.473515,57.257927],[57.47351,57.255474],[57.46984,57.255417],[57.46964,57.253357],[57.471443,57.25313],[57.47125,57.250957],[57.470936,57.247597]]]}}
