{"type":"Feature","id":"relation/1458008","properties":{"type":"relation","id":1458008,"tags":{"addr:country":"RU","addr:district":"Чернушинский район","addr:postcode":"617825","addr:region":"Пермский край","addr:subdistrict":"Тюинское сельское поселение","boundary":"administrative","landuse":"residential","name":"Анастасино","name:ru":"Анастасино","official_status":"ru:деревня","okato:user":"57257835002","place":"hamlet","population":"19","population:date":"2010","type":"boundary","wikipedia":"ru:Анастасино (Пермский край)"},"labels":[]},"geometry":{"type":"Polygon","coordinates":[[[56.351246,56.4851],[56.350613,56.48487],[56.350212,56.484554],[56.35011,56.484173],[56.350708,56.483517],[56.350082,56.483276],[56.349125,56.483047],[56.350315,56.482006],[56.35088,56.481686],[56.353027,56.482563],[56.354347,56.4822],[56.35616,56.480755],[56.359238,56.48231],[56.35883,56.48237],[56.358448,56.482525],[56.35325,56.486828],[56.352867,56.48701],[56.349895,56.48711],[56.350063,56.48682],[56.350456,56.486637],[56.35081,56.486397],[56.351276,56.486137],[56.351276,56.485836],[56.351025,56.485813],[56.351013,56.485645],[56.350834,56.485493],[56.351246,56.4851]]]}}
