{"type":"Feature","id":"relation/157062","properties":{"type":"relation","id":157062,"tags":{"ISO3166-2":"DZ-16","admin_level":"4","alt_name":"Al Djazāir","boundary":"administrative","capital":"yes","is_in:continent":"Africa","is_in:country":"Algeria","is_in:country_code":"DZ","long_name:ar":"ولاية الجزائر","long_name:en":"Algiers Province","long_name:fr":"Wilaya d'Alger","name":"Alger - الجزائر","name:af":"Algiers","name:am":"አልጀርስ","name:an":"Alcher","name:ar":"الجزائر","name:arc":"ܓܙܐܐܪ","name:ast":"Arxel","name:az":"Əlcəzair","name:bat-smg":"Alžīrs","name:be":"Алжыр","name:be-tarask":"Альжыр","name:ber":"ⴷⵣⴰⵢⴻⵔ","name:bg":"Алжир","name:bn":"আলজিয়ার্স","name:bo":"ཨཱལ་ཇི་ཡར་སི།","name:bs":"Alžir","name:ca":"Alger","name:ckb":"ئەلجەزیرە","name:cs":"Alžír","name:cv":"Алжир","name:cy":"Alger","name:da":"Algier","name:de":"Algier","name:diq":"Cezayir","name:el":"Αλγέρι","name:en":"Algiers","name:eo":"Alĝero","name:es":"Argel","name:et":"Alžiir","name:eu":"Aljer","name:ext":"Argel","name:fa":"الجزیره","name:fi":"Alger","name:fo":"Alger","name:fr":"Alger Capital","name:frp":"Alg·èr","name:fy":"Algiers","name:gd":"Algiers","name:gl":"Alxer","name:he":"אלג'יר","name:hi":"आल्जेर","name:hif":"Algiers","name:hr":"Alžir","name:hsb":"Alžěr","name:ht":"Alje","name:hu":"Algír","name:hy":"Ալժիր","name:id":"Aljir","name:ie":"Alger","name:io":"Aljer","name:is":"Algeirsborg","name:it":"Algeri","name:ja":"アルジェ","name:jv":"Aljir","name:ka":"ალჟირი","name:kab":"Dzayer","name:kk":"Алжир","name:kn":"ಆಲ್ಜೇರ್","name:ko":"알제","name:ku":"Cezayir","name:ky":"Алжир шаары","name:la":"Algeria","name:lad":"Arjel","name:lb":"Alger","name:lij":"Algè","name:lmo":"Algeri","name:ln":"Alje","name:lt":"Alžyras","name:lv":"Alžīra","name:mdf":"Алжир","name:mk":"Алжир","name:ml":"അൾജിയേഴ്സ്","name:mr":"अल्जीयर्स","name:mrj":"Алжир","name:ms":"Algiers","name:nah":"Argel","name:nl":"Algiers","name:nn":"Alger","name:no":"Alger","name:nov":"Algiers","name:oc":"Argièr","name:os":"Алжир","name:pap":"Algiers","name:pl":"Algier","name:pms":"Algeri","name:pnb":"الجیرز","name:ps":"الجزيره","name:pt":"Argel","name:ro":"Alger","name:roa-rup":"Alger","name:ru":"Алжир","name:scn":"Algeri","name:sco":"Algiers","name:sh":"Alžir","name:simple":"Algiers","name:sk":"Alžír","name:sl":"Alžir","name:so":"Algiers","name:sr":"Алжир","name:su":"Aljir","name:sv":"Alger","name:sw":"Algiers","name:ta":"அல்ஜியர்ஸ்","name:tg":"Алҷазоир","name:th":"แอลเจียร์","name:tl":"Algiers","name:tr":"Cezayir","name:udm":"Алжир","name:ug":"ئالجىر","name:uk":"Алжир","name:ur":"الجزائر شہر","name:vec":"Algeri","name:vep":"Alžir","name:vi":"Algiers","name:vo":"Cäsair","name:war":"Algiers","name:wo":"Alse","name:yo":"Algiers","name:zh":"阿爾及爾","name:zh-min-nan":"Algiers","name:zh-yue":"阿爾及爾","name:zu":"Algiers","old_name":"Icosium","ref":"16","type":"boundary","wikidata":"Q141026","wikipedia":"fr:Wilaya d'Alger"},"labels":[{"id":"node/299617915","role":"admin_centre","coordinates":[3.060065,36.775345]}]},"geometry":{"type":"MultiPolygon","coordinates":[[[[3.0759392,36.766613],[3.0698185,36.76602],[3.0694463,36.76612],[3.0669305,36.77099],[3.0694826,36.776188],[3.0696056,36.777195],[3.0694928,36.777206],[3.070201,36.777935],[3.0702412,36.777912],[3.0705905,36.778267],[3.0704765,36.77834],[3.0693989,36.777218],[3.0692618,36.777218],[3.0691688,36.776325],[3.0687144,36.776142],[3.0663202,36.771477],[3.0667112,36.771336],[3.0665672,36.77108],[3.0662005,36.771145],[3.066187,36.771107],[3.0666955,36.770954],[3.0689943,36.766445],[3.0692668,36.765987],[3.0685763,36.765587],[3.0686417,36.76551],[3.0693455,36.765938],[3.069473,36.76583],[3.0697417,36.765846],[3.0698879,36.765945],[3.0706065,36.766003],[3.0759892,36.766518],[3.076126,36.766468],[3.0805569,36.763115],[3.0813303,36.762936],[3.0818875,36.762794],[3.0818589,36.7626],[3.0821667,36.762577],[3.0824184,36.762585],[3.0825472,36.762745],[3.0824075,36.76293],[3.0818605,36.76316],[3.0807877,36.76338],[3.0763996,36.7667],[3.0762384,36.766685],[3.0761487,36.76657],[3.0759392,36.766613]]],[[[2.8932476,36.781384],[2.8929665,36.781055],[2.8928812,36.780952],[2.8921037,36.780132],[2.891613,36.779694],[2.8914032,36.779545],[2.8909535,36.77932],[2.890687,36.779114],[2.8903837,36.77882],[2.8900845,36.77868],[2.889848,36.778805],[2.8898327,36.778625],[2.8895457,36.77852],[2.8892953,36.77855],[2.8891954,36.778286],[2.8887656,36.77795],[2.8885198,36.777836],[2.8884346,36.777462],[2.8882906,36.777184],[2.8881183,36.77691],[2.8877041,36.776707],[2.8873985,36.776222],[2.887154,36.776062],[2.8868184,36.775936],[2.886748,36.77587],[2.886767,36.775715],[2.8866985,36.775642],[2.886647,36.77541],[2.8864918,36.775265],[2.88632,36.77501],[2.8855824,36.77466],[2.8851368,36.774284],[2.88481,36.774357],[2.884692,36.774265],[2.884762,36.773716],[2.8846107,36.773403],[2.8839624,36.772873],[2.883139,36.772076],[2.8826284,36.771545],[2.8815918,36.77057],[2.881349,36.770397],[2.8803868,36.769688],[2.8791108,36.768776],[2.8784502,36.768444],[2.878137,36.76823],[2.877907,36.768112],[2.8775651,36.76797],[2.8772752,36.767735],[2.8769476,36.767467],[2.8762805,36.767067],[2.8754044,36.766518],[2.874948,36.766216],[2.874395,36.76595],[2.8735545,36.765682],[2.8732784,36.76566],[2.8730166,36.76553],[2.8729315,36.765297],[2.871969,36.7649],[2.871755,36.764748],[2.871537,36.764507],[2.8713036,36.76434],[2.869973,36.763798],[2.8698595,36.76368],[2.86949,36.76327],[2.8687553,36.762943],[2.8684936,36.762775],[2.8681011,36.76272],[2.867651,36.762512],[2.867151,36.762268],[2.8660822,36.761944],[2.8653426,36.761623],[2.864541,36.761414],[2.8641932,36.761524],[2.8638217,36.761536],[2.8627808,36.761353],[2.8622315,36.76124],[2.8620124,36.761208],[2.8614643,36.761097],[2.8603292,36.760853],[2.8595734,36.760616],[2.8588636,36.760235],[2.858263,36.760048],[2.8575506,36.760025],[2.8571227,36.76007],[2.8566573,36.7602],[2.8564787,36.760788],[2.856457,36.76094],[2.85695,36.76102],[2.8569088,36.761166],[2.8556483,36.760975],[2.8556654,36.76084],[2.8562663,36.760906],[2.8563545,36.76081],[2.8563778,36.760742],[2.856445,36.760147],[2.8561397,36.759888],[2.8560357,36.75975],[2.8556764,36.759567],[2.8551762,36.75949],[2.8548071,36.759487],[2.854391,36.759636],[2.8540137,36.759853],[2.853855,36.76],[2.8538146,36.76039],[2.8538272,36.76052],[2.8545794,36.760666],[2.854554,36.760834],[2.8530562,36.76053],[2.8530822,36.760403],[2.853589,36.760452],[2.853693,36.760326],[2.8537037,36.760212],[2.8537383,36.7598],[2.8534858,36.75962],[2.8534577,36.75961],[2.8532605,36.75952],[2.8530486,36.75943],[2.8526871,36.759396],[2.8524039,36.759415],[2.8520691,36.759518],[2.8517396,36.759666],[2.8515038,36.759914],[2.851429,36.76012],[2.8513925,36.76022],[2.851453,36.76051],[2.8516138,36.76072],[2.8516378,36.76078],[2.85216,36.760487],[2.8522968,36.760628],[2.851581,36.761017],[2.8507905,36.760128],[2.8502984,36.760345],[2.8498433,36.760498],[2.8492684,36.760784],[2.8487906,36.761135],[2.848453,36.761467],[2.8482168,36.76177],[2.848013,36.762035],[2.847895,36.762226],[2.8478467,36.76245],[2.847901,36.762672],[2.8484614,36.762737],[2.8489344,36.763294],[2.8487704,36.763386],[2.8483257,36.762814],[2.8467696,36.76267],[2.8467236,36.762955],[2.8466778,36.76324],[2.8466396,36.763485],[2.848014,36.76362],[2.8480082,36.76368],[2.8468924,36.763577],[2.8468654,36.763725],[2.8462195,36.763657],[2.8461099,36.763847],[2.8467996,36.76416],[2.847125,36.764305],[2.8473043,36.76439],[2.8471344,36.76463],[2.8470492,36.7647],[2.8470778,36.764736],[2.8473132,36.76456],[2.8477387,36.763943],[2.847794,36.763977],[2.8473709,36.764587],[2.8476632,36.76472],[2.848296,36.763905],[2.8482811,36.76385],[2.8483071,36.76383],[2.8483415,36.76379],[2.848599,36.76392],[2.8485508,36.764],[2.8483803,36.76392],[2.8478756,36.764595],[2.8484428,36.764885],[2.8491569,36.763824],[2.8490436,36.763676],[2.8491142,36.763634],[2.8492274,36.76377],[2.8496506,36.763523],[2.849771,36.763454],[2.8498821,36.76353],[2.8498907,36.763615],[2.849418,36.763897],[2.8493,36.764057],[2.8485975,36.765133],[2.848429,36.765186],[2.8476925,36.765434],[2.8475463,36.76542],[2.8473969,36.765457],[2.8473532,36.765408],[2.8473134,36.76535],[2.8473597,36.765305],[2.8473997,36.76527],[2.8474162,36.7652],[2.8471143,36.76534],[2.8469589,36.765285],[2.8468428,36.76529],[2.8467505,36.76528],[2.8466692,36.765137],[2.846625,36.765083],[2.8464952,36.7652],[2.846319,36.765156],[2.8460436,36.7653],[2.8456237,36.765213],[2.84558,36.765213],[2.8452032,36.76521],[2.8448055,36.76531],[2.8444307,36.765266],[2.8438306,36.764977],[2.843551,36.764797],[2.8433232,36.764874],[2.8431902,36.76483],[2.8428736,36.764732],[2.8422825,36.764633],[2.8420684,36.764523],[2.841754,36.764477],[2.8415833,36.764416],[2.841473,36.764362],[2.8414252,36.76431],[2.8413603,36.7643],[2.8413215,36.764248],[2.8412864,36.7642],[2.8413436,36.76414],[2.8413029,36.76414],[2.8412588,36.76408],[2.8413186,36.76402],[2.8411882,36.76395],[2.8410962,36.76396],[2.841024,36.763977],[2.8409553,36.76393],[2.8410108,36.763813],[2.8410537,36.763767],[2.841072,36.763687],[2.8409905,36.763588],[2.840835,36.76347],[2.8405387,36.763397],[2.8402267,36.763313],[2.840034,36.763294],[2.8398955,36.76339],[2.8398561,36.76336],[2.839797,36.76335],[2.8396807,36.763397],[2.8395638,36.76329],[2.8396342,36.763237],[2.8395622,36.763206],[2.8395214,36.763157],[2.839333,36.763138],[2.8392074,36.763103],[2.8390212,36.763103],[2.8388636,36.763046],[2.8387444,36.76294],[2.838612,36.76285],[2.8385217,36.76273],[2.838418,36.762646],[2.8384032,36.762596],[2.8383296,36.762554],[2.8382998,36.762497],[2.8382316,36.762432],[2.838176,36.762474],[2.8380466,36.762478],[2.8378956,36.7624],[2.837969,36.762352],[2.837982,36.76231],[2.8378875,36.76231],[2.8377824,36.762196],[2.8377695,36.762135],[2.8377028,36.76211],[2.8377306,36.762054],[2.8377895,36.762062],[2.8378084,36.762035],[2.8377712,36.762024],[2.837642,36.761944],[2.837654,36.76188],[2.8377843,36.76186],[2.8379402,36.761967],[2.8380673,36.76207],[2.8380892,36.762226],[2.8382328,36.76224],[2.838298,36.762306],[2.8384278,36.762383],[2.838461,36.762417],[2.8384476,36.76249],[2.8385751,36.762447],[2.8386705,36.762516],[2.8387225,36.762585],[2.8388138,36.76268],[2.8388712,36.762787],[2.839031,36.762886],[2.8394642,36.76294],[2.8392813,36.762894],[2.8392,36.76284],[2.839235,36.762794],[2.8393137,36.762775],[2.8392997,36.76274],[2.83932,36.76264],[2.839246,36.76263],[2.8391843,36.762554],[2.839052,36.762527],[2.8390458,36.7624],[2.838991,36.762375],[2.8389835,36.76232],[2.8388867,36.762318],[2.8388152,36.76227],[2.838735,36.76234],[2.838692,36.762302],[2.838627,36.762264],[2.8385003,36.762173],[2.8384023,36.762127],[2.838294,36.761963],[2.8383107,36.761837],[2.838393,36.761723],[2.8384926,36.761738],[2.8385017,36.761654],[2.8384686,36.76161],[2.838391,36.76148],[2.8383303,36.761326],[2.8384137,36.761177],[2.838854,36.761364],[2.8389904,36.76143],[2.8392658,36.761353],[2.839402,36.761223],[2.83959,36.761265],[2.8396556,36.76136],[2.8401172,36.76155],[2.8403547,36.761448],[2.8404524,36.761402],[2.8407505,36.761192],[2.8409626,36.760986],[2.841179,36.76077],[2.8412004,36.760742],[2.841267,36.760532],[2.8413467,36.76028],[2.8413491,36.760273],[2.8413532,36.759975],[2.8406668,36.75982],[2.8407228,36.75966],[2.8417146,36.759876],[2.8419702,36.75964],[2.8420053,36.759598],[2.8423326,36.759506],[2.8425148,36.75914],[2.84281,36.758736],[2.8434482,36.758026],[2.8437274,36.757553],[2.84399,36.757336],[2.8441186,36.757202],[2.8442798,36.75675],[2.8443658,36.756546],[2.844666,36.75611],[2.8452291,36.755257],[2.845315,36.755028],[2.845315,36.754646],[2.8453848,36.754356],[2.8455133,36.75392],[2.8457448,36.75371],[2.8458245,36.752026],[2.8458495,36.75172],[2.8460286,36.751575],[2.845793,36.75032],[2.8438013,36.75031],[2.8437545,36.750546],[2.8435767,36.750526],[2.8435955,36.75022],[2.8435488,36.74993],[2.8427162,36.748962],[2.842838,36.748917],[2.8437545,36.749912],[2.8438482,36.75022],[2.845831,36.7502],[2.8460228,36.748703],[2.8454626,36.748184],[2.843963,36.748394],[2.8439145,36.748974],[2.8436763,36.74896],[2.8436835,36.748436],[2.84385,36.748154],[2.8455493,36.74789],[2.845525,36.746826],[2.8453555,36.746666],[2.8453555,36.74662],[2.8453546,36.74659],[2.8454297,36.746536],[2.8455174,36.74628],[2.845492,36.745857],[2.8451235,36.744923],[2.8449602,36.744396],[2.8447256,36.74345],[2.8446972,36.743336],[2.8442738,36.742313],[2.843934,36.741356],[2.8438795,36.74125],[2.8433597,36.74024],[2.8431556,36.73964],[2.8426237,36.7389],[2.8418622,36.73737],[2.8414702,36.73663],[2.8411953,36.736046],[2.8409684,36.73576],[2.8408203,36.735416],[2.8405836,36.73497],[2.8402805,36.734566],[2.839895,36.733887],[2.8397596,36.73345],[2.8394637,36.733025],[2.8386974,36.732246],[2.8380554,36.731636],[2.837919,36.731228],[2.8371336,36.73036],[2.8369467,36.730103],[2.8366725,36.72989],[2.836508,36.72976],[2.8363743,36.729652],[2.8352878,36.730095],[2.8352199,36.73008],[2.8351798,36.73005],[2.8351884,36.72998],[2.8361323,36.729637],[2.8361554,36.729553],[2.8361547,36.72954],[2.83615,36.72948],[2.8361537,36.72941],[2.836099,36.72934],[2.836017,36.729202],[2.8359203,36.729084],[2.8358035,36.728985],[2.8356323,36.728935],[2.8354857,36.728844],[2.835347,36.728817],[2.8352237,36.72881],[2.8350923,36.728832],[2.8349671,36.72888],[2.8348193,36.728947],[2.834926,36.729057],[2.834983,36.729122],[2.8349745,36.729195],[2.834884,36.729233],[2.834806,36.729206],[2.8341684,36.728424],[2.8341663,36.728336],[2.8342676,36.72829],[2.8343816,36.72835],[2.834447,36.728485],[2.8345556,36.72861],[2.8347154,36.728546],[2.834839,36.728466],[2.8349187,36.728348],[2.8350208,36.728176],[2.8350585,36.72798],[2.835053,36.72777],[2.8349779,36.727623],[2.834817,36.727505],[2.834613,36.727375],[2.8343287,36.727276],[2.8341196,36.727238],[2.8340018,36.727222],[2.8338287,36.727257],[2.833699,36.727325],[2.8335865,36.727413],[2.8337026,36.727554],[2.8338265,36.727665],[2.8338404,36.727715],[2.8338194,36.727757],[2.8337677,36.727795],[2.833703,36.727795],[2.833636,36.727764],[2.8329868,36.726986],[2.8329659,36.72692],[2.8329911,36.726868],[2.8330538,36.726837],[2.8331256,36.726833],[2.8332016,36.72685],[2.833227,36.726913],[2.833248,36.72698],[2.8332763,36.72703],[2.8333325,36.727077],[2.833442,36.727036],[2.8335428,36.72697],[2.833606,36.726906],[2.8336568,36.726837],[2.8337152,36.72675],[2.8337622,36.726635],[2.833775,36.726467],[2.833742,36.72635],[2.8337028,36.72624],[2.8336508,36.726166],[2.8335803,36.726093],[2.833359,36.725986],[2.8331432,36.725945],[2.832901,36.725906],[2.8327088,36.725914],[2.832457,36.726017],[2.8326406,36.726227],[2.8326666,36.726273],[2.8326528,36.726326],[2.83259,36.726353],[2.8325043,36.72633],[2.8318248,36.725555],[2.8318098,36.7255],[2.831834,36.72544],[2.8319087,36.725403],[2.8319712,36.725407],[2.8320131,36.72542],[2.8320527,36.72546],[2.8322372,36.72572],[2.8324819,36.72562],[2.832661,36.72543],[2.8327563,36.725178],[2.832707,36.72484],[2.8325984,36.724636],[2.8324854,36.72448],[2.8318198,36.723793],[2.831527,36.723576],[2.8308895,36.722584],[2.8303945,36.722218],[2.8298843,36.721626],[2.8294835,36.721138],[2.8290038,36.720676],[2.8284872,36.720154],[2.8278773,36.719597],[2.8273828,36.719086],[2.8267825,36.718483],[2.8266866,36.718372],[2.8261905,36.717793],[2.8258328,36.71746],[2.8250358,36.716526],[2.8245294,36.71609],[2.823834,36.715496],[2.8234162,36.715126],[2.8228576,36.714508],[2.82201,36.71359],[2.821645,36.713257],[2.8211217,36.712784],[2.8202255,36.71206],[2.8191156,36.711094],[2.8182893,36.710445],[2.8179436,36.710167],[2.8174574,36.709774],[2.8165138,36.708973],[2.8159542,36.70856],[2.81551,36.708164],[2.815347,36.70791],[2.8149042,36.707504],[2.8142726,36.70701],[2.8133686,36.706398],[2.812736,36.70595],[2.8120568,36.705395],[2.811301,36.704876],[2.8108118,36.704464],[2.8101954,36.70403],[2.8101194,36.703857],[2.809557,36.703403],[2.8090823,36.70283],[2.80837,36.702175],[2.808015,36.701954],[2.8072624,36.7015],[2.806646,36.70121],[2.8062859,36.700977],[2.8061776,36.700874],[2.8060625,36.700665],[2.8056831,36.70042],[2.80549,36.700203],[2.8050425,36.69992],[2.80476,36.699783],[2.8045907,36.699593],[2.8043954,36.699528],[2.8040617,36.6992],[2.803854,36.69898],[2.8036852,36.69885],[2.803332,36.698692],[2.803503,36.698532],[2.8036318,36.69812],[2.8035629,36.697403],[2.8038375,36.69654],[2.803975,36.695923],[2.8047645,36.69293],[2.805151,36.691643],[2.8054771,36.689434],[2.8056915,36.687973],[2.8057175,36.6869],[2.8059833,36.685936],[2.8064985,36.68515],[2.8071592,36.683964],[2.8072708,36.68332],[2.807211,36.6824],[2.8070393,36.68173],[2.806241,36.680782],[2.8049965,36.67985],[2.803606,36.678364],[2.8029366,36.67749],[2.8026016,36.676376],[2.802722,36.67545],[2.8032196,36.674828],[2.8039923,36.67445],[2.805211,36.674137],[2.807211,36.673588],[2.8092022,36.673557],[2.8106441,36.67319],[2.8120432,36.67197],[2.8135881,36.67097],[2.8148155,36.67041],[2.8154335,36.669594],[2.815811,36.66854],[2.816206,36.666912],[2.816738,36.666843],[2.8176992,36.667164],[2.8186262,36.66749],[2.8194675,36.66763],[2.8207035,36.66763],[2.8218448,36.667255],[2.822789,36.666615],[2.8235357,36.66576],[2.8232098,36.664886],[2.822952,36.66413],[2.822978,36.66333],[2.8228748,36.6621],[2.8227034,36.661484],[2.8223429,36.660885],[2.8216305,36.660656],[2.8206005,36.660645],[2.8194418,36.66111],[2.818369,36.661644],[2.8148496,36.662453],[2.8130903,36.662422],[2.8128586,36.66213],[2.8128757,36.661713],[2.8132875,36.66135],[2.8149357,36.660553],[2.8165321,36.659523],[2.8168755,36.659008],[2.8170469,36.65847],[2.8167207,36.657803],[2.81612,36.657593],[2.815502,36.657356],[2.81382,36.657215],[2.8133905,36.657436],[2.8127556,36.657764],[2.8122406,36.658237],[2.8117254,36.65854],[2.8096826,36.65966],[2.8078632,36.66019],[2.8069363,36.660248],[2.806181,36.660007],[2.805889,36.65966],[2.8058374,36.659267],[2.8057086,36.657894],[2.8052797,36.657288],[2.8047473,36.657078],[2.8045242,36.65679],[2.8033228,36.655872],[2.802679,36.655228],[2.8010483,36.654346],[2.80037,36.653553],[2.8000698,36.651936],[2.7997608,36.650936],[2.7996922,36.650352],[2.7998674,36.649834],[2.8022506,36.648266],[2.8026114,36.64826],[2.8029895,36.648464],[2.8034012,36.64891],[2.8036425,36.649082],[2.8038886,36.64925],[2.8043723,36.64951],[2.804932,36.64951],[2.8054106,36.649426],[2.8059237,36.649292],[2.806846,36.649014],[2.8076496,36.648735],[2.808076,36.648495],[2.8090224,36.648575],[2.8095822,36.648685],[2.8100817,36.64863],[2.8105674,36.648365],[2.8104846,36.64749],[2.8100736,36.646976],[2.8097808,36.6463],[2.8102837,36.645187],[2.8106441,36.64436],[2.8111775,36.643314],[2.813295,36.643814],[2.8136117,36.643875],[2.813952,36.6439],[2.814408,36.64392],[2.815013,36.643845],[2.8157668,36.643597],[2.8174934,36.642982],[2.8195276,36.64202],[2.8199139,36.64193],[2.8211412,36.64182],[2.8268871,36.641357],[2.8319244,36.640884],[2.8347185,36.640594],[2.8353596,36.64053],[2.8356824,36.640465],[2.8373814,36.64001],[2.8402197,36.639194],[2.841579,36.638805],[2.8437095,36.638195],[2.8454115,36.63804],[2.8462656,36.637966],[2.8465118,36.637943],[2.8471522,36.63793],[2.8478515,36.637993],[2.8491094,36.638203],[2.8499925,36.638317],[2.8505847,36.638313],[2.8508499,36.63827],[2.851223,36.638145],[2.8515232,36.63799],[2.8519359,36.637646],[2.8527176,36.636925],[2.8530173,36.636776],[2.8532932,36.63667],[2.853643,36.63656],[2.8597207,36.635246],[2.8655412,36.633995],[2.867197,36.633686],[2.8676915,36.633575],[2.8683102,36.633484],[2.8689935,36.633373],[2.871479,36.63321],[2.8748345,36.632957],[2.8790126,36.63263],[2.8802116,36.63251],[2.882184,36.63237],[2.882945,36.632328],[2.8840063,36.63224],[2.885236,36.63215],[2.886202,36.632084],[2.8840034,36.628258],[2.8811712,36.623352],[2.879065,36.619854],[2.879666,36.619915],[2.8803856,36.61991],[2.8813,36.619984],[2.8822954,36.620052],[2.8834457,36.620193],[2.8842533,36.619766],[2.8847754,36.61976],[2.8851943,36.619907],[2.885763,36.62029],[2.886112,36.620304],[2.8867588,36.620216],[2.8879087,36.619667],[2.8895395,36.61946],[2.8895223,36.61868],[2.8890195,36.618416],[2.8914366,36.61564],[2.8914106,36.61466],[2.896629,36.61479],[2.896612,36.611813],[2.9021053,36.60964],[2.9041567,36.606632],[2.90759,36.601665],[2.913538,36.60365],[2.9136238,36.603374],[2.915941,36.601616],[2.917263,36.600773],[2.916645,36.600033],[2.9221554,36.596985],[2.9227388,36.59671],[2.924799,36.599308],[2.927434,36.602753],[2.9285069,36.602165],[2.9301805,36.601307],[2.9320428,36.600224],[2.9331417,36.599792],[2.9352958,36.59912],[2.943321,36.59648],[2.9442482,36.60481],[2.943939,36.604942],[2.9427376,36.60947],[2.9459746,36.60967],[2.953395,36.61013],[2.9536953,36.607964],[2.954196,36.60511],[2.9549255,36.605175],[2.95611,36.602],[2.955183,36.601727],[2.9559212,36.59964],[2.954642,36.599216],[2.955638,36.595634],[2.956496,36.59238],[2.9573114,36.592087],[2.9575434,36.592075],[2.9587877,36.589813],[2.959775,36.587936],[2.9614918,36.589428],[2.9617012,36.589607],[2.9667187,36.5939],[2.9698772,36.5966],[2.970445,36.594864],[2.9762459,36.595196],[2.9784858,36.59171],[2.979001,36.591156],[2.9794128,36.59034],[2.9796448,36.589622],[2.9806318,36.5893],[2.9813182,36.58938],[2.9818075,36.58913],[2.982391,36.588715],[2.9827344,36.58866],[2.9830952,36.58841],[2.9836786,36.58804],[2.984108,36.587807],[2.9846916,36.58751],[2.9849832,36.587147],[2.9879873,36.588013],[2.9880562,36.587807],[2.9896355,36.58418],[2.989893,36.583786],[2.9904592,36.582836],[2.9911032,36.581253],[2.9912145,36.58053],[2.9913886,36.579582],[2.9919186,36.581356],[2.9921932,36.58294],[2.9927769,36.584023],[2.9931939,36.585052],[2.9934783,36.585503],[2.9942937,36.586174],[2.995018,36.58688],[2.9953396,36.587173],[2.995994,36.58759],[2.996917,36.588207],[2.997893,36.588932],[2.9982042,36.588795],[2.998585,36.588593],[2.999862,36.5887],[3.0007846,36.588722],[3.0042286,36.589],[3.0057466,36.58911],[3.0075061,36.58915],[3.008547,36.589195],[3.0082116,36.59517],[3.0105953,36.59577],[3.0146637,36.59681],[3.0167491,36.597137],[3.0177364,36.597263],[3.0218134,36.598995],[3.0302591,36.60273],[3.0301623,36.602867],[3.0277019,36.606285],[3.0266883,36.607693],[3.027298,36.608257],[3.0276325,36.60854],[3.0280874,36.608517],[3.0282848,36.60874],[3.0284822,36.609016],[3.028697,36.609142],[3.0289888,36.609093],[3.029581,36.609406],[3.030654,36.610317],[3.0325334,36.611683],[3.0330057,36.612156],[3.0333233,36.612537],[3.0335464,36.613697],[3.0343187,36.617992],[3.0380094,36.61841],[3.0380354,36.618042],[3.039812,36.618015],[3.040241,36.617943],[3.0405245,36.61781],[3.0408075,36.617615],[3.0444725,36.617718],[3.0446184,36.620712],[3.0499916,36.62084],[3.0534248,36.62094],[3.0595357,36.621082],[3.0634582,36.621044],[3.062729,36.617912],[3.0629003,36.61664],[3.062729,36.614914],[3.0622995,36.61371],[3.0623426,36.613262],[3.062214,36.61168],[3.0616987,36.61064],[3.0603683,36.606716],[3.0588236,36.604683],[3.0583086,36.603508],[3.0583515,36.601032],[3.0578365,36.600136],[3.0577934,36.59676],[3.05745,36.595966],[3.057081,36.595016],[3.0569952,36.594418],[3.05715,36.593693],[3.0574243,36.593094],[3.0577934,36.592144],[3.0578194,36.59126],[3.0574932,36.59049],[3.0574074,36.58942],[3.0572014,36.588623],[3.0575104,36.587387],[3.0574932,36.586147],[3.057725,36.585045],[3.0576818,36.582817],[3.057167,36.581894],[3.056978,36.58031],[3.0574243,36.579426],[3.0615273,36.580463],[3.0631065,36.580956],[3.0644195,36.581425],[3.065149,36.581665],[3.0683677,36.582817],[3.0758007,36.58551],[3.0824957,36.587845],[3.087491,36.589645],[3.0890615,36.5902],[3.0898943,36.59038],[3.0897653,36.59188],[3.0896368,36.593395],[3.0896368,36.593876],[3.0896795,36.594265],[3.089791,36.594658],[3.0899973,36.594982],[3.0902803,36.595276],[3.0910788,36.59455],[3.091508,36.594074],[3.0922117,36.593468],[3.0931387,36.592915],[3.0940142,36.59213],[3.094984,36.591038],[3.0956278,36.589993],[3.0970354,36.588867],[3.097782,36.587887],[3.098752,36.58687],[3.1000137,36.585976],[3.1009579,36.58541],[3.101902,36.584785],[3.1023996,36.58449],[3.1031723,36.58439],[3.1040132,36.584442],[3.1050174,36.5844],[3.10585,36.584595],[3.1064336,36.585007],[3.1071463,36.58533],[3.1076868,36.58511],[3.1081505,36.584454],[3.1086655,36.583584],[3.1090775,36.582756],[3.1100044,36.582024],[3.1107254,36.58193],[3.1113803,36.58155],[3.1126394,36.582806],[3.1159866,36.58633],[3.117257,36.587696],[3.1225958,36.584473],[3.1210248,36.587822],[3.1200635,36.589935],[3.1265438,36.592037],[3.1254709,36.59338],[3.1247842,36.594448],[3.1221237,36.595795],[3.121523,36.59662],[3.1204817,36.598724],[3.1202245,36.59933],[3.1213083,36.59989],[3.122776,36.600517],[3.1250849,36.601376],[3.1256256,36.601597],[3.126398,36.60187],[3.1263463,36.60241],[3.1266553,36.6027],[3.1268873,36.60288],[3.1270568,36.60292],[3.1275308,36.603043],[3.1277199,36.60325],[3.1278799,36.60346],[3.1279774,36.60358],[3.1281319,36.603832],[3.1284492,36.60403],[3.1288526,36.60411],[3.1294537,36.604095],[3.1299515,36.60411],[3.1304836,36.60422],[3.1313932,36.604477],[3.132286,36.604702],[3.1314793,36.606304],[3.1309128,36.607475],[3.1298485,36.60954],[3.1285868,36.612194],[3.127428,36.61452],[3.1267586,36.61584],[3.1259859,36.617428],[3.1250248,36.619324],[3.1246128,36.620197],[3.125883,36.620495],[3.128046,36.620975],[3.1319342,36.621872],[3.13438,36.62249],[3.1340199,36.623993],[3.134054,36.624214],[3.1343973,36.624573],[3.1351528,36.625385],[3.1374872,36.62852],[3.1379166,36.629227],[3.138363,36.630157],[3.1419249,36.630623],[3.1417186,36.631653],[3.143341,36.63191],[3.1427402,36.634373],[3.1457012,36.634476],[3.1475577,36.634537],[3.1493661,36.634594],[3.1499498,36.634647],[3.1492462,36.640812],[3.1487741,36.64461],[3.1484308,36.647343],[3.1480443,36.649918],[3.1476326,36.651848],[3.1474092,36.652534],[3.1472378,36.65293],[3.1491003,36.652073],[3.1536493,36.65013],[3.158344,36.648182],[3.1636057,36.645977],[3.1691704,36.643627],[3.171991,36.64243],[3.174711,36.641376],[3.176918,36.64042],[3.1771412,36.640903],[3.177347,36.6414],[3.1775188,36.641743],[3.1785142,36.644135],[3.179184,36.645737],[3.17939,36.646168],[3.1798017,36.646816],[3.180617,36.649128],[3.181407,36.651352],[3.181553,36.651363],[3.1873722,36.653263],[3.1882734,36.652878],[3.1887624,36.65285],[3.1893463,36.652878],[3.1928205,36.653297],[3.194084,36.65345],[3.202032,36.654507],[3.2044106,36.65485],[3.2035427,36.656563],[3.2042034,36.657032],[3.2044609,36.657326],[3.2048385,36.657673],[3.2052507,36.658043],[3.2055254,36.65843],[3.20568,36.65882],[3.2057443,36.659187],[3.2057688,36.659325],[3.2057827,36.65941],[3.2059114,36.66061],[3.2063408,36.66178],[3.207079,36.664032],[3.2067957,36.66469],[3.206495,36.665325],[3.206212,36.665844],[3.2059546,36.666176],[3.2056968,36.66645],[3.2056968,36.667118],[3.20568,36.66782],[3.205405,36.668205],[3.20489,36.668804],[3.205062,36.66903],[3.205122,36.66924],[3.2051475,36.66987],[3.2052078,36.67009],[3.2051647,36.670593],[3.20489,36.670986],[3.2044525,36.671352],[3.2043664,36.671524],[3.2045212,36.67164],[3.2047958,36.671707],[3.205053,36.67189],[3.2052078,36.672245],[3.2054393,36.67259],[3.2075233,36.67133],[3.2127006,36.668205],[3.2167947,36.665707],[3.2235672,36.669018],[3.2335317,36.673862],[3.250612,36.685635],[3.2589722,36.69135],[3.2597961,36.69286],[3.260002,36.693653],[3.2599163,36.69408],[3.2596586,36.694427],[3.2592812,36.6948],[3.2586288,36.69534],[3.2581823,36.69572],[3.2568521,36.696613],[3.2550755,36.697933],[3.2541654,36.69869],[3.2537363,36.699158],[3.2530582,36.69995],[3.252629,36.70079],[3.2524748,36.701134],[3.252286,36.70193],[3.252183,36.70267],[3.251951,36.704697],[3.251625,36.70594],[3.2513676,36.707153],[3.251496,36.70769],[3.251642,36.708157],[3.2519853,36.70864],[3.2522688,36.708927],[3.2529552,36.709496],[3.2534876,36.709908],[3.2542427,36.710457],[3.2552643,36.711353],[3.255848,36.712196],[3.2561226,36.713024],[3.2560883,36.713573],[3.255848,36.7143],[3.2555473,36.71478],[3.2552643,36.71511],[3.2560883,36.71562],[3.2565515,36.714928],[3.2573497,36.713917],[3.2582684,36.712986],[3.258783,36.712406],[3.2593668,36.711834],[3.2602937,36.710842],[3.2611263,36.70996],[3.2628171,36.70823],[3.2641563,36.70688],[3.2654438,36.705505],[3.2670915,36.703754],[3.2674136,36.703354],[3.2684393,36.702084],[3.2684963,36.701973],[3.2692633,36.700516],[3.269804,36.699295],[3.27035,36.698586],[3.2708185,36.697975],[3.2708533,36.697926],[3.2709305,36.697857],[3.271289,36.698124],[3.2719886,36.69851],[3.2732306,36.698956],[3.2735918,36.69911],[3.2744935,36.699135],[3.2748153,36.69922],[3.2752948,36.699387],[3.27578,36.699528],[3.276449,36.699673],[3.2769992,36.699833],[3.2782176,36.70015],[3.28199,36.701206],[3.2830548,36.70156],[3.2837522,36.701756],[3.284404,36.701866],[3.2848117,36.701958],[3.2860842,36.70254],[3.286473,36.702663],[3.2870848,36.70281],[3.289897,36.703358],[3.2902143,36.70346],[3.2906094,36.703632],[3.292386,36.70437],[3.2951841,36.705486],[3.2969997,36.70606],[3.298075,36.70629],[3.2986562,36.706444],[3.29965,36.70669],[3.3004134,36.706932],[3.3014696,36.707283],[3.3029485,36.707767],[3.3036704,36.708004],[3.3042393,36.708157],[3.3047504,36.708347],[3.3053875,36.708645],[3.305685,36.708782],[3.3060932,36.708973],[3.3071449,36.70939],[3.3079083,36.70969],[3.30883,36.7101],[3.3102474,36.710636],[3.3110886,36.71089],[3.3113244,36.711124],[3.3119211,36.711338],[3.3124788,36.711597],[3.3132086,36.71192],[3.313749,36.712246],[3.3146677,36.712864],[3.3148391,36.71306],[3.315011,36.714333],[3.3150969,36.715504],[3.3158436,36.715523],[3.3157578,36.717083],[3.3155046,36.718224],[3.3158002,36.718243],[3.3207614,36.7187],[3.3306322,36.71954],[3.3357992,36.72],[3.3370006,36.72025],[3.3381767,36.720543],[3.344957,36.72245],[3.3456695,36.722633],[3.3469572,36.72293],[3.3488882,36.723186],[3.3499012,36.723236],[3.3507714,36.72327],[3.3509052,36.723278],[3.3528538,36.723206],[3.3559692,36.723137],[3.35663,36.723167],[3.360836,36.72337],[3.3680286,36.72332],[3.3687582,36.72337],[3.3697023,36.723553],[3.3711185,36.72402],[3.3726635,36.724705],[3.373307,36.72491],[3.3742256,36.725063],[3.3751094,36.725166],[3.3799582,36.725574],[3.3806567,36.72736],[3.3808963,36.72811],[3.38146,36.729637],[3.38159,36.729893],[3.382583,36.7337],[3.3816442,36.733894],[3.380582,36.734234],[3.3804398,36.73451],[3.38006,36.734665],[3.3798544,36.734608],[3.379712,36.734676],[3.3797438,36.734917],[3.379665,36.735054],[3.379459,36.73511],[3.3791823,36.735058],[3.379032,36.734894],[3.3788238,36.734844],[3.37818,36.73507],[3.3775795,36.735874],[3.3772147,36.736183],[3.3775373,36.740902],[3.3774514,36.7413],[3.37778,36.74178],[3.3778582,36.7438],[3.3779013,36.74449],[3.3780878,36.745384],[3.3781018,36.745712],[3.3782349,36.74652],[3.3782508,36.746647],[3.378414,36.748116],[3.3786285,36.749916],[3.3785975,36.750008],[3.3783283,36.75079],[3.3784227,36.7515],[3.3785427,36.752575],[3.378809,36.75473],[3.3790174,36.755257],[3.3792667,36.7576],[3.3796673,36.76171],[3.380094,36.765156],[3.3756502,36.765713],[3.3751953,36.76569],[3.374423,36.765503],[3.370432,36.764267],[3.3597896,36.76094],[3.3577888,36.76034],[3.3522272,36.758602],[3.3481503,36.757313],[3.3485792,36.758335],[3.34871,36.758606],[3.34989,36.761063],[3.3499355,36.761227],[3.35052,36.762417],[3.3513,36.764263],[3.3528879,36.767635],[3.3539867,36.76989],[3.355074,36.772484],[3.3563375,36.774994],[3.3575659,36.777374],[3.358673,36.779736],[3.3602645,36.782112],[3.3576727,36.782707],[3.3528726,36.78376],[3.3497005,36.78383],[3.3494885,36.78383],[3.3492591,36.783844],[3.3487759,36.78389],[3.3478878,36.78405],[3.3474486,36.784218],[3.3469582,36.78435],[3.3463836,36.7844],[3.345736,36.784454],[3.345134,36.78455],[3.3448637,36.784615],[3.3446424,36.784714],[3.3445508,36.784744],[3.3443966,36.784546],[3.3440855,36.784374],[3.3437002,36.78428],[3.3433888,36.784264],[3.3430693,36.784283],[3.342754,36.784355],[3.3423772,36.78447],[3.342201,36.78444],[3.3419921,36.78439],[3.341558,36.78429],[3.3406894,36.784153],[3.3403084,36.784164],[3.3399193,36.784225],[3.3395317,36.784275],[3.3391573,36.784378],[3.3371158,36.78464],[3.3362093,36.784714],[3.3333566,36.785072],[3.3330612,36.78505],[3.3326561,36.78508],[3.3323402,36.785133],[3.3321462,36.785187],[3.3319635,36.785263],[3.331622,36.785275],[3.3312135,36.785362],[3.3306303,36.78541],[3.3301532,36.78547],[3.3296201,36.78558],[3.3287976,36.78564],[3.3282182,36.785797],[3.3277142,36.785904],[3.3272624,36.785965],[3.3268192,36.786083],[3.3263383,36.78612],[3.32584,36.786198],[3.3252058,36.78625],[3.324922,36.786324],[3.3246865,36.78638],[3.3238761,36.78655],[3.32304,36.78667],[3.3192072,36.787525],[3.317765,36.78779],[3.3163228,36.78799],[3.3152993,36.78829],[3.3133938,36.788723],[3.3124528,36.789043],[3.311262,36.789448],[3.3108864,36.78961],[3.3106074,36.78979],[3.3105044,36.789974],[3.3105323,36.790115],[3.310618,36.790028],[3.3107405,36.79001],[3.3108263,36.790096],[3.3107898,36.79021],[3.3105645,36.790375],[3.3102212,36.79049],[3.3100924,36.790527],[3.3099852,36.790504],[3.309953,36.790382],[3.3100324,36.79029],[3.3101072,36.790337],[3.310232,36.790306],[3.3102748,36.790222],[3.3102362,36.790127],[3.3101568,36.790043],[3.3099422,36.789936],[3.3096955,36.7899],[3.309481,36.789944],[3.3092875,36.790012],[3.3091054,36.790146],[3.3089337,36.790325],[3.3087664,36.790596],[3.3082914,36.790703],[3.3073807,36.791954],[3.3068128,36.79232],[3.3071609,36.79252],[3.3075325,36.792786],[3.3078961,36.79259],[3.3080068,36.792763],[3.3071527,36.793205],[3.3069313,36.79307],[3.3073902,36.792862],[3.306702,36.792427],[3.3062944,36.79278],[3.305951,36.793167],[3.305629,36.793724],[3.3054898,36.79386],[3.3053546,36.7939],[3.3053288,36.7938],[3.3052,36.793682],[3.305039,36.79366],[3.3048353,36.79369],[3.3046422,36.793777],[3.3044748,36.793945],[3.3043847,36.794052],[3.3042667,36.794067],[3.304153,36.793995],[3.3040307,36.79386],[3.303831,36.793633],[3.3035908,36.79344],[3.3033867,36.793324],[3.303183,36.793262],[3.30299,36.793316],[3.302829,36.79336],[3.3025715,36.793392],[3.3023355,36.793346],[3.3022432,36.793266],[3.3021038,36.793118],[3.3018742,36.793064],[3.3017561,36.79297],[3.3016896,36.792847],[3.3015344,36.792747],[3.3011513,36.792706],[3.3005223,36.79272],[3.3000073,36.792774],[3.2997756,36.79289],[3.2995396,36.793053],[3.2992027,36.79319],[3.2988958,36.793247],[3.298516,36.793278],[3.2980912,36.793392],[3.2976098,36.79346],[3.2972436,36.79361],[3.2970183,36.793713],[3.296778,36.79375],[3.2964656,36.793705],[3.2962542,36.793705],[3.2960265,36.793797],[3.2955875,36.793888],[3.2953124,36.79389],[3.295044,36.793877],[3.294815,36.7938],[3.2946112,36.793674],[3.2944245,36.793606],[3.2942848,36.79364],[3.2934475,36.793846],[3.2914608,36.794674],[3.290312,36.795284],[3.289912,36.795418],[3.2894614,36.79572],[3.2888498,36.796078],[3.2887893,36.796185],[3.2887747,36.79632],[3.2880335,36.797035],[3.2860823,36.79772],[3.2846212,36.798775],[3.2845826,36.7988],[3.2842786,36.798992],[3.2839935,36.79912],[3.283618,36.799408],[3.2834642,36.799534],[3.2834353,36.79969],[3.2833674,36.799904],[3.2831957,36.80005],[3.282588,36.800285],[3.281962,36.80047],[3.281601,36.800507],[3.280299,36.80051],[3.2796338,36.800453],[3.279387,36.8004],[3.2792475,36.80028],[3.2790437,36.80018],[3.2782388,36.800125],[3.277449,36.80012],[3.2767193,36.800247],[3.2761898,36.800266],[3.2755675,36.800407],[3.2745054,36.80066],[3.2732718,36.801037],[3.272499,36.801346],[3.2718377,36.80172],[3.271233,36.802162],[3.2709043,36.80247],[3.2706683,36.802998],[3.2703319,36.803234],[3.2696812,36.80334],[3.2693663,36.80354],[3.2687545,36.803616],[3.268283,36.80363],[3.2678096,36.80382],[3.26743,36.803936],[3.267161,36.804028],[3.2669358,36.80407],[3.2667532,36.80409],[3.2663841,36.8042],[3.2661953,36.804184],[3.2659059,36.804283],[3.2658367,36.80438],[3.2657294,36.804394],[3.265102,36.804596],[3.264779,36.80469],[3.2645755,36.804787],[3.2641568,36.804825],[3.263819,36.804836],[3.263632,36.80498],[3.2635186,36.805325],[3.2618341,36.80641],[3.2615926,36.806538],[3.2614431,36.806805],[3.2610831,36.807022],[3.2606761,36.807518],[3.2604885,36.80794],[3.2603545,36.808292],[3.2596884,36.809273],[3.2595704,36.809376],[3.2591097,36.809643],[3.2589383,36.809994],[3.2590294,36.810154],[3.2589383,36.81034],[3.258949,36.81074],[3.2588515,36.810783],[3.258804,36.811123],[3.2588577,36.81145],[3.259168,36.811333],[3.2593129,36.811405],[3.2596784,36.811516],[3.2596464,36.811604],[3.259506,36.81158],[3.2592816,36.811478],[3.259082,36.81144],[3.2588685,36.811565],[3.2591841,36.811623],[3.2591152,36.811813],[3.258965,36.812035],[3.2588944,36.812077],[3.2587173,36.811882],[3.2586691,36.811756],[3.258755,36.811665],[3.2586646,36.811672],[3.2585843,36.811607],[3.258519,36.811646],[3.2583964,36.811924],[3.2582302,36.811985],[3.2581015,36.81196],[3.25824,36.81177],[3.2583418,36.81164],[3.2582345,36.81146],[3.257862,36.811314],[3.2574823,36.81128],[3.2570996,36.81135],[3.2566838,36.811436],[3.2561834,36.8117],[3.2560146,36.81198],[3.255842,36.812134],[3.2558806,36.812237],[3.2559881,36.81255],[3.2558591,36.81283],[3.255725,36.812767],[3.2553813,36.813145],[3.255301,36.813206],[3.255268,36.813004],[3.255151,36.81305],[3.2549891,36.812943],[3.2546895,36.81312],[3.254517,36.81289],[3.2542388,36.813],[3.2540236,36.812813],[3.2537508,36.81266],[3.2534504,36.8128],[3.253085,36.812893],[3.2530158,36.812637],[3.2526555,36.812756],[3.252602,36.81247],[3.252329,36.8124],[3.2516587,36.81265],[3.2516148,36.812843],[3.2515507,36.812904],[3.2513895,36.812855],[3.2515514,36.81271],[3.2514808,36.81261],[3.2513843,36.812523],[3.2510624,36.81252],[3.2507565,36.81257],[3.250339,36.812428],[3.250076,36.812294],[3.2497542,36.812233],[3.2492769,36.81235],[3.2482784,36.812855],[3.2481012,36.812897],[3.247656,36.812557],[3.2472277,36.812675],[3.2467716,36.81242],[3.2464814,36.812374],[3.2467985,36.812687],[3.246642,36.812737],[3.2464006,36.81239],[3.2462459,36.812378],[3.2462513,36.812515],[3.24638,36.812702],[3.246557,36.812782],[3.2464864,36.812904],[3.2462354,36.81305],[3.2461164,36.813187],[3.2458544,36.8132],[3.2458005,36.813065],[3.2457094,36.813065],[3.245741,36.81318],[3.2456603,36.813187],[3.2455325,36.813217],[3.2455103,36.813267],[3.2456934,36.81339],[3.2459295,36.81344],[3.2458053,36.81349],[3.2456014,36.813465],[3.2453709,36.813602],[3.245301,36.81368],[3.2453177,36.813828],[3.2451732,36.813904],[3.2451882,36.81381],[3.2451355,36.81381],[3.2450702,36.813873],[3.2450435,36.81371],[3.244845,36.813766],[3.2446904,36.813744],[3.244362,36.813816],[3.2443354,36.813965],[3.2443628,36.81409],[3.243944,36.814247],[3.2438152,36.814198],[3.2437835,36.81413],[3.243698,36.81422],[3.2436862,36.814342],[3.2435095,36.81441],[3.2432742,36.814323],[3.2430701,36.814445],[3.2430058,36.814438],[3.2430532,36.814228],[3.2429352,36.814064],[3.2425811,36.814045],[3.2421038,36.8142],[3.2417078,36.81435],[3.241332,36.814426],[3.2409236,36.814575],[3.2407198,36.814487],[3.240548,36.814365],[3.2403827,36.81431],[3.2401466,36.814392],[3.239905,36.81441],[3.2397864,36.814518],[3.2391694,36.814384],[3.2390738,36.814438],[3.2387886,36.814335],[3.2384398,36.81447],[3.2379901,36.81455],[3.2374856,36.814396],[3.237164,36.814384],[3.2369163,36.814373],[3.2366266,36.814384],[3.236482,36.81451],[3.2364342,36.814545],[3.2363532,36.814445],[3.2362244,36.81444],[3.2361555,36.81445],[3.236144,36.81451],[3.2361386,36.81468],[3.2360106,36.814552],[3.2359688,36.81451],[3.2359197,36.81448],[3.2358642,36.814465],[3.2356794,36.814453],[3.2355752,36.814465],[3.2355332,36.814644],[3.2353125,36.81462],[3.2351685,36.814556],[3.2350755,36.81454],[3.2347982,36.814438],[3.234685,36.81446],[3.2347867,36.814625],[3.2346802,36.81476],[3.234803,36.81479],[3.2348413,36.8149],[3.2347767,36.81493],[3.2345185,36.81489],[3.234331,36.81496],[3.2343693,36.81511],[3.23439,36.815235],[3.2342405,36.815224],[3.2340357,36.81512],[3.234144,36.814976],[3.23395,36.814938],[3.2338264,36.81508],[3.2337039,36.815052],[3.2337942,36.814888],[3.2337997,36.81479],[3.2336986,36.814808],[3.2336235,36.814766],[3.2336557,36.814682],[3.2335904,36.814606],[3.233419,36.814713],[3.233392,36.814613],[3.2335207,36.81451],[3.2334347,36.814396],[3.2332795,36.814342],[3.23313,36.814358],[3.2330487,36.814445],[3.2331183,36.814556],[3.233022,36.814754],[3.23285,36.814877],[3.2329254,36.81458],[3.2326894,36.814613],[3.2326624,36.81483],[3.2321367,36.814907],[3.232126,36.815125],[3.232009,36.815197],[3.2319221,36.815163],[3.2319007,36.815243],[3.2315314,36.815426],[3.2316003,36.815273],[3.2314403,36.815407],[3.2315252,36.81515],[3.2313805,36.815365],[3.2312462,36.815445],[3.2310593,36.815426],[3.2311337,36.815273],[3.2312362,36.81515],[3.231182,36.81509],[3.2308276,36.815517],[3.230651,36.81548],[3.2308064,36.815388],[3.2309036,36.81511],[3.2308438,36.81507],[3.2306516,36.815132],[3.2305808,36.815063],[3.230791,36.814953],[3.2305496,36.814774],[3.2304308,36.814617],[3.2302163,36.814777],[3.2300186,36.814842],[3.230098,36.814556],[3.2299058,36.814533],[3.2299857,36.814316],[3.2293365,36.8144],[3.229197,36.81452],[3.2285914,36.814545],[3.228446,36.814457],[3.228329,36.814484],[3.2280705,36.814445],[3.22777,36.81447],[3.2277486,36.814354],[3.2276473,36.814167],[3.2274697,36.814163],[3.227256,36.814293],[3.2271104,36.814255],[3.2270515,36.81407],[3.226885,36.81421],[3.2267463,36.81422],[3.2267187,36.814007],[3.2268374,36.81391],[3.2268636,36.813755],[3.2269707,36.813587],[3.226912,36.81348],[3.226504,36.813538],[3.2265532,36.813736],[3.226504,36.81373],[3.226177,36.81357],[3.2259955,36.813515],[3.2256627,36.813515],[3.2254965,36.81347],[3.2255278,36.813225],[3.2253785,36.813087],[3.2252703,36.813065],[3.2252166,36.81308],[3.22518,36.81302],[3.2248573,36.81292],[3.2247777,36.812866],[3.2249277,36.812874],[3.2250075,36.812836],[3.2248573,36.81274],[3.2247562,36.81274],[3.224648,36.81292],[3.2246962,36.81301],[3.2245736,36.813107],[3.2244172,36.813095],[3.224423,36.81297],[3.2246058,36.812866],[3.2247286,36.812675],[3.2244878,36.812435],[3.2243314,36.81239],[3.2242625,36.812393],[3.223972,36.812588],[3.2240589,36.81229],[3.2239246,36.812164],[3.2237952,36.81213],[3.2236772,36.812122],[3.2235377,36.81224],[3.2232747,36.81226],[3.22328,36.81207],[3.2230449,36.812088],[3.2232487,36.811977],[3.2233872,36.81192],[3.2230933,36.811924],[3.2229528,36.81187],[3.2230608,36.811756],[3.2233827,36.811737],[3.2233667,36.81106],[3.2238228,36.81038],[3.2239354,36.810238],[3.2240853,36.81027],[3.2241223,36.810337],[3.2241008,36.810505],[3.223688,36.811108],[3.2238593,36.81134],[3.2240157,36.81138],[3.2241876,36.81149],[3.2244067,36.81151],[3.2245622,36.81145],[3.2247715,36.811226],[3.2247877,36.81097],[3.2251897,36.810596],[3.2252862,36.810516],[3.2253835,36.81049],[3.225805,36.810406],[3.2261984,36.810154],[3.2266755,36.809822],[3.2269008,36.80973],[3.227314,36.809364],[3.2276251,36.808987],[3.2278292,36.808613],[3.2280061,36.808426],[3.2281733,36.808285],[3.2285104,36.807903],[3.2289135,36.807438],[3.2288973,36.807224],[3.228983,36.80649],[3.2291126,36.806076],[3.2287948,36.805214],[3.2286987,36.805046],[3.2287357,36.804924],[3.2286239,36.804844],[3.2286453,36.80472],[3.2287312,36.80474],[3.2287786,36.804684],[3.228843,36.80472],[3.2289298,36.80481],[3.2289886,36.80484],[3.2291808,36.80521],[3.2292023,36.805305],[3.2291758,36.805347],[3.2291808,36.805397],[3.229288,36.805447],[3.229406,36.805454],[3.2300823,36.805065],[3.2301357,36.805126],[3.2295003,36.80549],[3.2297509,36.805775],[3.2296805,36.80583],[3.2296958,36.805847],[3.2297497,36.805893],[3.2298222,36.805847],[3.229852,36.80588],[3.230006,36.80579],[3.230066,36.80583],[3.2298896,36.805943],[3.2297978,36.80612],[3.2298408,36.80617],[3.2300124,36.80627],[3.2301903,36.806324],[3.230276,36.806324],[3.2303824,36.80639],[3.2306292,36.806396],[3.2310755,36.80635],[3.231182,36.806324],[3.2312462,36.806183],[3.231182,36.805912],[3.2312577,36.80589],[3.231316,36.80613],[3.2313428,36.806152],[3.2315414,36.80621],[3.2315583,36.80629],[3.2317238,36.80638],[3.2319007,36.806416],[3.2321534,36.806423],[3.2324638,36.806416],[3.2327323,36.806396],[3.2328832,36.806446],[3.2329795,36.80654],[3.2330656,36.806572],[3.2331712,36.806545],[3.233445,36.80639],[3.2338526,36.806114],[3.2340252,36.805965],[3.2344165,36.805626],[3.2347884,36.805313],[3.23497,36.805107],[3.235146,36.804676],[3.235264,36.80417],[3.2352865,36.803947],[3.2354467,36.803757],[3.2356882,36.803543],[3.235823,36.803314],[3.2358444,36.802773],[3.2358758,36.802547],[3.2360206,36.802185],[3.2361448,36.80175],[3.2361126,36.801525],[3.2359946,36.80119],[3.2360206,36.800995],[3.2359302,36.800903],[3.235807,36.8008],[3.2357845,36.80061],[3.2360368,36.800438],[3.2361064,36.800274],[3.2361395,36.800194],[3.2360368,36.800014],[3.235871,36.800037],[3.2358334,36.79995],[3.235898,36.799793],[3.2363646,36.799717],[3.2365465,36.799683],[3.2366848,36.799572],[3.2367342,36.799416],[3.2367804,36.799316],[3.2367597,36.79913],[3.236675,36.79882],[3.2365677,36.798763],[3.236568,36.798584],[3.236775,36.798454],[3.2368195,36.79845],[3.236803,36.798424],[3.2368631,36.798157],[3.236797,36.797848],[3.2367158,36.797604],[3.236576,36.797405],[3.236478,36.797318],[3.2363687,36.797237],[3.2361503,36.796932],[3.2359185,36.796726],[3.2357578,36.79672],[3.2357254,36.7968],[3.2354252,36.796726],[3.2352114,36.796734],[3.235055,36.796818],[3.2349262,36.79676],[3.2350764,36.79671],[3.2350764,36.79665],[3.2351031,36.796513],[3.2352169,36.796482],[3.2354798,36.796326],[3.235453,36.79613],[3.235275,36.795994],[3.2350657,36.795963],[3.23497,36.796005],[3.2350228,36.79604],[3.234937,36.79609],[3.2348082,36.796078],[3.234733,36.795998],[3.234884,36.79588],[3.2350612,36.795845],[3.2351677,36.79588],[3.235265,36.795822],[3.2353454,36.795635],[3.2352917,36.795307],[3.2351193,36.795284],[3.23498,36.795265],[3.234964,36.79518],[3.235039,36.795155],[3.2351308,36.795177],[3.2353284,36.79518],[3.2355056,36.794968],[3.235554,36.794662],[3.2354639,36.794403],[3.2356882,36.794285],[3.2358935,36.794052],[3.236085,36.793766],[3.2361279,36.793327],[3.236016,36.79291],[3.2361333,36.79291],[3.2361717,36.7928],[3.2358649,36.792793],[3.2358112,36.7927],[3.2360911,36.792614],[3.2361386,36.792404],[3.2360795,36.792294],[3.2359998,36.79232],[3.2359242,36.792435],[3.235763,36.792473],[3.2357042,36.792404],[3.2358375,36.79227],[3.2352374,36.792313],[3.2352,36.79248],[3.2351677,36.79266],[3.2350605,36.792667],[3.235002,36.792595],[3.2349539,36.792355],[3.2348404,36.79233],[3.2346473,36.79239],[3.2345884,36.792515],[3.2346418,36.792606],[3.2347393,36.792694],[3.2345812,36.792694],[3.2343569,36.792614],[3.234189,36.79246],[3.234117,36.79221],[3.234042,36.791965],[3.234159,36.791904],[3.2342181,36.792007],[3.2344172,36.79229],[3.234701,36.79226],[3.2347224,36.79219],[3.2345088,36.79209],[3.2343316,36.79187],[3.2343576,36.791656],[3.2345078,36.791546],[3.234615,36.79155],[3.2345507,36.79162],[3.234498,36.79173],[3.2345884,36.7918],[3.2346313,36.791992],[3.234675,36.79208],[3.2348573,36.79215],[3.234927,36.792133],[3.2349532,36.791996],[3.2350228,36.79191],[3.2350924,36.791935],[3.2350872,36.792038],[3.2350335,36.792175],[3.2350335,36.792236],[3.2351093,36.79225],[3.2353723,36.792233],[3.2357767,36.792206],[3.2358122,36.79204],[3.2358093,36.791832],[3.2359354,36.79176],[3.235908,36.791702],[3.2357845,36.79167],[3.2359302,36.79165],[3.2360206,36.791355],[3.2361064,36.790916],[3.2360513,36.79071],[3.2360382,36.79066],[3.2358935,36.79035],[3.2357254,36.79024],[3.2355332,36.79018],[3.2354097,36.7901],[3.2353613,36.789997],[3.235072,36.78984],[3.2350504,36.789707],[3.2349262,36.789494],[3.2347555,36.7893],[3.2347717,36.78923],[3.2348037,36.78914],[3.234674,36.789097],[3.2345345,36.78917],[3.2345133,36.78914],[3.2346258,36.78906],[3.2345722,36.788967],[3.2345784,36.788887],[3.2344005,36.78875],[3.2342834,36.788612],[3.2341056,36.788475],[3.2340624,36.788403],[3.233972,36.788315],[3.2340195,36.788162],[3.2339444,36.78806],[3.2339551,36.787994],[3.23379,36.787594],[3.2337246,36.78723],[3.2338274,36.78697],[3.2338533,36.786842],[3.2337308,36.786556],[3.2335055,36.78622],[3.233441,36.786167],[3.2332687,36.78606],[3.2328877,36.785767],[3.232722,36.78561],[3.2327108,36.7855],[3.2325327,36.785393],[3.232299,36.785442],[3.2321613,36.78539],[3.232416,36.785103],[3.2322502,36.78471],[3.2322333,36.784584],[3.2319875,36.784126],[3.2319221,36.78389],[3.2317781,36.78382],[3.2317622,36.783768],[3.2318048,36.783695],[3.2317674,36.78347],[3.2315145,36.78318],[3.2315154,36.783047],[3.231467,36.782734],[3.2312121,36.782307],[3.2311559,36.782215],[3.231062,36.782005],[3.2309816,36.781773],[3.231003,36.78165],[3.231073,36.781475],[3.2308977,36.781086],[3.2308064,36.780724],[3.2308044,36.780518],[3.230995,36.780437],[3.2310433,36.780376],[3.2309508,36.77994],[3.2307067,36.779583],[3.2306879,36.779484],[3.2306635,36.779343],[3.2306392,36.77921],[3.2309296,36.77857],[3.2311182,36.778156],[3.231209,36.77773],[3.231274,36.777523],[3.2312684,36.776848],[3.231171,36.77632],[3.2309787,36.775764],[3.230817,36.775574],[3.2305121,36.77536],[3.2299166,36.774597],[3.2293527,36.773983],[3.2286346,36.773212],[3.2282314,36.772945],[3.2279963,36.772827],[3.2278407,36.772797],[3.2275286,36.772705],[3.2265694,36.77212],[3.2255223,36.771458],[3.225474,36.771137],[3.2254965,36.770676],[3.2253401,36.77044],[3.2251575,36.770184],[3.225013,36.769997],[3.2247186,36.769638],[3.224343,36.769352],[3.2242725,36.76924],[3.2240684,36.769123],[3.2240043,36.768932],[3.2238817,36.768734],[3.2236621,36.768555],[3.2233171,36.76833],[3.2226853,36.76786],[3.2224119,36.767696],[3.2221503,36.76754],[3.2214026,36.76709],[3.2211356,36.7671],[3.2209969,36.76711],[3.2208285,36.767113],[3.220733,36.76705],[3.2204745,36.7669],[3.220362,36.76683],[3.2201786,36.766834],[3.220046,36.766838],[3.219957,36.76684],[3.219807,36.76684],[3.2196858,36.766853],[3.219585,36.76686],[3.21945,36.766838],[3.2193434,36.766853],[3.2189572,36.766796],[3.218731,36.766636],[3.218554,36.76657],[3.2180228,36.766434],[3.2176528,36.766373],[3.2173908,36.766304],[3.2173104,36.766212],[3.2172613,36.765984],[3.2177224,36.765923],[3.2179646,36.765736],[3.2181463,36.765324],[3.2181249,36.764725],[3.2178736,36.764088],[3.217439,36.763474],[3.2173264,36.763367],[3.2168446,36.763046],[3.216571,36.762875],[3.2165105,36.762825],[3.2163937,36.762775],[3.216081,36.762638],[3.2159197,36.76251],[3.2155793,36.76235],[3.2154317,36.76222],[3.2152658,36.762115],[3.2152326,36.76201],[3.2150602,36.76191],[3.2149122,36.76178],[3.214789,36.7617],[3.2146037,36.76152],[3.21437,36.761337],[3.2142124,36.76127],[3.21415,36.761196],[3.2139585,36.76111],[3.2137644,36.760952],[3.2136974,36.76092],[3.213617,36.760853],[3.2134163,36.760838],[3.2131584,36.76068],[3.212894,36.76064],[3.2126553,36.760582],[3.2124252,36.76049],[3.2122529,36.76044],[3.2120862,36.760433],[3.211915,36.76044],[3.2117915,36.7605],[3.2117617,36.760532],[3.2117193,36.760544],[3.2117188,36.76053],[3.2117388,36.760513],[3.2117252,36.760498],[3.2117102,36.76047],[3.2116833,36.76042],[3.211656,36.76031],[3.2115786,36.76023],[3.2114918,36.760185],[3.2114139,36.76023],[3.2113283,36.760223],[3.2112503,36.760136],[3.2111678,36.760002],[3.2112718,36.75987],[3.2109387,36.759583],[3.2108612,36.75933],[3.2107966,36.75924],[3.2106738,36.759167],[3.210205,36.758938],[3.209894,36.758774],[3.2095454,36.758568],[3.2092307,36.758507],[3.20869,36.75849],[3.2082677,36.75848],[3.20797,36.758423],[3.207885,36.758533],[3.2076373,36.758465],[3.207692,36.7583],[3.2076373,36.758247],[3.2075744,36.75826],[3.207172,36.757973],[3.2067778,36.757668],[3.206584,36.757477],[3.2064316,36.75736],[3.2061384,36.757107],[3.2058825,36.75693],[3.2056777,36.75677],[3.2053735,36.75661],[3.2052057,36.756603],[3.2049677,36.756474],[3.2048101,36.75641],[3.204671,36.75634],[3.2045474,36.756344],[3.2045178,36.756306],[3.2044098,36.756264],[3.2043402,36.75625],[3.2041023,36.756176],[3.2040365,36.756134],[3.2040145,36.756092],[3.2039464,36.756065],[3.2038515,36.75606],[3.2037537,36.756042],[3.2036679,36.756027],[3.2037578,36.75598],[3.203716,36.755936],[3.2036679,36.75596],[3.2036195,36.755993],[3.2035222,36.755974],[3.2033958,36.75591],[3.203296,36.75585],[3.2032118,36.75586],[3.2030838,36.755947],[3.2030241,36.75591],[3.2030785,36.75585],[3.2030997,36.75578],[3.2030866,36.755688],[3.2030177,36.755623],[3.2029147,36.75557],[3.2027757,36.755516],[3.2026968,36.75553],[3.2026377,36.75559],[3.2025304,36.75558],[3.202612,36.755405],[3.2024412,36.75528],[3.202335,36.75523],[3.2021918,36.755157],[3.202092,36.755108],[3.2019887,36.75521],[3.2019296,36.755188],[3.2020056,36.75508],[3.2019622,36.755035],[3.2017663,36.754917],[3.2014308,36.754807],[3.2012923,36.754906],[3.2012224,36.754856],[3.2013083,36.754726],[3.2012427,36.754673],[3.2011633,36.75463],[3.201084,36.75459],[3.2009704,36.75452],[3.2008154,36.754467],[3.2006342,36.754395],[3.2004437,36.75433],[3.2003617,36.75429],[3.2002716,36.754276],[3.200106,36.754425],[3.200053,36.754402],[3.200098,36.754227],[3.2000382,36.75417],[3.1999478,36.754116],[3.1998377,36.75406],[3.1996603,36.753967],[3.1994557,36.753845],[3.1993656,36.753937],[3.1993017,36.75394],[3.1992698,36.75387],[3.1993387,36.753777],[3.1992645,36.753777],[3.199168,36.753723],[3.1987593,36.753494],[3.1986575,36.753426],[3.198561,36.753548],[3.1984813,36.753498],[3.1985288,36.753357],[3.1983838,36.75319],[3.1980028,36.753075],[3.1977723,36.75311],[3.1976068,36.753273],[3.197537,36.75325],[3.1976542,36.75302],[3.1974673,36.752857],[3.1971607,36.752686],[3.1968226,36.752586],[3.196662,36.752766],[3.196608,36.752766],[3.1966298,36.752644],[3.1966841,36.752518],[3.1965332,36.75247],[3.196346,36.75239],[3.1960242,36.752274],[3.195943,36.75218],[3.195825,36.752155],[3.195739,36.752285],[3.195638,36.75231],[3.1956532,36.752247],[3.1957147,36.752132],[3.1954691,36.75197],[3.1952453,36.751877],[3.1950004,36.75182],[3.1948223,36.75185],[3.1946554,36.752007],[3.194575,36.752033],[3.194575,36.751953],[3.1946697,36.751785],[3.19459,36.751686],[3.1943374,36.75152],[3.194058,36.75142],[3.193953,36.75156],[3.193894,36.751564],[3.1938732,36.7515],[3.1939542,36.75135],[3.1939106,36.7513],[3.1938818,36.751286],[3.1937602,36.751217],[3.193528,36.751125],[3.1932845,36.751083],[3.193181,36.751057],[3.1930792,36.751198],[3.1929927,36.751324],[3.192896,36.7513],[3.192972,36.75118],[3.1930685,36.75105],[3.192955,36.750957],[3.1927738,36.75087],[3.1926932,36.75085],[3.192628,36.750904],[3.1924667,36.75109],[3.1924076,36.751022],[3.1924937,36.750885],[3.1923327,36.750782],[3.19228,36.750687],[3.1921513,36.750565],[3.1919956,36.750534],[3.191969,36.750572],[3.19184,36.750698],[3.1918018,36.750645],[3.1919153,36.75043],[3.191984,36.750298],[3.1917212,36.750103],[3.1916523,36.750015],[3.1913197,36.749916],[3.1910722,36.749836],[3.1904283,36.749725],[3.190118,36.749664],[3.1898437,36.7496],[3.189538,36.74949],[3.189108,36.749367],[3.1889253,36.749336],[3.188475,36.749382],[3.1881475,36.74953],[3.1879554,36.74977],[3.1879454,36.74994],[3.1882727,36.74998],[3.1884012,36.750004],[3.188422,36.750076],[3.188331,36.750168],[3.188128,36.750134],[3.187698,36.75008],[3.1873226,36.75003],[3.1869638,36.750004],[3.1869047,36.749863],[3.1870012,36.749813],[3.1871946,36.749847],[3.1875317,36.74991],[3.1875906,36.74987],[3.1876235,36.74965],[3.187639,36.749233],[3.1874502,36.749016],[3.1874404,36.748837],[3.1874037,36.748646],[3.187215,36.74852],[3.1871016,36.74849],[3.187102,36.748474],[3.1864738,36.7484],[3.1861145,36.74849],[3.1859212,36.74862],[3.1857605,36.74891],[3.1861959,36.74895],[3.186245,36.749016],[3.186159,36.749123],[3.1853812,36.74905],[3.1847527,36.74899],[3.1847205,36.74887],[3.1847959,36.74879],[3.1853752,36.748863],[3.1854124,36.748787],[3.1854885,36.748158],[3.185376,36.74799],[3.1845605,36.74781],[3.1837387,36.747505],[3.1836426,36.74752],[3.183519,36.74768],[3.1834922,36.74796],[3.1834931,36.748165],[3.183755,36.748184],[3.1840446,36.7482],[3.1841047,36.7483],[3.183986,36.74841],[3.18374,36.748367],[3.1832185,36.748337],[3.182667,36.748314],[3.182597,36.748196],[3.1826723,36.748085],[3.1829298,36.74812],[3.1832786,36.748135],[3.183305,36.747932],[3.1833313,36.747723],[3.1833634,36.747395],[3.1829727,36.747246],[3.1827142,36.747154],[3.1823387,36.747078],[3.1818614,36.747],[3.1816475,36.747025],[3.1814268,36.747177],[3.1813304,36.74735],[3.1813312,36.747623],[3.1813788,36.74764],[3.18161,36.747646],[3.1818507,36.747658],[3.1819472,36.74769],[3.1819472,36.74776],[3.181878,36.747837],[3.1814644,36.747814],[3.180853,36.747784],[3.1805103,36.747776],[3.1804235,36.747723],[3.180462,36.747604],[3.1805265,36.747574],[3.180826,36.7476],[3.1810522,36.747623],[3.1810944,36.747555],[3.1810813,36.747284],[3.1809902,36.747112],[3.180779,36.746906],[3.1805658,36.746773],[3.1804533,36.74672],[3.1802847,36.746643],[3.179874,36.746494],[3.1795914,36.746414],[3.1792166,36.746284],[3.179001,36.74623],[3.178808,36.7462],[3.178528,36.746162],[3.1783245,36.746136],[3.1781735,36.746124],[3.177987,36.74612],[3.1777153,36.746143],[3.1774695,36.74617],[3.1770525,36.746384],[3.1774263,36.746494],[3.1775103,36.746456],[3.1775944,36.74647],[3.1776505,36.746536],[3.1775851,36.746643],[3.1774356,36.746655],[3.1769595,36.74653],[3.1768565,36.746437],[3.1768472,36.74631],[3.177062,36.74575],[3.1769125,36.745705],[3.1745403,36.745235],[3.174148,36.745102],[3.1735501,36.7448],[3.1697206,36.744003],[3.1695712,36.74395],[3.169506,36.743824],[3.1691139,36.743702],[3.1689737,36.74374],[3.1688335,36.743748],[3.1686468,36.743786],[3.1684225,36.74384],[3.1682358,36.74384],[3.1680584,36.743786],[3.1679275,36.743607],[3.1677582,36.743557],[3.167565,36.743656],[3.167565,36.743694],[3.1674964,36.74383],[3.1674106,36.743767],[3.1674802,36.7437],[3.1674588,36.74363],[3.1675072,36.743553],[3.167447,36.743454],[3.1672819,36.743378],[3.1666856,36.743206],[3.1659505,36.74304],[3.165447,36.743008],[3.1651888,36.742977],[3.1648347,36.742817],[3.1647658,36.74283],[3.1642554,36.74274],[3.1631289,36.742657],[3.1628015,36.742588],[3.1623187,36.742516],[3.1622124,36.74254],[3.1619916,36.74253],[3.1616645,36.742554],[3.1614933,36.74255],[3.1612298,36.742462],[3.1604466,36.742363],[3.1597278,36.74226],[3.1588802,36.74224],[3.1584895,36.74218],[3.1578019,36.74211],[3.1574748,36.74215],[3.1571798,36.74211],[3.1561873,36.742115],[3.1553888,36.742027],[3.1539664,36.741947],[3.1530435,36.7419],[3.152508,36.741898],[3.1520622,36.741825],[3.151472,36.741817],[3.1509302,36.74175],[3.1506567,36.741726],[3.150222,36.741734],[3.1495845,36.74168],[3.1492467,36.74168],[3.1490204,36.741753],[3.1489131,36.7419],[3.148811,36.741814],[3.1484847,36.741856],[3.1482587,36.74193],[3.1481462,36.74189],[3.1479743,36.74188],[3.147733,36.74189],[3.1473682,36.741974],[3.147138,36.741974],[3.147009,36.74193],[3.1468265,36.741814],[3.146526,36.74174],[3.1461718,36.74168],[3.1461184,36.7417],[3.1458392,36.74173],[3.1455882,36.74174],[3.145283,36.74173],[3.1448216,36.741737],[3.144585,36.741745],[3.1440814,36.741722],[3.1435862,36.7417],[3.1423004,36.741722],[3.1420217,36.741714],[3.140809,36.741703],[3.1405447,36.741676],[3.1403584,36.74168],[3.1400154,36.74167],[3.1396506,36.741695],[3.1393285,36.741714],[3.1389139,36.741833],[3.1382432,36.742085],[3.137959,36.74215],[3.1377773,36.74213],[3.137605,36.74209],[3.1375575,36.741962],[3.1373956,36.741905],[3.1370637,36.741783],[3.1367414,36.741726],[3.1362584,36.741753],[3.135899,36.741795],[3.135754,36.7418],[3.1355395,36.7418],[3.1353574,36.741825],[3.1352875,36.74183],[3.1349826,36.741905],[3.1349335,36.74194],[3.1347082,36.741978],[3.1343756,36.742077],[3.1338186,36.742302],[3.1334422,36.742565],[3.133491,36.742702],[3.1339786,36.743492],[3.1339679,36.74362],[3.1338658,36.74368],[3.1337435,36.743683],[3.1331694,36.742634],[3.1325924,36.74299],[3.131865,36.743435],[3.1319249,36.743526],[3.132321,36.74422],[3.13237,36.74438],[3.1322773,36.744442],[3.1321268,36.744423],[3.1319766,36.74422],[3.1318488,36.74399],[3.131602,36.74351],[3.1314847,36.743378],[3.1292856,36.744083],[3.129189,36.74408],[3.1280723,36.74362],[3.127992,36.743538],[3.1276064,36.74336],[3.1262352,36.742844],[3.1256087,36.74262],[3.124686,36.742664],[3.1245737,36.742714],[3.1245737,36.742756],[3.1247704,36.742798],[3.1250308,36.743046],[3.1242812,36.743225],[3.1236942,36.74313],[3.1227791,36.74306],[3.1219282,36.743275],[3.121715,36.743244],[3.1209106,36.7434],[3.1203747,36.74346],[3.1195235,36.74348],[3.1190002,36.742847],[3.1188467,36.742844],[3.118782,36.742832],[3.1187444,36.74281],[3.118568,36.742756],[3.1183085,36.742893],[3.118077,36.743053],[3.117744,36.743313],[3.1173313,36.74376],[3.1172001,36.743916],[3.1171224,36.744156],[3.117025,36.744408],[3.1169565,36.74462],[3.1171808,36.745026],[3.117326,36.745266],[3.1183445,36.745247],[3.1184177,36.745247],[3.1185045,36.74527],[3.1185384,36.745296],[3.1185634,36.74536],[3.1185422,36.745426],[3.118514,36.745472],[3.118401,36.745506],[3.1171508,36.745514],[3.1170979,36.745502],[3.1170697,36.74547],[3.116423,36.744316],[3.116441,36.744267],[3.1157823,36.743134],[3.1149497,36.743317],[3.1144521,36.74339],[3.1137547,36.74348],[3.113487,36.74352],[3.1132426,36.743584],[3.11305,36.743645],[3.1128445,36.743683],[3.1126444,36.7437],[3.1122189,36.743694],[3.1118135,36.743793],[3.111668,36.743847],[3.111491,36.743855],[3.1114328,36.743877],[3.111218,36.743973],[3.1109555,36.743958],[3.1109064,36.744003],[3.1107829,36.744022],[3.1102142,36.744167],[3.1087282,36.74473],[3.1079102,36.744972],[3.1078668,36.74512],[3.1079056,36.745434],[3.107807,36.74572],[3.1065958,36.74603],[3.105644,36.74617],[3.1048856,36.74638],[3.104053,36.746532],[3.1038194,36.74661],[3.1033576,36.74677],[3.103062,36.74679],[3.102947,36.747196],[3.1027074,36.74725],[3.1026058,36.746323],[3.1014743,36.74656],[3.1003351,36.746655],[3.1003678,36.74689],[3.0991838,36.747032],[3.0981123,36.747364],[3.0978658,36.746975],[3.0976586,36.74701],[3.097787,36.74842],[3.0981097,36.748993],[3.0979717,36.749496],[3.097772,36.74973],[3.0978053,36.75027],[3.097889,36.750717],[3.097788,36.751],[3.0974987,36.75137],[3.0968432,36.751694],[3.0963326,36.751717],[3.096249,36.75157],[3.0963235,36.75142],[3.0966196,36.75131],[3.0967638,36.751198],[3.0968106,36.750538],[3.0967965,36.750233],[3.096726,36.75002],[3.0966911,36.74964],[3.096739,36.749416],[3.096695,36.748886],[3.095882,36.748665],[3.0948846,36.748222],[3.0944498,36.748238],[3.0939658,36.748165],[3.0936031,36.748337],[3.0912616,36.748768],[3.090896,36.74862],[3.0906553,36.748684],[3.09039,36.748203],[3.0901952,36.748245],[3.0902998,36.74879],[3.0892317,36.749016],[3.0887947,36.748558],[3.0886514,36.748592],[3.0888214,36.749092],[3.088659,36.749146],[3.0881453,36.749302],[3.0874891,36.74959],[3.0872674,36.74975],[3.087186,36.750072],[3.087335,36.750347],[3.0875158,36.750465],[3.087654,36.750626],[3.0876489,36.750736],[3.0875053,36.75079],[3.087186,36.750618],[3.08683,36.750435],[3.0864632,36.750183],[3.0862157,36.749966],[3.0860114,36.749767],[3.085809,36.749863],[3.0855062,36.750034],[3.0852296,36.75008],[3.0852032,36.749924],[3.0854423,36.7498],[3.0858252,36.749687],[3.0858142,36.749554],[3.085609,36.749496],[3.0852833,36.74962],[3.0849648,36.749733],[3.0847557,36.749855],[3.083918,36.75026],[3.0838265,36.750458],[3.083435,36.75081],[3.0831077,36.75094],[3.083098,36.751026],[3.081848,36.751602],[3.0813055,36.75179],[3.0809782,36.7518],[3.0803244,36.75202],[3.079847,36.75224],[3.0796692,36.75231],[3.0795896,36.752384],[3.0795138,36.752434],[3.079417,36.75241],[3.0782485,36.75303],[3.077749,36.753468],[3.0776048,36.753563],[3.0775502,36.75368],[3.077604,36.753765],[3.0775719,36.75381],[3.077476,36.753838],[3.0773358,36.753773],[3.0772562,36.753807],[3.0769248,36.754013],[3.0769339,36.75421],[3.0768738,36.754635],[3.076402,36.75508],[3.0757408,36.755344],[3.075612,36.755882],[3.0756297,36.762154],[3.0754955,36.762157],[3.075485,36.756676],[3.0737576,36.757286],[3.0737684,36.761566],[3.0727117,36.761574],[3.071864,36.761574],[3.071844,36.757523],[3.0701315,36.758137],[3.070117,36.76231],[3.0666049,36.762333],[3.0666,36.76227],[3.0620165,36.76319],[3.0626113,36.764954],[3.0665486,36.764122],[3.0671065,36.764477],[3.067787,36.764915],[3.06768,36.76502],[3.0675972,36.764957],[3.067646,36.764915],[3.0670621,36.764526],[3.0660577,36.765564],[3.060028,36.76686],[3.060602,36.768505],[3.063853,36.767834],[3.0641587,36.768753],[3.0611598,36.769417],[3.061219,36.76964],[3.0626833,36.77096],[3.0650144,36.770473],[3.0653603,36.77155],[3.0634933,36.77195],[3.0635955,36.77227],[3.063856,36.77222],[3.0641587,36.77317],[3.0638688,36.77323],[3.063928,36.77342],[3.0628493,36.773663],[3.062719,36.774117],[3.0622265,36.774017],[3.062188,36.774136],[3.0623705,36.774162],[3.0623114,36.774418],[3.0626345,36.774483],[3.0622997,36.77592],[3.0622702,36.776043],[3.0655203,36.776726],[3.065402,36.777847],[3.0621555,36.778088],[3.062233,36.77826],[3.0631044,36.78014],[3.063177,36.780296],[3.0649714,36.77949],[3.065204,36.780052],[3.0654619,36.78067],[3.0639093,36.781544],[3.0639906,36.781628],[3.064068,36.78171],[3.063893,36.781803],[3.0639842,36.782097],[3.0644104,36.78345],[3.064574,36.784016],[3.0659223,36.78377],[3.066084,36.78411],[3.064814,36.78471],[3.065034,36.785023],[3.0651305,36.78516],[3.0654135,36.78504],[3.0658767,36.785004],[3.0658882,36.785057],[3.066394,36.78501],[3.0663915,36.784992],[3.0663602,36.78495],[3.0663388,36.78491],[3.0663993,36.784863],[3.0664568,36.78519],[3.0664213,36.785187],[3.066395,36.78504],[3.065896,36.785084],[3.0659049,36.78519],[3.0658338,36.78521],[3.0658207,36.785248],[3.0656128,36.78533],[3.065637,36.78537],[3.0654306,36.78545],[3.065446,36.78549],[3.0655816,36.78543],[3.0657423,36.78565],[3.0655985,36.785717],[3.0658042,36.78603],[3.0659418,36.786316],[3.065966,36.78636],[3.065998,36.7864],[3.0660706,36.78645],[3.0661232,36.786465],[3.0661743,36.786472],[3.068138,36.786594],[3.0682244,36.786343],[3.0681682,36.78633],[3.0681546,36.786266],[3.0682137,36.78622],[3.0682395,36.78623],[3.068345,36.786022],[3.0683155,36.78601],[3.0683317,36.78598],[3.0683076,36.785965],[3.0684683,36.785683],[3.0673647,36.785168],[3.0675664,36.784595],[3.0680728,36.78448],[3.0679612,36.78413],[3.0679471,36.78402],[3.0679479,36.783875],[3.0679748,36.783733],[3.0680258,36.78349],[3.068109,36.78327],[3.0682044,36.783047],[3.0685298,36.782463],[3.0686266,36.782314],[3.0687716,36.782127],[3.0689404,36.78195],[3.0690982,36.781788],[3.069281,36.78164],[3.069445,36.781506],[3.0696917,36.781326],[3.0699337,36.781174],[3.071863,36.780136],[3.0718498,36.779694],[3.0717733,36.779606],[3.0717351,36.779613],[3.071687,36.779564],[3.0718026,36.779488],[3.071856,36.77954],[3.071816,36.77956],[3.0718474,36.779587],[3.0722356,36.77968],[3.0724583,36.77977],[3.0727558,36.779793],[3.077815,36.7771],[3.0776691,36.776943],[3.078157,36.77668],[3.0785658,36.777103],[3.0761127,36.778404],[3.0702708,36.781467],[3.0699973,36.781628],[3.069796,36.78179],[3.0695653,36.78201],[3.0693052,36.782276],[3.0691202,36.782528],[3.06897,36.782753],[3.068734,36.78305],[3.0686026,36.783207],[3.0685863,36.783432],[3.0684147,36.783707],[3.0683744,36.783962],[3.0684066,36.78416],[3.068581,36.784576],[3.06875,36.785038],[3.0688038,36.78515],[3.0689163,36.785294],[3.069249,36.78567],[3.0692704,36.785744],[3.069418,36.785954],[3.0695145,36.78601],[3.0696003,36.78604],[3.0696888,36.786224],[3.069697,36.786404],[3.0696406,36.786606],[3.0696807,36.786667],[3.0696058,36.78682],[3.0696003,36.786896],[3.0696352,36.786983],[3.0697184,36.787098],[3.0698624,36.78725],[3.069745,36.787308],[3.0696826,36.78743],[3.0695815,36.787514],[3.0695736,36.787582],[3.0696192,36.78763],[3.0695171,36.78771],[3.0694635,36.787773],[3.0694277,36.787846],[3.069445,36.78793],[3.0696476,36.7879],[3.0696719,36.78811],[3.0696058,36.78816],[3.069579,36.788292],[3.0697024,36.78828],[3.0697129,36.78837],[3.0696511,36.78851],[3.0695844,36.78856],[3.0694664,36.788586],[3.0694976,36.78864],[3.069316,36.788795],[3.0691764,36.788853],[3.0691147,36.788925],[3.068986,36.788998],[3.0688572,36.789],[3.0688171,36.78896],[3.0688279,36.78885],[3.0688064,36.788803],[3.0686884,36.78878],[3.0685918,36.78876],[3.068479,36.78861],[3.0685356,36.78856],[3.0685694,36.788486],[3.0685704,36.788395],[3.0685139,36.788303],[3.0684228,36.788235],[3.068439,36.788162],[3.06842,36.78795],[3.0685463,36.787807],[3.0685334,36.78765],[3.06853,36.787613],[3.068443,36.787575],[3.0680466,36.78749],[3.067554,36.787502],[3.0672474,36.78751],[3.0668406,36.787586],[3.0659058,36.78791],[3.0651822,36.78829],[3.063424,36.78937],[3.0632665,36.78949],[3.0626078,36.78999],[3.0623753,36.790188],[3.0623267,36.790234],[3.0623083,36.790245],[3.0622633,36.79027],[3.0621867,36.790318],[3.062192,36.790447],[3.0621653,36.790707],[3.062139,36.790855],[3.0621817,36.790924],[3.0621874,36.790947],[3.0621412,36.791004],[3.062117,36.791065],[3.0620472,36.79117],[3.0619643,36.7913],[3.0618484,36.79136],[3.0616488,36.791706],[3.061459,36.79204],[3.0611327,36.79193],[3.0611084,36.79199],[3.0610814,36.79203],[3.0609782,36.79215],[3.0610733,36.792286],[3.0611258,36.79233],[3.0611396,36.792343],[3.0611422,36.79237],[3.0610394,36.792393],[3.0609493,36.79241],[3.0608766,36.792393],[3.0607564,36.792377],[3.0606039,36.79254],[3.060643,36.79261],[3.060622,36.79264],[3.060588,36.792694],[3.0605826,36.792747],[3.0605614,36.792877],[3.0605986,36.792973],[3.0605557,36.79303],[3.0604653,36.793148],[3.0605345,36.793194],[3.0604193,36.793343],[3.0606103,36.793507],[3.060284,36.793774],[3.0601947,36.7938],[3.060121,36.793823],[3.0599966,36.793682],[3.0595746,36.79333],[3.0596642,36.793186],[3.0594938,36.793064],[3.059285,36.793026],[3.0591545,36.792984],[3.0588624,36.79289],[3.0587308,36.792843],[3.0586512,36.792778],[3.0582116,36.792744],[3.0578797,36.792747],[3.057733,36.79278],[3.0575142,36.792793],[3.0570047,36.792908],[3.0568457,36.79299],[3.056808,36.793015],[3.0566502,36.793114],[3.056456,36.793247],[3.0567832,36.79388],[3.0577886,36.793606],[3.0578568,36.793648],[3.0578752,36.793694],[3.0577667,36.79377],[3.0567725,36.794014],[3.0558653,36.794334],[3.0557466,36.79435],[3.055684,36.79434],[3.0556812,36.794277],[3.0566294,36.793934],[3.0565648,36.79382],[3.0563862,36.79368],[3.056137,36.793556],[3.0558448,36.793465],[3.0553973,36.79339],[3.0551188,36.79349],[3.0544343,36.7938],[3.0539844,36.79409],[3.0538394,36.794212],[3.0537803,36.794323],[3.0537539,36.794655],[3.0538075,36.794937],[3.0539682,36.795185],[3.0540972,36.79532],[3.0542097,36.795486],[3.0541775,36.79564],[3.0540218,36.795837],[3.0536785,36.796112],[3.053244,36.796494],[3.0528846,36.7968],[3.0526378,36.79704],[3.0523803,36.79724],[3.052199,36.79741],[3.051887,36.797573],[3.0516832,36.797585],[3.05149,36.79757],[3.0514417,36.79762],[3.0512755,36.797794],[3.0509267,36.798073],[3.050332,36.798527],[3.0503955,36.798546],[3.0504224,36.798576],[3.0504332,36.798634],[3.0503366,36.798695],[3.0502293,36.798634],[3.0501702,36.798645],[3.0502033,36.798714],[3.050273,36.79876],[3.0503314,36.798836],[3.0502303,36.798866],[3.0500798,36.79876],[3.0500846,36.798824],[3.050138,36.798897],[3.0500476,36.798958],[3.0500102,36.79893],[3.0498862,36.798885],[3.049827,36.79895],[3.0496233,36.79915],[3.049543,36.79929],[3.0495052,36.799435],[3.049414,36.799557],[3.0493066,36.799725],[3.049237,36.799915],[3.0492647,36.799965],[3.049296,36.800053],[3.0493765,36.80005],[3.0494568,36.800034],[3.0495598,36.80002],[3.049597,36.80008],[3.0496447,36.800095],[3.0496767,36.800148],[3.0497305,36.800125],[3.0498545,36.800148],[3.0498593,36.800205],[3.0496552,36.800217],[3.0495157,36.8002],[3.0494094,36.80025],[3.0494406,36.8003],[3.0495167,36.800316],[3.049548,36.80038],[3.0495157,36.800407],[3.0493925,36.80044],[3.0493772,36.800503],[3.0494468,36.80054],[3.0494945,36.800655],[3.0494468,36.80078],[3.0495105,36.800816],[3.0495586,36.800842],[3.049489,36.800877],[3.0494998,36.800915],[3.0497627,36.800873],[3.0498216,36.80091],[3.0497954,36.80096],[3.0496018,36.801014],[3.0495534,36.801052],[3.0495641,36.801098],[3.0495703,36.801167],[3.049591,36.801258],[3.0495534,36.801292],[3.049548,36.801346],[3.0496447,36.8013],[3.0496714,36.80133],[3.049715,36.80138],[3.0495372,36.80146],[3.0494845,36.801434],[3.0494406,36.801468],[3.0495372,36.80158],[3.0494246,36.801647],[3.0494246,36.801685],[3.0495586,36.801632],[3.049666,36.80168],[3.0496285,36.801723],[3.0496666,36.80178],[3.0497627,36.80174],[3.0497787,36.801785],[3.0497043,36.801838],[3.049811,36.80187],[3.049785,36.80193],[3.0498223,36.80195],[3.0498707,36.801888],[3.049961,36.8019],[3.0499825,36.801983],[3.0498815,36.80207],[3.049725,36.802],[3.049607,36.801983],[3.0496233,36.802017],[3.0497305,36.80207],[3.0498438,36.802147],[3.0498054,36.8022],[3.0496778,36.80222],[3.0495222,36.802296],[3.0493557,36.802208],[3.0494254,36.802097],[3.049355,36.80208],[3.0492053,36.801994],[3.04906,36.80187],[3.0489051,36.80181],[3.0488775,36.801846],[3.0489106,36.801903],[3.048947,36.801937],[3.0489535,36.80202],[3.0490813,36.802063],[3.0491672,36.80213],[3.0492163,36.802185],[3.0491135,36.80223],[3.0489802,36.802124],[3.048846,36.802128],[3.0487173,36.802113],[3.048663,36.8022],[3.0486207,36.8022],[3.0485456,36.802277],[3.0485456,36.802357],[3.0483847,36.802414],[3.0483408,36.8024],[3.0481594,36.802414],[3.0481372,36.802452],[3.0480406,36.80262],[3.0477724,36.802963],[3.0477731,36.802998],[3.0478323,36.80317],[3.0480244,36.803165],[3.0479817,36.803238],[3.0478046,36.803295],[3.047735,36.80333],[3.0477035,36.803394],[3.0475686,36.80338],[3.0475523,36.803432],[3.047456,36.80349],[3.0473118,36.80354],[3.0472791,36.803383],[3.0467324,36.803608],[3.0465598,36.803837],[3.0462704,36.804092],[3.0460298,36.804646],[3.0458038,36.804928],[3.0458205,36.804996],[3.0459063,36.804993],[3.0459485,36.80502],[3.0459325,36.80507],[3.0457401,36.805107],[3.0456052,36.80508],[3.0455623,36.805115],[3.0451276,36.80525],[3.0444474,36.805424],[3.0441084,36.80559],[3.043546,36.805935],[3.0435836,36.806015],[3.0436203,36.806034],[3.043748,36.806137],[3.0437171,36.80616],[3.0435774,36.80607],[3.0434065,36.806065],[3.0429444,36.80633],[3.042778,36.806385],[3.0425634,36.806496],[3.0421987,36.80671],[3.0421717,36.80676],[3.0421667,36.8069],[3.0421612,36.806995],[3.042188,36.807095],[3.0420868,36.80718],[3.0419765,36.807297],[3.041919,36.807194],[3.0418081,36.807194],[3.0417974,36.807144],[3.0417643,36.807114],[3.0417473,36.80708],[3.0415614,36.807003],[3.0413969,36.807064],[3.0411077,36.80726],[3.0408974,36.807465],[3.0408304,36.807518],[3.0407412,36.807655],[3.0406868,36.807953],[3.0406218,36.808125],[3.04067,36.808155],[3.040746,36.80818],[3.0408263,36.808216],[3.04088,36.80831],[3.0409381,36.808388],[3.0408845,36.808487],[3.040745,36.808445],[3.0406003,36.808434],[3.0405357,36.80845],[3.0405734,36.808514],[3.0405626,36.80865],[3.0404446,36.8087],[3.0402944,36.80893],[3.0402415,36.80906],[3.040311,36.809044],[3.0407183,36.809208],[3.0407076,36.809284],[3.0405896,36.809265],[3.040526,36.80931],[3.0406387,36.809372],[3.0405848,36.80947],[3.0404937,36.80956],[3.0404346,36.80946],[3.040402,36.809376],[3.0402622,36.809353],[3.0400636,36.809402],[3.0398552,36.80949],[3.0397043,36.809566],[3.0395863,36.809597],[3.0394905,36.809574],[3.0394478,36.809597],[3.0394523,36.809654],[3.0393717,36.809677],[3.0393724,36.809734],[3.0392644,36.809803],[3.039184,36.809822],[3.039211,36.809887],[3.039168,36.80992],[3.039023,36.809994],[3.038975,36.81005],[3.0388308,36.810127],[3.0387824,36.810177],[3.0387924,36.810284],[3.0388353,36.81033],[3.0388093,36.810444],[3.0386806,36.810295],[3.0386047,36.81021],[3.0384545,36.810154],[3.0383632,36.8102],[3.0382345,36.810246],[3.0382137,36.810287],[3.0381646,36.81037],[3.0380092,36.810425],[3.037977,36.810272],[3.038052,36.810204],[3.0380208,36.810146],[3.037977,36.810078],[3.0380635,36.810013],[3.0381057,36.80987],[3.038187,36.80985],[3.0382192,36.809765],[3.0380957,36.809723],[3.038004,36.809643],[3.0378275,36.8096],[3.0377247,36.809467],[3.0376015,36.809456],[3.03758,36.809513],[3.0374942,36.80957],[3.0374835,36.809467],[3.0375426,36.8094],[3.0374887,36.809353],[3.037081,36.809242],[3.0368826,36.8093],[3.036829,36.809357],[3.0368826,36.80943],[3.0368664,36.809544],[3.036786,36.80961],[3.0367923,36.809563],[3.0367975,36.809414],[3.0367064,36.80941],[3.0365722,36.809376],[3.0364866,36.809334],[3.0365562,36.80924],[3.036406,36.809204],[3.0359976,36.809334],[3.0356605,36.80957],[3.035697,36.8096],[3.0358367,36.80978],[3.0358205,36.80985],[3.0358205,36.809925],[3.0357516,36.810005],[3.035698,36.80996],[3.0357354,36.80986],[3.0357354,36.809803],[3.035681,36.809765],[3.035714,36.809704],[3.0356762,36.80965],[3.0355844,36.809647],[3.035504,36.809666],[3.0354395,36.809723],[3.0354664,36.80979],[3.035462,36.80985],[3.0353913,36.80993],[3.0353646,36.809998],[3.0352948,36.80995],[3.0353215,36.809784],[3.0352473,36.80983],[3.0351927,36.809895],[3.0351079,36.80997],[3.0351338,36.8101],[3.0350113,36.81009],[3.034995,36.809998],[3.0349247,36.809944],[3.0348494,36.809986],[3.0348656,36.810062],[3.034823,36.81017],[3.0347269,36.81027],[3.0346994,36.81004],[3.0346296,36.810154],[3.034507,36.810234],[3.0343623,36.810295],[3.03434,36.81024],[3.0343301,36.810093],[3.0344527,36.809906],[3.0343988,36.809853],[3.0343616,36.809963],[3.0342648,36.810062],[3.0341363,36.810097],[3.0340772,36.810184],[3.0339913,36.81019],[3.0340395,36.80989],[3.033976,36.809765],[3.0339053,36.809746],[3.0338948,36.80982],[3.0338948,36.80992],[3.0338304,36.80999],[3.033815,36.809906],[3.0337927,36.809822],[3.033739,36.809914],[3.033665,36.809998],[3.0335307,36.810062],[3.033519,36.809925],[3.0336373,36.809845],[3.0336747,36.809692],[3.0336158,36.809677],[3.0333045,36.80965],[3.033106,36.80968],[3.0331006,36.809776],[3.0330257,36.8098],[3.0329943,36.809734],[3.0328915,36.809692],[3.0327575,36.809746],[3.0327206,36.80992],[3.0326502,36.80994],[3.032624,36.810047],[3.0325267,36.80998],[3.03238,36.80995],[3.032317,36.80996],[3.032307,36.810074],[3.032208,36.810158],[3.032133,36.810135],[3.03206,36.810192],[3.0320117,36.81026],[3.0319366,36.810238],[3.0317328,36.8103],[3.031599,36.810146],[3.031599,36.81023],[3.0315437,36.81031],[3.0313559,36.810287],[3.0310435,36.810516],[3.031234,36.81051],[3.031243,36.810543],[3.0312822,36.81056],[3.031376,36.810646],[3.0313559,36.8107],[3.0311384,36.810913],[3.0310495,36.810886],[3.0308537,36.810905],[3.030646,36.810856],[3.0306063,36.810986],[3.0305312,36.810867],[3.0304613,36.810883],[3.0301988,36.811],[3.0302467,36.811024],[3.0303228,36.81105],[3.0303283,36.811108],[3.030371,36.811104],[3.030408,36.811153],[3.0303328,36.811188],[3.0303273,36.811222],[3.0303059,36.811287],[3.0304024,36.811275],[3.0304186,36.81132],[3.0305367,36.811333],[3.0305474,36.811356],[3.0305254,36.811398],[3.0305378,36.81141],[3.0305855,36.811405],[3.0306501,36.811497],[3.0306973,36.811615],[3.0306385,36.811634],[3.0306385,36.81167],[3.030692,36.811684],[3.0306768,36.811745],[3.0306063,36.811737],[3.0304668,36.811607],[3.0303648,36.811607],[3.0303113,36.811634],[3.0304775,36.811703],[3.0305204,36.81178],[3.0304675,36.811787],[3.030355,36.81172],[3.0302467,36.811726],[3.0301557,36.811737],[3.0301404,36.811783],[3.0301664,36.81199],[3.0300922,36.812004],[3.0300376,36.811928],[3.0299735,36.81193],[3.0299735,36.811985],[3.0299034,36.81204],[3.0299034,36.81213],[3.0299623,36.81212],[3.0300646,36.812134],[3.0300376,36.81227],[3.0299518,36.812386],[3.0298016,36.812515],[3.0296729,36.81261],[3.0296245,36.81268],[3.0296192,36.81274],[3.0294375,36.812885],[3.0293992,36.81283],[3.0293303,36.81284],[3.0293036,36.812893],[3.029099,36.81297],[3.0290513,36.813053],[3.028826,36.81305],[3.0288253,36.812996],[3.028853,36.81292],[3.0287287,36.81286],[3.0286276,36.81284],[3.0285366,36.812817],[3.0284982,36.812763],[3.0284228,36.8128],[3.0283647,36.812756],[3.028455,36.81265],[3.0285678,36.8126],[3.028573,36.81254],[3.028203,36.81237],[3.0278285,36.81224],[3.0275064,36.812206],[3.0274146,36.81219],[3.0273457,36.812225],[3.0273025,36.812294],[3.0272748,36.812347],[3.0272245,36.81236],[3.0271785,36.812374],[3.0271685,36.81233],[3.027264,36.81223],[3.0271623,36.812202],[3.0270605,36.81222],[3.0270605,36.812138],[3.0267274,36.811985],[3.026174,36.81185],[3.0260804,36.81185],[3.0258572,36.81186],[3.025779,36.81215],[3.0256388,36.81208],[3.0253928,36.812218],[3.0254028,36.812325],[3.0253286,36.81243],[3.0252373,36.81243],[3.0250971,36.812317],[3.0250387,36.812134],[3.0249684,36.812122],[3.0248556,36.812122],[3.0246785,36.812157],[3.0245283,36.812164],[3.024448,36.81222],[3.0244317,36.81236],[3.024379,36.812393],[3.0243146,36.81236],[3.0243244,36.812397],[3.0243306,36.81245],[3.0242012,36.81244],[3.0240939,36.812454],[3.024051,36.81251],[3.0239973,36.812504],[3.0239928,36.81245],[3.0239928,36.812397],[3.0240464,36.812317],[3.0239382,36.81222],[3.0236487,36.81225],[3.0235522,36.812263],[3.023461,36.81231],[3.023478,36.812424],[3.0234127,36.81245],[3.0233643,36.812397],[3.0233,36.81241],[3.0231667,36.81249],[3.0231335,36.812454],[3.0230272,36.812553],[3.0230112,36.81246],[3.022967,36.81245],[3.0226507,36.81259],[3.0223243,36.81272],[3.0220447,36.812927],[3.0219266,36.81312],[3.0219054,36.813232],[3.0220554,36.813213],[3.0221894,36.81326],[3.0222325,36.813366],[3.0222914,36.81337],[3.0223298,36.813446],[3.0222645,36.813545],[3.0223825,36.813557],[3.0223567,36.813602],[3.022286,36.813625],[3.0221145,36.813675],[3.0220392,36.813656],[3.021991,36.813713],[3.0219543,36.81378],[3.0218892,36.813812],[3.0217924,36.8138],[3.02168,36.81383],[3.0217605,36.81385],[3.0218246,36.813896],[3.0219054,36.81397],[3.0218892,36.81405],[3.0218678,36.814133],[3.021932,36.814175],[3.0218678,36.81423],[3.0217931,36.814213],[3.02168,36.81424],[3.0215137,36.814377],[3.021149,36.814564],[3.0210047,36.81459],[3.0209029,36.814514],[3.0207686,36.814445],[3.0208333,36.814243],[3.020886,36.81407],[3.0207841,36.81402],[3.0206454,36.81406],[3.0205264,36.814003],[3.0203924,36.813946],[3.0203762,36.814014],[3.0203335,36.81409],[3.0202646,36.81419],[3.020194,36.81412],[3.020269,36.814075],[3.0202208,36.813988],[3.0201564,36.814026],[3.0200548,36.81398],[3.01983,36.813988],[3.0195615,36.81409],[3.0191002,36.814327],[3.0189717,36.81451],[3.0189178,36.81471],[3.0190084,36.814827],[3.0190787,36.814888],[3.0192075,36.81499],[3.019314,36.815075],[3.0193088,36.815163],[3.0193632,36.815166],[3.0194268,36.815186],[3.019384,36.81523],[3.0193517,36.81532],[3.0194054,36.81533],[3.019502,36.81534],[3.019534,36.81539],[3.0195234,36.815434],[3.019459,36.815475],[3.019368,36.815514],[3.0193517,36.815517],[3.019299,36.815533],[3.019318,36.815548],[3.0192888,36.815533],[3.019311,36.81555],[3.019294,36.81559],[3.0192225,36.815605],[3.0192924,36.81562],[3.019308,36.81565],[3.0193033,36.81567],[3.0194063,36.815586],[3.0194428,36.81563],[3.0194268,36.815742],[3.0193877,36.815834],[3.0193894,36.81595],[3.0193827,36.81596],[3.0192602,36.816147],[3.0192096,36.816162],[3.019062,36.81621],[3.0189734,36.816185],[3.0188427,36.81615],[3.0186222,36.815933],[3.0185695,36.815968],[3.0183914,36.816196],[3.0183058,36.816235],[3.0182836,36.816288],[3.0182626,36.816345],[3.0181286,36.81637],[3.0179086,36.81655],[3.0178764,36.816677],[3.0178335,36.81698],[3.017839,36.81713],[3.0179248,36.81715],[3.0179675,36.81715],[3.0180264,36.81727],[3.0179675,36.817345],[3.0178819,36.8173],[3.0178227,36.81733],[3.0177312,36.817326],[3.0176833,36.817432],[3.017619,36.817474],[3.0176027,36.81754],[3.0176833,36.81759],[3.0178335,36.817574],[3.017957,36.81752],[3.0182354,36.817547],[3.0181875,36.81765],[3.0181553,36.817745],[3.018059,36.817783],[3.0178576,36.81782],[3.0177906,36.817924],[3.0177746,36.81801],[3.0177743,36.818066],[3.017726,36.818108],[3.0176296,36.818066],[3.0175707,36.818108],[3.017525,36.8181],[3.017517,36.818153],[3.0175223,36.81827],[3.0173774,36.818302],[3.0172837,36.818253],[3.0172167,36.81806],[3.0169992,36.818115],[3.0168705,36.818047],[3.016814,36.818024],[3.0167336,36.818],[3.016731,36.817898],[3.0167763,36.817856],[3.016868,36.817844],[3.0168624,36.817783],[3.0168328,36.817722],[3.0167232,36.81767],[3.0166507,36.817673],[3.016575,36.817715],[3.0165055,36.817707],[3.016436,36.817707],[3.0163584,36.817726],[3.0163205,36.81765],[3.016366,36.817505],[3.0162885,36.817444],[3.0161815,36.817413],[3.0160096,36.817387],[3.0159132,36.817364],[3.0157251,36.817333],[3.0154781,36.817368],[3.0153666,36.817406],[3.0153666,36.817955],[3.0152478,36.818012],[3.0149214,36.818104],[3.0147712,36.818077],[3.014723,36.81801],[3.0147552,36.817894],[3.0150213,36.817863],[3.01504,36.817596],[3.01506,36.817303],[3.0148787,36.81731],[3.014781,36.817337],[3.0147758,36.817383],[3.014647,36.81742],[3.014438,36.817444],[3.014149,36.817574],[3.0139666,36.817776],[3.0138755,36.81794],[3.013843,36.818115],[3.0138745,36.81843],[3.014014,36.81859],[3.0145664,36.8186],[3.0146897,36.818386],[3.0147915,36.81843],[3.0146685,36.818634],[3.0147758,36.818687],[3.0148242,36.818726],[3.0146096,36.819134],[3.0145128,36.819103],[3.0145502,36.818935],[3.0144005,36.818848],[3.0142286,36.818836],[3.0141213,36.818943],[3.014014,36.818947],[3.014014,36.818794],[3.0138528,36.81876],[3.0137405,36.81877],[3.0136702,36.81873],[3.0135849,36.818714],[3.01344,36.818733],[3.013225,36.818867],[3.0131557,36.818768],[3.0130591,36.818794],[3.013054,36.818874],[3.013161,36.818962],[3.0131826,36.819088],[3.0130963,36.81911],[3.0130591,36.819134],[3.0129359,36.81915],[3.012909,36.819344],[3.012764,36.819344],[3.012791,36.819565],[3.0126514,36.81964],[3.01263,36.819782],[3.0122762,36.819847],[3.012244,36.819904],[3.0120182,36.819923],[3.0116427,36.819828],[3.0113587,36.819923],[3.0112941,36.820004],[3.0111601,36.82015],[3.0110419,36.820198],[3.0109189,36.820034],[3.0109134,36.820076],[3.0108757,36.82016],[3.0107577,36.820175],[3.0107954,36.820335],[3.0108757,36.820347],[3.010849,36.820427],[3.0107417,36.82052],[3.0106719,36.8206],[3.010543,36.820618],[3.010479,36.820484],[3.0105915,36.82044],[3.0106666,36.82034],[3.0106237,36.820282],[3.0106556,36.820087],[3.010581,36.820045],[3.0105486,36.82011],[3.0104198,36.82017],[3.0103445,36.82014],[3.010495,36.819923],[3.0103822,36.81998],[3.0102105,36.82003],[3.0098722,36.820152],[3.0097494,36.820206],[3.0096579,36.820286],[3.0095398,36.82034],[3.0094972,36.820408],[3.0094597,36.820477],[3.0093896,36.820587],[3.0093524,36.820713],[3.0092397,36.82074],[3.009143,36.82082],[3.0089872,36.820854],[3.008875,36.820763],[3.008907,36.820698],[3.0090413,36.820515],[3.009154,36.820366],[3.0093896,36.820282],[3.009422,36.82019],[3.0095992,36.82014],[3.0096958,36.820087],[3.0097437,36.82005],[3.0097973,36.819954],[3.0099638,36.819897],[3.009846,36.81982],[3.00961,36.81988],[3.0094862,36.819912],[3.0092986,36.81985],[3.009159,36.819824],[3.0089927,36.81978],[3.008918,36.819714],[3.0089338,36.819557],[3.009057,36.819443],[3.0091324,36.819225],[3.009229,36.81913],[3.009277,36.819057],[3.0095024,36.81891],[3.009524,36.818787],[3.0096579,36.818703],[3.009631,36.818626],[3.0095346,36.81852],[3.0094006,36.818516],[3.0093417,36.8185],[3.0092876,36.818447],[3.009261,36.818363],[3.0091052,36.81835],[3.0090199,36.818413],[3.008773,36.81858],[3.0084884,36.818672],[3.008247,36.818687],[3.0081453,36.818634],[3.0081024,36.818577],[3.0081882,36.81848],[3.0083706,36.818394],[3.008263,36.8184],[3.0081508,36.818428],[3.0080323,36.818504],[3.0079143,36.818558],[3.0076895,36.818676],[3.0075388,36.818676],[3.007539,36.81859],[3.0076084,36.818504],[3.0075927,36.818413],[3.0076356,36.81821],[3.0076945,36.818005],[3.00763,36.81795],[3.0075657,36.817894],[3.007421,36.817947],[3.0073028,36.817844],[3.0070777,36.817905],[3.0070777,36.817787],[3.007212,36.81771],[3.0071583,36.817654],[3.007056,36.81767],[3.0067077,36.81782],[3.0066326,36.81772],[3.0067022,36.817677],[3.0068254,36.81765],[3.0069165,36.817593],[3.0068364,36.817562],[3.0066216,36.817627],[3.0066967,36.81754],[3.0067291,36.817482],[3.0068634,36.817448],[3.0069327,36.8174],[3.0068257,36.817368],[3.0067558,36.817436],[3.0065737,36.817444],[3.0065145,36.817486],[3.006418,36.81746],[3.0063913,36.81731],[3.0063,36.817387],[3.0062194,36.817406],[3.0061817,36.817326],[3.006128,36.817284],[3.0061498,36.817192],[3.00593,36.817093],[3.0058334,36.817184],[3.0058868,36.817204],[3.0059297,36.817295],[3.0056617,36.817364],[3.0056777,36.817585],[3.0055866,36.817703],[3.0053608,36.817905],[3.0052538,36.817886],[3.0054257,36.817654],[3.005093,36.81768],[3.0051088,36.81763],[3.0053291,36.817608],[3.0053022,36.817562],[3.005157,36.817467],[3.005018,36.817535],[3.0049102,36.817673],[3.0048137,36.81757],[3.0047014,36.817398],[3.004739,36.817234],[3.0045726,36.8172],[3.0047443,36.817146],[3.004744,36.817055],[3.0046422,36.817104],[3.0045347,36.817085],[3.0047872,36.81682],[3.0047603,36.816742],[3.004621,36.816906],[3.0044758,36.81706],[3.004358,36.816948],[3.004181,36.81691],[3.004047,36.816795],[3.004084,36.816547],[3.003698,36.81629],[3.0034087,36.81628],[3.003065,36.816208],[3.0027165,36.816204],[3.002529,36.816387],[3.0027165,36.816376],[3.0027487,36.816475],[3.002663,36.81657],[3.0025182,36.81663],[3.0023623,36.816658],[3.0024428,36.816494],[3.002228,36.816536],[3.0021906,36.816433],[3.0021212,36.816456],[3.0020618,36.81657],[3.0019708,36.816628],[3.001767,36.816605],[3.001601,36.81649],[3.0016167,36.816425],[3.0014608,36.816334],[3.001311,36.81638],[3.0012362,36.816456],[3.0011714,36.816544],[3.0010483,36.816456],[3.0010805,36.816357],[3.001096,36.816277],[3.0009892,36.816242],[3.000764,36.816273],[3.0008497,36.81637],[3.0006886,36.81642],[3.0006132,36.816334],[3.0003452,36.81631],[3.0000718,36.816227],[3.000061,36.816097],[2.9996052,36.81588],[2.9991868,36.815823],[2.9991436,36.81589],[2.9990528,36.81589],[2.9989989,36.815796],[2.9989185,36.81587],[2.9989185,36.815907],[2.998849,36.815952],[2.9987845,36.81607],[2.9987094,36.816177],[2.99865,36.816166],[2.998693,36.816048],[2.9986932,36.815956],[2.998731,36.815826],[2.9986773,36.815804],[2.9986022,36.815838],[2.998452,36.815884],[2.998194,36.815727],[2.998006,36.81555],[2.9975023,36.815315],[2.997234,36.815342],[2.9972234,36.81543],[2.9972446,36.81555],[2.9971159,36.815628],[2.996971,36.81559],[2.9968374,36.815525],[2.9967403,36.815548],[2.9966815,36.81567],[2.9965906,36.815655],[2.99666,36.81549],[2.9966977,36.81535],[2.9965205,36.815376],[2.9963222,36.815422],[2.9962633,36.815514],[2.996236,36.815556],[2.996113,36.816093],[2.996011,36.815945],[2.9961233,36.81569],[2.996118,36.815598],[2.9959998,36.815536],[2.9958663,36.815502],[2.9957805,36.81556],[2.9957695,36.815655],[2.9957106,36.815613],[2.9957104,36.815495],[2.9956195,36.81548],[2.9954476,36.81577],[2.9952598,36.81594],[2.9951744,36.81593],[2.9951472,36.81585],[2.995024,36.815746],[2.9949486,36.815823],[2.994831,36.815765],[2.994895,36.81567],[2.9948096,36.815655],[2.9947717,36.81554],[2.9948149,36.815422],[2.9946432,36.815414],[2.9946754,36.815464],[2.9946,36.815666],[2.9944072,36.81585],[2.9944232,36.815884],[2.9944556,36.81594],[2.994418,36.816036],[2.9941278,36.816147],[2.994053,36.81605],[2.994037,36.815887],[2.9938974,36.81584],[2.9939618,36.81593],[2.9939134,36.81598],[2.993742,36.816036],[2.993522,36.81619],[2.9934251,36.816124],[2.993307,36.81595],[2.993323,36.81579],[2.993232,36.815796],[2.9930658,36.816025],[2.9930232,36.81591],[2.9930124,36.815777],[2.9931893,36.815613],[2.9931087,36.815594],[2.9929693,36.815475],[2.992889,36.815395],[2.99276,36.815403],[2.9927442,36.815342],[2.992835,36.815266],[2.9928188,36.815197],[2.9927068,36.815197],[2.9927654,36.8151],[2.9927926,36.815014],[2.9926906,36.814846],[2.9925828,36.81477],[2.9925134,36.814793],[2.9923577,36.815014],[2.9923048,36.81501],[2.9922504,36.815006],[2.9922667,36.814945],[2.9923666,36.81482],[2.9922829,36.814842],[2.992229,36.814888],[2.9921165,36.8149],[2.9921217,36.814785],[2.9922235,36.814724],[2.9921217,36.814655],[2.992025,36.814598],[2.9918802,36.814793],[2.9918108,36.81479],[2.9918747,36.81463],[2.9918108,36.814598],[2.991596,36.814762],[2.9914029,36.81467],[2.991387,36.81455],[2.991253,36.814663],[2.9911666,36.814655],[2.9911993,36.814552],[2.991135,36.814552],[2.991183,36.81439],[2.9911027,36.814415],[2.9910114,36.814487],[2.9908502,36.814526],[2.9908452,36.81445],[2.9909415,36.814377],[2.99099,36.81432],[2.990872,36.814247],[2.990738,36.814167],[2.990325,36.813957],[2.9900134,36.81385],[2.9897773,36.813885],[2.9896274,36.813927],[2.9894714,36.814148],[2.989354,36.814198],[2.9893644,36.814114],[2.9895735,36.813885],[2.9894612,36.813732],[2.989273,36.81357],[2.9890316,36.81347],[2.9889784,36.8134],[2.988935,36.813442],[2.9888494,36.81348],[2.98864,36.813232],[2.9882755,36.813168],[2.988002,36.81321],[2.9879858,36.813282],[2.987594,36.81346],[2.987471,36.81335],[2.9875784,36.813183],[2.9872723,36.81312],[2.9869075,36.813183],[2.98665,36.81331],[2.9866228,36.8134],[2.9867787,36.813503],[2.9863067,36.8136],[2.9863818,36.81329],[2.9861295,36.813335],[2.9860706,36.81313],[2.986001,36.812996],[2.9857273,36.812996],[2.985604,36.81305],[2.9856255,36.813076],[2.9856794,36.813164],[2.985749,36.813255],[2.9859474,36.81336],[2.9858937,36.813515],[2.985808,36.813553],[2.9858723,36.81366],[2.9857864,36.81373],[2.9856894,36.813717],[2.9855986,36.813633],[2.9854805,36.813564],[2.985647,36.813404],[2.985572,36.813347],[2.9853253,36.813255],[2.9852126,36.813274],[2.9852018,36.81337],[2.9852552,36.813526],[2.9852605,36.813595],[2.9851804,36.813633],[2.9851048,36.813572],[2.984955,36.813644],[2.985014,36.813667],[2.984928,36.813732],[2.9850624,36.813717],[2.9850893,36.813744],[2.9849977,36.81379],[2.9850035,36.813843],[2.9848528,36.813896],[2.9847724,36.813927],[2.9848208,36.814],[2.984869,36.814],[2.9849548,36.813984],[2.9850247,36.814],[2.9849977,36.81408],[2.9848745,36.814095],[2.9848585,36.81416],[2.984869,36.8142],[2.9847672,36.814297],[2.98481,36.814342],[2.9848745,36.814423],[2.984869,36.814537],[2.984456,36.814663],[2.9842577,36.81473],[2.984156,36.81465],[2.984247,36.81448],[2.9843593,36.814354],[2.9842734,36.81437],[2.9841397,36.81444],[2.984075,36.814396],[2.9841342,36.814323],[2.9840536,36.814243],[2.9840052,36.814316],[2.9837804,36.814396],[2.9838552,36.814266],[2.9839518,36.8141],[2.9839892,36.81393],[2.983775,36.813984],[2.9837904,36.813835],[2.983705,36.813755],[2.9836247,36.81378],[2.9834263,36.813885],[2.9832973,36.814014],[2.983351,36.8141],[2.9833562,36.814163],[2.9832115,36.814228],[2.983104,36.8142],[2.9830132,36.8142],[2.98297,36.81411],[2.9830022,36.81401],[2.9828947,36.81402],[2.9828842,36.813927],[2.9829485,36.813847],[2.9828362,36.81383],[2.9827824,36.81387],[2.9827716,36.813923],[2.9827986,36.81396],[2.9827662,36.814007],[2.982879,36.81409],[2.98282,36.81422],[2.982965,36.81433],[2.9828787,36.8144],[2.982702,36.814423],[2.982664,36.814327],[2.9826643,36.814236],[2.9825733,36.814186],[2.982584,36.814106],[2.982702,36.81409],[2.982664,36.813995],[2.9825678,36.814],[2.9824982,36.81406],[2.9824767,36.814186],[2.9823744,36.81412],[2.9823265,36.81407],[2.9823532,36.813976],[2.982278,36.813984],[2.9821978,36.8141],[2.9821815,36.81435],[2.982128,36.814342],[2.982085,36.814068],[2.981967,36.81405],[2.9819615,36.81419],[2.9818594,36.81415],[2.9818652,36.813847],[2.9817843,36.813843],[2.9817095,36.81378],[2.9816878,36.813633],[2.9816933,36.813503],[2.9814286,36.813442],[2.9812067,36.813484],[2.9810228,36.813526],[2.9807923,36.813675],[2.9807117,36.813732],[2.980776,36.81382],[2.980749,36.81395],[2.9806154,36.814156],[2.9807332,36.81419],[2.9806955,36.81426],[2.9805882,36.814278],[2.9805505,36.814198],[2.9804113,36.81411],[2.980325,36.814075],[2.980213,36.81411],[2.9802506,36.81416],[2.980293,36.814213],[2.9804113,36.81427],[2.9805079,36.814342],[2.980481,36.814438],[2.9804218,36.814404],[2.980422,36.814365],[2.98032,36.81435],[2.9801216,36.814335],[2.9802291,36.814476],[2.980148,36.81455],[2.9800627,36.814487],[2.9799821,36.814533],[2.9798858,36.814556],[2.9797835,36.814503],[2.9797783,36.8144],[2.979687,36.81445],[2.9796603,36.814575],[2.9795794,36.814568],[2.9796064,36.81445],[2.9794993,36.81447],[2.9794726,36.81454],[2.979521,36.814636],[2.9794455,36.81469],[2.9792526,36.814716],[2.979113,36.814735],[2.979129,36.814533],[2.9792366,36.81446],[2.979145,36.814415],[2.9791076,36.814278],[2.9789417,36.81423],[2.9787912,36.814228],[2.9787107,36.81423],[2.978523,36.81419],[2.9782438,36.814316],[2.9780722,36.8143],[2.9779544,36.81441],[2.977772,36.81447],[2.977804,36.814598],[2.9776592,36.81465],[2.9775255,36.81469],[2.977611,36.81474],[2.977622,36.814793],[2.9775255,36.814854],[2.9773426,36.814888],[2.9772196,36.814846],[2.977262,36.81479],[2.9772084,36.81473],[2.9771764,36.81471],[2.9771173,36.81469],[2.977069,36.81473],[2.9770372,36.814705],[2.9768655,36.814713],[2.9767635,36.814705],[2.976613,36.814644],[2.9766023,36.814594],[2.9764416,36.814518],[2.9762485,36.81447],[2.9759266,36.81463],[2.975782,36.814877],[2.9757926,36.814964],[2.9757602,36.815037],[2.9756103,36.815136],[2.9755132,36.81511],[2.9754329,36.815067],[2.975299,36.815063],[2.9751809,36.815132],[2.9750626,36.81509],[2.9750628,36.814983],[2.9752183,36.8149],[2.9751701,36.81488],[2.9750557,36.814793],[2.9748552,36.814705],[2.9747357,36.814674],[2.9745102,36.814648],[2.974269,36.814613],[2.9739575,36.8146],[2.9738986,36.8147],[2.9739096,36.81476],[2.9738183,36.814877],[2.9736128,36.81491],[2.973426,36.81491],[2.9734104,36.81477],[2.9731748,36.81468],[2.9728744,36.81468],[2.9725096,36.814674],[2.9721231,36.814735],[2.9717746,36.814884],[2.9716673,36.81489],[2.9715333,36.815002],[2.9714258,36.815132],[2.9713564,36.815228],[2.971356,36.81532],[2.9712703,36.815346],[2.9712274,36.815365],[2.9712486,36.81545],[2.9711578,36.815506],[2.9709485,36.815483],[2.9706588,36.815456],[2.9707232,36.815647],[2.9705513,36.815647],[2.970412,36.815647],[2.9704497,36.815723],[2.9702508,36.81576],[2.9702137,36.81567],[2.9702778,36.81562],[2.9702456,36.81557],[2.9700205,36.81563],[2.9699345,36.815514],[2.9697576,36.815468],[2.9696124,36.815456],[2.9694624,36.815483],[2.9692588,36.815567],[2.969087,36.815605],[2.9688885,36.815556],[2.9687278,36.81548],[2.9685879,36.81535],[2.9683628,36.815235],[2.968218,36.81522],[2.9679017,36.81531],[2.9681323,36.815575],[2.9682178,36.81567],[2.9680514,36.81571],[2.9679444,36.815636],[2.9677725,36.81557],[2.9676225,36.815247],[2.967751,36.815166],[2.9676602,36.815086],[2.9674828,36.815155],[2.9673164,36.814888],[2.967279,36.81466],[2.967354,36.814526],[2.967311,36.81444],[2.9670053,36.814335],[2.966748,36.814285],[2.9667263,36.814373],[2.9665766,36.814415],[2.9666517,36.814243],[2.9658847,36.814236],[2.9657233,36.814186],[2.9656754,36.81413],[2.9655783,36.814163],[2.9654496,36.814346],[2.9654179,36.81432],[2.9652245,36.81424],[2.964838,36.814236],[2.9646988,36.81429],[2.9647794,36.81439],[2.9645112,36.814507],[2.9644306,36.81449],[2.9643397,36.814415],[2.9642859,36.814457],[2.9641678,36.81454],[2.964141,36.8145],[2.9641356,36.81443],[2.9640176,36.814407],[2.9639907,36.814434],[2.963937,36.814514],[2.9639208,36.814552],[2.9638834,36.81462],[2.9639533,36.814636],[2.9639046,36.814735],[2.9637976,36.814716],[2.9637923,36.814648],[2.963653,36.81467],[2.9636369,36.814606],[2.9637332,36.814495],[2.9637654,36.814404],[2.9636579,36.814335],[2.9635885,36.81433],[2.9635296,36.814377],[2.9635508,36.814426],[2.9634652,36.814465],[2.9633522,36.814423],[2.9632614,36.814407],[2.9631057,36.81455],[2.9629123,36.81454],[2.9628859,36.8144],[2.962891,36.814266],[2.963036,36.814167],[2.9630785,36.81406],[2.963036,36.814068],[2.962934,36.814106],[2.9629073,36.81402],[2.9630463,36.814],[2.9629982,36.81395],[2.9628375,36.81383],[2.9627464,36.813847],[2.9627137,36.813934],[2.9626336,36.813896],[2.9625156,36.81387],[2.9625103,36.813927],[2.9625425,36.813957],[2.9625802,36.81401],[2.9624562,36.814068],[2.9623868,36.81406],[2.9624188,36.814014],[2.96236,36.813988],[2.9622636,36.81402],[2.962145,36.81404],[2.9621027,36.813976],[2.9622743,36.813904],[2.9623387,36.813866],[2.9622526,36.813652],[2.9620543,36.813522],[2.9619095,36.8134],[2.961829,36.813427],[2.9617481,36.813442],[2.9616787,36.813423],[2.961695,36.813354],[2.9616895,36.8133],[2.961609,36.8133],[2.9614966,36.813286],[2.9613943,36.813274],[2.9613194,36.813244],[2.9613516,36.813145],[2.9614804,36.81308],[2.961448,36.812984],[2.961314,36.812767],[2.9609973,36.81262],[2.9609225,36.812664],[2.9606004,36.812756],[2.9599779,36.81277],[2.959844,36.81258],[2.9597418,36.812424],[2.9596672,36.812428],[2.9596238,36.81249],[2.959533,36.81251],[2.959479,36.812424],[2.9593723,36.812405],[2.9592915,36.81244],[2.959147,36.81242],[2.959152,36.81232],[2.9590394,36.81224],[2.958975,36.812122],[2.9588356,36.812103],[2.9588249,36.812145],[2.9587123,36.812164],[2.9584816,36.812244],[2.9584544,36.81235],[2.9582736,36.812218],[2.958027,36.812057],[2.9579089,36.812016],[2.9577587,36.811996],[2.9576232,36.81203],[2.9574192,36.81209],[2.9571888,36.81231],[2.9571996,36.812378],[2.9571297,36.81243],[2.957017,36.81246],[2.9570599,36.812565],[2.9569204,36.812565],[2.956663,36.81266],[2.956647,36.81273],[2.9565396,36.812828],[2.9564483,36.812786],[2.9562874,36.812748],[2.9562447,36.812817],[2.9563086,36.81285],[2.956239,36.812946],[2.9561696,36.812878],[2.956121,36.812626],[2.9559603,36.812614],[2.9558208,36.81272],[2.955794,36.81286],[2.9559283,36.813015],[2.955896,36.813103],[2.955724,36.813156],[2.955649,36.813244],[2.955515,36.813248],[2.955161,36.813023],[2.9549787,36.81298],[2.9547212,36.8129],[2.9545977,36.812904],[2.9547102,36.81306],[2.9545815,36.813126],[2.954496,36.81306],[2.9544423,36.813103],[2.9544418,36.81322],[2.9542706,36.81327],[2.954335,36.813385],[2.954276,36.81349],[2.9540508,36.813675],[2.9539433,36.81357],[2.954195,36.8134],[2.9541578,36.813263],[2.954018,36.813232],[2.953793,36.813114],[2.9536428,36.81294],[2.9534762,36.812866],[2.9533155,36.81292],[2.953305,36.812992],[2.953364,36.813057],[2.9532673,36.813152],[2.9531977,36.81337],[2.9530797,36.813404],[2.9529347,36.81347],[2.952865,36.81359],[2.9528437,36.81351],[2.9526503,36.813503],[2.952613,36.81357],[2.9525697,36.81366],[2.9521942,36.8138],[2.952216,36.81373],[2.9525054,36.813545],[2.9525752,36.813427],[2.9525056,36.813408],[2.9524465,36.81342],[2.9523394,36.813396],[2.9523125,36.8133],[2.952436,36.813225],[2.9525054,36.81316],[2.9523606,36.813026],[2.952232,36.813107],[2.9521296,36.81307],[2.9521623,36.812786],[2.952436,36.81257],[2.9525428,36.81256],[2.9525697,36.812405],[2.9525,36.812332],[2.9525428,36.812134],[2.9524732,36.812042],[2.952232,36.81187],[2.9520442,36.811813],[2.9519582,36.811855],[2.951599,36.811794],[2.9514594,36.811794],[2.951277,36.811855],[2.9512503,36.811768],[2.951084,36.811764],[2.9510894,36.8117],[2.9512393,36.811684],[2.9512022,36.811615],[2.9512393,36.811535],[2.9511485,36.811405],[2.950987,36.81142],[2.9509873,36.81131],[2.9508476,36.81077],[2.9506495,36.810574],[2.9506063,36.81061],[2.9503062,36.810467],[2.9499252,36.81017],[2.949507,36.810112],[2.949368,36.810116],[2.9491372,36.81006],[2.9489808,36.810036],[2.9487672,36.810047],[2.9486222,36.8101],[2.9484556,36.810314],[2.9484024,36.81042],[2.9482515,36.8105],[2.9480908,36.81036],[2.9479406,36.81037],[2.947849,36.810303],[2.9475164,36.8103],[2.9473932,36.810246],[2.947345,36.810158],[2.9474413,36.81008],[2.9474201,36.810013],[2.9471998,36.809853],[2.9470658,36.809784],[2.9468834,36.80979],[2.9466689,36.80977],[2.9465618,36.809658],[2.9466367,36.80957],[2.9465778,36.80951],[2.9465778,36.8094],[2.9465244,36.809338],[2.9464865,36.809105],[2.9465256,36.808903],[2.9461637,36.808712],[2.9457517,36.808495],[2.9452648,36.80828],[2.9450154,36.808216],[2.9447575,36.808228],[2.9447,36.808224],[2.9436123,36.80876],[2.9429622,36.80848],[2.9422164,36.808506],[2.9416478,36.808235],[2.9409828,36.807606],[2.939829,36.80783],[2.9390202,36.807438],[2.9378285,36.807117],[2.937458,36.80716],[2.9371147,36.80738],[2.9356127,36.80726],[2.9354408,36.806976],[2.9357252,36.806805],[2.935248,36.806248],[2.93494,36.806202],[2.934394,36.806614],[2.9335728,36.80643],[2.9324667,36.80629],[2.9322164,36.80571],[2.9305048,36.8056],[2.9299297,36.80587],[2.929053,36.805523],[2.9271412,36.805305],[2.9265203,36.80493],[2.9259622,36.80502],[2.9245074,36.804794],[2.9236484,36.804855],[2.9230719,36.805058],[2.92271,36.804737],[2.9222078,36.80471],[2.9214826,36.804985],[2.9207895,36.804855],[2.9207342,36.804726],[2.9205892,36.804676],[2.9200687,36.80479],[2.9194787,36.804703],[2.918599,36.80441],[2.9178371,36.804443],[2.9175684,36.804382],[2.9173026,36.804607],[2.9173782,36.8049],[2.9171596,36.80499],[2.9167805,36.805],[2.916464,36.804966],[2.9157772,36.80499],[2.915596,36.804928],[2.915139,36.804993],[2.914597,36.804844],[2.9141037,36.804913],[2.9135888,36.804913],[2.913637,36.804836],[2.9135027,36.80478],[2.913288,36.80493],[2.9127302,36.804893],[2.912548,36.8048],[2.912049,36.8049],[2.91155,36.80491],[2.9114645,36.804977],[2.9113195,36.80498],[2.911223,36.804867],[2.9109204,36.804802],[2.90977,36.805264],[2.9095492,36.80543],[2.9090986,36.80568],[2.9089484,36.805668],[2.908723,36.805614],[2.908428,36.805775],[2.908214,36.805786],[2.907206,36.80554],[2.9067595,36.80557],[2.906556,36.80565],[2.9064379,36.805767],[2.905381,36.805904],[2.9048285,36.8059],[2.9043062,36.805958],[2.9041927,36.806446],[2.904099,36.806488],[2.9039648,36.806477],[2.903836,36.80663],[2.9035358,36.80666],[2.9034605,36.80647],[2.9034982,36.80606],[2.9032621,36.805748],[2.9029188,36.80566],[2.9026558,36.80568],[2.902561,36.8059],[2.9023771,36.805923],[2.9019103,36.80559],[2.90154,36.805458],[2.901068,36.805546],[2.9008827,36.805416],[2.900655,36.805187],[2.90042,36.805088],[2.900301,36.805172],[2.9001937,36.805206],[2.9001024,36.805126],[2.9000812,36.80501],[2.8999255,36.804848],[2.899389,36.804813],[2.899228,36.804665],[2.8989544,36.804592],[2.8985627,36.80459],[2.898466,36.804802],[2.8976958,36.804646],[2.8972268,36.804077],[2.8964827,36.80435],[2.894873,36.804928],[2.894594,36.80498],[2.8943565,36.80479],[2.8943336,36.804466],[2.8942423,36.804314],[2.8942814,36.803978],[2.894164,36.803787],[2.894073,36.80357],[2.894073,36.80336],[2.894151,36.8031],[2.8943202,36.80289],[2.8948808,36.802525],[2.8956883,36.802048],[2.8958707,36.80208],[2.8958318,36.802235],[2.8957143,36.802235],[2.8950498,36.80263],[2.8952203,36.802925],[2.8954277,36.80312],[2.8958445,36.80285],[2.8961868,36.80259],[2.8972158,36.802124],[2.8974252,36.801704],[2.8971949,36.799206],[2.8972433,36.799145],[2.8973613,36.799084],[2.897506,36.79908],[2.8975813,36.799156],[2.897608,36.79926],[2.8975382,36.79941],[2.8974364,36.79943],[2.897525,36.800625],[2.897609,36.80157],[2.8976202,36.80175],[2.897645,36.80193],[2.8973446,36.80257],[2.8980956,36.80281],[2.8982806,36.802692],[2.898448,36.80251],[2.8986347,36.802303],[2.8984578,36.80219],[2.899147,36.801544],[2.8991842,36.801205],[2.8992872,36.80027],[2.898901,36.800236],[2.898909,36.800125],[2.8989165,36.800034],[2.8986483,36.8],[2.8986535,36.799904],[2.898278,36.799892],[2.8982089,36.799755],[2.8995123,36.79982],[2.899995,36.799595],[2.9003274,36.799267],[2.900494,36.798935],[2.9005387,36.798634],[2.9004853,36.798233],[2.9002607,36.79785],[2.8991373,36.797813],[2.8991296,36.79762],[2.9001641,36.797596],[2.9001973,36.797287],[2.9002619,36.797234],[2.9004066,36.797188],[2.9004333,36.797123],[2.9003263,36.7971],[2.900294,36.796932],[2.9001672,36.796906],[2.9001384,36.796803],[2.900085,36.796555],[2.9000525,36.796413],[2.8999455,36.796288],[2.8997865,36.796227],[2.8996878,36.7961],[2.8996933,36.796013],[2.8996449,36.795918],[2.8995268,36.795887],[2.8994517,36.795902],[2.8993735,36.796024],[2.8988187,36.795837],[2.8987672,36.7958],[2.8987973,36.795708],[2.8989582,36.795685],[2.899044,36.795612],[2.8992157,36.79557],[2.8993177,36.795464],[2.8993337,36.79536],[2.8992853,36.795258],[2.8992157,36.79519],[2.898969,36.795128],[2.8989444,36.795074],[2.8987546,36.795067],[2.8989046,36.79496],[2.899012,36.79486],[2.8990602,36.794773],[2.8990655,36.794685],[2.8990355,36.7946],[2.8989582,36.794518],[2.8988457,36.794468],[2.8987918,36.79439],[2.8986492,36.794334],[2.8984647,36.7942],[2.8983574,36.79405],[2.8984432,36.794006],[2.8984592,36.793915],[2.8985558,36.793854],[2.898472,36.79383],[2.8985934,36.793682],[2.8987277,36.79358],[2.8987114,36.793495],[2.8988025,36.793472],[2.898851,36.793396],[2.898851,36.793243],[2.898939,36.793247],[2.899044,36.793056],[2.8992534,36.792706],[2.8993766,36.792538],[2.8995,36.79244],[2.8995323,36.79225],[2.8995106,36.791958],[2.899425,36.791805],[2.8992877,36.79175],[2.899116,36.79184],[2.8987868,36.791782],[2.8987918,36.791664],[2.8990817,36.791485],[2.8993392,36.79141],[2.8993926,36.79116],[2.8993413,36.791058],[2.8994033,36.790974],[2.899425,36.79086],[2.899368,36.790726],[2.8992424,36.790718],[2.8992908,36.790646],[2.8992105,36.790543],[2.8991213,36.790516],[2.898923,36.790512],[2.8989284,36.790607],[2.8987653,36.7906],[2.8986366,36.79054],[2.8985023,36.790585],[2.898427,36.790504],[2.8985238,36.79043],[2.8985023,36.790382],[2.8982682,36.7904],[2.8981771,36.79032],[2.8981106,36.78999],[2.8980088,36.789574],[2.8980248,36.7894],[2.898132,36.78932],[2.8981535,36.789234],[2.8980892,36.789124],[2.8979068,36.78901],[2.8975441,36.788822],[2.8972633,36.788673],[2.8970273,36.788464],[2.8968074,36.788086],[2.8969147,36.787884],[2.8968825,36.78767],[2.8970559,36.787804],[2.8970542,36.787575],[2.8970165,36.787426],[2.8969147,36.78735],[2.8967557,36.78729],[2.896346,36.787067],[2.8960187,36.786877],[2.8957312,36.786785],[2.8955648,36.786697],[2.8952732,36.78642],[2.8951838,36.78642],[2.8952963,36.786594],[2.8952537,36.786663],[2.895377,36.78683],[2.8950856,36.786816],[2.8942966,36.785572],[2.8945274,36.785583],[2.8946848,36.785816],[2.8947208,36.785553],[2.895007,36.785557],[2.8950963,36.785404],[2.8951283,36.78513],[2.8950372,36.784912],[2.8948011,36.7845],[2.8946617,36.784245],[2.8945973,36.784042],[2.8944738,36.783596],[2.8943934,36.783222],[2.8942933,36.782955],[2.8941307,36.782635],[2.893857,36.782078],[2.8937247,36.782116],[2.8934674,36.781788],[2.8932476,36.781384]]]]}}
