{"type":"Feature","id":"relation/192776","properties":{"type":"relation","id":192776,"tags":{"ISO3166-1":"GW","ISO3166-1:alpha2":"GW","ISO3166-1:alpha3":"GNB","ISO3166-1:numeric":"624","admin_level":"2","boundary":"administrative","flag":"http://upload.wikimedia.org/wikipedia/commons/0/01/Flag_of_Guinea-Bissau.svg","is_in:continent":"Africa","name":"Guiné-Bissau","name:ace":"Guinea Bissau","name:af":"Guinee-Bissau","name:als":"Guinea-Bissau","name:am":"ጊኔ-ቢሳው","name:an":"Guinea-Bissau","name:ar":"غينيا بيساو","name:arz":"جينيا بيساو","name:ast":"Guinea-Bisáu","name:az":"Qvineya-Bisau","name:ba":"Гвинея-Бисау","name:bat-smg":"Bisau Gvinėjė","name:bcl":"Guineya-Bisau","name:be":"Гвінея-Бісау","name:be-tarask":"Гвінэя-Бісаў","name:bg":"Гвинея-Бисау","name:bjn":"Guinea-Bissau","name:bm":"Gine Bisau","name:bn":"গিনি-বিসাউ","name:bo":"གི་ནེ་-བི་སའོ།","name:bpy":"গিনি-বিসাও","name:br":"Ginea-Bissau","name:bs":"Gvineja-Bisau","name:bxr":"Гвиней-Бисау","name:ca":"Guinea Bissau","name:ce":"Гвине-Бисау","name:ceb":"Guinea-Bissau","name:ckb":"گینێ بیساو","name:co":"Guinea-Bissau","name:crh":"Gvineya Bissau","name:cs":"Guinea-Bissau","name:cv":"Гвиней-Бисау","name:cy":"Guiné-Bissau","name:da":"Guinea-Bissau","name:de":"Guinea-Bissau","name:diq":"Gineya-Bisau","name:dv":"ގީނީ-ބިސާއޫ","name:ee":"Guinea-Bissau","name:el":"Γουινέα-Μπισσάου","name:en":"Guinea-Bissau","name:eo":"Gvineo Bisaŭa","name:es":"Guinea-Bisáu","name:et":"Guinea-Bissau","name:eu":"Ginea-Bissau","name:ext":"Guinea-Bissau","name:fa":"گینه بیسائو","name:ff":"Gine-Bisaawo","name:fi":"Guinea-Bissau","name:fiu-vro":"Ginea-Bissau","name:fo":"Guinea-Bissau","name:fr":"Guinée-Bissau","name:frp":"Guinê-Bissaou","name:fy":"Guinee-Bissau","name:ga":"Guine-Bissau","name:gag":"Gvineya Bissau","name:gd":"Gini-Bissau","name:gl":"Guinea-Bisau","name:gv":"Yn Ghuinea-Bissau","name:he":"גינאה ביסאו","name:hi":"गिनी-बिसाऊ","name:hif":"Guinea-Bissau","name:hr":"Gvineja Bisau","name:hsb":"Gineja-Bissau","name:ht":"Gine-Bisao","name:hu":"Bissau-Guinea","name:hy":"Գվինեա Բիսաու","name:ia":"Guinea-Bissau","name:id":"Guinea-Bissau","name:ie":"Guinea-Bissau","name:ilo":"Guinea-Bissau","name:io":"Guinea Bisau","name:is":"Gínea-Bissá","name:it":"Guinea-Bissau","name:ja":"ギニアビサウ","name:jv":"Guinea-Bissau","name:ka":"გვინეა-ბისაუ","name:kg":"Ginea-Bisau","name:kk":"Гвинея-Бисау","name:ko":"기니비사우","name:ku":"Gîne-Bissau","name:kw":"Gyni-Bissaw","name:ky":"Гвинея-Бисау","name:la":"Guinea Bissaviensis","name:lb":"Guinea-Bissau","name:li":"Guinee-Bissau","name:lij":"Guinea Bissau","name:lmo":"Guinea-Bissau","name:ln":"Gine-Bisau","name:lt":"Bisau Gvinėja","name:lv":"Gvineja-Bisava","name:mi":"Kini Pihō","name:mk":"Гвинеја-Бисау","name:ml":"ഗിനി-ബിസൗ","name:mr":"गिनी-बिसाउ","name:mrj":"Гвиней-Бисау","name:ms":"Guinea-Bissau","name:mwl":"Guiné-Bissau","name:my":"ဂင်းနီဗစ်ဆောနိုင်ငံ","name:na":"Gini-Bitau","name:nah":"Guinea Bissau","name:nds":"Guinea-Bissau","name:ne":"गिनी-बिसाउ","name:nl":"Guinee-Bissau","name:nn":"Guinea-Bissau","name:no":"Guinea-Bissau","name:nov":"Gini-Bisau","name:nso":"Guinea-Bissau","name:nv":"Gíní Bisó","name:oc":"Guinèa Bissau","name:os":"Гвиней-Бисау","name:pa":"ਗਿਨੀ-ਬਿਸਾਊ","name:pam":"Guinea-Bissau","name:pap":"Guinea-Bissau","name:pih":"Gini-Bisau","name:pl":"Gwinea Bissau","name:pms":"Guinea-Bissau","name:pnb":"گنی بساو","name:pt":"Guiné-Bissau","name:qu":"Khiniya-Wisaw","name:ro":"Guineea-Bissau","name:ru":"Гвинея-Бисау","name:rw":"Gineya-Biso","name:sah":"Гуинея-Биссау","name:sc":"Guinea-Bissau","name:scn":"Guinia Bissau","name:sco":"Guinea-Bissau","name:se":"Guinea-Bissau","name:sg":"Ginëe-Bisau","name:sh":"Gvineja Bisau","name:simple":"Guinea-Bissau","name:sk":"Guinea-Bissau","name:sl":"Gvineja Bissau","name:sn":"Guinea-Bissau","name:so":"Guinea-Bissau","name:sq":"Guinea Bisau","name:sr":"Гвинеја Бисао","name:ss":"IGiniya-Bhasawu","name:st":"Guinea-Bissau","name:stq":"Guinea-Bissau","name:su":"Guinéa-Bissau","name:sv":"Guinea-Bissau","name:sw":"Guinea Bisau","name:ta":"கினி-பிசாவு","name:tet":"Giné-Bisau","name:tg":"Гвинея Бисау","name:th":"ประเทศกินี-บิสเซา","name:tk":"Gwineýa-Bisau","name:tl":"Ginea-Bissau","name:tr":"Gine-Bissau","name:ts":"Guinea-Bissau","name:tt":"Гвинея-Бисау","name:tzl":"Guineia-Bissau","name:ug":"گۋىنېيە بىسسائۇ","name:uk":"Гвінея-Бісау","name:ur":"گنی بساؤ","name:uz":"Gvineya-Bissau","name:vec":"Guinea-Bissau","name:vi":"Guiné-Bissau","name:vo":"Gineyän-Bisauän","name:war":"Guinea-Bissau","name:wo":"Gine Bisaawóo","name:xal":"Биса Гвинмудин Орн","name:yi":"גינע-ביסאו","name:yo":"Guinea-Bissau","name:zh":"幾內亞比索","name:zh-min-nan":"Guiné-Bissau","name:zh-yue":"畿內亞比紹","name:zu":"IGini Bisawu","timezone":"Africa/Bissau","type":"boundary","wikidata":"Q1007","wikipedia":"en:Guinea-Bissau"},"labels":[{"id":"node/254525765","role":"admin_centre","coordinates":[-15.583055,11.861323]},{"id":"node/424297609","role":"label","coordinates":[-14.900021,12.100034]}]},"geometry":{"type":"Polygon","coordinates":[[[-16.717346,12.339489],[-16.894524,12.237283],[-16.785719,11.593764],[-16.677252,11.217329],[-16.672594,11.203214],[-16.66688,11.189478],[-16.660141,11.176196],[-16.652418,11.163441],[-16.64375,11.151283],[-16.634186,11.139791],[-16.623781,11.129026],[-16.61259,11.119049],[-16.315536,10.873495],[-16.301855,10.863112],[-16.287329,10.85391],[-16.272057,10.845952],[-16.256151,10.839296],[-15.798057,10.67013],[-15.782827,10.665156],[-15.767246,10.66138],[-15.751411,10.658822],[-15.73542,10.6575],[-15.593463,10.651422],[-15.570833,10.666667],[-15.341666,10.666667],[-15.24709,10.751332],[-15.108494,10.8777685],[-15.101679,10.8844185],[-15.09725,10.88559],[-15.092984,10.885244],[-15.087997,10.885741],[-15.082368,10.887739],[-15.077432,10.889737],[-15.074026,10.891764],[-15.06851,10.896253],[-15.0620165,10.901362],[-15.050433,10.910477],[-15.045644,10.914045],[-15.043633,10.916185],[-15.041158,10.921423],[-15.03974,10.92375],[-15.03828,10.924643],[-15.036099,10.925266],[-15.034238,10.925724],[-15.031105,10.925931],[-15.021478,10.93152],[-15.009796,10.944152],[-15.0072975,10.94976],[-15.005154,10.952758],[-15.002235,10.955648],[-14.990331,10.960334],[-14.984348,10.963629],[-14.976143,10.966747],[-14.957672,10.977043],[-14.955025,10.994952],[-14.9541,11.011749],[-14.949552,11.016439],[-14.941382,11.02045],[-14.935909,11.026351],[-14.936295,11.033159],[-14.931825,11.043525],[-14.911861,11.07],[-14.907067,11.078764],[-14.893363,11.10381],[-14.882648,11.121659],[-14.864511,11.153816],[-14.837452,11.202519],[-14.832337,11.222821],[-14.815484,11.259391],[-14.796743,11.30642],[-14.787796,11.328403],[-14.779505,11.348009],[-14.776924,11.354572],[-14.772313,11.364614],[-14.752555,11.398932],[-14.74385,11.409878],[-14.726662,11.432953],[-14.703411,11.467812],[-14.70163,11.471859],[-14.690181,11.48299],[-14.676721,11.49292],[-14.67145,11.497333],[-14.663604,11.504958],[-14.6194,11.507817],[-14.585824,11.505541],[-14.511552,11.49649],[-14.450339,11.536802],[-14.411298,11.556746],[-14.366403,11.580065],[-14.31952,11.602356],[-14.289391,11.644302],[-14.267145,11.677024],[-14.255833,11.665856],[-14.255429,11.665675],[-14.254612,11.665401],[-14.253482,11.664778],[-14.252683,11.664546],[-14.251797,11.664447],[-14.251571,11.664337],[-14.251364,11.664321],[-14.251105,11.664193],[-14.250865,11.664193],[-14.250458,11.664137],[-14.250045,11.664119],[-14.249751,11.664119],[-14.249082,11.664147],[-14.248621,11.664273],[-14.248474,11.664301],[-14.247589,11.664345],[-14.246887,11.664357],[-14.246125,11.6645155],[-14.245573,11.664414],[-14.245262,11.664426],[-14.244701,11.6645],[-14.244213,11.664737],[-14.243984,11.664804],[-14.243121,11.665424],[-14.242986,11.66558],[-14.2427225,11.66571],[-14.242308,11.666223],[-14.241677,11.666772],[-14.241483,11.666993],[-14.241204,11.667218],[-14.241005,11.6672735],[-14.240889,11.667547],[-14.240617,11.667749],[-14.240422,11.667751],[-14.240219,11.6678915],[-14.240091,11.668048],[-14.239894,11.668419],[-14.239653,11.668642],[-14.239318,11.668793],[-14.239025,11.669055],[-14.238757,11.6692],[-14.238547,11.669187],[-14.238172,11.669384],[-14.237323,11.669912],[-14.237116,11.670097],[-14.23703,11.670176],[-14.236828,11.670246],[-14.236669,11.670397],[-14.236251,11.670599],[-14.236181,11.670651],[-14.235909,11.670984],[-14.235542,11.671401],[-14.23514,11.671803],[-14.23466,11.671884],[-14.2343645,11.671812],[-14.233987,11.671612],[-14.233895,11.671405],[-14.233742,11.671326],[-14.233307,11.67125],[-14.232387,11.671297],[-14.232189,11.671297],[-14.2318535,11.671159],[-14.231479,11.671055],[-14.2307825,11.670977],[-14.230454,11.670881],[-14.229737,11.6710415],[-14.229548,11.6710415],[-14.229142,11.670762],[-14.228941,11.670718],[-14.228758,11.670782],[-14.228443,11.671075],[-14.228234,11.671059],[-14.228044,11.670895],[-14.227863,11.670452],[-14.22771,11.670474],[-14.227657,11.670543],[-14.227641,11.670634],[-14.227703,11.670749],[-14.227703,11.670852],[-14.22759,11.671109],[-14.22748,11.671213],[-14.227384,11.671242],[-14.227115,11.671224],[-14.226742,11.670789],[-14.226485,11.670755],[-14.22621,11.670857],[-14.225918,11.670847],[-14.225534,11.670669],[-14.225243,11.670391],[-14.224661,11.670016],[-14.224166,11.66987],[-14.223949,11.669952],[-14.223833,11.669941],[-14.223694,11.669742],[-14.22339,11.669631],[-14.223296,11.669111],[-14.223116,11.669024],[-14.222911,11.669089],[-14.22266,11.669281],[-14.222538,11.669251],[-14.222532,11.668983],[-14.222486,11.668901],[-14.222299,11.668926],[-14.221926,11.669124],[-14.221808,11.669059],[-14.221798,11.6687155],[-14.221733,11.668617],[-14.221603,11.668563],[-14.221227,11.668735],[-14.2209835,11.668777],[-14.220767,11.668797],[-14.220487,11.668689],[-14.220321,11.668673],[-14.220195,11.668884],[-14.220102,11.668934],[-14.219856,11.668757],[-14.219588,11.668762],[-14.219525,11.668918],[-14.219588,11.669118],[-14.2195835,11.669341],[-14.219381,11.669559],[-14.219153,11.669565],[-14.21865,11.669177],[-14.218427,11.669213],[-14.218252,11.669342],[-14.218122,11.669402],[-14.217774,11.669437],[-14.217678,11.66955],[-14.217515,11.669637],[-14.217331,11.66962],[-14.216804,11.669835],[-14.216543,11.669845],[-14.21604,11.669567],[-14.215737,11.669299],[-14.215441,11.669207],[-14.215181,11.669307],[-14.215034,11.669307],[-14.214834,11.669194],[-14.214704,11.669186],[-14.214329,11.669525],[-14.213813,11.669696],[-14.213544,11.6698675],[-14.213436,11.669873],[-14.213286,11.669787],[-14.213213,11.669639],[-14.21304,11.669513],[-14.212817,11.669443],[-14.212686,11.669461],[-14.212583,11.669627],[-14.212691,11.670044],[-14.212612,11.67021],[-14.212513,11.670269],[-14.212182,11.670286],[-14.21205,11.67024],[-14.211896,11.670246],[-14.211809,11.670288],[-14.211547,11.670608],[-14.211382,11.670651],[-14.211151,11.670452],[-14.210866,11.670452],[-14.21067,11.670388],[-14.21059,11.670452],[-14.210603,11.670789],[-14.210448,11.670857],[-14.210351,11.670989],[-14.210207,11.671081],[-14.20988,11.671155],[-14.20977,11.671124],[-14.209559,11.671147],[-14.209286,11.671055],[-14.209002,11.671042],[-14.208749,11.671271],[-14.208503,11.671319],[-14.208417,11.671375],[-14.2083645,11.671585],[-14.208225,11.671644],[-14.207799,11.671591],[-14.207728,11.671632],[-14.207601,11.671929],[-14.207531,11.671958],[-14.207379,11.671958],[-14.207151,11.671796],[-14.206876,11.671784],[-14.206742,11.671825],[-14.206632,11.671929],[-14.206375,11.671941],[-14.206178,11.672058],[-14.205669,11.672139],[-14.205578,11.672196],[-14.20544,11.672391],[-14.205125,11.672564],[-14.204873,11.672541],[-14.204776,11.672461],[-14.204416,11.67184],[-14.204369,11.671597],[-14.20441,11.671329],[-14.204374,11.671271],[-14.204275,11.671281],[-14.203843,11.671533],[-14.20371,11.6715555],[-14.203592,11.671463],[-14.20347,11.671275],[-14.203528,11.67109],[-14.203524,11.670915],[-14.2034645,11.670845],[-14.202981,11.670716],[-14.202882,11.670646],[-14.202787,11.670483],[-14.202735,11.670075],[-14.202678,11.670045],[-14.202462,11.670075],[-14.202269,11.670005],[-14.202042,11.669567],[-14.201826,11.669701],[-14.201657,11.66969],[-14.201528,11.66934],[-14.201062,11.669013],[-14.200606,11.668978],[-14.20039,11.668879],[-14.20039,11.668792],[-14.2006035,11.668556],[-14.200615,11.668409],[-14.2005005,11.668277],[-14.199842,11.668237],[-14.19937,11.66836],[-14.199143,11.66833],[-14.19891,11.6680565],[-14.19849,11.667765],[-14.198187,11.667711],[-14.197701,11.667716],[-14.197634,11.667665],[-14.197521,11.667443],[-14.197282,11.667339],[-14.197259,11.667058],[-14.1971655,11.666995],[-14.196921,11.666978],[-14.196582,11.666773],[-14.196301,11.666715],[-14.196161,11.666627],[-14.195596,11.66659],[-14.1954155,11.666674],[-14.19527,11.666586],[-14.195147,11.666586],[-14.194407,11.666726],[-14.194038,11.666692],[-14.193793,11.666504],[-14.193484,11.666441],[-14.193216,11.6663065],[-14.193089,11.666108],[-14.192978,11.666079],[-14.192785,11.66584],[-14.192674,11.665788],[-14.192627,11.665589],[-14.192539,11.6655245],[-14.192067,11.665397],[-14.1915655,11.665093],[-14.191087,11.664965],[-14.190637,11.664753],[-14.189542,11.664493],[-14.189212,11.664329],[-14.18896,11.664164],[-14.18845,11.663642],[-14.188191,11.663336],[-14.188082,11.66308],[-14.187926,11.6628685],[-14.187416,11.662616],[-14.186821,11.66201],[-14.186529,11.661363],[-14.186346,11.660579],[-14.186306,11.660173],[-14.186118,11.659818],[-14.185711,11.659599],[-14.185196,11.659537],[-14.18455,11.659314],[-14.184389,11.659114],[-14.184065,11.658519],[-14.184042,11.658129],[-14.18393,11.657902],[-14.1837435,11.657755],[-14.183225,11.657639],[-14.182887,11.65761],[-14.182187,11.657773],[-14.181819,11.657814],[-14.181522,11.657766],[-14.181084,11.65747],[-14.180828,11.657429],[-14.180239,11.657172],[-14.179966,11.656957],[-14.179821,11.656702],[-14.179525,11.656558],[-14.179188,11.656525],[-14.178862,11.65656],[-14.135061,11.664702],[-14.132624,11.65856],[-14.132379,11.658354],[-14.1321945,11.658199],[-14.131907,11.658051],[-14.131616,11.657874],[-14.131285,11.657614],[-14.130911,11.657241],[-14.130611,11.656897],[-14.130499,11.656802],[-14.130348,11.656677],[-14.130215,11.656561],[-14.130145,11.65646],[-14.130042,11.656334],[-14.130011,11.656235],[-14.129978,11.656152],[-14.129956,11.656041],[-14.129925,11.655952],[-14.129867,11.655846],[-14.129796,11.655758],[-14.129716,11.655674],[-14.129689,11.655614],[-14.129688,11.655563],[-14.129726,11.6555195],[-14.129759,11.655483],[-14.12979,11.655441],[-14.129802,11.655384],[-14.129769,11.655335],[-14.1296835,11.655306],[-14.129554,11.655248],[-14.129485,11.655205],[-14.12942,11.655143],[-14.129373,11.655106],[-14.129313,11.655099],[-14.129254,11.655074],[-14.129195,11.655022],[-14.129163,11.654939],[-14.129147,11.654828],[-14.129136,11.654744],[-14.129093,11.654665],[-14.1290455,11.654608],[-14.129035,11.654548],[-14.12904,11.6544895],[-14.12905,11.654418],[-14.12904,11.654355],[-14.129007,11.654306],[-14.128976,11.654228],[-14.128964,11.654144],[-14.128985,11.654076],[-14.129035,11.654017],[-14.129055,11.65395],[-14.129034,11.653883],[-14.128985,11.653849],[-14.128895,11.653814],[-14.128837,11.653782],[-14.128782,11.653735],[-14.128691,11.65364],[-14.128428,11.653392],[-14.128331,11.653331],[-14.128245,11.653289],[-14.128192,11.653247],[-14.128053,11.65323],[-14.127935,11.653219],[-14.127832,11.653208],[-14.127693,11.653177],[-14.127624,11.653178],[-14.12756,11.653214],[-14.127506,11.65323],[-14.127452,11.653231],[-14.127403,11.653183],[-14.127371,11.653114],[-14.127328,11.653057],[-14.127286,11.653009],[-14.127146,11.652946],[-14.127092,11.652926],[-14.127039,11.6529045],[-14.126974,11.652904],[-14.126862,11.652909],[-14.126755,11.652946],[-14.126658,11.652968],[-14.126555,11.6529455],[-14.126486,11.652914],[-14.126486,11.652867],[-14.126502,11.652773],[-14.126555,11.652704],[-14.126598,11.652673],[-14.126632,11.652615],[-14.1266365,11.652569],[-14.126675,11.652525],[-14.126721,11.652427],[-14.126728,11.652347],[-14.12669,11.652278],[-14.126625,11.652217],[-14.126561,11.6521845],[-14.126492,11.652159],[-14.1264,11.652126],[-14.126315,11.65211],[-14.126261,11.652079],[-14.126207,11.652041],[-14.12611,11.651964],[-14.126009,11.651917],[-14.125928,11.651874],[-14.125815,11.651826],[-14.125714,11.651748],[-14.125623,11.651644],[-14.125537,11.651538],[-14.1250105,11.65125],[-14.124845,11.65118],[-14.124679,11.6511345],[-14.124464,11.651072],[-14.12433,11.651028],[-14.124217,11.650981],[-14.124082,11.650898],[-14.123969,11.650792],[-14.123874,11.650692],[-14.123798,11.650599],[-14.123745,11.650455],[-14.123702,11.650292],[-14.123659,11.650192],[-14.123579,11.650103],[-14.123477,11.650042],[-14.123294,11.649968],[-14.123181,11.649945],[-14.12279,11.649857],[-14.122672,11.64983],[-14.122506,11.649751],[-14.122329,11.649672],[-14.122206,11.649652],[-14.122093,11.649656],[-14.121954,11.649667],[-14.121808,11.6496935],[-14.121664,11.649698],[-14.121562,11.649694],[-14.12147,11.649664],[-14.121411,11.64962],[-14.121358,11.64953],[-14.121223,11.6494255],[-14.121063,11.649331],[-14.120917,11.649259],[-14.120767,11.6492],[-14.120629,11.649146],[-14.120461,11.649104],[-14.120355,11.64908],[-14.120232,11.649033],[-14.120108,11.648958],[-14.11992,11.648821],[-14.119807,11.64876],[-14.119721,11.648718],[-14.119652,11.648696],[-14.119604,11.648696],[-14.119518,11.6487055],[-14.1194315,11.648723],[-14.119362,11.648712],[-14.119292,11.648669],[-14.119261,11.648596],[-14.119238,11.648507],[-14.119196,11.6484375],[-14.119105,11.648379],[-14.118955,11.64835],[-14.118854,11.648337],[-14.118734,11.648322],[-14.118665,11.648292],[-14.118622,11.648212],[-14.118574,11.648081],[-14.118552,11.647971],[-14.118514,11.647845],[-14.118461,11.647724],[-14.118375,11.647602],[-14.118295,11.647533],[-14.118123,11.647413],[-14.117968,11.647315],[-14.117855,11.647283],[-14.117785,11.647257],[-14.117725,11.647215],[-14.117678,11.647145],[-14.117656,11.647051],[-14.117656,11.646972],[-14.117682,11.646831],[-14.117759,11.646622],[-14.117817,11.646474],[-14.11786,11.646373],[-14.117898,11.646256],[-14.1179085,11.646169],[-14.117909,11.646069],[-14.1178875,11.645968],[-14.117844,11.64587],[-14.117802,11.645774],[-14.117802,11.645711],[-14.117839,11.645642],[-14.117882,11.6456],[-14.117978,11.645534],[-14.118343,11.645269],[-14.118423,11.645181],[-14.118466,11.645112],[-14.118505,11.645033],[-14.118541,11.644923],[-14.118552,11.644844],[-14.118536,11.644735],[-14.118499,11.644639],[-14.118499,11.644518],[-14.1185255,11.644415],[-14.118607,11.644303],[-14.118665,11.644178],[-14.118676,11.64404],[-14.118681,11.643941],[-14.11866,11.643831],[-14.118617,11.643705],[-14.118606,11.643595],[-14.118606,11.643532],[-14.118628,11.643431],[-14.118681,11.643299],[-14.118767,11.643199],[-14.118831,11.643159],[-14.118896,11.643105],[-14.118955,11.643],[-14.118965,11.642783],[-14.118584,11.642716],[-14.118218,11.642538],[-14.117617,11.64208],[-14.117107,11.641996],[-14.116663,11.642031],[-14.116385,11.642191],[-14.116251,11.642269],[-14.115932,11.642399],[-14.115691,11.642624],[-14.115437,11.642851],[-14.114927,11.643269],[-14.114139,11.643738],[-14.113617,11.643797],[-14.113248,11.643777],[-14.1130905,11.643841],[-14.112773,11.6438],[-14.112507,11.643645],[-14.112295,11.643589],[-14.11204,11.643589],[-14.11165,11.643456],[-14.111194,11.643124],[-14.110726,11.642959],[-14.110305,11.642702],[-14.110053,11.642308],[-14.109865,11.642072],[-14.109737,11.641978],[-14.109729,11.641879],[-14.109719,11.641775],[-14.109904,11.641533],[-14.110288,11.641282],[-14.110787,11.641122],[-14.11095,11.64102],[-14.111077,11.640866],[-14.111117,11.640713],[-14.111042,11.640536],[-14.110847,11.640383],[-14.110457,11.640383],[-14.109599,11.640558],[-14.109338,11.640521],[-14.108972,11.6403885],[-14.108693,11.640188],[-14.108238,11.639733],[-14.107961,11.639032],[-14.107449,11.638087],[-14.107438,11.637555],[-14.107494,11.637231],[-14.107773,11.636663],[-14.107837,11.636448],[-14.107768,11.636074],[-14.107683,11.635999],[-14.107071,11.635721],[-14.106194,11.635453],[-14.105982,11.635321],[-14.105664,11.634582],[-14.10563,11.634369],[-14.105461,11.634082],[-14.105325,11.634005],[-14.104978,11.633987],[-14.104641,11.634032],[-14.104494,11.633962],[-14.104333,11.633764],[-14.104246,11.633368],[-14.104011,11.632686],[-14.103787,11.632401],[-14.10323,11.632166],[-14.10282,11.632153],[-14.102337,11.632239],[-14.101496,11.632748],[-14.101211,11.632736],[-14.100863,11.632575],[-14.100579,11.63229],[-14.100479,11.631943],[-14.100256,11.631558],[-14.099997,11.631286],[-14.099699,11.631138],[-14.09939,11.63105],[-14.099104,11.631138],[-14.098956,11.631249],[-14.098708,11.631348],[-14.098386,11.631348],[-14.09768,11.631113],[-14.09737,11.631087],[-14.097056,11.631189],[-14.096871,11.631189],[-14.096535,11.631041],[-14.096289,11.630806],[-14.096016,11.630298],[-14.095818,11.630148],[-14.09557,11.630112],[-14.0950985,11.630174],[-14.094999,11.630236],[-14.094628,11.630161],[-14.094138,11.630171],[-14.093908,11.63007],[-14.093687,11.629824],[-14.093459,11.629756],[-14.092737,11.629704],[-14.092378,11.629612],[-14.091958,11.629569],[-14.091678,11.629459],[-14.09139,11.629196],[-14.091279,11.629162],[-14.090799,11.62912],[-14.090602,11.629208],[-14.089796,11.629814],[-14.089611,11.629864],[-14.089264,11.629827],[-14.088991,11.629591],[-14.088694,11.629109],[-14.088408,11.629008],[-14.087852,11.629059],[-14.087578,11.629132],[-14.087331,11.629132],[-14.087146,11.629008],[-14.086909,11.628525],[-14.086726,11.628285],[-14.086445,11.628142],[-14.0857525,11.628293],[-14.085076,11.628266],[-14.084676,11.627951],[-14.084356,11.627862],[-14.084185,11.62756],[-14.084123,11.627051],[-14.084147,11.626569],[-14.084098,11.626383],[-14.083999,11.626233],[-14.083738,11.626122],[-14.083106,11.626184],[-14.0825615,11.62611],[-14.082389,11.626122],[-14.08224,11.626246],[-14.082215,11.626499],[-14.081724,11.627029],[-14.081575,11.627253],[-14.081211,11.627542],[-14.081126,11.627924],[-14.081155,11.6284485],[-14.0810375,11.628848],[-14.08054,11.629259],[-14.080384,11.629607],[-14.080085,11.63084],[-14.080152,11.631296],[-14.080093,11.631433],[-14.079879,11.631633],[-14.079742,11.632081],[-14.07962,11.63232],[-14.079446,11.632478],[-14.079381,11.63262],[-14.079341,11.632915],[-14.079124,11.633132],[-14.078773,11.633271],[-14.078666,11.633376],[-14.0784235,11.633828],[-14.07799,11.6340885],[-14.077544,11.634126],[-14.076111,11.633917],[-14.0748625,11.634409],[-14.073963,11.635006],[-14.073097,11.635241],[-14.072837,11.635228],[-14.07265,11.635291],[-14.072229,11.635637],[-14.071746,11.635909],[-14.071461,11.635909],[-14.070705,11.635716],[-14.070294,11.635876],[-14.069777,11.636256],[-14.069591,11.636306],[-14.069393,11.63643],[-14.069243,11.636689],[-14.069033,11.636714],[-14.068724,11.636926],[-14.0685625,11.637112],[-14.068437,11.637665],[-14.068323,11.637869],[-14.0681305,11.638022],[-14.067968,11.638018],[-14.06747,11.638455],[-14.067303,11.638678],[-14.067203,11.6391325],[-14.066969,11.639611],[-14.066181,11.640143],[-14.065991,11.640143],[-14.06573,11.640234],[-14.065102,11.640767],[-14.064968,11.640988],[-14.064533,11.641416],[-14.064309,11.641514],[-14.064026,11.641824],[-14.063893,11.641862],[-14.06355,11.641813],[-14.063215,11.641837],[-14.063059,11.641943],[-14.063092,11.642182],[-14.062988,11.642351],[-14.06269,11.642488],[-14.062442,11.6426735],[-14.062393,11.642872],[-14.062101,11.643158],[-14.062101,11.643468],[-14.061868,11.643657],[-14.061668,11.643901],[-14.061397,11.644375],[-14.061154,11.644569],[-14.061105,11.644768],[-14.060175,11.646105],[-14.059351,11.646719],[-14.059027,11.646824],[-14.058431,11.646919],[-14.05813,11.646919],[-14.057366,11.646648],[-14.057233,11.646662],[-14.056913,11.646829],[-14.056829,11.647109],[-14.056992,11.647531],[-14.05693,11.647976],[-14.05652,11.6480875],[-14.056259,11.648274],[-14.056049,11.648322],[-14.05574,11.648285],[-14.055394,11.648063],[-14.055204,11.647687],[-14.054805,11.647362],[-14.054455,11.647001],[-14.054199,11.646891],[-14.052771,11.646888],[-14.052371,11.646719],[-14.052195,11.646695],[-14.05199,11.646748],[-14.051745,11.64667],[-14.051226,11.646724],[-14.05101,11.646613],[-14.0507345,11.646581],[-14.050349,11.646393],[-14.049561,11.6463375],[-14.048591,11.645985],[-14.048404,11.645998],[-14.048195,11.646081],[-14.047801,11.646489],[-14.047565,11.646518],[-14.047199,11.646206],[-14.047094,11.645832],[-14.046991,11.645707],[-14.046655,11.645588],[-14.046292,11.645579],[-14.04611,11.645493],[-14.045819,11.645493],[-14.045315,11.645382],[-14.0449,11.645235],[-14.044785,11.645226],[-14.044675,11.645321],[-14.044399,11.64541],[-14.044095,11.645998],[-14.043659,11.6463585],[-14.043631,11.646545],[-14.043735,11.64676],[-14.04377,11.647085],[-14.043845,11.647216],[-14.043853,11.647356],[-14.043811,11.647618],[-14.043692,11.64782],[-14.0436535,11.648017],[-14.043739,11.648275],[-14.043735,11.648351],[-14.043616,11.648485],[-14.043649,11.648699],[-14.043621,11.648971],[-14.043372,11.6495285],[-14.043497,11.649806],[-14.043224,11.650031],[-14.0430565,11.650239],[-14.042928,11.650644],[-14.042494,11.65119],[-14.042447,11.651328],[-14.042484,11.651495],[-14.042596,11.6516695],[-14.042586,11.652463],[-14.042384,11.65276],[-14.0423,11.653092],[-14.04219,11.653203],[-14.042079,11.653212],[-14.041479,11.653517],[-14.040988,11.653959],[-14.040813,11.654264],[-14.04062,11.65443],[-14.040481,11.654625],[-14.04025,11.654524],[-14.039437,11.65456],[-14.039317,11.654579],[-14.039252,11.654708],[-14.039104,11.654801],[-14.038679,11.654634],[-14.038421,11.654607],[-14.038097,11.654421],[-14.037442,11.654357],[-14.037275,11.654449],[-14.03627,11.654264],[-14.035799,11.654034],[-14.0353365,11.6539135],[-14.0351515,11.65371],[-14.03494,11.653627],[-14.034774,11.653619],[-14.034132,11.653749],[-14.034018,11.653627],[-14.033953,11.653463],[-14.033832,11.6533985],[-14.033265,11.653335],[-14.033166,11.653378],[-14.032789,11.653378],[-14.032464,11.6532345],[-14.032143,11.653206],[-14.031932,11.653131],[-14.0318365,11.653028],[-14.031392,11.652834],[-14.030479,11.652594],[-14.030389,11.6526],[-14.02996,11.652847],[-14.029663,11.652887],[-14.029186,11.652777],[-14.029033,11.652894],[-14.028751,11.653009],[-14.028197,11.652619],[-14.02808,11.652681],[-14.027407,11.652509],[-14.026725,11.6525],[-14.026416,11.652691],[-14.026189,11.652927],[-14.025735,11.652883],[-14.025571,11.653037],[-14.024879,11.653009],[-14.024317,11.653127],[-14.02329,11.6531725],[-14.022421,11.653349],[-14.021469,11.6531],[-14.0199175,11.651736],[-14.019563,11.651718],[-14.018637,11.651264],[-14.017928,11.651881],[-14.017436,11.651836],[-14.016565,11.651046],[-14.016027,11.650972],[-14.01521,11.6511545],[-14.014198,11.651143],[-14.012984,11.650637],[-14.012527,11.650608],[-14.011601,11.650319],[-14.010674,11.649812],[-14.009512,11.649074],[-14.00827,11.647989],[-14.008056,11.647634],[-13.988392,11.641664],[-13.939337,11.654561],[-13.936301,11.654851],[-13.936243,11.655061],[-13.935745,11.655407],[-13.935665,11.655512],[-13.935444,11.656102],[-13.934993,11.656404],[-13.934749,11.656462],[-13.934575,11.65659],[-13.934239,11.657018],[-13.9340515,11.657873],[-13.933861,11.658147],[-13.933504,11.659024],[-13.933229,11.659955],[-13.932806,11.660666],[-13.932765,11.660941],[-13.932792,11.661433],[-13.932902,11.661708],[-13.932963,11.661762],[-13.933085,11.661777],[-13.9331665,11.661926],[-13.933161,11.662068],[-13.933025,11.6623955],[-13.932949,11.662741],[-13.933106,11.663064],[-13.933175,11.663529],[-13.93312,11.663763],[-13.932984,11.663968],[-13.932531,11.664323],[-13.932353,11.6645155],[-13.931936,11.665942],[-13.931603,11.666411],[-13.931542,11.666732],[-13.931312,11.667119],[-13.931271,11.667275],[-13.931243,11.667452],[-13.931285,11.667614],[-13.931618,11.668124],[-13.931685,11.669158],[-13.931659,11.669682],[-13.931501,11.670252],[-13.9311075,11.670926],[-13.93104,11.671306],[-13.930999,11.6721],[-13.9310465,11.67238],[-13.930999,11.672625],[-13.93108,11.673072],[-13.931073,11.673264],[-13.930959,11.673352],[-13.930964,11.673481],[-13.930795,11.673685],[-13.93068,11.674025],[-13.930421,11.674256],[-13.930469,11.674514],[-13.93036,11.674996],[-13.930352,11.675696],[-13.930238,11.675962],[-13.930123,11.676159],[-13.929795,11.676424],[-13.929152,11.676628],[-13.928933,11.676913],[-13.928614,11.677688],[-13.9281025,11.677932],[-13.92816,11.678266],[-13.92793,11.678581],[-13.926954,11.678684],[-13.926603,11.678991],[-13.926689,11.679386],[-13.926687,11.679964],[-13.9260845,11.68074],[-13.925325,11.680945],[-13.925106,11.681618],[-13.92496,11.682338],[-13.9237585,11.682783],[-13.923078,11.683441],[-13.922525,11.684669],[-13.922118,11.685014],[-13.919875,11.681984],[-13.918685,11.681183],[-13.918378,11.680677],[-13.917956,11.680226],[-13.91779,11.680195],[-13.917669,11.680226],[-13.917376,11.680412],[-13.917256,11.680543],[-13.916966,11.680551],[-13.916598,11.680417],[-13.915753,11.679505],[-13.915355,11.679372],[-13.914866,11.6793995],[-13.914587,11.679317],[-13.914345,11.679143],[-13.913442,11.678817],[-13.913272,11.678826],[-13.912977,11.678951],[-13.912734,11.678845],[-13.912232,11.678199],[-13.911653,11.67757],[-13.911498,11.677496],[-13.91112,11.67764],[-13.910949,11.677505],[-13.910954,11.677396],[-13.910778,11.677191],[-13.910384,11.677017],[-13.910324,11.6769495],[-13.910193,11.676676],[-13.910179,11.676431],[-13.910213,11.676321],[-13.910374,11.676143],[-13.910305,11.675928],[-13.910204,11.675793],[-13.909953,11.675793],[-13.909703,11.675865],[-13.909287,11.675911],[-13.908762,11.675722],[-13.908548,11.675606],[-13.908197,11.67532],[-13.907875,11.674839],[-13.907894,11.67384],[-13.907777,11.673403],[-13.907617,11.6731615],[-13.907385,11.672947],[-13.906895,11.672773],[-13.906698,11.672769],[-13.906539,11.672652],[-13.906596,11.672459],[-13.906819,11.672251],[-13.906792,11.672078],[-13.906841,11.671798],[-13.907007,11.671424],[-13.907007,11.671302],[-13.906942,11.671223],[-13.906805,11.671207],[-13.9064245,11.671352],[-13.906338,11.671279],[-13.906251,11.6710205],[-13.906108,11.67087],[-13.90548,11.670375],[-13.905356,11.670341],[-13.905145,11.670445],[-13.904728,11.670265],[-13.904426,11.670245],[-13.903987,11.67036],[-13.903851,11.670596],[-13.903527,11.670604],[-13.9029665,11.670353],[-13.902643,11.670072],[-13.902047,11.669791],[-13.901925,11.669698],[-13.901845,11.669468],[-13.901693,11.669374],[-13.901242,11.669289],[-13.900796,11.669346],[-13.900041,11.669052],[-13.899185,11.668943],[-13.8990555,11.668864],[-13.898984,11.668735],[-13.898961,11.668527],[-13.89907,11.667714],[-13.899013,11.66744],[-13.898918,11.667348],[-13.897755,11.667161],[-13.896892,11.6669445],[-13.896252,11.666895],[-13.896043,11.666816],[-13.89564,11.666593],[-13.895267,11.666239],[-13.89508,11.665945],[-13.8949,11.665362],[-13.8948,11.665219],[-13.894224,11.664751],[-13.893937,11.664622],[-13.893204,11.664421],[-13.892811,11.664379],[-13.892462,11.664522],[-13.891938,11.664839],[-13.891707,11.665069],[-13.891536,11.665096],[-13.891377,11.664974],[-13.891154,11.664954],[-13.891004,11.664839],[-13.890766,11.664896],[-13.890493,11.664809],[-13.890184,11.664629],[-13.88989,11.663855],[-13.88982,11.663778],[-13.889562,11.663767],[-13.889221,11.663957],[-13.889113,11.663968],[-13.888855,11.663844],[-13.888284,11.663164],[-13.888133,11.662857],[-13.888042,11.662445],[-13.887945,11.662384],[-13.887566,11.662276],[-13.886892,11.662205],[-13.886715,11.662307],[-13.886386,11.662269],[-13.885938,11.662415],[-13.885734,11.662431],[-13.885473,11.662387],[-13.885182,11.66255],[-13.8850155,11.662577],[-13.884558,11.662474],[-13.884202,11.662705],[-13.884056,11.662878],[-13.884003,11.662889],[-13.883771,11.662798],[-13.883609,11.66262],[-13.883597,11.662489],[-13.883539,11.662426],[-13.883242,11.662259],[-13.883209,11.662091],[-13.883339,11.661864],[-13.883339,11.661795],[-13.882956,11.661466],[-13.882325,11.661336],[-13.8819,11.66152],[-13.881738,11.661513],[-13.881263,11.661249],[-13.881153,11.661232],[-13.880999,11.661319],[-13.8808,11.661536],[-13.880489,11.661592],[-13.879751,11.661952],[-13.879442,11.661871],[-13.879263,11.661883],[-13.878717,11.661808],[-13.8785925,11.66182],[-13.878109,11.6621],[-13.87785,11.662048],[-13.877602,11.661854],[-13.877544,11.661753],[-13.877419,11.661181],[-13.877352,11.661108],[-13.877072,11.66101],[-13.8766775,11.661032],[-13.876361,11.661197],[-13.8762245,11.661376],[-13.876087,11.661406],[-13.875815,11.661413],[-13.875325,11.661211],[-13.875168,11.661016],[-13.874965,11.660607],[-13.874712,11.660309],[-13.874577,11.66007],[-13.874502,11.659901],[-13.874469,11.659587],[-13.87436,11.659376],[-13.874291,11.659343],[-13.874046,11.659376],[-13.873475,11.659262],[-13.873299,11.659303],[-13.8730955,11.659431],[-13.873075,11.659486],[-13.873097,11.659896],[-13.873139,11.659988],[-13.873097,11.66009],[-13.873133,11.660392],[-13.872789,11.66054],[-13.872389,11.660411],[-13.872042,11.660465],[-13.871777,11.660411],[-13.871621,11.660458],[-13.871559,11.660573],[-13.871423,11.661164],[-13.871348,11.661274],[-13.87122,11.661375],[-13.870573,11.661681],[-13.870319,11.661995],[-13.870145,11.66247],[-13.870118,11.662741],[-13.87018,11.662987],[-13.870302,11.663088],[-13.870316,11.66315],[-13.870234,11.66334],[-13.870044,11.663462],[-13.869825,11.663393],[-13.869629,11.663456],[-13.869065,11.6637945],[-13.869183,11.6641],[-13.869297,11.664606],[-13.869361,11.665139],[-13.869441,11.665581],[-13.869576,11.665953],[-13.87024,11.667169],[-13.870466,11.667751],[-13.870534,11.668287],[-13.870399,11.668749],[-13.870014,11.669632],[-13.86951,11.670552],[-13.869054,11.671203],[-13.868143,11.672666],[-13.867028,11.674205],[-13.866908,11.674451],[-13.866853,11.674768],[-13.866868,11.675157],[-13.866972,11.675417],[-13.8672495,11.675815],[-13.867678,11.676727],[-13.867678,11.676921],[-13.867522,11.677367],[-13.867038,11.67792],[-13.866709,11.6784525],[-13.865758,11.681723],[-13.865529,11.682746],[-13.86543,11.683677],[-13.864661,11.689064],[-13.864451,11.689816],[-13.864388,11.69022],[-13.864275,11.690421],[-13.864181,11.690485],[-13.86387,11.690536],[-13.863583,11.690417],[-13.863314,11.690127],[-13.863089,11.689521],[-13.862994,11.688469],[-13.862778,11.687436],[-13.862687,11.687227],[-13.862393,11.686827],[-13.861931,11.686451],[-13.861347,11.686197],[-13.860472,11.685996],[-13.859784,11.686164],[-13.859499,11.686287],[-13.859249,11.686406],[-13.858869,11.686691],[-13.858688,11.686977],[-13.858574,11.687465],[-13.858472,11.688937],[-13.857993,11.6909685],[-13.857842,11.691811],[-13.857829,11.692932],[-13.8579035,11.695545],[-13.857838,11.69594],[-13.857728,11.69612],[-13.857581,11.696252],[-13.857446,11.696317],[-13.857156,11.696293],[-13.85689,11.696142],[-13.856624,11.695732],[-13.856518,11.69547],[-13.856252,11.695226],[-13.856063,11.69514],[-13.855757,11.695082],[-13.855441,11.69516],[-13.855295,11.695455],[-13.855279,11.695859],[-13.855402,11.696276],[-13.855432,11.697162],[-13.855775,11.698553],[-13.85586,11.699414],[-13.855826,11.699519],[-13.855144,11.700272],[-13.854502,11.700783],[-13.853941,11.70109],[-13.853222,11.701399],[-13.852881,11.701493],[-13.852358,11.70156],[-13.85215,11.701687],[-13.852121,11.701841],[-13.852186,11.702127],[-13.852575,11.702954],[-13.852885,11.703419],[-13.853159,11.703639],[-13.853582,11.703809],[-13.853883,11.7038765],[-13.855168,11.703967],[-13.856027,11.704164],[-13.856218,11.704304],[-13.856259,11.704402],[-13.856264,11.704549],[-13.856194,11.704683],[-13.855933,11.705027],[-13.854758,11.706065],[-13.853732,11.706761],[-13.853004,11.707357],[-13.852216,11.708135],[-13.851112,11.709345],[-13.851009,11.70952],[-13.851049,11.709697],[-13.8511715,11.709881],[-13.851778,11.710547],[-13.852645,11.711304],[-13.853773,11.712106],[-13.8539295,11.712273],[-13.854067,11.712617],[-13.85397,11.712922],[-13.853802,11.713083],[-13.853447,11.713225],[-13.853213,11.713266],[-13.852489,11.713251],[-13.851958,11.713206],[-13.851697,11.713099],[-13.851529,11.712874],[-13.851406,11.712591],[-13.851254,11.712502],[-13.851006,11.71249],[-13.850756,11.712805],[-13.850565,11.712907],[-13.8502,11.71282],[-13.849236,11.713519],[-13.848098,11.714661],[-13.846348,11.716121],[-13.845775,11.71671],[-13.845641,11.71695],[-13.845623,11.71709],[-13.845701,11.717319],[-13.845971,11.717465],[-13.846212,11.717503],[-13.847406,11.717348],[-13.848225,11.717434],[-13.849492,11.717765],[-13.84975,11.7179365],[-13.849959,11.718198],[-13.849978,11.7183],[-13.849815,11.720039],[-13.849716,11.720366],[-13.849656,11.720434],[-13.8495245,11.720464],[-13.849242,11.720398],[-13.848174,11.7198715],[-13.847447,11.719384],[-13.846843,11.719072],[-13.846339,11.718885],[-13.846062,11.718955],[-13.845926,11.719184],[-13.845931,11.7196455],[-13.845832,11.720611],[-13.8456545,11.721534],[-13.845522,11.721918],[-13.845355,11.722726],[-13.8453665,11.723118],[-13.845539,11.724047],[-13.8457365,11.724546],[-13.846113,11.725156],[-13.84613,11.725267],[-13.845951,11.725627],[-13.845976,11.725696],[-13.846087,11.725769],[-13.846547,11.725913],[-13.846617,11.726074],[-13.846629,11.726272],[-13.846734,11.7264805],[-13.846979,11.726926],[-13.847317,11.727413],[-13.847984,11.728156],[-13.848576,11.728928],[-13.8489685,11.729272],[-13.849426,11.729497],[-13.84966,11.729509],[-13.849896,11.729456],[-13.850186,11.729173],[-13.850389,11.728609],[-13.851725,11.723285],[-13.851999,11.722822],[-13.853917,11.720631],[-13.854336,11.720179],[-13.854492,11.720077],[-13.854725,11.72002],[-13.855072,11.720191],[-13.855284,11.720225],[-13.855375,11.720301],[-13.855645,11.720321],[-13.855965,11.720516],[-13.856209,11.720556],[-13.856413,11.720725],[-13.857267,11.721135],[-13.857547,11.721344],[-13.858259,11.721608],[-13.858798,11.721862],[-13.859081,11.7220745],[-13.859265,11.722279],[-13.859355,11.722545],[-13.858906,11.724139],[-13.858701,11.725387],[-13.8587,11.725882],[-13.858744,11.726008],[-13.858878,11.726122],[-13.859031,11.726417],[-13.859043,11.726539],[-13.859169,11.726704],[-13.859306,11.727121],[-13.859612,11.727787],[-13.860113,11.728364],[-13.860515,11.728692],[-13.860968,11.72917],[-13.861502,11.729573],[-13.861653,11.729627],[-13.862246,11.729655],[-13.863509,11.729566],[-13.863682,11.729681],[-13.863717,11.729758],[-13.863743,11.729975],[-13.863321,11.730722],[-13.86281,11.732281],[-13.862586,11.732391],[-13.862315,11.733233],[-13.862071,11.733684],[-13.861926,11.733834],[-13.861605,11.734052],[-13.860738,11.734476],[-13.86028,11.734599],[-13.859748,11.7345915],[-13.859445,11.734669],[-13.859257,11.734824],[-13.8591385,11.73511],[-13.8591175,11.735241],[-13.859176,11.735666],[-13.859481,11.736595],[-13.860308,11.738017],[-13.860593,11.738439],[-13.861362,11.739289],[-13.861836,11.7399845],[-13.861931,11.740202],[-13.861944,11.740397],[-13.861877,11.74079],[-13.861764,11.740992],[-13.8614855,11.741121],[-13.860937,11.741151],[-13.859752,11.741035],[-13.859114,11.740876],[-13.857878,11.740286],[-13.8577795,11.740183],[-13.857752,11.739999],[-13.857788,11.739736],[-13.857724,11.739609],[-13.857441,11.739572],[-13.857057,11.739759],[-13.856853,11.740058],[-13.8567915,11.740238],[-13.856856,11.740774],[-13.857045,11.741141],[-13.85802,11.742451],[-13.858208,11.742868],[-13.85839,11.743494],[-13.8579235,11.743915],[-13.857335,11.744246],[-13.857105,11.744316],[-13.856387,11.744344],[-13.854885,11.744106],[-13.854656,11.7442045],[-13.8543005,11.74488],[-13.854183,11.745383],[-13.854154,11.745791],[-13.854183,11.746013],[-13.854256,11.746188],[-13.854497,11.746513],[-13.854556,11.746696],[-13.854546,11.746981],[-13.854508,11.747065],[-13.8543825,11.747153],[-13.854058,11.747143],[-13.853801,11.747016],[-13.852871,11.746367],[-13.8522415,11.745763],[-13.850673,11.743853],[-13.849865,11.741923],[-13.849238,11.740782],[-13.849047,11.740524],[-13.84876,11.740405],[-13.848618,11.74039],[-13.848254,11.740438],[-13.84807,11.740517],[-13.847689,11.74084],[-13.847223,11.741412],[-13.846454,11.742748],[-13.845947,11.74344],[-13.845216,11.744083],[-13.844872,11.744306],[-13.844649,11.744394],[-13.844538,11.744537],[-13.844216,11.7445755],[-13.843886,11.744709],[-13.843631,11.74503],[-13.843347,11.745142],[-13.842844,11.745203],[-13.84214,11.745443],[-13.841576,11.745411],[-13.841371,11.745334],[-13.841118,11.745146],[-13.840941,11.745144],[-13.840752,11.745155],[-13.840381,11.745179],[-13.840194,11.745167],[-13.840013,11.745167],[-13.839874,11.745218],[-13.839746,11.745274],[-13.839585,11.74534],[-13.8394165,11.745395],[-13.839198,11.745408],[-13.838989,11.745409],[-13.838838,11.745355],[-13.838684,11.745252],[-13.838494,11.745137],[-13.838317,11.745058],[-13.838092,11.744973],[-13.837853,11.74493],[-13.837718,11.744863],[-13.837632,11.744723],[-13.837493,11.744554],[-13.837274,11.744416],[-13.836972,11.744258],[-13.836706,11.744044],[-13.83633,11.743839],[-13.835994,11.74376],[-13.836045,11.743545],[-13.836163,11.743387],[-13.8364105,11.743139],[-13.836528,11.742967],[-13.836599,11.742755],[-13.83663,11.7425785],[-13.8367815,11.742414],[-13.836897,11.742315],[-13.836936,11.7421055],[-13.836894,11.741955],[-13.836546,11.741895],[-13.836059,11.741983],[-13.835505,11.742235],[-13.835095,11.742314],[-13.834464,11.742308],[-13.833727,11.742167],[-13.833467,11.742084],[-13.833332,11.741984],[-13.83329,11.741816],[-13.833403,11.741492],[-13.833671,11.7410345],[-13.833839,11.740647],[-13.833902,11.7402725],[-13.833888,11.740096],[-13.833818,11.739934],[-13.833578,11.739837],[-13.833388,11.739934],[-13.832882,11.7405205],[-13.832522,11.740864],[-13.832176,11.741069],[-13.831536,11.741308],[-13.83136,11.7413435],[-13.831241,11.741302],[-13.831113,11.741139],[-13.831008,11.740858],[-13.830952,11.739407],[-13.830733,11.738344],[-13.830684,11.737835],[-13.83069,11.737407],[-13.830825,11.736702],[-13.830797,11.735991],[-13.830699,11.735822],[-13.830507,11.735681],[-13.830213,11.735597],[-13.829769,11.73559],[-13.829056,11.735462],[-13.8286705,11.735484],[-13.828056,11.735406],[-13.827923,11.735512],[-13.827846,11.735681],[-13.8281145,11.736568],[-13.828204,11.737527],[-13.828198,11.737914],[-13.828127,11.738111],[-13.828,11.738203],[-13.827789,11.738259],[-13.827486,11.738069],[-13.826825,11.7368145],[-13.826747,11.736625],[-13.826718,11.736371],[-13.826224,11.735625],[-13.825965,11.735389],[-13.825365,11.735029],[-13.825188,11.734965],[-13.824452,11.734975],[-13.824112,11.73484],[-13.823871,11.734663],[-13.823737,11.734475],[-13.823711,11.734222],[-13.823704,11.733877],[-13.823789,11.733525],[-13.823774,11.733398],[-13.823682,11.732891],[-13.823282,11.731588],[-13.8231945,11.730726],[-13.823178,11.729599],[-13.823305,11.729026],[-13.82338,11.728828],[-13.823539,11.728629],[-13.824512,11.728274],[-13.825203,11.727828],[-13.825882,11.727538],[-13.826335,11.727476],[-13.828543,11.72775],[-13.828972,11.727624],[-13.829839,11.727455],[-13.830114,11.727441],[-13.830396,11.727236],[-13.830944,11.726933],[-13.832691,11.726059],[-13.833367,11.725546],[-13.833472,11.725186],[-13.832682,11.722328],[-13.832382,11.721404],[-13.832303,11.721017],[-13.832275,11.720383],[-13.832572,11.718468],[-13.832498,11.718035],[-13.832285,11.717773],[-13.832142,11.717695],[-13.831965,11.717674],[-13.831672,11.717752],[-13.831471,11.717952],[-13.831152,11.718632],[-13.830932,11.71895],[-13.830763,11.719072],[-13.830588,11.719113],[-13.830417,11.719061],[-13.83013,11.718779],[-13.829807,11.71837],[-13.829264,11.717525],[-13.829103,11.717336],[-13.828817,11.71718],[-13.828534,11.717123],[-13.828347,11.717131],[-13.828102,11.717209],[-13.827861,11.717465],[-13.827652,11.7178545],[-13.827566,11.717945],[-13.827411,11.718001],[-13.827186,11.718001],[-13.826891,11.717825],[-13.826606,11.717363],[-13.8264065,11.716788],[-13.826219,11.715939],[-13.826299,11.715658],[-13.826752,11.715389],[-13.827885,11.71489],[-13.828334,11.714603],[-13.828775,11.714248],[-13.828969,11.714015],[-13.829284,11.713414],[-13.829296,11.713083],[-13.829223,11.712809],[-13.829021,11.712645],[-13.828287,11.7124195],[-13.827194,11.712433],[-13.826637,11.71237],[-13.826429,11.71231],[-13.826041,11.712101],[-13.825431,11.711647],[-13.824395,11.710656],[-13.822951,11.708866],[-13.821813,11.707202],[-13.821376,11.706274],[-13.821097,11.704867],[-13.820845,11.704402],[-13.820634,11.704218],[-13.82043,11.704162],[-13.820055,11.704184],[-13.8191395,11.70467],[-13.818344,11.704881],[-13.818077,11.705133],[-13.817992,11.70569],[-13.818097,11.70588],[-13.818351,11.706049],[-13.818718,11.70617],[-13.819541,11.706339],[-13.820069,11.706628],[-13.8203,11.706961],[-13.82037,11.707186],[-13.82038,11.707465],[-13.82026,11.7076],[-13.819908,11.707762],[-13.8196945,11.707775],[-13.819375,11.707751],[-13.818632,11.707575],[-13.817678,11.707109],[-13.816109,11.706229],[-13.815445,11.705938],[-13.815237,11.70589],[-13.814984,11.7058935],[-13.814726,11.705956],[-13.814359,11.706156],[-13.813708,11.706883],[-13.813284,11.707271],[-13.813071,11.707546],[-13.81279,11.707809],[-13.812615,11.708096],[-13.811946,11.708945],[-13.8112755,11.709967],[-13.810809,11.710564],[-13.810272,11.711091],[-13.810009,11.711239],[-13.809829,11.711239],[-13.809616,11.711091],[-13.809129,11.710623],[-13.808216,11.709622],[-13.807991,11.709299],[-13.807403,11.708617],[-13.807014,11.708209],[-13.806855,11.708138],[-13.806707,11.708101],[-13.806495,11.708127],[-13.806287,11.708244],[-13.80625,11.708331],[-13.806339,11.709546],[-13.806291,11.709888],[-13.806127,11.71],[-13.805919,11.709982],[-13.805592,11.70977],[-13.804957,11.708896],[-13.804725,11.708875],[-13.80438,11.708961],[-13.803477,11.709647],[-13.802558,11.710478],[-13.801992,11.711062],[-13.801462,11.711733],[-13.801415,11.711914],[-13.80147,11.712081],[-13.801878,11.712654],[-13.8025465,11.713262],[-13.802932,11.713647],[-13.803016,11.713789],[-13.803016,11.713943],[-13.8029375,11.714166],[-13.802692,11.714539],[-13.801935,11.715025],[-13.801609,11.715172],[-13.801109,11.715344],[-13.800131,11.715516],[-13.799406,11.715895],[-13.798975,11.715902],[-13.798777,11.715985],[-13.798475,11.716197],[-13.798065,11.716588],[-13.797352,11.716992],[-13.796832,11.7174425],[-13.796427,11.717668],[-13.796188,11.717725],[-13.795758,11.717725],[-13.795444,11.717532],[-13.795252,11.717141],[-13.795167,11.716783],[-13.7948265,11.715917],[-13.794493,11.715317],[-13.794222,11.714987],[-13.794057,11.714855],[-13.793661,11.714698],[-13.793326,11.71464],[-13.79287,11.714642],[-13.792647,11.7146015],[-13.792419,11.714548],[-13.792252,11.714445],[-13.792171,11.71433],[-13.792147,11.714179],[-13.792188,11.71393],[-13.792319,11.713584],[-13.792767,11.713012],[-13.792786,11.712697],[-13.792786,11.712081],[-13.792592,11.710805],[-13.792493,11.710097],[-13.792507,11.709708],[-13.792575,11.709551],[-13.792685,11.709458],[-13.792816,11.709353],[-13.793083,11.709263],[-13.793393,11.709203],[-13.79383,11.70915],[-13.7943735,11.709077],[-13.794665,11.709032],[-13.794902,11.708968],[-13.795085,11.708909],[-13.795304,11.708851],[-13.796398,11.708584],[-13.796719,11.708514],[-13.7990465,11.707995],[-13.799421,11.707775],[-13.799586,11.707585],[-13.799752,11.707244],[-13.799788,11.706903],[-13.799699,11.706396],[-13.799451,11.705954],[-13.799169,11.70569],[-13.7988405,11.705479],[-13.798549,11.705345],[-13.798317,11.705287],[-13.797902,11.705186],[-13.797623,11.705133],[-13.797366,11.705089],[-13.796728,11.704976],[-13.795844,11.704849],[-13.794807,11.704667],[-13.794578,11.704602],[-13.794343,11.704481],[-13.794262,11.704361],[-13.794179,11.704228],[-13.794125,11.704059],[-13.794143,11.703872],[-13.794319,11.703075],[-13.794382,11.702838],[-13.794399,11.70268],[-13.794121,11.701413],[-13.794109,11.701209],[-13.794147,11.70101],[-13.79425,11.700791],[-13.7946415,11.700348],[-13.794847,11.700194],[-13.795085,11.700149],[-13.795349,11.700198],[-13.795418,11.700275],[-13.795507,11.700681],[-13.795478,11.701237],[-13.795588,11.702548],[-13.795652,11.702889],[-13.795721,11.703094],[-13.795862,11.703233],[-13.795994,11.703304],[-13.796706,11.703429],[-13.796895,11.703433],[-13.797033,11.703353],[-13.797147,11.703179],[-13.79726,11.702832],[-13.797393,11.702533],[-13.797519,11.702301],[-13.797709,11.702014],[-13.79792,11.701626],[-13.798167,11.701125],[-13.798339,11.700772],[-13.79851,11.700459],[-13.798862,11.699375],[-13.798959,11.699172],[-13.799086,11.698463],[-13.799094,11.69817],[-13.799028,11.697708],[-13.798955,11.6974945],[-13.798857,11.697396],[-13.798688,11.697295],[-13.798248,11.697209],[-13.797594,11.697319],[-13.796292,11.697712],[-13.795811,11.697749],[-13.795397,11.697618],[-13.795361,11.6975155],[-13.795361,11.697377],[-13.795527,11.697086],[-13.796672,11.696084],[-13.797147,11.695605],[-13.797847,11.694776],[-13.7982435,11.694195],[-13.798255,11.69395],[-13.798186,11.693773],[-13.798068,11.693672],[-13.79783,11.693644],[-13.79752,11.693663],[-13.79703,11.693785],[-13.796711,11.693785],[-13.795697,11.693544],[-13.795055,11.693259],[-13.794375,11.693065],[-13.794115,11.692948],[-13.793669,11.692851],[-13.792924,11.692566],[-13.792236,11.692381],[-13.791171,11.691995],[-13.790478,11.691929],[-13.790133,11.691845],[-13.789632,11.691832],[-13.789273,11.691896],[-13.788721,11.692084],[-13.788488,11.692077],[-13.788383,11.692087],[-13.788297,11.692128],[-13.78822,11.69214],[-13.788146,11.692136],[-13.788104,11.692118],[-13.788013,11.692077],[-13.787876,11.691925],[-13.787806,11.691807],[-13.787789,11.6917],[-13.787792,11.691588],[-13.787818,11.691497],[-13.787832,11.691382],[-13.78783,11.691273],[-13.787807,11.691116],[-13.787806,11.691026],[-13.787823,11.690918],[-13.787853,11.690797],[-13.7879,11.690658],[-13.787918,11.690554],[-13.787892,11.690452],[-13.787835,11.690331],[-13.787725,11.690215],[-13.787618,11.690105],[-13.787168,11.689783],[-13.786922,11.68965],[-13.786412,11.689386],[-13.785987,11.689246],[-13.784635,11.688484],[-13.783634,11.688253],[-13.78343,11.688217],[-13.783334,11.688118],[-13.783251,11.687966],[-13.783155,11.687239],[-13.783108,11.686953],[-13.783089,11.686764],[-13.783016,11.686617],[-13.782885,11.686494],[-13.782686,11.686426],[-13.782468,11.686432],[-13.781878,11.686472],[-13.781638,11.686524],[-13.781404,11.686618],[-13.779835,11.687275],[-13.779621,11.687433],[-13.779438,11.68758],[-13.779188,11.687803],[-13.779049,11.688023],[-13.77895,11.688222],[-13.778745,11.688899],[-13.77866,11.689166],[-13.778552,11.689372],[-13.778414,11.689655],[-13.778259,11.689973],[-13.777935,11.690492],[-13.777813,11.690704],[-13.777792,11.6907425],[-13.777655,11.690934],[-13.777522,11.69109],[-13.777397,11.691235],[-13.777332,11.691385],[-13.777161,11.691476],[-13.776982,11.691512],[-13.776821,11.691518],[-13.7766695,11.691477],[-13.7765045,11.691382],[-13.776388,11.69127],[-13.776243,11.691202],[-13.776028,11.69112],[-13.775786,11.6910095],[-13.775564,11.690874],[-13.775399,11.690701],[-13.7752285,11.690451],[-13.775125,11.690207],[-13.774982,11.689859],[-13.774862,11.689466],[-13.774752,11.688942],[-13.774589,11.688317],[-13.774324,11.687442],[-13.7742405,11.687136],[-13.7741995,11.686914],[-13.7741585,11.686704],[-13.774149,11.68654],[-13.774215,11.6864],[-13.77434,11.68631],[-13.774487,11.686273],[-13.774724,11.686248],[-13.775078,11.68623],[-13.775394,11.686212],[-13.775877,11.686167],[-13.776359,11.686099],[-13.776656,11.685993],[-13.776863,11.6858835],[-13.777003,11.685746],[-13.777091,11.685528],[-13.777084,11.685258],[-13.777037,11.685023],[-13.776977,11.684812],[-13.776892,11.684593],[-13.776316,11.683363],[-13.776023,11.682834],[-13.775862,11.682642],[-13.775726,11.682584],[-13.775579,11.682588],[-13.77542,11.682679],[-13.775329,11.682789],[-13.7752495,11.682972],[-13.77503,11.683497],[-13.7749,11.683733],[-13.77469,11.684062],[-13.774506,11.684294],[-13.774307,11.684498],[-13.773927,11.684886],[-13.773712,11.68506],[-13.773422,11.685232],[-13.773148,11.68534],[-13.772902,11.685406],[-13.772728,11.685397],[-13.772547,11.68537],[-13.772351,11.685295],[-13.772062,11.685147],[-13.771619,11.684777],[-13.771359,11.684569],[-13.771209,11.684402],[-13.771112,11.684171],[-13.771091,11.683981],[-13.771134,11.683827],[-13.771254,11.683663],[-13.772292,11.682702],[-13.772478,11.682469],[-13.772591,11.682327],[-13.77259,11.682162],[-13.772535,11.681998],[-13.772455,11.681841],[-13.772326,11.681754],[-13.772149,11.681734],[-13.771961,11.681754],[-13.771783,11.681807],[-13.771255,11.68207],[-13.770477,11.682438],[-13.77036,11.682542],[-13.770244,11.682702],[-13.7701435,11.682795],[-13.770013,11.68286],[-13.769453,11.683164],[-13.769098,11.683336],[-13.768749,11.683487],[-13.768436,11.683593],[-13.768165,11.683672],[-13.767462,11.6837845],[-13.767212,11.683851],[-13.766928,11.683992],[-13.766787,11.684066],[-13.766726,11.684146],[-13.766734,11.684224],[-13.766847,11.684393],[-13.76727,11.684911],[-13.767488,11.685206],[-13.767577,11.685385],[-13.767617,11.685521],[-13.7676325,11.685653],[-13.767568,11.68576],[-13.7670765,11.686404],[-13.766974,11.686537],[-13.7669115,11.686676],[-13.766816,11.686805],[-13.766623,11.686972],[-13.766035,11.687645],[-13.765817,11.687855],[-13.76571,11.687968],[-13.765547,11.688069],[-13.765314,11.688174],[-13.765169,11.688232],[-13.765032,11.688215],[-13.764861,11.6882515],[-13.764708,11.688319],[-13.764571,11.688384],[-13.764372,11.6883745],[-13.764169,11.688307],[-13.764034,11.688244],[-13.763947,11.688094],[-13.763934,11.68792],[-13.764016,11.687733],[-13.764129,11.687571],[-13.764369,11.687368],[-13.7649,11.687065],[-13.765275,11.686806],[-13.7661,11.686182],[-13.766217,11.686062],[-13.76626,11.685899],[-13.76625,11.685754],[-13.7661705,11.685618],[-13.766048,11.685505],[-13.765802,11.685351],[-13.76552,11.685223],[-13.765282,11.685137],[-13.765063,11.685097],[-13.764711,11.685085],[-13.764244,11.685079],[-13.763729,11.685058],[-13.763434,11.68502],[-13.763175,11.6849985],[-13.762711,11.6849165],[-13.762109,11.684801],[-13.761247,11.684622],[-13.760792,11.684551],[-13.760328,11.684492],[-13.759882,11.684463],[-13.759439,11.684409],[-13.759049,11.684357],[-13.758848,11.684373],[-13.758646,11.684416],[-13.758472,11.6844845],[-13.758124,11.684659],[-13.757852,11.684795],[-13.757646,11.684914],[-13.757556,11.685016],[-13.757485,11.685183],[-13.757487,11.685274],[-13.757528,11.685455],[-13.757844,11.686552],[-13.757912,11.686891],[-13.757944,11.687107],[-13.757935,11.687317],[-13.7579,11.687449],[-13.757799,11.687557],[-13.757634,11.687643],[-13.757358,11.687729],[-13.756659,11.687842],[-13.756143,11.687916],[-13.755925,11.687979],[-13.75569,11.688064],[-13.755508,11.688119],[-13.755286,11.688173],[-13.755202,11.688219],[-13.75515,11.688294],[-13.755118,11.688777],[-13.755154,11.688956],[-13.75525,11.6891985],[-13.755306,11.68943],[-13.755301,11.689594],[-13.75522,11.689684],[-13.755089,11.689749],[-13.754943,11.689758],[-13.754746,11.689708],[-13.754511,11.689555],[-13.754166,11.689309],[-13.753709,11.688906],[-13.7532215,11.688536],[-13.752859,11.6883],[-13.752333,11.687983],[-13.751936,11.687832],[-13.751645,11.687721],[-13.751502,11.687719],[-13.751322,11.6878],[-13.750995,11.687996],[-13.75036,11.688434],[-13.749966,11.688675],[-13.749634,11.688818],[-13.749303,11.688969],[-13.74897,11.689054],[-13.748705,11.689088],[-13.748503,11.689072],[-13.748332,11.689024],[-13.74815,11.688896],[-13.748025,11.6887045],[-13.747968,11.688498],[-13.7479925,11.688243],[-13.747601,11.688433],[-13.747349,11.688585],[-13.747226,11.68869],[-13.746835,11.689059],[-13.746348,11.689947],[-13.746029,11.690446],[-13.745886,11.690593],[-13.745612,11.690724],[-13.745408,11.690711],[-13.745305,11.690769],[-13.744917,11.691227],[-13.744488,11.691627],[-13.744263,11.691774],[-13.743887,11.691888],[-13.743486,11.6919365],[-13.743392,11.691955],[-13.743243,11.691998],[-13.743139,11.6920395],[-13.74304,11.692059],[-13.742916,11.692078],[-13.742823,11.692099],[-13.742745,11.692163],[-13.742721,11.692234],[-13.742722,11.692365],[-13.742717,11.692498],[-13.742705,11.692595],[-13.742668,11.692693],[-13.742608,11.692766],[-13.742536,11.692802],[-13.742433,11.692804],[-13.742309,11.692777],[-13.742092,11.6926775],[-13.741901,11.692644],[-13.741751,11.692617],[-13.7416725,11.692582],[-13.741617,11.692521],[-13.741556,11.692393],[-13.741459,11.692173],[-13.741396,11.692037],[-13.741184,11.691844],[-13.741,11.691742],[-13.740929,11.691717],[-13.740866,11.69171],[-13.740814,11.69173],[-13.740768,11.691788],[-13.740775,11.691839],[-13.740806,11.691909],[-13.74097,11.692164],[-13.740972,11.692239],[-13.740973,11.692301],[-13.740942,11.692368],[-13.7408905,11.692406],[-13.7408,11.692435],[-13.740732,11.692434],[-13.740673,11.692383],[-13.740583,11.692248],[-13.740513,11.692228],[-13.740442,11.692231],[-13.740377,11.692252],[-13.740339,11.692274],[-13.7401,11.692487],[-13.7400255,11.692563],[-13.73996,11.6925955],[-13.739885,11.692599],[-13.7397995,11.69257],[-13.739739,11.692514],[-13.739707,11.692441],[-13.739637,11.692223],[-13.739579,11.692169],[-13.73949,11.692172],[-13.739354,11.692204],[-13.739183,11.692242],[-13.739107,11.69226],[-13.738908,11.692281],[-13.738846,11.692311],[-13.738805,11.692358],[-13.73881,11.692422],[-13.738824,11.692501],[-13.73889,11.692615],[-13.738918,11.692681],[-13.738943,11.692756],[-13.738932,11.692877],[-13.738854,11.693046],[-13.738763,11.693128],[-13.738718,11.693144],[-13.738649,11.693145],[-13.738557,11.693098],[-13.73849,11.693085],[-13.738429,11.693117],[-13.738386,11.693173],[-13.738378,11.693268],[-13.7384,11.693413],[-13.738427,11.693499],[-13.738444,11.693639],[-13.738461,11.69384],[-13.738441,11.69396],[-13.738404,11.694007],[-13.738358,11.69404],[-13.73828,11.69405],[-13.738219,11.694019],[-13.73817,11.693934],[-13.738104,11.693882],[-13.738035,11.693884],[-13.737985,11.693927],[-13.737974,11.693995],[-13.737962,11.694074],[-13.737953,11.694221],[-13.737886,11.694358],[-13.737797,11.694575],[-13.737752,11.694668],[-13.737684,11.694715],[-13.737606,11.694731],[-13.737515,11.694717],[-13.737404,11.694664],[-13.737276,11.694598],[-13.7371025,11.694431],[-13.736991,11.694373],[-13.736846,11.694338],[-13.736531,11.694297],[-13.736188,11.694368],[-13.736046,11.694474],[-13.735913,11.694575],[-13.73572,11.694713],[-13.735661,11.694834],[-13.735702,11.6949625],[-13.735744,11.6950865],[-13.735803,11.695181],[-13.735854,11.695345],[-13.735838,11.69548],[-13.735754,11.695585],[-13.735665,11.695655],[-13.735569,11.695746],[-13.735544,11.695839],[-13.735556,11.695965],[-13.735512,11.696055],[-13.735388,11.696128],[-13.735221,11.696217],[-13.734844,11.696342],[-13.734679,11.696456],[-13.734622,11.696575],[-13.734674,11.696718],[-13.734662,11.696799],[-13.734626,11.6968975],[-13.734405,11.697206],[-13.734294,11.697341],[-13.734206,11.697382],[-13.734101,11.697351],[-13.733987,11.697336],[-13.73379,11.697441],[-13.733504,11.69753],[-13.733296,11.697856],[-13.733312,11.698031],[-13.733508,11.69822],[-13.733486,11.698282],[-13.733312,11.6984005],[-13.733249,11.698608],[-13.733288,11.698778],[-13.733444,11.699024],[-13.733494,11.699171],[-13.733468,11.699219],[-13.733383,11.699267],[-13.732953,11.69912],[-13.732736,11.699093],[-13.732472,11.699191],[-13.732329,11.699344],[-13.732298,11.699432],[-13.732281,11.699686],[-13.732387,11.699839],[-13.732335,11.699925],[-13.732133,11.700088],[-13.731985,11.70028],[-13.731907,11.70031],[-13.731719,11.70025],[-13.731585,11.700271],[-13.731321,11.700552],[-13.731088,11.700729],[-13.731005,11.700968],[-13.73104,11.701106],[-13.731511,11.701223],[-13.731612,11.701299],[-13.731678,11.701433],[-13.73156,11.701825],[-13.731323,11.702101],[-13.7309885,11.702259],[-13.730724,11.702195],[-13.730415,11.702325],[-13.730062,11.702271],[-13.729383,11.7023735],[-13.72878,11.702907],[-13.72844,11.703069],[-13.727941,11.703224],[-13.727802,11.703324],[-13.727583,11.703744],[-13.727539,11.704019],[-13.727569,11.704326],[-13.727253,11.704642],[-13.727099,11.704717],[-13.726796,11.70466],[-13.726538,11.704673],[-13.72611,11.704846],[-13.725765,11.704829],[-13.725604,11.704874],[-13.725047,11.705175],[-13.724678,11.705205],[-13.724468,11.705278],[-13.724354,11.705464],[-13.724227,11.70556],[-13.723567,11.705502],[-13.723416,11.705419],[-13.723368,11.70529],[-13.723276,11.705205],[-13.722936,11.7051525],[-13.722767,11.705203],[-13.722521,11.705352],[-13.7224245,11.705447],[-13.722414,11.705552],[-13.722342,11.705652],[-13.722046,11.705782],[-13.721044,11.705694],[-13.720447,11.705857],[-13.7202015,11.705843],[-13.72,11.705745],[-13.719904,11.7056265],[-13.719985,11.705235],[-13.719917,11.705019],[-13.719484,11.7046385],[-13.719248,11.704245],[-13.718937,11.703856],[-13.7185545,11.70354],[-13.718033,11.703339],[-13.717921,11.703374],[-13.717879,11.703285],[-13.717691,11.703686],[-13.717382,11.704254],[-13.716975,11.704382],[-13.716507,11.704492],[-13.715487,11.70478],[-13.714523,11.704996],[-13.710255,11.706123],[-13.709334,11.70679],[-13.70878,11.70718],[-13.708167,11.707412],[-13.708126,11.746655],[-13.708157,11.750413],[-13.708649,11.750667],[-13.708926,11.750904],[-13.709661,11.751389],[-13.710671,11.75199],[-13.710957,11.752382],[-13.711043,11.752987],[-13.710891,11.753295],[-13.710891,11.7534075],[-13.710694,11.7539625],[-13.710694,11.754292],[-13.710769,11.754621],[-13.710731,11.754809],[-13.7105055,11.754941],[-13.710486,11.755222],[-13.710393,11.755354],[-13.710186,11.755372],[-13.710092,11.755466],[-13.710045,11.75575],[-13.709819,11.755919],[-13.709443,11.756313],[-13.709632,11.758096],[-13.709699,11.75827],[-13.70966,11.758815],[-13.709506,11.758996],[-13.709335,11.75955],[-13.709116,11.759703],[-13.708799,11.759846],[-13.708266,11.759935],[-13.707957,11.760207],[-13.707703,11.760922],[-13.707514,11.761025],[-13.707411,11.761252],[-13.707439,11.762068],[-13.706968,11.762475],[-13.706825,11.762675],[-13.706768,11.763109],[-13.706541,11.763442],[-13.706439,11.763718],[-13.706349,11.763829],[-13.706265,11.763856],[-13.706123,11.764099],[-13.705878,11.764299],[-13.705587,11.764311],[-13.70553,11.764348],[-13.705493,11.764496],[-13.705334,11.764618],[-13.705208,11.76459],[-13.705059,11.764491],[-13.704989,11.764527],[-13.704815,11.764523],[-13.704619,11.764369],[-13.704382,11.7644005],[-13.704165,11.764502],[-13.703954,11.764776],[-13.7037,11.7649555],[-13.703504,11.765321],[-13.703413,11.76541],[-13.703445,11.765586],[-13.703275,11.765919],[-13.703191,11.766269],[-13.703229,11.766475],[-13.703344,11.766644],[-13.703164,11.766818],[-13.70317,11.767193],[-13.703102,11.767311],[-13.702885,11.767485],[-13.702879,11.767792],[-13.702837,11.767909],[-13.702423,11.768042],[-13.702355,11.768157],[-13.70243,11.768691],[-13.702403,11.768812],[-13.702266,11.768972],[-13.702112,11.769009],[-13.7020035,11.768945],[-13.701895,11.76897],[-13.701833,11.769039],[-13.701741,11.769139],[-13.701647,11.769222],[-13.701629,11.769303],[-13.7016535,11.769422],[-13.70166,11.769579],[-13.701504,11.769929],[-13.701233,11.770215],[-13.701208,11.770549],[-13.701244,11.770676],[-13.701377,11.770828],[-13.701514,11.770924],[-13.701816,11.770992],[-13.701953,11.771088],[-13.702059,11.771468],[-13.702202,11.771644],[-13.702229,11.771972],[-13.702281,11.772115],[-13.70217,11.772919],[-13.702066,11.773117],[-13.701967,11.773567],[-13.701978,11.77395],[-13.702159,11.774179],[-13.702389,11.77438],[-13.703421,11.775058],[-13.703669,11.775364],[-13.703553,11.776625],[-13.703592,11.776875],[-13.703831,11.77712],[-13.703831,11.77723],[-13.703821,11.777352],[-13.703483,11.777713],[-13.703466,11.777913],[-13.703779,11.778189],[-13.703841,11.778432],[-13.7037945,11.77859],[-13.703525,11.77869],[-13.703445,11.778796],[-13.703625,11.779485],[-13.70361,11.779887],[-13.70367,11.779973],[-13.703684,11.780104],[-13.7035885,11.780468],[-13.703583,11.780606],[-13.703635,11.780765],[-13.70371,11.780861],[-13.703954,11.780866],[-13.704598,11.78069],[-13.704843,11.780674],[-13.705208,11.7807865],[-13.705425,11.780912],[-13.705691,11.781225],[-13.705687,11.781333],[-13.705624,11.781435],[-13.705238,11.78159],[-13.704603,11.782115],[-13.704546,11.782236],[-13.704625,11.782378],[-13.705122,11.782685],[-13.705255,11.783189],[-13.70546,11.783614],[-13.705482,11.783853],[-13.705657,11.784256],[-13.705641,11.784612],[-13.705344,11.785062],[-13.705356,11.785299],[-13.705789,11.785702],[-13.705959,11.785939],[-13.705932,11.786035],[-13.70563,11.786325],[-13.705573,11.786452],[-13.705557,11.786707],[-13.705726,11.786934],[-13.705772,11.787119],[-13.705747,11.787374],[-13.705657,11.787617],[-13.705535,11.787812],[-13.705122,11.788034],[-13.705017,11.788178],[-13.704933,11.788394],[-13.70489,11.788695],[-13.704899,11.78878],[-13.705229,11.789305],[-13.705259,11.789416],[-13.705234,11.789722],[-13.705358,11.790005],[-13.705449,11.790111],[-13.705518,11.790346],[-13.705472,11.790709],[-13.705617,11.791242],[-13.705964,11.791909],[-13.706172,11.792427],[-13.706218,11.792681],[-13.706142,11.792926],[-13.705786,11.79317],[-13.705638,11.793365],[-13.705616,11.793751],[-13.705654,11.794136],[-13.705744,11.794438],[-13.706198,11.79512],[-13.706394,11.795765],[-13.70619,11.796098],[-13.706019,11.796221],[-13.70585,11.796268],[-13.705378,11.796171],[-13.70515,11.796211],[-13.704979,11.796374],[-13.7045555,11.796602],[-13.704522,11.796733],[-13.7048,11.797417],[-13.704872,11.797767],[-13.704979,11.798018],[-13.705659,11.798681],[-13.705862,11.798725],[-13.70596,11.798695],[-13.706399,11.798339],[-13.706669,11.798186],[-13.706858,11.798229],[-13.707029,11.798394],[-13.707072,11.798553],[-13.70709,11.799318],[-13.707182,11.7995],[-13.707116,11.800346],[-13.707152,11.800664],[-13.707103,11.800818],[-13.706778,11.8012],[-13.706712,11.801461],[-13.705431,11.8322525],[-13.712656,11.880333],[-13.707405,11.922114],[-13.706027,11.9552555],[-13.696349,12.008197],[-13.696696,12.008393],[-13.697727,12.009084],[-13.698357,12.009479],[-13.698881,12.0100765],[-13.699093,12.010448],[-13.699456,12.010653],[-13.699864,12.010688],[-13.700184,12.010919],[-13.700662,12.011415],[-13.7007675,12.011688],[-13.701184,12.012079],[-13.701504,12.012504],[-13.7016535,12.012866],[-13.701858,12.01316],[-13.702062,12.013195],[-13.702328,12.013372],[-13.702468,12.013656],[-13.703125,12.014302],[-13.703856,12.015279],[-13.704278,12.015566],[-13.704613,12.015912],[-13.70594,12.016528],[-13.706267,12.01693],[-13.70646,12.01742],[-13.706982,12.017935],[-13.708237,12.018265],[-13.70837,12.018338],[-13.708439,12.018546],[-13.708546,12.018642],[-13.7086525,12.018648],[-13.708966,12.018526],[-13.70927,12.018631],[-13.7097435,12.018898],[-13.709977,12.018914],[-13.71009,12.019042],[-13.710234,12.019099],[-13.711016,12.019111],[-13.711367,12.019222],[-13.711606,12.019233],[-13.712175,12.019094],[-13.712559,12.019127],[-13.713144,12.019249],[-13.713703,12.019132],[-13.713933,12.019137],[-13.714358,12.019276],[-13.714628,12.019435],[-13.714815,12.01942],[-13.714949,12.019329],[-13.715656,12.019356],[-13.716248,12.019047],[-13.716695,12.018914],[-13.716949,12.018919],[-13.717339,12.019047],[-13.717552,12.0189085],[-13.717626,12.0189085],[-13.717753,12.018993],[-13.7181,12.018919],[-13.718318,12.019179],[-13.718414,12.019179],[-13.718604,12.019052],[-13.718717,12.019047],[-13.718802,12.0190735],[-13.718908,12.019207],[-13.719365,12.019249],[-13.719601,12.019249],[-13.719711,12.01909],[-13.71977,12.019068],[-13.719846,12.019084],[-13.719947,12.019297],[-13.720053,12.019392],[-13.720207,12.0194235],[-13.720286,12.019441],[-13.720442,12.019555],[-13.720586,12.019578],[-13.720878,12.019553],[-13.721144,12.019638],[-13.721597,12.0200205],[-13.721752,12.020334],[-13.721904,12.02045],[-13.722152,12.02045],[-13.722426,12.020344],[-13.723144,12.020298],[-13.723338,12.020096],[-13.723418,12.019856],[-13.723369,12.019558],[-13.723416,12.01942],[-13.723529,12.019297],[-13.72396,12.019057],[-13.724571,12.018515],[-13.724922,12.018408],[-13.725109,12.01843],[-13.725498,12.018642],[-13.726169,12.018914],[-13.726833,12.019068],[-13.727776,12.019115],[-13.728218,12.019084],[-13.72883,12.018946],[-13.729057,12.018941],[-13.730144,12.019185],[-13.730527,12.01909],[-13.730709,12.01909],[-13.730867,12.019191],[-13.730888,12.019365],[-13.730985,12.01952],[-13.731108,12.019589],[-13.731239,12.019665],[-13.73157,12.019754],[-13.731986,12.019686],[-13.7320595,12.0197115],[-13.732123,12.0198345],[-13.731964,12.02008],[-13.731964,12.020197],[-13.731975,12.02041],[-13.732066,12.020643],[-13.732363,12.021011],[-13.73296,12.021139],[-13.733017,12.0214205],[-13.733093,12.021543],[-13.733283,12.021505],[-13.733582,12.021011],[-13.733774,12.020942],[-13.733982,12.020995],[-13.73413,12.021192],[-13.733996,12.021441],[-13.733996,12.021597],[-13.734631,12.021936],[-13.734801,12.021943],[-13.734918,12.0218725],[-13.734918,12.021602],[-13.735024,12.021479],[-13.735184,12.021462],[-13.735295,12.021532],[-13.735557,12.021569],[-13.735722,12.021682],[-13.735786,12.021792],[-13.73569,12.022177],[-13.735806,12.022431],[-13.735738,12.02265],[-13.735759,12.022782],[-13.735903,12.022874],[-13.736269,12.02297],[-13.736355,12.0231285],[-13.736227,12.023231],[-13.736249,12.023305],[-13.736637,12.023656],[-13.736738,12.023694],[-13.736908,12.023618],[-13.7369995,12.023405],[-13.737271,12.0232935],[-13.737361,12.02306],[-13.737546,12.022885],[-13.737584,12.022565],[-13.737722,12.022459],[-13.737765,12.022315],[-13.73783,12.022256],[-13.737925,12.022256],[-13.737988,12.02232],[-13.738185,12.022374],[-13.73833,12.022544],[-13.738404,12.022539],[-13.738623,12.022363],[-13.738781,12.022351],[-13.738969,12.022421],[-13.739122,12.022374],[-13.739272,12.022464],[-13.739457,12.022736],[-13.739623,12.022736],[-13.739916,12.022847],[-13.740076,12.023023],[-13.740144,12.023256],[-13.740335,12.023497],[-13.740581,12.023671],[-13.74074,12.023921],[-13.740848,12.023992],[-13.741038,12.024017],[-13.741119,12.024151],[-13.741043,12.024375],[-13.741071,12.024427],[-13.741128,12.02446],[-13.7412405,12.024432],[-13.74131,12.024283],[-13.74146,12.024119],[-13.741698,12.023964],[-13.742013,12.023885],[-13.74229,12.023954],[-13.74289,12.024652],[-13.742992,12.024682],[-13.743018,12.024821],[-13.743225,12.024906],[-13.74395,12.024976],[-13.744577,12.025125],[-13.744875,12.025349],[-13.744976,12.0257435],[-13.745145,12.0259285],[-13.745288,12.025934],[-13.74545,12.025872],[-13.745598,12.025702],[-13.745668,12.025745],[-13.745823,12.025942],[-13.745853,12.026436],[-13.745944,12.026773],[-13.746335,12.027168],[-13.746585,12.027155],[-13.746819,12.026887],[-13.746931,12.026816],[-13.747214,12.026738],[-13.747489,12.026786],[-13.747799,12.027092],[-13.748245,12.027217],[-13.748214,12.027253],[-13.748287,12.027387],[-13.748219,12.027477],[-13.747979,12.027345],[-13.747862,12.027415],[-13.747862,12.027514],[-13.748017,12.027621],[-13.748348,12.027669],[-13.748461,12.027627],[-13.748582,12.027494],[-13.748709,12.0274725],[-13.7488,12.0275],[-13.748821,12.027572],[-13.748794,12.02781],[-13.748829,12.027868],[-13.748941,12.027888],[-13.749272,12.027797],[-13.74945,12.027656],[-13.749563,12.0276985],[-13.74976,12.027826],[-13.749796,12.028051],[-13.749886,12.028138],[-13.750071,12.028176],[-13.750227,12.028267],[-13.750186,12.028424],[-13.750366,12.028446],[-13.750507,12.028311],[-13.750613,12.028297],[-13.750868,12.028488],[-13.750853,12.028632],[-13.750765,12.028816],[-13.750867,12.028954],[-13.751019,12.028972],[-13.751152,12.028912],[-13.751397,12.028565],[-13.751609,12.02853],[-13.751792,12.02865],[-13.751904,12.028654],[-13.751954,12.028636],[-13.752037,12.02848],[-13.75222,12.0284195],[-13.752345,12.0284605],[-13.752432,12.028566],[-13.752539,12.028788],[-13.752773,12.029074],[-13.752856,12.029276],[-13.752943,12.029327],[-13.753089,12.029315],[-13.753152,12.02935],[-13.753109,12.02941],[-13.753115,12.029504],[-13.7532425,12.029654],[-13.75328,12.029778],[-13.753382,12.029797],[-13.753791,12.0295105],[-13.753897,12.029479],[-13.754536,12.029821],[-13.754839,12.029765],[-13.755025,12.029906],[-13.755163,12.029972],[-13.755435,12.030013],[-13.755679,12.030179],[-13.7558365,12.0300865],[-13.755956,12.030082],[-13.756111,12.0302105],[-13.756235,12.03022],[-13.756843,12.0297165],[-13.757245,12.029849],[-13.7574415,12.030012],[-13.757541,12.030189],[-13.757636,12.030202],[-13.757811,12.030179],[-13.757973,12.030058],[-13.758079,12.030036],[-13.75823,12.0300865],[-13.758438,12.030078],[-13.75907,12.029696],[-13.759557,12.029647],[-13.759709,12.029702],[-13.759869,12.02991],[-13.760146,12.029915],[-13.760369,12.029841],[-13.760526,12.029679],[-13.760638,12.029639],[-13.760814,12.029672],[-13.761759,12.030101],[-13.762035,12.030101],[-13.762227,12.029963],[-13.762525,12.030267],[-13.762935,12.030368],[-13.763121,12.030542],[-13.763264,12.030574],[-13.763601,12.0307665],[-13.763804,12.031064],[-13.763989,12.031113],[-13.764229,12.031106],[-13.764497,12.030879],[-13.764694,12.030837],[-13.764775,12.030996],[-13.765096,12.031224],[-13.765164,12.031363],[-13.765329,12.031368],[-13.765409,12.031273],[-13.765526,12.031278],[-13.765602,12.031336],[-13.765616,12.031422],[-13.765525,12.031602],[-13.765546,12.03169],[-13.765696,12.031762],[-13.765981,12.032011],[-13.765974,12.032086],[-13.765832,12.032222],[-13.765901,12.03237],[-13.766453,12.032661],[-13.766602,12.032794],[-13.766804,12.032831],[-13.7670965,12.033029],[-13.767304,12.03306],[-13.76756,12.033012],[-13.767676,12.033077],[-13.768023,12.033545],[-13.7680435,12.03377],[-13.768342,12.033971],[-13.768565,12.034268],[-13.768869,12.034508],[-13.768928,12.034695],[-13.768933,12.034902],[-13.768752,12.035322],[-13.768915,12.035709],[-13.769431,12.036197],[-13.769684,12.036318],[-13.769742,12.036526],[-13.770013,12.036584],[-13.770184,12.0366955],[-13.770253,12.036925],[-13.770316,12.036983],[-13.770731,12.036941],[-13.770859,12.036999],[-13.770955,12.037106],[-13.770955,12.037228],[-13.770828,12.037377],[-13.770813,12.037456],[-13.770838,12.037589],[-13.770928,12.03768],[-13.771052,12.037738],[-13.771185,12.037734],[-13.771346,12.037638],[-13.771575,12.037605],[-13.771728,12.03763],[-13.772341,12.038056],[-13.772411,12.038156],[-13.772415,12.038251],[-13.772228,12.038547],[-13.772296,12.038856],[-13.772382,12.03891],[-13.7730055,12.038869],[-13.7733345,12.038931],[-13.773456,12.039154],[-13.773369,12.039345],[-13.7733345,12.039577],[-13.77369,12.04],[-13.773659,12.040241],[-13.773697,12.040309],[-13.773745,12.040341],[-13.773952,12.040326],[-13.774176,12.040431],[-13.7743025,12.040586],[-13.774287,12.0407295],[-13.774692,12.040975],[-13.774772,12.04113],[-13.774718,12.041353],[-13.774783,12.041486],[-13.775085,12.041518],[-13.775161,12.04145],[-13.775586,12.041288],[-13.775709,12.041076],[-13.77589,12.0410185],[-13.776528,12.041278],[-13.776656,12.041401],[-13.776688,12.041518],[-13.776805,12.041597],[-13.777039,12.0416155],[-13.777594,12.041378],[-13.777755,12.041409],[-13.777842,12.041581],[-13.777933,12.041652],[-13.778032,12.041652],[-13.778252,12.041785],[-13.778297,12.041855],[-13.778281,12.041942],[-13.778406,12.042116],[-13.7786455,12.042373],[-13.778811,12.042447],[-13.779002,12.0424185],[-13.779229,12.042194],[-13.779399,12.042108],[-13.779528,12.042099],[-13.779648,12.042294],[-13.779677,12.042543],[-13.779635,12.042989],[-13.779695,12.04314],[-13.779679,12.043402],[-13.779903,12.043498],[-13.780068,12.043885],[-13.780116,12.043918],[-13.780515,12.04387],[-13.780712,12.043982],[-13.780839,12.044158],[-13.780816,12.044606],[-13.780563,12.045056],[-13.780521,12.045206],[-13.780518,12.045342],[-13.780568,12.045467],[-13.780725,12.045617],[-13.780862,12.045678],[-13.781235,12.04565],[-13.781815,12.045463],[-13.781985,12.045363],[-13.782163,12.045363],[-13.782857,12.045918],[-13.783004,12.045994],[-13.783182,12.046201],[-13.783454,12.046263],[-13.783703,12.04647],[-13.783918,12.046478],[-13.784151,12.046361],[-13.784426,12.04642],[-13.784709,12.046318],[-13.78522,12.046298],[-13.785357,12.046526],[-13.785628,12.046612],[-13.78572,12.046776],[-13.785736,12.047052],[-13.786006,12.047165],[-13.7862425,12.047605],[-13.786437,12.047746],[-13.786558,12.047787],[-13.786767,12.047801],[-13.786935,12.0477705],[-13.787062,12.047726],[-13.7871475,12.047654],[-13.787248,12.047507],[-13.787329,12.047446],[-13.787424,12.0473995],[-13.787509,12.047383],[-13.787591,12.047387],[-13.787676,12.04746],[-13.787721,12.047537],[-13.787762,12.04766],[-13.787775,12.047845],[-13.787857,12.048004],[-13.787934,12.048108],[-13.787987,12.048207],[-13.788077,12.048276],[-13.788197,12.048297],[-13.788312,12.048303],[-13.788422,12.048269],[-13.788637,12.048121],[-13.788709,12.048084],[-13.788793,12.048069],[-13.78889,12.048093],[-13.788972,12.04811],[-13.789036,12.048095],[-13.7891245,12.048135],[-13.789223,12.048204],[-13.789305,12.048284],[-13.789328,12.04837],[-13.7893505,12.048434],[-13.789392,12.048523],[-13.789397,12.048617],[-13.789414,12.048742],[-13.789428,12.0488],[-13.789473,12.0488615],[-13.789639,12.048995],[-13.789741,12.049051],[-13.7898035,12.049062],[-13.789856,12.049057],[-13.789918,12.049019],[-13.789986,12.049021],[-13.790048,12.049053],[-13.790095,12.049123],[-13.79012,12.049219],[-13.790131,12.049313],[-13.790159,12.049386],[-13.790182,12.049443],[-13.790183,12.049541],[-13.790165,12.049666],[-13.790141,12.04975],[-13.790085,12.049853],[-13.790019,12.049941],[-13.789998,12.050021],[-13.789999,12.050097],[-13.790032,12.050189],[-13.79017,12.050342],[-13.790241,12.050406],[-13.790439,12.050469],[-13.7906,12.050507],[-13.790672,12.050559],[-13.79073,12.05064],[-13.790757,12.050731],[-13.790803,12.050805],[-13.790901,12.050895],[-13.791013,12.050992],[-13.791094,12.05109],[-13.79116,12.051186],[-13.791184,12.051282],[-13.79123,12.05143],[-13.791233,12.05156],[-13.791272,12.05165],[-13.791347,12.0516815],[-13.791455,12.051686],[-13.791596,12.051688],[-13.791671,12.051721],[-13.791705,12.051791],[-13.791701,12.051878],[-13.791648,12.052022],[-13.791588,12.052221],[-13.791582,12.052358],[-13.791604,12.052481],[-13.791666,12.052593],[-13.792174,12.052987],[-13.792225,12.053097],[-13.792234,12.05322],[-13.792214,12.05332],[-13.792119,12.053426],[-13.791986,12.053528],[-13.791937,12.053625],[-13.791952,12.053737],[-13.7920065,12.053851],[-13.792108,12.053925],[-13.792253,12.053955],[-13.79243,12.053948],[-13.79292,12.053913],[-13.793085,12.053977],[-13.793196,12.054109],[-13.793242,12.054251],[-13.7932005,12.054574],[-13.793105,12.05479],[-13.792672,12.055049],[-13.792615,12.0552435],[-13.792646,12.05537],[-13.793105,12.055597],[-13.793941,12.055555],[-13.794372,12.05574],[-13.794494,12.056067],[-13.794663,12.056215],[-13.7950945,12.056378],[-13.795178,12.056449],[-13.795528,12.056543],[-13.795633,12.0568495],[-13.795533,12.05715],[-13.795522,12.057455],[-13.795411,12.058067],[-13.795418,12.058189],[-13.795702,12.058633],[-13.795608,12.05916],[-13.795702,12.059309],[-13.795835,12.059335],[-13.796072,12.059123],[-13.796405,12.0589285],[-13.796658,12.058823],[-13.796768,12.058817],[-13.796847,12.05887],[-13.796964,12.059066],[-13.796954,12.059351],[-13.796822,12.059804],[-13.796847,12.060311],[-13.797054,12.060592],[-13.797101,12.060634],[-13.797269,12.060622],[-13.797491,12.060544],[-13.7977085,12.060374],[-13.797956,12.060328],[-13.798289,12.060196],[-13.798711,12.060175],[-13.798902,12.059898],[-13.799018,12.059849],[-13.799195,12.059894],[-13.799398,12.060187],[-13.799615,12.060198],[-13.800183,12.060105],[-13.800543,12.060401],[-13.801028,12.060502],[-13.801193,12.06058],[-13.801408,12.06084],[-13.801446,12.061151],[-13.801493,12.061205],[-13.80172,12.06123],[-13.802013,12.061058],[-13.802302,12.061011],[-13.802474,12.061205],[-13.802661,12.061604],[-13.803089,12.061647],[-13.80343,12.061593],[-13.803922,12.061594],[-13.804397,12.061457],[-13.804586,12.061521],[-13.804692,12.061636],[-13.8047285,12.061758],[-13.804724,12.061805],[-13.804602,12.061885],[-13.804555,12.062063],[-13.80455,12.0622015],[-13.80467,12.062508],[-13.804872,12.062718],[-13.805145,12.062766],[-13.805309,12.0628395],[-13.805331,12.063314],[-13.805269,12.063761],[-13.80522,12.0639],[-13.805124,12.063975],[-13.805122,12.064264],[-13.805061,12.064411],[-13.804755,12.064651],[-13.804692,12.064788],[-13.804486,12.064989],[-13.804259,12.065093],[-13.804043,12.065379],[-13.803741,12.065579],[-13.803647,12.065728],[-13.802893,12.066423],[-13.802847,12.0665455],[-13.802523,12.066539],[-13.802186,12.066771],[-13.801666,12.066806],[-13.801375,12.066731],[-13.801127,12.066691],[-13.800906,12.066672],[-13.80065,12.06671],[-13.800317,12.066734],[-13.800069,12.066773],[-13.799789,12.0668],[-13.799087,12.06674],[-13.798655,12.066724],[-13.798364,12.066748],[-13.798003,12.066762],[-13.797719,12.066737],[-13.797485,12.066701],[-13.797232,12.066706],[-13.797016,12.066711],[-13.797159,12.067639],[-13.79735,12.06833],[-13.79735,12.06872],[-13.797397,12.068894],[-13.797566,12.069027],[-13.797725,12.069227],[-13.797914,12.069597],[-13.797966,12.070579],[-13.798205,12.071116],[-13.798279,12.071624],[-13.798273,12.072205],[-13.798427,12.072659],[-13.798637,12.073033],[-13.798726,12.07308],[-13.799201,12.073144],[-13.799699,12.073286],[-13.800183,12.073465],[-13.800237,12.073519],[-13.800322,12.073662],[-13.80029,12.074273],[-13.800336,12.074879],[-13.800474,12.075359],[-13.80063,12.075466],[-13.800955,12.075554],[-13.801073,12.0755415],[-13.801221,12.075484],[-13.801784,12.074797],[-13.802015,12.074754],[-13.802279,12.074906],[-13.802363,12.074912],[-13.802796,12.074791],[-13.802892,12.074906],[-13.803255,12.075007],[-13.803399,12.075329],[-13.803683,12.075583],[-13.803869,12.075683],[-13.804133,12.075772],[-13.804376,12.075784],[-13.804772,12.076015],[-13.80522,12.076027],[-13.80541,12.076121],[-13.805569,12.07629],[-13.805859,12.076369],[-13.805959,12.076507],[-13.805954,12.076628],[-13.806016,12.076786],[-13.806117,12.076887],[-13.80646,12.077029],[-13.8065605,12.077325],[-13.806508,12.077473],[-13.806544,12.077704],[-13.806413,12.077885],[-13.806405,12.07806],[-13.806337,12.078203],[-13.806248,12.078267],[-13.806241,12.078589],[-13.806115,12.078823],[-13.806084,12.079241],[-13.806088,12.079356],[-13.806157,12.079484],[-13.806084,12.079934],[-13.806287,12.080414],[-13.806223,12.080762],[-13.806321,12.081119],[-13.80629,12.081245],[-13.806121,12.081463],[-13.806005,12.081765],[-13.805875,12.082387],[-13.805748,12.082477],[-13.805726,12.082582],[-13.805753,12.08272],[-13.805886,12.082804],[-13.805985,12.083047],[-13.805824,12.0836],[-13.805836,12.083983],[-13.805983,12.084894],[-13.805937,12.085321],[-13.805791,12.085952],[-13.805802,12.0861435],[-13.806005,12.086527],[-13.806027,12.086932],[-13.806244,12.087476],[-13.806149,12.087861],[-13.8061695,12.088099],[-13.806303,12.088266],[-13.806883,12.088684],[-13.806919,12.08888],[-13.806994,12.089012],[-13.807316,12.089238],[-13.80748,12.089551],[-13.807642,12.089713],[-13.807954,12.08985],[-13.80817,12.090126],[-13.808604,12.090325],[-13.808762,12.090464],[-13.808888,12.090479],[-13.809021,12.090585],[-13.809199,12.090906],[-13.809325,12.091289],[-13.809045,12.091333],[-13.808875,12.091469],[-13.808807,12.09167],[-13.808807,12.091829],[-13.80891,12.091974],[-13.809179,12.092065],[-13.809318,12.092184],[-13.809602,12.09284],[-13.809773,12.092969],[-13.810316,12.0929575],[-13.810943,12.0927725],[-13.811229,12.092811],[-13.811406,12.092684],[-13.811652,12.092676],[-13.811848,12.092735],[-13.811911,12.092891],[-13.811819,12.093117],[-13.811442,12.093343],[-13.811283,12.093505],[-13.811255,12.093676],[-13.811317,12.093846],[-13.811435,12.093966],[-13.8115835,12.093961],[-13.811795,12.093831],[-13.812184,12.093482],[-13.812495,12.093472],[-13.812586,12.093572],[-13.812652,12.093795],[-13.813026,12.093871],[-13.81342,12.094037],[-13.813635,12.094227],[-13.813667,12.094336],[-13.813559,12.094817],[-13.813439,12.095104],[-13.813739,12.0956955],[-13.813706,12.095863],[-13.813625,12.095978],[-13.813653,12.096212],[-13.813739,12.096374],[-13.813874,12.096493],[-13.814262,12.096575],[-13.815076,12.096491],[-13.815271,12.0965605],[-13.815458,12.096704],[-13.815746,12.096767],[-13.816012,12.096767],[-13.816386,12.096662],[-13.816514,12.09667],[-13.816646,12.09675],[-13.817123,12.09682],[-13.817314,12.0969],[-13.817401,12.097052],[-13.817639,12.0977955],[-13.817725,12.097923],[-13.818096,12.098169],[-13.818436,12.098741],[-13.818584,12.098873],[-13.81904,12.098983],[-13.819896,12.098745],[-13.8200245,12.098783],[-13.820141,12.098876],[-13.820231,12.09905],[-13.820321,12.099114],[-13.820533,12.099009],[-13.820942,12.0989895],[-13.821007,12.098934],[-13.821111,12.09893],[-13.821229,12.098975],[-13.821357,12.0991],[-13.821603,12.099468],[-13.821717,12.099488],[-13.821941,12.099463],[-13.822273,12.099305],[-13.822513,12.099347],[-13.822776,12.099477],[-13.822935,12.099422],[-13.823202,12.099413],[-13.823571,12.099588],[-13.82379,12.099505],[-13.824239,12.099557],[-13.824825,12.099511],[-13.825389,12.099616],[-13.825844,12.099822],[-13.826425,12.10017],[-13.826578,12.100334],[-13.826694,12.10053],[-13.826928,12.101281],[-13.827052,12.101472],[-13.827348,12.101716],[-13.827884,12.101872],[-13.828747,12.102053],[-13.829601,12.102394],[-13.829903,12.10242],[-13.830204,12.102341],[-13.830489,12.10233],[-13.831096,12.102072],[-13.831497,12.101787],[-13.831833,12.1016655],[-13.832189,12.10147],[-13.832411,12.101412],[-13.833007,12.1014385],[-13.833555,12.1010685],[-13.833868,12.100969],[-13.834575,12.100885],[-13.83476,12.100798],[-13.834857,12.100658],[-13.834981,12.100575],[-13.835401,12.100506],[-13.83553,12.100396],[-13.835691,12.100128],[-13.836101,12.099913],[-13.836212,12.099917],[-13.836316,12.099997],[-13.836352,12.100131],[-13.836186,12.100541],[-13.836184,12.100676],[-13.836264,12.100776],[-13.83637,12.10078],[-13.836658,12.100607],[-13.836856,12.100588],[-13.836987,12.100676],[-13.837129,12.100967],[-13.837301,12.101039],[-13.837454,12.100994],[-13.837645,12.100791],[-13.837897,12.10076],[-13.8385515,12.100732],[-13.838938,12.100865],[-13.839364,12.100919],[-13.839983,12.100872],[-13.84021,12.100999],[-13.868168,12.107841],[-13.868522,12.108302],[-13.868655,12.108597],[-13.868827,12.108815],[-13.869045,12.108986],[-13.86973,12.10939],[-13.870205,12.109747],[-13.870631,12.109877],[-13.871235,12.109947],[-13.871733,12.110398],[-13.871922,12.110718],[-13.872065,12.111073],[-13.872218,12.11157],[-13.872277,12.112104],[-13.8725605,12.1126],[-13.872609,12.112802],[-13.872526,12.113193],[-13.872336,12.113584],[-13.872238,12.114063],[-13.872172,12.114109],[-13.872063,12.114524],[-13.872001,12.1145935],[-13.87194,12.115242],[-13.872019,12.115391],[-13.872028,12.115584],[-13.871886,12.11575],[-13.871093,12.115704],[-13.870975,12.115786],[-13.871081,12.115999],[-13.871081,12.116106],[-13.871258,12.116247],[-13.871886,12.116533],[-13.871922,12.116804],[-13.872218,12.116982],[-13.8721,12.117195],[-13.872123,12.117267],[-13.872526,12.11735],[-13.87288,12.11761],[-13.872975,12.117751],[-13.872975,12.118072],[-13.872791,12.118804],[-13.872786,12.118972],[-13.872846,12.119327],[-13.873083,12.119764],[-13.87313,12.120073],[-13.873094,12.120748],[-13.873023,12.121021],[-13.872538,12.121482],[-13.872147,12.122228],[-13.871945,12.123318],[-13.871934,12.1240635],[-13.871992,12.124336],[-13.87198,12.124785],[-13.872241,12.125142],[-13.872384,12.125472],[-13.87242,12.125935],[-13.872702,12.126206],[-13.872789,12.126845],[-13.872956,12.127065],[-13.87313,12.12717],[-13.873218,12.127318],[-13.873341,12.127888],[-13.873349,12.128116],[-13.873455,12.128264],[-13.873893,12.128369],[-13.87398,12.128475],[-13.874024,12.128553],[-13.874024,12.128755],[-13.873954,12.128948],[-13.873972,12.129087],[-13.874059,12.129254],[-13.874304,12.129429],[-13.874505,12.129691],[-13.874698,12.12978],[-13.874786,12.129867],[-13.874846,12.129981],[-13.874865,12.130218],[-13.875093,12.130489],[-13.875118,12.130726],[-13.875066,12.131155],[-13.875276,12.131418],[-13.875399,12.131653],[-13.87546,12.132004],[-13.875407,12.132153],[-13.875303,12.132267],[-13.875259,12.13259],[-13.875354,12.132888],[-13.875356,12.133371],[-13.875463,12.133619],[-13.875495,12.133835],[-13.8754425,12.13393],[-13.875284,12.134053],[-13.875171,12.134448],[-13.875713,12.135121],[-13.875696,12.1352005],[-13.875417,12.135297],[-13.875354,12.135358],[-13.8753805,12.135437],[-13.875504,12.135541],[-13.875986,12.135752],[-13.87602,12.135839],[-13.875872,12.136189],[-13.875723,12.136259],[-13.875557,12.136259],[-13.875354,12.136418],[-13.875332,12.136628],[-13.87545,12.136924],[-13.875641,12.13696],[-13.876248,12.136951],[-13.876511,12.136872],[-13.877168,12.136418],[-13.878201,12.136383],[-13.878367,12.136443],[-13.8786955,12.136936],[-13.878778,12.137031],[-13.878921,12.13709],[-13.879322,12.137066],[-13.879761,12.136936],[-13.880187,12.136924],[-13.880556,12.137074],[-13.88088,12.137565],[-13.881239,12.137845],[-13.881407,12.137888],[-13.881668,12.137818],[-13.882107,12.137828],[-13.882247,12.137941],[-13.882501,12.1380205],[-13.882931,12.1378975],[-13.8831835,12.1378975],[-13.883316,12.137985],[-13.883403,12.138133],[-13.883595,12.13823],[-13.884366,12.138257],[-13.884532,12.138345],[-13.885172,12.138901],[-13.885694,12.139244],[-13.886997,12.139374],[-13.887446,12.139505],[-13.887754,12.1396475],[-13.888347,12.139718],[-13.888665,12.139932],[-13.888785,12.140086],[-13.888879,12.140417],[-13.88895,12.140939],[-13.889034,12.141128],[-13.889187,12.141234],[-13.889696,12.14127],[-13.889839,12.141316],[-13.890643,12.141791],[-13.890927,12.1418495],[-13.89112,12.142023],[-13.891236,12.142211],[-13.891504,12.142433],[-13.891868,12.142537],[-13.892301,12.142506],[-13.892452,12.142546],[-13.892704,12.142698],[-13.892847,12.142958],[-13.892988,12.142982],[-13.89342,12.1428995],[-13.893525,12.142993],[-13.893619,12.143214],[-13.893781,12.143402],[-13.894249,12.143577],[-13.894705,12.144009],[-13.895121,12.144197],[-13.895645,12.14455],[-13.896189,12.144761],[-13.896582,12.144853],[-13.897205,12.144882],[-13.897811,12.144742],[-13.898182,12.14459],[-13.899099,12.14451],[-13.899512,12.14439],[-13.900591,12.14439],[-13.901164,12.14432],[-13.901637,12.144328],[-13.90207,12.14448],[-13.902384,12.144691],[-13.902676,12.145196],[-13.902916,12.145488],[-13.90331,12.145699],[-13.903984,12.145789],[-13.904257,12.14577],[-13.9046,12.145679],[-13.905731,12.144563],[-13.906171,12.144395],[-13.906486,12.144395],[-13.906732,12.14443],[-13.907209,12.1448145],[-13.907339,12.14499],[-13.907361,12.145351],[-13.9074335,12.145574],[-13.907643,12.145808],[-13.907887,12.145878],[-13.90811,12.145854],[-13.908342,12.145679],[-13.908693,12.145574],[-13.909242,12.145469],[-13.909531,12.14548],[-13.9096,12.145501],[-13.909722,12.145634],[-13.910048,12.145767],[-13.910122,12.145861],[-13.910175,12.146146],[-13.910309,12.146298],[-13.91058,12.146441],[-13.910791,12.146544],[-13.911309,12.146608],[-13.911471,12.146712],[-13.911851,12.146761],[-13.912318,12.146989],[-13.912707,12.147058],[-13.913412,12.147117],[-13.91424,12.1470175],[-13.914462,12.147068],[-13.915289,12.147062],[-13.915633,12.147141],[-13.916093,12.147141],[-13.9164715,12.147196],[-13.917162,12.147082],[-13.917294,12.147097],[-13.917589,12.147255],[-13.918073,12.147308],[-13.918368,12.147417],[-13.920303,12.147411],[-13.921488,12.147692],[-13.922352,12.147795],[-13.923444,12.148028],[-13.924768,12.148243],[-13.925682,12.148296],[-13.927904,12.148952],[-13.929664,12.14893],[-13.933186,12.148196],[-13.93387,12.148091],[-13.934556,12.14783],[-13.9349785,12.147618],[-13.935137,12.14748],[-13.935304,12.147235],[-13.935492,12.147087],[-13.936121,12.146761],[-13.936314,12.146495],[-13.936904,12.145811],[-13.937382,12.145222],[-13.937796,12.144907],[-13.941081,12.148401],[-13.944927,12.15183],[-13.946815,12.154004],[-13.948199,12.156714],[-13.94916,12.158602],[-13.94936,12.1589575],[-13.949443,12.159263],[-13.949477,12.159598],[-13.9495,12.1598835],[-13.949493,12.16039],[-13.949329,12.162894],[-13.949306,12.163669],[-13.949232,12.16419],[-13.949122,12.164706],[-13.94864,12.166331],[-13.948567,12.166816],[-13.948563,12.167306],[-13.948624,12.167577],[-13.94938,12.169023],[-13.949616,12.169375],[-13.951451,12.171665],[-13.951612,12.171855],[-13.951754,12.172128],[-13.951849,12.172332],[-13.951944,12.172599],[-13.952047,12.172862],[-13.952123,12.172994],[-13.95221,12.173112],[-13.95282,12.173675],[-13.952988,12.1737795],[-13.953163,12.173873],[-13.953482,12.174014],[-13.953647,12.174121],[-13.953769,12.174225],[-13.953893,12.174406],[-13.953947,12.17457],[-13.953968,12.174867],[-13.95397,12.175028],[-13.954026,12.175183],[-13.954058,12.175267],[-13.954126,12.175483],[-13.954127,12.175619],[-13.954098,12.175843],[-13.954004,12.176127],[-13.953988,12.176306],[-13.953957,12.176637],[-13.953931,12.177429],[-13.953918,12.177779],[-13.953909,12.178021],[-13.953935,12.178535],[-13.953968,12.1787615],[-13.95401,12.178903],[-13.954099,12.17903],[-13.954209,12.179133],[-13.95438,12.179246],[-13.954581,12.179296],[-13.95482,12.179295],[-13.955043,12.1792755],[-13.955265,12.179184],[-13.955636,12.178875],[-13.955856,12.178755],[-13.956081,12.178713],[-13.956408,12.178739],[-13.956681,12.178834],[-13.957017,12.179025],[-13.957295,12.179222],[-13.957604,12.179651],[-13.957754,12.179945],[-13.957847,12.180208],[-13.957884,12.180528],[-13.957879,12.180828],[-13.95783,12.181136],[-13.957753,12.181452],[-13.95757,12.181804],[-13.956752,12.183307],[-13.956533,12.183694],[-13.956326,12.184023],[-13.955614,12.185016],[-13.955289,12.185504],[-13.955116,12.185783],[-13.954928,12.186159],[-13.954843,12.186442],[-13.954804,12.186768],[-13.954816,12.187098],[-13.954917,12.18757],[-13.955268,12.188292],[-13.956376,12.190886],[-13.95683,12.193009],[-13.95687,12.193433],[-13.956882,12.193914],[-13.956871,12.194398],[-13.956837,12.194955],[-13.9567,12.195994],[-13.956595,12.196952],[-13.956572,12.197233],[-13.956586,12.197491],[-13.956625,12.19772],[-13.95671,12.197966],[-13.9569025,12.1985035],[-13.957037,12.198944],[-13.957081,12.199187],[-13.957098,12.199524],[-13.957084,12.199801],[-13.957033,12.200033],[-13.956946,12.200227],[-13.956807,12.200371],[-13.956623,12.200454],[-13.956436,12.200506],[-13.956186,12.200532],[-13.954923,12.200527],[-13.954477,12.200537],[-13.954039,12.200576],[-13.953448,12.200659],[-13.950699,12.201029],[-13.949071,12.201297],[-13.946848,12.201756],[-13.943672,12.202252],[-13.939319,12.202221],[-13.937049,12.201878],[-13.935463,12.20234],[-13.933542,12.203848],[-13.930357,12.2074],[-13.927876,12.2104225],[-13.925905,12.213717],[-13.924196,12.2176075],[-13.92206,12.224602],[-13.921632,12.23037],[-13.921146,12.232767],[-13.920549,12.233642],[-13.919188,12.234613],[-13.916108,12.23558],[-13.911171,12.235855],[-13.905134,12.236207],[-13.899121,12.236819],[-13.893641,12.23734],[-13.878231,12.239836],[-13.873318,12.240409],[-13.869019,12.240234],[-13.863551,12.24066],[-13.860488,12.240778],[-13.858574,12.241157],[-13.857077,12.2422905],[-13.856669,12.243491],[-13.855882,12.246666],[-13.853354,12.252974],[-13.8525,12.256867],[-13.852058,12.259989],[-13.852351,12.262872],[-13.853136,12.264957],[-13.855693,12.267731],[-13.859643,12.270634],[-13.863615,12.273529],[-13.864303,12.2741585],[-13.864445,12.275152],[-13.864088,12.276086],[-13.86318,12.277047],[-13.860942,12.278492],[-13.8552685,12.281347],[-13.8512,12.282549],[-13.837414,12.284475],[-13.834864,12.2846],[-13.83289,12.284103],[-13.83112,12.283243],[-13.830114,12.2811365],[-13.830073,12.277013],[-13.830514,12.272687],[-13.829962,12.269009],[-13.828588,12.2642765],[-13.827168,12.260096],[-13.826306,12.258918],[-13.824919,12.257905],[-13.8235235,12.257725],[-13.822353,12.258186],[-13.821439,12.259841],[-13.820071,12.263413],[-13.819433,12.264889],[-13.818209,12.266721],[-13.814958,12.269679],[-13.810385,12.27437],[-13.809315,12.276191],[-13.8081255,12.280204],[-13.805847,12.287226],[-13.804653,12.290477],[-13.801649,12.29588],[-13.800324,12.297279],[-13.7985935,12.297354],[-13.797345,12.296592],[-13.795559,12.29453],[-13.79377,12.28969],[-13.793374,12.2862015],[-13.793889,12.273296],[-13.795124,12.271232],[-13.799694,12.268526],[-13.802959,12.266821],[-13.805702,12.265158],[-13.806661,12.263535],[-13.807005,12.261861],[-13.806363,12.258929],[-13.805028,12.256471],[-13.799937,12.251633],[-13.796958,12.250879],[-13.792797,12.251435],[-13.787799,12.252582],[-13.7829485,12.252424],[-13.778475,12.251237],[-13.776876,12.251403],[-13.775392,12.252254],[-13.774071,12.253738],[-13.773487,12.255328],[-13.773234,12.256909],[-13.772313,12.261278],[-13.77134,12.264336],[-13.76986,12.26687],[-13.764577,12.274937],[-13.763611,12.275872],[-13.76167,12.277032],[-13.759554,12.277138],[-13.757176,12.276813],[-13.754803,12.276266],[-13.751732,12.274815],[-13.746252,12.271578],[-13.74422,12.2700615],[-13.743421,12.2689495],[-13.74235,12.267476],[-13.740983,12.264667],[-13.738361,12.260617],[-13.736811,12.258097],[-13.732811,12.249908],[-13.731055,12.248043],[-13.728342,12.247093],[-13.727171,12.247093],[-13.721533,12.247545],[-13.7196455,12.248195],[-13.717876,12.249019],[-13.71471,12.25243],[-13.711615,12.256518],[-13.70877,12.260437],[-13.706591,12.26466],[-13.704951,12.268937],[-13.702958,12.275873],[-13.701121,12.2822],[-13.699881,12.2880535],[-13.6989,12.291744],[-13.698015,12.293259],[-13.697295,12.294074],[-13.696822,12.294606],[-13.6963,12.294949],[-13.695646,12.295101],[-13.694865,12.294935],[-13.6943245,12.294634],[-13.693273,12.293849],[-13.692763,12.294227],[-13.692411,12.294475],[-13.691811,12.2947235],[-13.691458,12.295075],[-13.691231,12.295241],[-13.691043,12.2953005],[-13.690727,12.295494],[-13.690482,12.295781],[-13.690415,12.295969],[-13.690358,12.296408],[-13.690262,12.296661],[-13.690096,12.296889],[-13.689886,12.297046],[-13.68966,12.297125],[-13.689433,12.297274],[-13.689231,12.297552],[-13.689258,12.297737],[-13.689388,12.297999],[-13.6893635,12.2981205],[-13.689248,12.298541],[-13.689082,12.298882],[-13.688595,12.30029],[-13.6884,12.301041],[-13.68827,12.301837],[-13.688167,12.301994],[-13.688111,12.302536],[-13.687899,12.302956],[-13.687928,12.303296],[-13.6876135,12.30385],[-13.687594,12.303984],[-13.687711,12.304275],[-13.687728,12.304458],[-13.687641,12.304764],[-13.687401,12.30512],[-13.687491,12.305266],[-13.687576,12.305747],[-13.687559,12.305844],[-13.687309,12.306154],[-13.687273,12.306264],[-13.687218,12.306866],[-13.687278,12.307042],[-13.687028,12.307748],[-13.687028,12.307918],[-13.68712,12.308203],[-13.68709,12.308464],[-13.686943,12.308672],[-13.686937,12.308853],[-13.686835,12.309049],[-13.686804,12.30931],[-13.686701,12.309596],[-13.686341,12.309973],[-13.68625,12.310445],[-13.686146,12.3106365],[-13.685439,12.311476],[-13.685,12.311877],[-13.684736,12.312003],[-13.684494,12.311894],[-13.684226,12.311907],[-13.684,12.312046],[-13.683904,12.312264],[-13.683564,12.3124695],[-13.683063,12.31255],[-13.682853,12.312659],[-13.68267,12.3126955],[-13.682192,12.312674],[-13.6820135,12.312768],[-13.681817,12.312792],[-13.681334,12.312768],[-13.681048,12.312636],[-13.680983,12.31251],[-13.680412,12.312113],[-13.680166,12.312043],[-13.680057,12.311885],[-13.679235,12.311224],[-13.679186,12.311141],[-13.67846,12.310639],[-13.678393,12.310465],[-13.678119,12.310169],[-13.677923,12.310091],[-13.677776,12.309827],[-13.67744,12.309559],[-13.67733,12.309535],[-13.677025,12.309349],[-13.676592,12.308902],[-13.676112,12.308504],[-13.67598,12.308451],[-13.675793,12.308446],[-13.674903,12.308559],[-13.674621,12.308477],[-13.674466,12.308323],[-13.674248,12.308223],[-13.673822,12.308328],[-13.673577,12.308195],[-13.673453,12.308195],[-13.673371,12.308249],[-13.673344,12.308328],[-13.673266,12.308359],[-13.67296,12.308268],[-13.672823,12.308287],[-13.672747,12.308381],[-13.672085,12.308682],[-13.671747,12.309115],[-13.671617,12.309184],[-13.671142,12.309121],[-13.670945,12.309198],[-13.670489,12.309526],[-13.670055,12.309526],[-13.669856,12.309427],[-13.669646,12.309399],[-13.669304,12.309668],[-13.66919,12.309807],[-13.669217,12.310095],[-13.669121,12.310322],[-13.669015,12.310375],[-13.668789,12.310371],[-13.6686325,12.310424],[-13.668405,12.310653],[-13.667962,12.3106165],[-13.667696,12.310723],[-13.667426,12.310751],[-13.667207,12.310847],[-13.666837,12.311109],[-13.666659,12.311292],[-13.666359,12.3118515],[-13.666143,12.3124],[-13.666028,12.312546],[-13.66565,12.312651],[-13.665586,12.31276],[-13.665518,12.313211],[-13.665286,12.313435],[-13.664847,12.313585],[-13.66452,12.313799],[-13.664112,12.313801],[-13.663308,12.314072],[-13.662915,12.314062],[-13.66247,12.3139925],[-13.662277,12.314062],[-13.662157,12.314206],[-13.662102,12.314343],[-13.662102,12.314492],[-13.662029,12.314644],[-13.66192,12.314712],[-13.661797,12.31494],[-13.661583,12.315195],[-13.661555,12.315309],[-13.661319,12.315556],[-13.6612,12.315943],[-13.661027,12.316089],[-13.660986,12.316181],[-13.660986,12.316312],[-13.661218,12.316682],[-13.661236,12.316795],[-13.661091,12.3171425],[-13.660662,12.317321],[-13.660607,12.317393],[-13.660416,12.317494],[-13.660178,12.317762],[-13.659883,12.317886],[-13.659841,12.31799],[-13.660018,12.318255],[-13.660087,12.318501],[-13.660024,12.31877],[-13.659814,12.31899],[-13.659526,12.319013],[-13.65937,12.319085],[-13.659317,12.319209],[-13.659321,12.319431],[-13.659234,12.319645],[-13.658837,12.319934],[-13.658714,12.319998],[-13.658414,12.319884],[-13.658291,12.319879],[-13.658163,12.319961],[-13.658149,12.320271],[-13.658226,12.320454],[-13.658198,12.320609],[-13.658075,12.320718],[-13.658044,12.320864],[-13.658126,12.321004],[-13.658345,12.321203],[-13.658361,12.321351],[-13.658275,12.321439],[-13.65809,12.321515],[-13.658048,12.321693],[-13.657806,12.322109],[-13.65778,12.322533],[-13.657706,12.322638],[-13.657194,12.322813],[-13.657144,12.322935],[-13.657106,12.323314],[-13.6569,12.323586],[-13.656655,12.323771],[-13.656594,12.323972],[-13.656638,12.324075],[-13.656848,12.324206],[-13.657033,12.324102],[-13.657106,12.324089],[-13.657192,12.324143],[-13.6572695,12.324274],[-13.657073,12.324466],[-13.657155,12.324577],[-13.657167,12.324716],[-13.657258,12.324789],[-13.657249,12.324834],[-13.657086,12.324883],[-13.657143,12.325043],[-13.65762,12.32515],[-13.65773,12.32528],[-13.65793,12.325337],[-13.657991,12.32551],[-13.658101,12.325608],[-13.658303,12.3260975],[-13.658605,12.326291],[-13.658728,12.326462],[-13.658744,12.326531],[-13.658687,12.326612],[-13.658515,12.326723],[-13.658482,12.326821],[-13.658503,12.326948],[-13.658397,12.327222],[-13.65838,12.327512],[-13.658413,12.32759],[-13.658391,12.327656],[-13.658205,12.327786],[-13.6582,12.327864],[-13.658454,12.328081],[-13.658616,12.328088],[-13.658638,12.328255],[-13.658694,12.328308],[-13.6589155,12.328304],[-13.658988,12.328628],[-13.65925,12.328788],[-13.6593,12.329085],[-13.659492,12.32931],[-13.659499,12.329588],[-13.65956,12.329748],[-13.659521,12.329944],[-13.659541,12.330026],[-13.659699,12.3301525],[-13.659712,12.330312],[-13.659594,12.330872],[-13.659749,12.331178],[-13.659865,12.331725],[-13.660031,12.332128],[-13.660608,12.332751],[-13.660608,12.332976],[-13.660852,12.333332],[-13.660898,12.333843],[-13.661203,12.334165],[-13.661307,12.3342],[-13.661683,12.33413],[-13.661753,12.33419],[-13.661841,12.334383],[-13.661919,12.334978],[-13.662332,12.335207],[-13.662356,12.335465],[-13.662491,12.335682],[-13.662299,12.336125],[-13.662332,12.336257],[-13.662652,12.33642],[-13.662704,12.33652],[-13.66266,12.336666],[-13.662508,12.336873],[-13.662508,12.337052],[-13.662585,12.337332],[-13.662763,12.337591],[-13.66323,12.3380375],[-13.663239,12.338153],[-13.663184,12.338231],[-13.662968,12.338354],[-13.662913,12.33844],[-13.662927,12.33864],[-13.663288,12.338773],[-13.66383,12.338715],[-13.664035,12.338818],[-13.664133,12.338944],[-13.664187,12.339112],[-13.664183,12.339285],[-13.664069,12.339854],[-13.664139,12.34002],[-13.664358,12.340264],[-13.66448,12.340474],[-13.664584,12.340762],[-13.664619,12.341349],[-13.664707,12.34154],[-13.665266,12.342328],[-13.665572,12.342641],[-13.666272,12.343176],[-13.666298,12.34342],[-13.666245,12.343515],[-13.666048,12.343631],[-13.665071,12.34401],[-13.664993,12.344089],[-13.664947,12.3442135],[-13.664966,12.344362],[-13.664732,12.344682],[-13.664739,12.344845],[-13.664953,12.345301],[-13.665141,12.345593],[-13.665181,12.345783],[-13.665123,12.346115],[-13.664862,12.346454],[-13.664831,12.346809],[-13.664704,12.346904],[-13.664608,12.3471775],[-13.664522,12.347279],[-13.664244,12.34737],[-13.664133,12.34746],[-13.663991,12.347763],[-13.663657,12.3480215],[-13.663567,12.348223],[-13.663263,12.348598],[-13.663162,12.348841],[-13.663045,12.348937],[-13.662616,12.349138],[-13.661995,12.349589],[-13.661254,12.349838],[-13.660645,12.350124],[-13.6603565,12.350204],[-13.660089,12.350226],[-13.659746,12.350044],[-13.659547,12.350124],[-13.659493,12.350261],[-13.659456,12.350615],[-13.659245,12.350716],[-13.659047,12.35106],[-13.658693,12.351363],[-13.658639,12.351489],[-13.658658,12.351731],[-13.658624,12.351884],[-13.658476,12.352161],[-13.658462,12.352632],[-13.658088,12.353496],[-13.657931,12.353703],[-13.65795,12.3541],[-13.6578865,12.354238],[-13.657652,12.354373],[-13.6573,12.354478],[-13.657066,12.354446],[-13.656636,12.354296],[-13.656232,12.354262],[-13.65605,12.354322],[-13.65584,12.354563],[-13.655547,12.355091],[-13.655307,12.355318],[-13.655249,12.355611],[-13.655026,12.355747],[-13.655033,12.355989],[-13.654956,12.356138],[-13.654662,12.356216],[-13.654448,12.356413],[-13.654278,12.356478],[-13.653649,12.356564],[-13.652871,12.3570385],[-13.652689,12.357515],[-13.652683,12.3576355],[-13.652854,12.358003],[-13.652864,12.358138],[-13.6527605,12.35847],[-13.652793,12.358614],[-13.653203,12.359024],[-13.653325,12.359218],[-13.653283,12.359423],[-13.653337,12.359816],[-13.653311,12.359929],[-13.653206,12.360122],[-13.653003,12.360304],[-13.652956,12.360685],[-13.653021,12.360839],[-13.653258,12.360935],[-13.653372,12.361039],[-13.653415,12.361215],[-13.653589,12.361389],[-13.653748,12.36166],[-13.653765,12.361843],[-13.653748,12.361949],[-13.653599,12.362149],[-13.653322,12.3622875],[-13.652642,12.362743],[-13.652524,12.362901],[-13.652454,12.363059],[-13.652392,12.3633995],[-13.652392,12.363468],[-13.652568,12.363705],[-13.652441,12.364397],[-13.65246,12.364835],[-13.652395,12.364932],[-13.651867,12.365265],[-13.651627,12.365538],[-13.651471,12.36583],[-13.651349,12.366359],[-13.651531,12.366734],[-13.651394,12.367154],[-13.651434,12.367306],[-13.651683,12.367639],[-13.651738,12.368256],[-13.652098,12.368473],[-13.652108,12.368755],[-13.652289,12.368917],[-13.652375,12.3692465],[-13.652521,12.369453],[-13.652447,12.369767],[-13.652482,12.369913],[-13.652587,12.36998],[-13.653057,12.369894],[-13.653194,12.370009],[-13.653377,12.370086],[-13.653761,12.370131],[-13.653857,12.370237],[-13.653897,12.370434],[-13.654007,12.370561],[-13.654362,12.370585],[-13.654504,12.370636],[-13.654604,12.370738],[-13.654939,12.370809],[-13.655195,12.370985],[-13.655606,12.370991],[-13.65601,12.371132],[-13.656116,12.371258],[-13.656248,12.371643],[-13.6563635,12.3717785],[-13.65689,12.371971],[-13.657011,12.372143],[-13.657274,12.372269],[-13.657431,12.37246],[-13.657496,12.372611],[-13.657461,12.372978],[-13.657208,12.373283],[-13.657191,12.373371],[-13.657199,12.373485],[-13.657445,12.373782],[-13.6576805,12.3741665],[-13.657759,12.374447],[-13.65762,12.374909],[-13.657601,12.375181],[-13.657654,12.375303],[-13.657986,12.375557],[-13.658109,12.375565],[-13.6581955,12.375547],[-13.658422,12.375172],[-13.658519,12.375111],[-13.658781,12.375162],[-13.658999,12.375328],[-13.659043,12.37574],[-13.65899,12.375923],[-13.658816,12.376282],[-13.658502,12.376737],[-13.658441,12.376989],[-13.658571,12.377104],[-13.659114,12.377375],[-13.659236,12.377496],[-13.659813,12.378729],[-13.660818,12.379516],[-13.661088,12.380067],[-13.661241,12.380233],[-13.661699,12.381074],[-13.6619835,12.382266],[-13.662179,12.382774],[-13.662794,12.383701],[-13.662921,12.384171],[-13.663029,12.384376],[-13.663116,12.384816],[-13.663468,12.385216],[-13.663947,12.385616],[-13.664025,12.385969],[-13.663967,12.386565],[-13.664025,12.3868475],[-13.6644535,12.387783],[-13.664934,12.388501],[-13.665545,12.389618],[-13.665975,12.390196],[-13.66615,12.390511],[-13.666202,12.39086],[-13.666122,12.391235],[-13.666141,12.3916025],[-13.666342,12.392057],[-13.666411,12.392547],[-13.666508,12.392835],[-13.666332,12.393542],[-13.666062,12.393884],[-13.665707,12.394147],[-13.665873,12.394636],[-13.665793,12.394781],[-13.66572,12.395413],[-13.665843,12.395853],[-13.665597,12.396755],[-13.66559,12.39697],[-13.665615,12.397125],[-13.6657715,12.397475],[-13.665843,12.39791],[-13.666497,12.398598],[-13.666779,12.39904],[-13.666988,12.399468],[-13.667085,12.399915],[-13.667031,12.40015],[-13.667076,12.400683],[-13.666724,12.401769],[-13.666706,12.402093],[-13.666796,12.40234],[-13.666784,12.402424],[-13.666634,12.402559],[-13.666634,12.402736],[-13.666706,12.402898],[-13.666582,12.403092],[-13.666501,12.403609],[-13.666544,12.403966],[-13.666465,12.404118],[-13.66635,12.404213],[-13.666296,12.4043865],[-13.666341,12.404565],[-13.666319,12.404677],[-13.666146,12.404984],[-13.666319,12.405486],[-13.666263,12.405626],[-13.666,12.405821],[-13.665681,12.406211],[-13.665495,12.406673],[-13.665495,12.406996],[-13.665415,12.4072275],[-13.665243,12.407442],[-13.664998,12.4076],[-13.663911,12.407937],[-13.663838,12.4080925],[-13.663664,12.408299],[-13.663203,12.408359],[-13.663093,12.408429],[-13.662855,12.408969],[-13.662907,12.409301],[-13.6628275,12.409475],[-13.662741,12.409572],[-13.6625395,12.409641],[-13.662058,12.409711],[-13.661832,12.409957],[-13.661753,12.410254],[-13.661771,12.410464],[-13.661981,12.410936],[-13.661797,12.411067],[-13.66142,12.410961],[-13.661203,12.411083],[-13.661088,12.411277],[-13.661107,12.411539],[-13.661184,12.411669],[-13.661605,12.412089],[-13.661605,12.4123335],[-13.661509,12.412438],[-13.661377,12.412499],[-13.661107,12.412491],[-13.6609745,12.412535],[-13.660731,12.412693],[-13.66024,12.413137],[-13.659621,12.4133215],[-13.659209,12.413532],[-13.659114,12.413733],[-13.658921,12.413941],[-13.658703,12.413925],[-13.658494,12.413697],[-13.658405,12.413679],[-13.658249,12.413802],[-13.658056,12.414056],[-13.6576805,12.414205],[-13.657593,12.414335],[-13.657515,12.41465],[-13.657199,12.415086],[-13.657112,12.415463],[-13.657214,12.41619],[-13.657194,12.416278],[-13.656979,12.41651],[-13.656969,12.416893],[-13.656876,12.416952],[-13.656581,12.416938],[-13.656108,12.41666],[-13.655557,12.416991],[-13.65553,12.4170685],[-13.655581,12.417228],[-13.6559725,12.4175005],[-13.656148,12.417676],[-13.656153,12.417841],[-13.656024,12.418175],[-13.6559725,12.418581],[-13.655901,12.418761],[-13.6557,12.418983],[-13.655714,12.419082],[-13.655792,12.419137],[-13.6558075,12.419288],[-13.655736,12.419441],[-13.655721,12.419684],[-13.655576,12.419863],[-13.655432,12.420388],[-13.655339,12.420523],[-13.655076,12.420662],[-13.654959,12.420929],[-13.654928,12.421115],[-13.655015,12.421424],[-13.654706,12.42201],[-13.654789,12.42231],[-13.654758,12.422439],[-13.6546755,12.422515],[-13.654597,12.422813],[-13.654479,12.422934],[-13.654284,12.422942],[-13.654192,12.422999],[-13.653794,12.423066],[-13.653567,12.423273],[-13.653383,12.42334],[-13.652117,12.423369],[-13.651992,12.423581],[-13.6517725,12.423633],[-13.651375,12.423843],[-13.651339,12.424028],[-13.651051,12.424128],[-13.650866,12.424251],[-13.650737,12.424271],[-13.65032,12.424605],[-13.650144,12.424632],[-13.649918,12.424745],[-13.649819,12.424864],[-13.649609,12.424966],[-13.649433,12.425264],[-13.649274,12.425358],[-13.648707,12.425476],[-13.648572,12.425556],[-13.648132,12.425981],[-13.648122,12.426223],[-13.648213,12.426475],[-13.648198,12.426619],[-13.6481285,12.426747],[-13.647871,12.426906],[-13.647771,12.427105],[-13.647665,12.4272],[-13.647318,12.427481],[-13.647137,12.427569],[-13.646797,12.427614],[-13.646478,12.427801],[-13.646299,12.427801],[-13.64584,12.427647],[-13.645171,12.427257],[-13.644924,12.427183],[-13.644736,12.427187],[-13.644129,12.4277315],[-13.643819,12.427876],[-13.643609,12.427905],[-13.643077,12.427854],[-13.642369,12.427514],[-13.641681,12.42751],[-13.641372,12.427609],[-13.641023,12.427839],[-13.640785,12.428186],[-13.64053,12.428277],[-13.640144,12.428625],[-13.6395235,12.428918],[-13.639207,12.428976],[-13.638571,12.428918],[-13.63839,12.428963],[-13.638234,12.429086],[-13.637978,12.429127],[-13.637837,12.429086],[-13.637736,12.429128],[-13.637654,12.429221],[-13.63752,12.429353],[-13.637333,12.429489],[-13.637087,12.429588],[-13.636824,12.429635],[-13.636476,12.429635],[-13.63619,12.429635],[-13.636041,12.429657],[-13.6359215,12.4296875],[-13.635788,12.429771],[-13.635658,12.429881],[-13.635493,12.429939],[-13.635261,12.430049],[-13.635063,12.430106],[-13.634877,12.430171],[-13.6363735,12.432759],[-13.636548,12.4645405],[-13.641637,12.489885],[-13.645182,12.497088],[-13.645277,12.497578],[-13.645387,12.497739],[-13.645642,12.497856],[-13.645803,12.49801],[-13.645854,12.498171],[-13.645987,12.498361],[-13.646265,12.498551],[-13.646381,12.498858],[-13.64655,12.499012],[-13.646858,12.49913],[-13.646938,12.499284],[-13.646968,12.499512],[-13.64707,12.499657],[-13.647494,12.500009],[-13.647737,12.500396],[-13.648028,12.500741],[-13.648139,12.500981],[-13.648125,12.501202],[-13.648044,12.501348],[-13.647904,12.501451],[-13.647868,12.501567],[-13.647978,12.50167],[-13.648139,12.501648],[-13.648469,12.501729],[-13.648687,12.501948],[-13.6488285,12.502248],[-13.648841,12.5026],[-13.648989,12.502827],[-13.6490755,12.502878],[-13.649185,12.502863],[-13.649324,12.502754],[-13.649669,12.502717],[-13.649933,12.503082],[-13.6502905,12.503281],[-13.650533,12.503735],[-13.650745,12.503793],[-13.651046,12.503771],[-13.651163,12.503852],[-13.65125,12.503983],[-13.6512575,12.504122],[-13.651338,12.50424],[-13.65147,12.504335],[-13.6516905,12.504341],[-13.652019,12.504467],[-13.652151,12.504817],[-13.6522455,12.504884],[-13.652524,12.504912],[-13.652589,12.504964],[-13.652627,12.50514],[-13.652501,12.505666],[-13.652539,12.505793],[-13.652867,12.506025],[-13.652912,12.506354],[-13.652875,12.506509],[-13.652407,12.506919],[-13.652407,12.507035],[-13.652554,12.507321],[-13.652516,12.50746],[-13.652208,12.50765],[-13.652283,12.507753],[-13.652948,12.507914],[-13.653058,12.508082],[-13.653234,12.508704],[-13.653066,12.509064],[-13.653095,12.5092535],[-13.653717,12.509657],[-13.653761,12.509744],[-13.653703,12.509891],[-13.65352,12.510022],[-13.653482,12.510169],[-13.65352,12.510285],[-13.653725,12.510512],[-13.653782,12.510689],[-13.65382,12.511171],[-13.653965,12.511421],[-13.65412,12.51191],[-13.654492,12.512314],[-13.654595,12.512519],[-13.654602,12.513082],[-13.6547785,12.513309],[-13.655034,12.51347],[-13.655627,12.5135355],[-13.655848,12.51366],[-13.656015,12.513844],[-13.656411,12.514085],[-13.657019,12.514949],[-13.657325,12.515154],[-13.657407,12.515279],[-13.657356,12.515476],[-13.657377,12.515534],[-13.657457,12.515601],[-13.65778,12.515571],[-13.657962,12.515601],[-13.65808,12.515746],[-13.658145,12.515966],[-13.658248,12.516084],[-13.6584015,12.516134],[-13.658498,12.516245],[-13.658578,12.516427],[-13.65901,12.517006],[-13.659455,12.517312],[-13.659587,12.517519],[-13.659587,12.517731],[-13.659522,12.518016],[-13.6592655,12.51839],[-13.658995,12.518529],[-13.658958,12.518617],[-13.659017,12.518712],[-13.659353,12.518917],[-13.659477,12.519085],[-13.659493,12.51929],[-13.659338,12.519612],[-13.659383,12.519751],[-13.660254,12.519816],[-13.660524,12.520139],[-13.660824,12.520124],[-13.661104,12.519971],[-13.661411,12.519912],[-13.661653,12.520102],[-13.6619005,12.520139],[-13.662077,12.520124],[-13.662392,12.5199995],[-13.662625,12.519978],[-13.662816,12.520094],[-13.662948,12.520299],[-13.6632185,12.520447],[-13.663394,12.520482],[-13.663818,12.520343],[-13.664023,12.520337],[-13.664346,12.520511],[-13.664551,12.520469],[-13.664931,12.520198],[-13.665291,12.520087],[-13.665335,12.519971],[-13.665466,12.519854],[-13.666336,12.519561],[-13.666703,12.519517],[-13.666879,12.519568],[-13.667077,12.519494],[-13.667252,12.519589],[-13.667538,12.519605],[-13.667793,12.519561],[-13.66887,12.519531],[-13.669287,12.5197],[-13.670034,12.519633],[-13.671008,12.519824],[-13.671439,12.520105],[-13.684878,12.555673],[-13.709542,12.607889],[-13.708147,12.675614],[-13.738634,12.676114],[-13.804629,12.675864],[-13.823389,12.677311],[-13.8233795,12.676161],[-13.84448,12.675976],[-13.991619,12.67579],[-13.995,12.67614],[-13.99937,12.6765995],[-14.00569,12.677269],[-14.154475,12.676516],[-14.15914,12.67486],[-14.16947,12.6765995],[-14.2517395,12.676889],[-14.27047,12.6769495],[-14.3233795,12.676505],[-14.425672,12.679753],[-14.437853,12.679571],[-14.50801,12.677119],[-14.894385,12.6787405],[-14.895206,12.678755],[-14.9024515,12.677283],[-14.909494,12.678345],[-14.9129,12.678253],[-15.12243,12.685808],[-15.141412,12.685799],[-15.163646,12.686238],[-15.170442,12.6860075],[-15.173352,12.6853285],[-15.175949,12.6851],[-15.179071,12.684754],[-15.183822,12.68193],[-15.189217,12.680225],[-15.196767,12.676603],[-15.200118,12.675362],[-15.219755,12.66766],[-15.234964,12.661308],[-15.239715,12.659613],[-15.244776,12.656443],[-15.25858,12.64784],[-15.270664,12.640474],[-15.278322,12.637076],[-15.282739,12.634811],[-15.308196,12.623931],[-15.312872,12.622316],[-15.329549,12.616564],[-15.337639,12.613723],[-15.339688,12.611459],[-15.350785,12.5994625],[-15.354766,12.594936],[-15.355079,12.594611],[-15.3635,12.585765],[-15.369429,12.579544],[-15.375672,12.574562],[-15.380306,12.571047],[-15.387314,12.565954],[-15.391728,12.562891],[-15.398734,12.557681],[-15.404766,12.552925],[-15.417373,12.544424],[-15.429051,12.537045],[-15.480844,12.515338],[-15.49013,12.512198],[-15.507907,12.504824],[-15.519225,12.499484],[-15.537432,12.491988],[-15.559524,12.481318],[-15.574169,12.474731],[-15.592162,12.467685],[-15.597337,12.465295],[-15.607455,12.459739],[-15.619309,12.4531555],[-15.627921,12.449067],[-15.635891,12.445883],[-15.651083,12.438829],[-15.666154,12.431902],[-15.675952,12.42781],[-15.681125,12.425419],[-15.683064,12.424853],[-15.691366,12.425962],[-15.695333,12.426495],[-15.699567,12.427072],[-15.710566,12.428733],[-15.729122,12.431741],[-15.749399,12.434851],[-15.816844,12.442413],[-15.828745,12.443923],[-15.840646,12.445433],[-15.868368,12.448627],[-15.884005,12.449933],[-15.89001,12.450276],[-15.891376,12.45023],[-15.8935,12.450011],[-15.895762,12.449443],[-15.901907,12.44897],[-15.91537,12.447225],[-15.939943,12.444201],[-15.951365,12.443031],[-15.953417,12.442799],[-15.982351,12.452307],[-15.992816,12.455884],[-15.997679,12.457223],[-16.001455,12.458331],[-16.001678,12.458799],[-16.006645,12.460924],[-16.014523,12.463725],[-16.022266,12.466651],[-16.027267,12.468541],[-16.032446,12.470664],[-16.036554,12.47167],[-16.03882,12.472447],[-16.05025,12.472404],[-16.06103,12.47191],[-16.068895,12.471653],[-16.084412,12.468082],[-16.094753,12.46578],[-16.105415,12.463142],[-16.118338,12.459924],[-16.126305,12.457857],[-16.138586,12.455201],[-16.149256,12.45267],[-16.157001,12.450721],[-16.159584,12.449914],[-16.16261,12.449675],[-16.171995,12.451785],[-16.1802,12.453893],[-16.18668,12.456243],[-16.192396,12.457122],[-16.20061,12.460475],[-16.202766,12.461252],[-16.21278,12.458269],[-16.224506,12.4533615],[-16.230864,12.449725],[-16.231277,12.449489],[-16.234186,12.447776],[-16.234928,12.447429],[-16.240208,12.444926],[-16.245909,12.442749],[-16.250856,12.440357],[-16.263556,12.435326],[-16.27034,12.432464],[-16.278402,12.427797],[-16.285927,12.424027],[-16.293129,12.420259],[-16.302807,12.414906],[-16.311405,12.410904],[-16.32108,12.404872],[-16.329994,12.399738],[-16.336548,12.395304],[-16.342562,12.391657],[-16.345043,12.391075],[-16.354183,12.387305],[-16.36365,12.382277],[-16.370737,12.37829],[-16.37536,12.375897],[-16.379087,12.367507],[-16.381,12.362525],[-16.38585,12.3630705],[-16.398798,12.364695],[-16.409472,12.365769],[-16.415718,12.366189],[-16.418312,12.366294],[-16.424341,12.365809],[-16.429193,12.365106],[-16.437805,12.364157],[-16.44308,12.363451],[-16.446096,12.3635435],[-16.448355,12.362853],[-16.452988,12.363262],[-16.459877,12.361101],[-16.468498,12.360377],[-16.476467,12.359656],[-16.484865,12.358254],[-16.494652,12.355489],[-16.49939,12.354215],[-16.50789,12.351681],[-16.512518,12.350644],[-16.514347,12.350516],[-16.521152,12.353985],[-16.524939,12.354868],[-16.531092,12.356642],[-16.53562,12.357629],[-16.540798,12.359182],[-16.543497,12.359962],[-16.545229,12.360404],[-16.54749,12.360392],[-16.550182,12.359923],[-16.572237,12.354482],[-16.582678,12.35228],[-16.59075,12.350533],[-16.597088,12.348126],[-16.600323,12.347656],[-16.60305,12.347198],[-16.603115,12.347187],[-16.606028,12.346944],[-16.608936,12.347261],[-16.61326,12.34927],[-16.61995,12.351491],[-16.624163,12.353273],[-16.628164,12.355058],[-16.634434,12.357623],[-16.638103,12.359409],[-16.64112,12.359499],[-16.645864,12.35947],[-16.65233,12.359775],[-16.655136,12.359866],[-16.658152,12.359848],[-16.668262,12.358099],[-16.672619,12.357989],[-16.689722,12.359201],[-16.717346,12.339489]]]}}
