{"type":"Feature","id":"relation/1872673","properties":{"type":"relation","id":1872673,"tags":{"ISO3166-1":"WS","ISO3166-1:alpha2":"WS","ISO3166-1:alpha3":"WSM","ISO3166-1:numeric":"882","admin_level":"2","boundary":"administrative","flag":"http://upload.wikimedia.org/wikipedia/commons/3/31/Flag_of_Samoa.svg","is_in:continent":"Oceania","name":"Sāmoa","name:am":"ሳሞአ","name:ar":"ساموا","name:be":"Самоа","name:bg":"Самоа","name:bm":"Samowa","name:bn":"সামোয়া","name:bo":"ནུ་བ་ས་མོ་འ།","name:br":"Samoa","name:ca":"Samoa","name:cs":"Samoa","name:da":"Samoa","name:de":"Samoa","name:dz":"ས་མོ་ཨ","name:ee":"Samoa nutome","name:el":"Σαμόα","name:en":"Samoa","name:eo":"Samoo","name:es":"Samoa","name:fa":"ساموآ","name:ff":"Samowaa","name:fi":"Samoa","name:fo":"Sámoa","name:fr":"Samoa","name:fy":"Samoä","name:ga":"Samó","name:gd":"Samotha","name:gu":"સમોઆ","name:gv":"Samoa","name:ha":"Samowa","name:he":"סמואה","name:hi":"समोआ","name:hr":"Samoa","name:hu":"Szamoa","name:hy":"Սամոա","name:is":"Samóa","name:it":"Samoa","name:ja":"サモア","name:ka":"სამოა","name:kab":"Samwa","name:km":"សាមូអា","name:kn":"ಸಮೋವಾ","name:ko":"사모아","name:ks":"سیمووا","name:ksh":"Sammoha","name:ku":"Samoa","name:lg":"Samowa","name:li":"Samoa","name:lo":"ຊາມົວ","name:lv":"Samoa","name:mi":"Hāmoa","name:mk":"Самоа","name:ml":"സാമോവ","name:mn":"Самоа","name:mr":"सामोआ","name:ne":"सामोआ","name:nl":"Samoa","name:no":"Samoa","name:or":"ସାମୋଆ","name:pl":"Samoa","name:rn":"Samowa","name:ru":"Самоа","name:sg":"Samoäa","name:si":"සැමෝවා","name:sr":"Самоа","name:sv":"Samoa","name:ta":"சமோவா","name:te":"సమోవా","name:th":"ประเทศซามัว","name:ti":"ሳሞአ","name:to":"Haʻamoa","name:tzl":"Samovia","name:uk":"Самоа","name:ur":"ساموآ","name:yo":"Orílẹ́ède Samọ","name:zh":"萨摩亚","name:zu":"i-Samoa","official_name":"Malo Sa'oloto Tuto'atasi o Sāmoa","official_name:be":"Незалежная Дзяржава Самоа","official_name:de":"Unabhängiger Staat Samoa","official_name:en":"Independent State of Samoa","official_name:es":"Estado Independiente de Samoa","official_name:ja":"サモア独立国","official_name:ku":"Dewleta Serbixweya Samoa","official_name:lb":"Unabhängiger Stat Samoa","official_name:lt":"Samoa Nepriklausomoji Valstybė","official_name:no":"Den selvstendige staten Samoa","official_name:pl":"Niezależne Państwo Samoa","official_name:ru":"Независимое Государство Самоа","official_name:sv":"Självständiga staten Samoa","official_name:vi":"Nhà nước Độc lập Samoa","timezone":"Pacific/Apia","type":"boundary","wikidata":"Q683","wikipedia":"en:Sāmoa"},"labels":[{"id":"node/1529444079","role":"label","coordinates":[-172.12004,-13.769388]},{"id":"node/388977545","role":"admin_centre","coordinates":[-171.76927,-13.834369]}]},"geometry":{"type":"Polygon","coordinates":[[[-171.475,-14.266069],[-171.45796,-14.271101],[-171.4439,-14.273869],[-171.42241,-14.276262],[-171.39754,-14.277091],[-171.36159,-14.272521],[-171.32712,-14.261911],[-171.29486,-14.245435],[-171.2648,-14.222574],[-171.23958,-14.194696],[-171.22435,-14.1704645],[-171.22006,-14.162763],[-171.21065,-14.139252],[-171.2069,-14.127735],[-171.20253,-14.106231],[-171.20042,-14.088985],[-171.19444,-14.042916],[-171.19292,-14.007587],[-171.1965,-13.973968],[-171.20776,-13.93698],[-171.22365,-13.906466],[-171.24455,-13.879068],[-171.2699,-13.855527],[-171.2888,-13.840465],[-171.3189,-13.814038],[-171.34843,-13.796331],[-171.40242,-13.7615],[-171.43471,-13.73671],[-171.45406,-13.722608],[-171.48737,-13.701057],[-171.51012,-13.690217],[-171.53378,-13.681498],[-171.56627,-13.674516],[-171.59709,-13.671488],[-171.62862,-13.663266],[-171.65973,-13.645711],[-171.71022,-13.625703],[-171.7544,-13.606369],[-171.78633,-13.596825],[-171.81886,-13.592492],[-171.86536,-13.593941],[-171.94464,-13.600848],[-171.97829,-13.609817],[-171.98375,-13.592083],[-172.02232,-13.499093],[-172.03954,-13.468713],[-172.07346,-13.423374],[-172.09879,-13.391251],[-172.11664,-13.370453],[-172.15053,-13.32875],[-172.17122,-13.308143],[-172.19229,-13.291435],[-172.22269,-13.272785],[-172.24768,-13.260527],[-172.28627,-13.247476],[-172.3434,-13.238189],[-172.3808,-13.239763],[-172.43459,-13.250957],[-172.44563,-13.2516985],[-172.48277,-13.261134],[-172.49234,-13.2609],[-172.52492,-13.26525],[-172.5529,-13.273604],[-172.5731,-13.276614],[-172.60675,-13.284128],[-172.62827,-13.29246],[-172.64317,-13.293654],[-172.67389,-13.300341],[-172.68181,-13.3033695],[-172.68733,-13.301103],[-172.72455,-13.29163],[-172.76291,-13.289121],[-172.81522,-13.294043],[-172.84314,-13.300218],[-172.8696,-13.309994],[-172.89787,-13.32538],[-172.92273,-13.344325],[-172.94717,-13.368488],[-172.96503,-13.390701],[-172.9835,-13.418124],[-172.99977,-13.455367],[-173.00755,-13.489489],[-173.00919,-13.523687],[-173.00487,-13.557661],[-172.9947,-13.590425],[-172.979,-13.621022],[-172.96109,-13.649869],[-172.9369,-13.681118],[-172.9058,-13.708785],[-172.87439,-13.733266],[-172.85423,-13.753526],[-172.827,-13.773508],[-172.81305,-13.789286],[-172.7901,-13.814585],[-172.73538,-13.893724],[-172.71031,-13.918598],[-172.68657,-13.942582],[-172.65959,-13.963536],[-172.6335,-13.978134],[-172.60596,-13.989828],[-172.56676,-14.000253],[-172.53136,-14.003617],[-172.48936,-14.000587],[-172.47028,-13.997043],[-172.4068,-13.990461],[-172.35272,-13.97972],[-172.33472,-13.986986],[-172.31354,-13.992712],[-172.27058,-14.002811],[-172.23624,-14.022114],[-172.20578,-14.039924],[-172.1917,-14.052791],[-172.17108,-14.068605],[-172.11836,-14.107401],[-172.0773,-14.137087],[-172.0382,-14.167317],[-172.0067,-14.185271],[-171.97733,-14.196472],[-171.9469,-14.203115],[-171.9264,-14.2052765],[-171.9143,-14.206449],[-171.88759,-14.205195],[-171.86984,-14.216595],[-171.84132,-14.230337],[-171.81097,-14.239627],[-171.78476,-14.243904],[-171.73494,-14.246127],[-171.7171,-14.246962],[-171.68648,-14.248693],[-171.62047,-14.243504],[-171.57993,-14.246697],[-171.53818,-14.247309],[-171.51918,-14.245613],[-171.49205,-14.259986],[-171.475,-14.266069]]]}}
