{"type":"Feature","id":"relation/1504699","properties":{"type":"relation","id":1504699,"tags":{"addr:country":"RU","addr:district":"Кунгурский район","addr:postcode":"617420","addr:region":"Пермский край","addr:subdistrict":"Сергинское сельское поселение","boundary":"administrative","landuse":"residential","name":"Ёлкино","name:ja":"エルキノ","name:ru":"Ёлкино","official_status":"ru:деревня","place":"hamlet","population":"7","population:date":"2010","type":"boundary"},"labels":[]},"geometry":{"type":"Polygon","coordinates":[[[56.85135,57.809666],[56.851707,57.809517],[56.851986,57.80947],[56.852013,57.809578],[56.852276,57.809746],[56.85252,57.809803],[56.853306,57.809826],[56.85356,57.809586],[56.85352,57.80948],[56.852665,57.808956],[56.85274,57.8087],[56.852997,57.808525],[56.853073,57.808094],[56.853165,57.808037],[56.853107,57.807938],[56.85319,57.807755],[56.853317,57.807716],[56.85344,57.80776],[56.853428,57.80787],[56.853924,57.808018],[56.854034,57.808224],[56.855522,57.80905],[56.856113,57.8092],[56.856564,57.80922],[56.85675,57.80932],[56.85684,57.809643],[56.856934,57.809757],[56.85678,57.809956],[56.856133,57.811577],[56.85377,57.81098],[56.85314,57.81091],[56.852467,57.81084],[56.85104,57.810505],[56.850174,57.81044],[56.84877,57.810375],[56.84873,57.81014],[56.85135,57.809666]]]}}
