{"type":"Feature","id":"relation/2628520","properties":{"type":"relation","id":2628520,"tags":{"admin_level":"7","alt_name:ru":"Левкосия","boundary":"administrative","int_name":"Nicosia","name":"Λευκωσία - Lefkoşa","name:af":"Nicosia","name:am":"ሌፍኮዚያ","name:an":"Nicosia","name:ar":"نيقوسيا","name:arz":"نيكوسيا","name:az":"Nikosiya","name:be":"Нікасія","name:bg":"Никозия","name:bn":"নিকোসিয়া","name:bo":"ནེ་ཁོ་ཤི་ཡ།","name:br":"Nikozia","name:bs":"Nikozija","name:ca":"Nicòsia","name:ckb":"نیکۆسیا","name:crh":"Lefkoşa","name:cs":"Nikósie","name:cy":"Nicosia","name:da":"Nicosia","name:de":"Nikosia","name:el":"Λευκωσία","name:en":"Nicosia","name:eo":"Nikozio","name:es":"Nicosia","name:fa":"نیکوزیا","name:fr":"Nicosie","name:ga":"An Leafcóis","name:gag":"Lefkoşa","name:gd":"Nicosia","name:gl":"Nicosia","name:gv":"Lefkosia","name:he":"ניקוסיה","name:hi":"निकोसिया","name:hr":"Nikozija","name:ht":"Nikozi","name:hu":"Nicosia","name:hy":"Նիկոսիա","name:is":"Nikósía","name:it":"Nicosia","name:ja":"ニコシア","name:ka":"ნიქოზია","name:kaa":"Arqa Nikosiya","name:kk":"Никосия","name:kl":"Nicosia","name:ko":"니코시아","name:ky":"Лефкоша","name:la":"Nicosia","name:lad":"Nikosiya","name:lij":"Nicosia","name:lmo":"Nicoséa","name:lt":"Nikosija","name:lv":"Nikosija","name:mdf":"Никосия","name:mi":"Nicosia","name:mk":"Левкозија","name:mr":"निकोसिया","name:ms":"Nicosia","name:mzn":"نیکوزیا","name:nah":"Nicosia","name:nan":"Nicosia","name:nap":"Nicosìa","name:nl":"Nicosia","name:oc":"Nicosia","name:os":"Никоси","name:pl":"Nikozja","name:pms":"Nicosìa","name:pnb":"نیکوسیا","name:pnt":"Λευκωσίαν","name:pt":"Nicósia","name:ro":"Nicosia","name:ru":"Никосия","name:rw":"Nikosiya","name:sah":"Никосия","name:sco":"Nicosia","name:sh":"Nikozija","name:sk":"Nikózia","name:sl":"Nikozija","name:sq":"Nicosia","name:sr":"Никозија","name:stq":"Nicosia","name:sv":"Nicosia","name:ta":"நிக்கோசியா","name:tg":"Никосия","name:th":"นิโคเซีย","name:tl":"Nicosia","name:tr":"Lefkoşa","name:tt":"Никосия","name:udm":"Никосия","name:ug":"نىكوسىيە","name:uk":"Нікосія","name:ur":"نیکوسیا","name:vep":"Nikosii","name:vi":"Nicosia","name:war":"Nicosia","name:yi":"ניקאסיע","name:yo":"Nicosia","name:zh":"尼科西亚","type":"boundary"},"labels":[{"id":"node/1893015330","role":"admin_centre","coordinates":[33.364723,35.173927]}]},"geometry":{"type":"Polygon","coordinates":[[[33.406628,35.164593],[33.406647,35.191742],[33.40665,35.1954],[33.406654,35.203632],[33.405277,35.202938],[33.399097,35.20431],[33.398415,35.20637],[33.394295,35.205692],[33.388798,35.209812],[33.384678,35.21049],[33.383305,35.21049],[33.380554,35.207752],[33.379875,35.20912],[33.375755,35.209812],[33.37644,35.207752],[33.37438,35.20431],[33.371635,35.205692],[33.370945,35.20843],[33.366135,35.205],[33.366135,35.203632],[33.36065,35.20225],[33.36202,35.20019],[33.358585,35.19882],[33.358585,35.197453],[33.35996,35.195393],[33.357895,35.192642],[33.358585,35.19195],[33.352406,35.19195],[33.35217,35.191246],[33.35204,35.190746],[33.351715,35.18989],[33.35146,35.186787],[33.35127,35.18448],[33.351166,35.183243],[33.351143,35.18295],[33.351036,35.181652],[33.34483,35.182323],[33.339836,35.18563],[33.337948,35.18584],[33.334106,35.18826],[33.330906,35.18901],[33.33127,35.19065],[33.329895,35.191124],[33.328636,35.19433],[33.323586,35.19421],[33.323135,35.19519],[33.320328,35.195454],[33.319088,35.19586],[33.317707,35.195362],[33.317562,35.167744],[33.31715,35.16754],[33.316887,35.167103],[33.29118,35.15886],[33.282936,35.15886],[33.28569,35.15336],[33.28843,35.15336],[33.28836,35.151207],[33.285877,35.14528],[33.280067,35.14383],[33.274887,35.14254],[33.276646,35.137924],[33.272137,35.1343],[33.279507,35.124477],[33.278805,35.117577],[33.277637,35.11507],[33.278214,35.11436],[33.280216,35.11344],[33.280296,35.109455],[33.28239,35.108868],[33.28308,35.101997],[33.28514,35.10063],[33.28915,35.101223],[33.287888,35.098568],[33.29124,35.09803],[33.33458,35.098568],[33.334297,35.107468],[33.334743,35.10814],[33.334896,35.108395],[33.33514,35.108932],[33.33538,35.108864],[33.335503,35.109097],[33.335716,35.109505],[33.336205,35.109425],[33.336597,35.109856],[33.336994,35.110195],[33.336655,35.110367],[33.336975,35.110924],[33.337276,35.110867],[33.337776,35.11258],[33.338203,35.112495],[33.33867,35.112392],[33.341415,35.1117],[33.342594,35.111206],[33.343193,35.110775],[33.344208,35.110386],[33.345707,35.110195],[33.345737,35.110172],[33.347614,35.109554],[33.346935,35.108864],[33.348995,35.106113],[33.347614,35.104053],[33.350365,35.102688],[33.351055,35.104053],[33.356544,35.104748],[33.35676,35.099995],[33.358547,35.085476],[33.356434,35.08085],[33.362564,35.07784],[33.362488,35.074436],[33.362465,35.07274],[33.36394,35.06895],[33.36752,35.06866],[33.37281,35.070103],[33.377518,35.070103],[33.381687,35.070946],[33.382317,35.078533],[33.393852,35.07896],[33.397343,35.080833],[33.39576,35.08699],[33.392273,35.09241],[33.393913,35.10058],[33.394478,35.10752],[33.395092,35.11247],[33.392216,35.117657],[33.393234,35.12011],[33.396915,35.119766],[33.397278,35.12103],[33.398415,35.12054],[33.402004,35.124096],[33.413677,35.12685],[33.4246,35.127396],[33.428772,35.127605],[33.42892,35.12761],[33.43019,35.12857],[33.434116,35.13153],[33.439663,35.134148],[33.44709,35.139137],[33.44579,35.156536],[33.42912,35.160316],[33.428627,35.16998],[33.420383,35.172733],[33.406628,35.164593]]]}}
