{"type":"Feature","id":"relation/52822","properties":{"type":"relation","id":52822,"tags":{"ISO3166-1":"SE","ISO3166-1:alpha2":"SE","ISO3166-1:alpha3":"SWE","ISO3166-1:numeric":"752","admin_level":"2","alt_name:eo":"Svedujo","boundary":"administrative","flag":"http://upload.wikimedia.org/wikipedia/commons/4/4c/Flag_of_Sweden.svg","int_name":"Sweden","is_in:continent":"Europe","name":"Sverige","name:ab":"Швециа","name:ace":"Swèdia","name:af":"Swede","name:ak":"Sweden","name:als":"Schweden","name:am":"ስዊድን","name:an":"Suecia","name:ang":"Swēoland","name:ar":"السويد","name:arc":"ܣܘܝܕ","name:arz":"السويد","name:ast":"Suecia","name:az":"İsveç","name:ba":"Швеция","name:bar":"Schwedn","name:bat-smg":"Švedėjė","name:bcl":"Suesya","name:be":"Швецыя","name:be-tarask":"Швэцыя","name:bg":"Швеция","name:bi":"Sweden","name:bm":"Swedi","name:bn":"সুইডেন","name:bo":"སི་ཝེ་དེན།","name:bpy":"সুইডেন","name:br":"Sveden","name:bs":"Švedska","name:bxr":"Швед","name:ca":"Suècia","name:cdo":"Sôi-diēng","name:ce":"Швеци","name:ceb":"Suwesya","name:chr":"ᏍᏫᏕᏂ","name:ckb":"سوید","name:co":"Svezia","name:crh":"İsveç","name:cs":"Švédsko","name:csb":"Szwedzkô","name:cu":"Свєньско","name:cv":"Швеци","name:cy":"Sweden","name:da":"Sverige","name:de":"Schweden","name:diq":"İswec","name:dsb":"Šwedska","name:dv":"ސުވިޑަން","name:dz":"སུའི་ཌན་","name:ee":"Sweden","name:el":"Σουηδία","name:en":"Sweden","name:eo":"Svedio","name:es":"Suecia","name:et":"Rootsi","name:eu":"Suedia","name:ext":"Suécia","name:fa":"سوئد","name:fi":"Ruotsi","name:fiu-vro":"Roodsi","name:fo":"Svøríki","name:fr":"Suède","name:frp":"Suède","name:frr":"Swärik","name:fur":"Svezie","name:fy":"Sweden","name:ga":"An tSualainn","name:gag":"Şvețiya","name:gan":"瑞典","name:gd":"An t-Suain","name:gl":"Suecia","name:gn":"Suesia","name:gu":"સ્વિડન","name:gv":"Yn Toolynn","name:hak":"Shuì-tién","name:haw":"Kuekene","name:he":"שבדיה","name:hi":"स्वीडन","name:hif":"Sweden","name:hr":"Švedska","name:hsb":"Šwedska","name:ht":"Syèd","name:hu":"Svédország","name:hy":"Շվեդիա","name:ia":"Sveda","name:id":"Swedia","name:ie":"Svedia","name:ilo":"Suésia","name:io":"Suedia","name:is":"Svíþjóð","name:it":"Svezia","name:iu":"ᔅᕗᕆᑭ","name:ja":"スウェーデン","name:jbo":"sueriges","name:jv":"Swédia","name:ka":"შვედეთი","name:kaa":"Shvetsiya","name:kab":"Sswid","name:kbd":"Шуэц","name:kg":"Suedi","name:ki":"Sweden","name:kk":"Швеция","name:kl":"Svenskit Nunaat","name:km":"ស៊ុយអែត","name:kn":"ಸ್ವೀಡನ್","name:ko":"스웨덴","name:koi":"Шведму","name:krc":"Швеция","name:ku":"Swêd","name:kv":"Швеция","name:kw":"Swedherwyk","name:ky":"Швеция","name:la":"Suecia","name:lad":"Suesia","name:lb":"Schweden","name:lez":"Швеция","name:lg":"Swiiden","name:li":"Zwede","name:lij":"Sveçia","name:lmo":"Svezia","name:ln":"Swédi","name:lt":"Švedija","name:ltg":"Švedeja","name:lv":"Zviedrija","name:mdf":"Шведмастор","name:mg":"Soeda","name:mhr":"Швеций","name:mi":"Huītene","name:mk":"Шведска","name:ml":"സ്വീഡൻ","name:mn":"Швед","name:mr":"स्वीडन","name:ms":"Sweden","name:mt":"Żvezja","name:my":"ဆွီဒင်နိုင်ငံ","name:myv":"Швеция Мастор","name:mzn":"سوئد","name:na":"Widen","name:nah":"Suecia","name:nap":"Sguezia","name:nds":"Sweden","name:nds-nl":"Sveden","name:ne":"स्वीडेन","name:new":"स्विदेन","name:nl":"Zweden","name:nn":"Sverige","name:no":"Sverige","name:nov":"Suedia","name:nrm":"Suède","name:oc":"Suècia","name:or":"ସ୍ଵିଡେନ","name:os":"Швеци","name:pa":"ਸਵੀਡਨ","name:pag":"Suesia","name:pam":"Sweden","name:pap":"Suecia","name:pcd":"Suède","name:pih":"Swiiden","name:pl":"Szwecja","name:pms":"Svessia","name:pnb":"سویڈن","name:pnt":"Σουηδία","name:ps":"سويډن","name:pt":"Suécia","name:qu":"Suwidsuyu","name:rm":"Svezia","name:ro":"Suedia","name:roa-rup":"Suidia","name:roa-tara":"Svezzie","name:ru":"Швеция","name:rue":"Швеція","name:rw":"Suwede","name:sa":"स्वीडन","name:sah":"Швеция","name:sc":"Isvetzia","name:scn":"Svezzia","name:sco":"Swaden","name:se":"Ruoŧŧa","name:sh":"Švedska","name:simple":"Sweden","name:sk":"Švédsko","name:sl":"Švedska","name:sm":"Sweden","name:sme":"Ruoŧŧa","name:so":"Iswiidhan","name:sq":"Suedia","name:sr":"Шведска","name:ss":"ISwideni","name:stq":"Sweeden","name:su":"Swédia","name:sv":"Sverige","name:sw":"Uswidi","name:szl":"Szwecyjo","name:ta":"சுவீடன்","name:te":"స్వీడన్","name:tet":"Suésia","name:tg":"Шветсия","name:th":"ประเทศสวีเดน","name:tk":"Şwesiýa","name:tl":"Suwesya","name:tpi":"Suwidan","name:tr":"İsveç","name:tt":"Швеция","name:tw":"Sweden","name:tzl":"Sveiria","name:udm":"Швеция","name:ug":"شۋېتسىيە","name:uk":"Швеція","name:ur":"سویڈن","name:uz":"Shvetsiya","name:vec":"Svèsia","name:vep":"Ročinma","name:vi":"Thụy Điển","name:vls":"Zweedn","name:vo":"Svedän","name:wa":"Suwedwesse","name:war":"Suwesya","name:wo":"Suweed","name:wuu":"瑞典","name:xal":"Сведин Нутг","name:xmf":"შვედეთი","name:yi":"שוועדן","name:yo":"Swídìn","name:zea":"Zweden","name:zh":"瑞典","name:zh-classical":"瑞典","name:zh-min-nan":"Sūi-tián","name:zh-simplified":"瑞典","name:zh-yue":"瑞典","name:zu":"ISwidi","official_name":"Konungariket Sverige","official_name:el":"Βασίλειο της Σουηδίας","official_name:eo":"Reĝlando Svedio","timezone":"Europe/Stockholm","type":"boundary","wikidata":"Q34","wikipedia":"sv:Sverige"},"labels":[{"id":"node/424313277","role":"label","coordinates":[14.520858,59.67497]},{"id":"node/25929985","role":"admin_centre","coordinates":[18.071093,59.325115]}]},"geometry":{"type":"MultiPolygon","coordinates":[[[[11.826245,59.237846],[11.825088,59.237366],[11.821869,59.236027],[11.814359,59.23302],[11.811955,59.23201],[11.805389,59.227814],[11.801098,59.225487],[11.80054,59.22507],[11.800669,59.224854],[11.80024,59.224716],[11.799897,59.22439],[11.799381,59.224194],[11.799295,59.22402],[11.798995,59.22386],[11.798951,59.223644],[11.799124,59.223515],[11.799038,59.22336],[11.799081,59.22316],[11.798823,59.223007],[11.79878,59.22279],[11.798351,59.22261],[11.798137,59.222523],[11.798094,59.22224],[11.797793,59.221973],[11.797407,59.2216],[11.797321,59.221184],[11.797278,59.22081],[11.797063,59.220417],[11.7967205,59.22002],[11.796592,59.21971],[11.796506,59.21947],[11.796377,59.219162],[11.796077,59.218857],[11.795304,59.218437],[11.794489,59.218197],[11.794188,59.21791],[11.793802,59.217537],[11.793373,59.21732],[11.792987,59.216988],[11.792771,59.21657],[11.792644,59.21622],[11.792386,59.215847],[11.791871,59.215473],[11.791442,59.215145],[11.790798,59.214813],[11.790326,59.214508],[11.789939,59.21418],[11.789296,59.213387],[11.788695,59.21266],[11.788223,59.212246],[11.787966,59.211872],[11.787537,59.211277],[11.787279,59.210907],[11.786936,59.210705],[11.786721,59.210464],[11.786421,59.210266],[11.785734,59.210136],[11.785133,59.209717],[11.784618,59.209324],[11.784361,59.20888],[11.784103,59.20851],[11.783761,59.207962],[11.783374,59.20728],[11.783073,59.206467],[11.782859,59.20563],[11.783073,59.205128],[11.7830305,59.204334],[11.782902,59.203964],[11.782945,59.202755],[11.782687,59.202335],[11.782258,59.2019],[11.782043,59.201103],[11.782043,59.200623],[11.782258,59.200184],[11.782945,59.199654],[11.783503,59.199196],[11.783631,59.198864],[11.783588,59.19847],[11.782988,59.19761],[11.782687,59.19728],[11.782773,59.196995],[11.783202,59.1966],[11.783846,59.196095],[11.783975,59.195766],[11.783975,59.19539],[11.783846,59.194996],[11.783503,59.194866],[11.782945,59.194664],[11.782644,59.19461],[11.782473,59.19458],[11.782129,59.194317],[11.781871,59.193764],[11.781614,59.193085],[11.780799,59.1879],[11.77655,59.17761],[11.774749,59.17064],[11.775864,59.166565],[11.776078,59.16624],[11.776808,59.165775],[11.776851,59.16558],[11.776507,59.16514],[11.776507,59.1647],[11.776722,59.163467],[11.776679,59.162872],[11.776464,59.160828],[11.776293,59.159393],[11.777151,59.156097],[11.776293,59.14562],[11.777709,59.140297],[11.778095,59.13609],[11.769383,59.126755],[11.766336,59.12116],[11.765118,59.11701],[11.764036,59.11455],[11.764937,59.11455],[11.766138,59.114407],[11.767186,59.11411],[11.767873,59.113834],[11.768328,59.11351],[11.768645,59.113113],[11.769186,59.111454],[11.769512,59.111103],[11.77007,59.110706],[11.771014,59.110252],[11.772448,59.109512],[11.77316,59.109016],[11.773812,59.108444],[11.774277,59.10796],[11.774619,59.107502],[11.775031,59.10692],[11.775306,59.106342],[11.77552,59.10577],[11.775666,59.10512],[11.775803,59.1044],[11.775992,59.103477],[11.776181,59.102947],[11.77655,59.10242],[11.777151,59.101788],[11.777693,59.101383],[11.77831,59.101074],[11.779168,59.10067],[11.780155,59.100197],[11.78067,59.099884],[11.7810135,59.099567],[11.781159,59.099243],[11.781125,59.098827],[11.780817,59.098553],[11.780387,59.098278],[11.779752,59.098076],[11.779168,59.097946],[11.778739,59.098],[11.778464,59.09801],[11.778267,59.097954],[11.778121,59.097824],[11.777409,59.09788],[11.777194,59.09788],[11.776894,59.09775],[11.776722,59.097557],[11.776808,59.097427],[11.777057,59.097115],[11.777039,59.096806],[11.776954,59.096615],[11.776696,59.09645],[11.776439,59.096367],[11.776628,59.09616],[11.776782,59.096146],[11.777125,59.096054],[11.777194,59.095955],[11.776911,59.095844],[11.77661,59.09571],[11.776507,59.095486],[11.776559,59.09528],[11.776387,59.09466],[11.776533,59.094208],[11.776782,59.093212],[11.776885,59.092484],[11.776971,59.09169],[11.777022,59.09081],[11.776885,59.08998],[11.776507,59.08871],[11.775889,59.08706],[11.775606,59.086666],[11.775237,59.08638],[11.77455,59.086212],[11.77419,59.086166],[11.774121,59.086075],[11.77389,59.085938],[11.773203,59.085762],[11.772602,59.08565],[11.772456,59.085533],[11.772001,59.08545],[11.77177,59.08531],[11.771718,59.08512],[11.771546,59.084923],[11.771511,59.084606],[11.771358,59.08412],[11.771212,59.084038],[11.771186,59.083847],[11.771014,59.08373],[11.770671,59.08366],[11.770569,59.083492],[11.770206,59.08343],[11.770206,59.083256],[11.770122,59.0832],[11.769881,59.083267],[11.76971,59.0832],[11.769383,59.082962],[11.768894,59.082504],[11.768456,59.082108],[11.768113,59.081787],[11.767856,59.08163],[11.767667,59.081463],[11.767358,59.081345],[11.767151,59.081123],[11.766869,59.081005],[11.766654,59.08082],[11.766354,59.080643],[11.765967,59.080288],[11.765452,59.080112],[11.765349,59.07989],[11.764869,59.07966],[11.764208,59.079243],[11.763976,59.07898],[11.763693,59.078815],[11.763238,59.07847],[11.76286,59.078182],[11.762637,59.077896],[11.762277,59.077675],[11.762062,59.077435],[11.761684,59.077045],[11.761032,59.07658],[11.760689,59.076275],[11.760483,59.076145],[11.760345,59.07598],[11.76026,59.075832],[11.760311,59.075745],[11.760157,59.07561],[11.759942,59.0756],[11.759599,59.075512],[11.759084,59.07515],[11.758672,59.075],[11.758466,59.074787],[11.758097,59.074657],[11.757985,59.074207],[11.757728,59.074],[11.7576685,59.073895],[11.757367,59.07382],[11.757041,59.073837],[11.756698,59.073765],[11.756423,59.07362],[11.756234,59.073456],[11.7560625,59.073296],[11.755633,59.072956],[11.755522,59.072716],[11.755033,59.07231],[11.752707,59.070553],[11.749986,59.06841],[11.74893,59.067802],[11.748029,59.066128],[11.746999,59.065002],[11.746106,59.063892],[11.745574,59.062954],[11.744819,59.06226],[11.744475,59.061962],[11.744175,59.061256],[11.743248,59.059216],[11.743102,59.058914],[11.742776,59.058586],[11.742433,59.058258],[11.742089,59.057945],[11.741789,59.057507],[11.741128,59.05673],[11.740544,59.055992],[11.739754,59.05527],[11.739101,59.054558],[11.738914,59.054153],[11.738193,59.05355],[11.738021,59.05332],[11.737952,59.05302],[11.738193,59.052826],[11.738193,59.05265],[11.738124,59.052505],[11.7378235,59.05233],[11.737678,59.052063],[11.737437,59.051918],[11.737333,59.0519],[11.73699,59.05184],[11.736493,59.05184],[11.73615,59.05158],[11.736338,59.051426],[11.736253,59.051205],[11.736021,59.05075],[11.735678,59.050415],[11.735284,59.05005],[11.734193,59.049282],[11.731592,59.04765],[11.730561,59.04699],[11.730219,59.046566],[11.729429,59.04528],[11.728957,59.04441],[11.72864,59.044052],[11.728039,59.04371],[11.726683,59.043114],[11.724957,59.04236],[11.723953,59.041687],[11.723155,59.04101],[11.722846,59.04064],[11.722631,59.040245],[11.722486,59.03978],[11.722313,59.03926],[11.721627,59.03864],[11.721001,59.0383],[11.719885,59.038055],[11.71931,59.037914],[11.710624,59.033596],[11.709661,59.030655],[11.705611,59.01538],[11.703843,59.011333],[11.701705,59.006447],[11.695334,58.998882],[11.693683,58.995674],[11.692878,58.994114],[11.689276,58.99116],[11.684999,58.99029],[11.684937,58.990276],[11.684672,58.990204],[11.683914,58.989998],[11.68395,58.989765],[11.683986,58.989536],[11.684332,58.98731],[11.686267,58.986755],[11.692017,58.98512],[11.693535,58.977943],[11.692872,58.977757],[11.690505,58.977093],[11.6896925,58.97632],[11.686011,58.972813],[11.687743,58.967163],[11.688429,58.959904],[11.689082,58.956844],[11.681268,58.950424],[11.673382,58.94196],[11.674354,58.93892],[11.67586,58.935062],[11.674996,58.93488],[11.6742325,58.93488],[11.673334,58.93479],[11.672558,58.934734],[11.671672,58.93471],[11.670992,58.9348],[11.670618,58.934814],[11.67005,58.93481],[11.669848,58.934803],[11.668967,58.93476],[11.664886,58.934875],[11.663758,58.934353],[11.658178,58.93176],[11.658639,58.927467],[11.656672,58.917126],[11.652004,58.906235],[11.636867,58.90799],[11.631308,58.908638],[11.629805,58.907627],[11.628025,58.906574],[11.626307,58.905476],[11.624297,58.90472],[11.623738,58.904533],[11.623584,58.904476],[11.622639,58.90413],[11.620255,58.90314],[11.617647,58.902054],[11.613817,58.900566],[11.612363,58.899998],[11.60707,58.89795],[11.6039295,58.896637],[11.599062,58.894417],[11.594286,58.89224],[11.593028,58.891712],[11.5906315,58.890713],[11.587871,58.89215],[11.585966,58.89368],[11.584847,58.894577],[11.577822,58.897488],[11.577376,58.896664],[11.572636,58.8879],[11.572475,58.887966],[11.570323,58.88885],[11.567905,58.889847],[11.567266,58.890358],[11.561682,58.89541],[11.557667,58.89806],[11.557237,58.898266],[11.556583,58.89858],[11.555852,58.898926],[11.553399,58.89893],[11.55124,58.898186],[11.550772,58.89733],[11.549211,58.89692],[11.548983,58.89664],[11.549414,58.89617],[11.549356,58.89593],[11.548899,58.89576],[11.548852,58.8954],[11.547412,58.895638],[11.546242,58.894497],[11.545462,58.894154],[11.545337,58.89402],[11.545304,58.893814],[11.54537,58.89359],[11.545611,58.89336],[11.545955,58.893208],[11.546267,58.892963],[11.546234,58.89282],[11.546014,58.892628],[11.545396,58.89241],[11.544953,58.892162],[11.544466,58.891537],[11.544203,58.891144],[11.544034,58.890713],[11.5440855,58.890366],[11.543971,58.8901],[11.5436735,58.88991],[11.543003,58.889656],[11.542695,58.88937],[11.542617,58.88904],[11.542733,58.88869],[11.542532,58.888237],[11.542221,58.888035],[11.541933,58.888023],[11.54167,58.88813],[11.541355,58.88826],[11.540868,58.888332],[11.540594,58.888283],[11.540219,58.887997],[11.539995,58.8877],[11.539757,58.88674],[11.539614,58.886597],[11.539351,58.88642],[11.539043,58.886257],[11.538809,58.88617],[11.538516,58.886204],[11.538326,58.886215],[11.5381,58.886215],[11.537801,58.88615],[11.537151,58.886124],[11.537027,58.886063],[11.536905,58.88589],[11.536722,58.885773],[11.536503,58.885704],[11.536433,58.885647],[11.536396,58.885544],[11.536175,58.88545],[11.53578,58.885353],[11.535359,58.885315],[11.534947,58.88532],[11.534632,58.885357],[11.534449,58.885445],[11.534409,58.885574],[11.534497,58.885727],[11.534717,58.885803],[11.534704,58.88591],[11.534546,58.885967],[11.534241,58.886005],[11.533906,58.886044],[11.5339,58.886047],[11.533764,58.886044],[11.533812,58.88576],[11.53405,58.88497],[11.534558,58.884697],[11.538,58.883316],[11.538437,58.88287],[11.53864,58.8822],[11.538826,58.881218],[11.5389,58.880863],[11.539029,58.88044],[11.538832,58.88014],[11.538461,58.87986],[11.538259,58.87953],[11.538224,58.87934],[11.538531,58.879204],[11.5387125,58.878986],[11.538452,58.87868],[11.537693,58.87839],[11.537486,58.878246],[11.5373745,58.878044],[11.537485,58.877487],[11.537479,58.87736],[11.537353,58.87726],[11.536999,58.877274],[11.536785,58.87734],[11.536531,58.877323],[11.536314,58.87734],[11.535102,58.878494],[11.534596,58.878506],[11.534028,58.878857],[11.532944,58.87908],[11.532583,58.878803],[11.532089,58.878437],[11.531582,58.878387],[11.531558,58.878094],[11.531411,58.877907],[11.529989,58.87764],[11.525672,58.877697],[11.518203,58.87945],[11.512818,58.883068],[11.500115,58.889378],[11.499876,58.889328],[11.499727,58.889297],[11.497958,58.88891],[11.491697,58.889114],[11.490268,58.89009],[11.489272,58.89077],[11.48457,58.891277],[11.482918,58.891457],[11.460684,58.889652],[11.457448,58.88843],[11.456233,58.890205],[11.456233,58.890812],[11.456233,58.89133],[11.456233,58.89229],[11.456233,58.892883],[11.456236,58.895073],[11.45624,58.89693],[11.4562435,58.899963],[11.45626,58.91663],[11.460291,58.921024],[11.463382,58.926697],[11.463659,58.933258],[11.462831,58.93757],[11.462164,58.941036],[11.461405,58.944496],[11.4596815,58.952484],[11.461322,58.95999],[11.462008,58.965836],[11.462326,58.973057],[11.457117,58.980724],[11.453875,58.985466],[11.454742,58.9857],[11.456373,58.986145],[11.456448,58.986168],[11.458123,58.987865],[11.458912,58.988113],[11.460069,58.98815],[11.460701,58.988575],[11.460758,58.988613],[11.46154,58.989162],[11.463382,58.99096],[11.458575,58.994316],[11.450679,59.0021],[11.445872,59.008816],[11.438319,59.016594],[11.430766,59.025078],[11.421496,59.031967],[11.415659,59.03621],[11.411197,59.043274],[11.403987,59.052105],[11.398494,59.058807],[11.397464,59.062874],[11.393,59.06834],[11.3848095,59.07183],[11.378201,59.0788],[11.375196,59.08268],[11.378029,59.08912],[11.366356,59.098507],[11.357258,59.101063],[11.3528805,59.107674],[11.340778,59.114944],[11.328113,59.112255],[11.305588,59.10578],[11.297434,59.103664],[11.291254,59.10071],[11.285761,59.098507],[11.274517,59.09767],[11.261385,59.096657],[11.2545185,59.09494],[11.245678,59.092556],[11.237524,59.09031],[11.227568,59.087223],[11.216753,59.08678],[11.206388,59.08611],[11.196389,59.084442],[11.1866665,59.083054],[11.178056,59.08083],[11.168332,59.07944],[11.163388,59.079014],[11.157988,59.078815],[11.153506,59.079254],[11.14657,59.067455],[11.117147,59.01506],[11.092381,58.991806],[11.078627,58.984413],[11.075384,58.982372],[11.066416,58.977394],[11.053611,58.97472],[10.983193,58.96045],[10.91801,58.9423],[10.917914,58.94227],[10.775221,58.91682],[10.638925,58.892273],[10.622359,58.84769],[10.604955,58.797962],[10.592077,58.760998],[10.636693,58.517353],[10.63771,58.512554],[10.641614,58.499477],[10.647139,58.486557],[10.654262,58.473858],[10.66295,58.46143],[10.672048,58.450546],[10.7524805,58.36097],[10.845083,58.25784],[10.933285,58.09194],[10.960302,58.040966],[10.962144,58.03759],[11.010257,57.95731],[11.077346,57.837383],[11.08663,57.822094],[11.135792,57.741055],[11.1605015,57.700256],[11.203421,57.655437],[11.406368,57.45229],[11.513507,57.306393],[11.557144,57.251602],[11.627668,57.162872],[11.635995,57.152065],[11.822153,57.02617],[11.926535,56.95738],[11.932003,56.95056],[12.022155,56.837994],[12.046213,56.812973],[12.065721,56.79743],[12.091742,56.78065],[12.193245,56.72534],[12.226851,56.70701],[12.299621,56.637035],[12.205662,56.52428],[12.107432,56.369156],[12.0877495,56.303913],[12.236991,56.256496],[12.363334,56.216362],[12.367757,56.213917],[12.416661,56.18692],[12.464483,56.162155],[12.50035,56.14081],[12.531946,56.125435],[12.557565,56.11177],[12.572936,56.10238],[12.586599,56.091278],[12.603679,56.079323],[12.619156,56.070034],[12.620758,56.069073],[12.631005,56.06395],[12.642106,56.057117],[12.649792,56.04858],[12.650352,56.047646],[12.654915,56.04004],[12.65552,56.035503],[12.656623,56.02723],[12.657451,56.019516],[12.658503,56.009697],[12.659185,56.00332],[12.655769,55.98539],[12.655706,55.9843],[12.655145,55.97462],[12.652354,55.926464],[12.659185,55.917923],[12.666871,55.90426],[12.671994,55.893158],[12.6856575,55.88291],[12.693344,55.866688],[12.708611,55.82719],[12.846916,55.699165],[12.876474,55.664204],[12.895874,55.643295],[12.881361,55.614162],[12.729444,55.540863],[12.715277,55.489193],[12.610583,55.43172],[12.641972,55.337276],[12.638888,55.30833],[12.677222,55.25],[12.7948885,55.166664],[12.876106,55.134987],[12.8814335,55.137604],[12.894221,55.138992],[12.916629,55.142303],[12.938616,55.146446],[12.960087,55.151398],[12.980952,55.15714],[13.001124,55.163643],[13.002973,55.16429],[13.013008,55.167828],[13.016796,55.16741],[13.039721,55.165535],[13.062808,55.16452],[13.085963,55.164364],[13.099714,55.164684],[13.100074,55.164604],[13.120337,55.160477],[13.121415,55.160187],[13.142693,55.15496],[13.152701,55.152817],[13.156677,55.152008],[13.168492,55.149727],[13.190767,55.146126],[13.213404,55.143364],[13.222442,55.142506],[13.234728,55.141113],[13.256426,55.13928],[13.261546,55.138935],[13.262745,55.138855],[13.2734785,55.138252],[13.281649,55.137352],[13.304543,55.135426],[13.312231,55.134975],[13.3202915,55.134396],[13.343354,55.133327],[13.366488,55.133118],[13.372416,55.1332],[13.373197,55.13322],[13.390379,55.13379],[13.413364,55.1353],[13.436132,55.13767],[13.458583,55.14088],[13.480622,55.14492],[13.484858,55.1458],[13.487182,55.146297],[13.504484,55.150272],[13.525427,55.155914],[13.545686,55.162334],[13.548952,55.163464],[13.562426,55.1666],[13.583385,55.172234],[13.591106,55.17456],[13.59265,55.17504],[13.6052065,55.17912],[13.610499,55.180958],[13.617554,55.181503],[13.64036,55.183834],[13.662203,55.1869],[13.6715555,55.18796],[13.694054,55.191128],[13.716145,55.195126],[13.737738,55.19994],[13.75874,55.205547],[13.779062,55.211926],[13.791728,55.216534],[13.796266,55.216198],[13.81936,55.215034],[13.842538,55.214733],[13.848139,55.21479],[13.861901,55.209373],[13.881699,55.20248],[13.902237,55.19634],[13.923427,55.190975],[13.945179,55.186413],[13.967402,55.18267],[13.990003,55.179764],[14.012883,55.1777],[14.035949,55.1765],[14.059102,55.17616],[14.077096,55.17649],[14.09425,55.175014],[14.098318,55.174736],[14.112484,55.173813],[14.131476,55.172874],[14.154627,55.172512],[14.177768,55.17301],[14.195435,55.173985],[14.216072,55.17524],[14.233856,55.17689],[14.243235,55.177902],[14.248286,55.178467],[14.266496,55.180866],[14.273145,55.18185],[14.289427,55.184505],[14.490013,55.323334],[14.698417,55.467354],[14.704605,55.48117],[14.70533,55.4841],[14.705628,55.485336],[14.705986,55.48689],[14.709082,55.494785],[14.712948,55.507854],[14.713417,55.509914],[14.715089,55.517555],[14.717229,55.52541],[14.719585,55.538597],[14.720418,55.55184],[14.719721,55.565094],[14.718205,55.57494],[14.717763,55.57718],[14.717052,55.58053],[14.7133045,55.593613],[14.708053,55.60653],[14.701315,55.61922],[14.693118,55.63164],[14.6835,55.64373],[14.672497,55.65543],[14.669969,55.65788],[14.668336,55.659435],[14.66626,55.66139],[14.666084,55.661625],[14.656867,55.67314],[14.648539,55.682148],[14.64526,55.68549],[14.642569,55.688183],[14.634151,55.69603],[14.63209,55.702488],[14.629037,55.710396],[14.6281805,55.712414],[14.625939,55.717422],[14.619155,55.730114],[14.610909,55.742523],[14.59144,55.75571],[14.804261,55.794262],[14.879678,55.79838],[14.890238,55.79904],[14.913476,55.801125],[14.936426,55.80406],[14.95899,55.80783],[14.981073,55.81242],[15.002583,55.817802],[15.023426,55.823967],[15.029007,55.825787],[15.0439625,55.830765],[15.0584755,55.83586],[15.077732,55.84349],[15.096067,55.851818],[15.113405,55.86079],[15.129668,55.870388],[15.139817,55.87977],[15.152972,55.898155],[15.23148,55.895615],[15.298843,55.889084],[15.404705,55.83377],[15.422521,55.823326],[15.472874,55.79379],[15.4915905,55.782803],[15.531703,55.77269],[15.59807,55.75498],[15.625544,55.748695],[15.6486635,55.746326],[15.672006,55.74481],[15.695474,55.74415],[15.7189665,55.744354],[15.742387,55.74542],[15.7656355,55.747345],[15.788614,55.750114],[15.811227,55.753727],[15.833376,55.75816],[15.854972,55.763393],[15.875918,55.76941],[15.885191,55.772396],[15.890176,55.774055],[15.901115,55.777843],[15.9205065,55.785343],[15.9389925,55.79354],[15.956498,55.802395],[15.972943,55.81188],[15.988261,55.821938],[15.992277,55.82481],[16.032242,55.85389],[16.217182,55.913315],[16.494661,55.996],[16.527338,56.003117],[16.585241,56.02079],[16.606369,56.0279],[16.67169,56.05812],[16.695621,56.06904],[16.719702,56.080303],[16.782919,56.123886],[16.795933,56.13798],[16.803543,56.14638],[16.806644,56.15001],[16.809551,56.153496],[16.820448,56.164734],[16.829386,56.1734],[16.840979,56.185974],[16.855347,56.199657],[16.8754,56.21872],[16.886213,56.242413],[16.910448,56.296665],[16.913525,56.303978],[16.93442,56.362255],[16.936926,56.372158],[16.944595,56.38099],[16.954132,56.398487],[16.964228,56.419205],[16.970987,56.432953],[16.976742,56.441925],[16.97778,56.444427],[16.979502,56.446884],[16.98727,56.459423],[16.989231,56.463078],[16.99582,56.47074],[17.006588,56.479084],[17.023596,56.495148],[17.03247,56.508823],[17.041737,56.521046],[17.049541,56.53358],[17.050617,56.53554],[17.053062,56.53976],[17.060444,56.55377],[17.065878,56.568523],[17.06962,56.591286],[17.07014,56.598248],[17.080057,56.614662],[17.09781,56.654457],[17.104782,56.661716],[17.127983,56.677727],[17.1786,56.73853],[17.201382,56.76461],[17.214136,56.782246],[17.318705,56.94897],[17.42259,57.112686],[17.428972,57.12532],[17.433388,57.134624],[17.438387,57.149323],[17.441076,57.164158],[17.44305,57.176987],[17.485697,57.224857],[17.498787,57.24079],[17.510017,57.263695],[17.516,57.28124],[17.51853,57.293846],[17.52069,57.311672],[17.518427,57.32846],[17.513044,57.347607],[17.505608,57.365887],[17.481174,57.41126],[17.472015,57.427105],[17.456675,57.444626],[17.44242,57.458035],[17.403141,57.491394],[17.26121,57.61511],[17.267653,57.62525],[17.274231,57.638027],[17.27924,57.651],[17.282658,57.66413],[17.284468,57.67734],[17.284662,57.690598],[17.28324,57.703827],[17.2802,57.71698],[17.278828,57.721333],[17.243511,57.826267],[17.360003,57.997715],[17.38607,58.034077],[17.439436,58.11201],[17.527933,58.24087],[17.533525,58.24952],[17.54031,58.262276],[17.545502,58.275246],[17.548014,58.283756],[17.576857,58.397137],[17.73629,58.434414],[17.854986,58.462147],[17.893385,58.471127],[18.102755,58.52006],[18.130392,58.526512],[18.149675,58.531296],[18.150303,58.53148],[18.171875,58.53768],[18.193237,58.54481],[18.213673,58.55265],[18.229206,58.559372],[18.236578,58.56216],[18.251574,58.567833],[18.261417,58.571682],[18.353228,58.608345],[18.5432,58.68409],[18.744392,58.76439],[18.827044,58.797325],[18.829237,58.798195],[18.848942,58.806618],[18.84975,58.807007],[18.861506,58.812614],[18.888165,58.825893],[18.890066,58.826843],[18.891104,58.82737],[18.934872,58.84938],[19.078367,58.92146],[19.082537,58.923576],[19.083328,58.924015],[19.100086,58.93323],[19.187996,58.982025],[19.28932,59.048336],[19.345333,59.08323],[19.463385,59.156654],[19.596043,59.204575],[19.689835,59.238415],[19.729631,59.25276],[19.739868,59.256565],[19.760054,59.26485],[19.77915,59.273792],[19.79707,59.28335],[19.813742,59.293484],[19.815702,59.29485],[19.82909,59.304157],[19.843052,59.315315],[19.855564,59.326916],[19.866571,59.33891],[19.874617,59.349243],[19.93748,59.43377],[19.994514,59.51538],[20.00147,59.525024],[20.007814,59.534184],[20.014095,59.54252],[19.940645,59.595062],[19.884186,59.634476],[19.827713,59.673847],[19.771244,59.713177],[19.714773,59.752453],[19.658268,59.791683],[19.586416,59.841957],[19.51453,59.892143],[19.423422,59.95639],[19.371634,59.99271],[19.325233,60.024857],[19.244785,60.080643],[19.155094,60.141953],[19.08321,60.19169],[19.102705,60.23524],[19.104906,60.236706],[19.131948,60.300316],[19.13197,60.300365],[19.1321,60.3007],[19.13112,60.30051],[19.131012,60.300953],[19.130928,60.30118],[19.131561,60.301373],[19.132874,60.300518],[19.133343,60.300446],[19.133677,60.30103],[19.132332,60.30125],[19.132505,60.301723],[19.146423,60.345196],[19.154915,60.37167],[19.161171,60.374916],[19.175932,60.434227],[19.190691,60.493427],[19.196573,60.51699],[19.195879,60.51775],[19.183289,60.52944],[19.169163,60.540703],[19.153563,60.55148],[19.136555,60.561726],[19.11821,60.571404],[19.09861,60.580467],[19.077835,60.58888],[19.055975,60.5966],[19.033129,60.603596],[19.027617,60.605137],[18.814928,60.663048],[18.701385,60.69392],[18.697075,60.695072],[18.556307,60.731716],[18.468832,60.754467],[18.242111,60.81336],[18.184578,60.834198],[18.06594,60.87713],[17.898117,60.93776],[17.889383,60.94091],[17.832113,61.057354],[17.8161,61.089844],[17.775589,61.17187],[17.806059,61.224598],[17.80909,61.230133],[17.814842,61.24306],[17.81788,61.252422],[17.85185,61.375298],[17.853567,61.381493],[17.888405,61.506977],[17.931467,61.592564],[17.973904,61.676674],[17.97879,61.687645],[17.981297,61.69491],[18.024681,61.83576],[18.038723,61.8812],[18.068953,61.978825],[18.080767,62.00171],[18.117935,62.073597],[18.130648,62.098152],[18.168528,62.171185],[18.196226,62.224777],[18.232027,62.293907],[18.283997,62.39349],[18.296164,62.417362],[18.33191,62.43656],[18.391287,62.468426],[18.392033,62.468826],[18.40992,62.47912],[18.411232,62.479927],[18.523144,62.54898],[18.578236,62.582912],[18.616594,62.606518],[18.727869,62.67489],[18.821762,62.732452],[18.970736,62.819317],[19.042004,62.85907],[19.194355,62.94388],[19.336523,63.02169],[19.416077,63.066856],[19.43229,63.07371],[19.564196,63.092827],[19.81705,63.12944],[19.821123,63.13003],[19.848537,63.13454],[19.87525,63.139847],[19.901148,63.145924],[19.908194,63.14775],[20.093126,63.196365],[20.24497,63.236225],[20.27594,63.24328],[20.292253,63.254917],[20.310204,63.267643],[20.353466,63.298286],[20.401,63.33188],[20.459808,63.36213],[20.517673,63.391796],[20.572678,63.419918],[20.637081,63.45275],[20.69631,63.482864],[20.817514,63.501133],[20.938719,63.519394],[21.051355,63.54881],[21.101515,63.561935],[21.166216,63.578735],[21.221214,63.592995],[21.305676,63.6148],[21.360586,63.628967],[21.3761,63.633022],[21.457047,63.752842],[21.463987,63.76433],[21.469887,63.777267],[21.473866,63.79034],[21.475903,63.803505],[21.47599,63.8167],[21.474123,63.82987],[21.470308,63.84295],[21.464558,63.855896],[21.456894,63.86865],[21.452164,63.87518],[21.404514,63.95712],[21.509617,64.041214],[21.684322,64.11949],[21.851528,64.19421],[21.856398,64.1964],[21.876545,64.206245],[21.895185,64.21664],[21.912237,64.22753],[21.92763,64.23889],[21.941294,64.25066],[21.94528,64.25449],[22.044815,64.35258],[22.052761,64.36087],[22.062872,64.37331],[22.07109,64.385994],[22.07738,64.398895],[22.081709,64.41194],[22.081888,64.41265],[22.087234,64.43431],[22.089413,64.44675],[22.089773,64.45992],[22.088135,64.47308],[22.084501,64.486176],[22.078886,64.49913],[22.07131,64.5119],[22.065016,64.5205],[21.955647,64.658226],[21.825056,64.83636],[21.910236,64.88777],[21.98016,64.90872],[22.136349,64.95547],[22.752476,65.08522],[22.82871,65.10123],[22.833595,65.10225],[22.861008,65.108574],[22.887394,65.11564],[22.912642,65.123405],[22.936644,65.13185],[22.959297,65.14094],[22.980507,65.15062],[23.00018,65.16086],[23.01823,65.17162],[23.034584,65.18285],[23.049166,65.19452],[23.061913,65.20655],[23.06905,65.214386],[23.129946,65.285446],[23.392437,65.30399],[23.640556,65.3215],[23.655252,65.32262],[23.685953,65.32558],[23.71613,65.32936],[23.745663,65.33396],[23.745968,65.33401],[23.861776,65.35374],[24.084866,65.3917],[24.144459,65.39567],[24.141985,65.42102],[24.138847,65.45313],[24.135725,65.48506],[24.133018,65.51268],[24.131899,65.51538],[24.136131,65.53031],[24.141329,65.54838],[24.148464,65.57332],[24.151543,65.58419],[24.159695,65.61276],[24.161606,65.61928],[24.177681,65.660355],[24.164877,65.69549],[24.165956,65.69986],[24.166092,65.70041],[24.16635,65.70157],[24.166426,65.70188],[24.169218,65.71326],[24.17217,65.72528],[24.143005,65.758766],[24.131805,65.77161],[24.127546,65.77837],[24.128021,65.78461],[24.129755,65.787254],[24.131163,65.7894],[24.133757,65.79667],[24.136234,65.79818],[24.143478,65.80259],[24.149513,65.809166],[24.154165,65.81423],[24.155321,65.8155],[24.150787,65.8277],[24.15073,65.82786],[24.150667,65.82802],[24.149012,65.83247],[24.146206,65.83792],[24.145582,65.839134],[24.14542,65.83944],[24.145344,65.83959],[24.145077,65.84009],[24.144678,65.84084],[24.144611,65.84097],[24.144348,65.84117],[24.144186,65.8413],[24.14339,65.8419],[24.14335,65.841934],[24.142523,65.84257],[24.141346,65.84347],[24.141182,65.84359],[24.14029,65.84427],[24.140068,65.84444],[24.13853,65.84561],[24.135416,65.84671],[24.127926,65.849365],[24.125591,65.851166],[24.125193,65.85148],[24.125587,65.857445],[24.125553,65.85777],[24.126345,65.85864],[24.126507,65.85897],[24.126553,65.85906],[24.126587,65.85913],[24.126587,65.85913],[24.126673,65.85931],[24.128283,65.86014],[24.129534,65.860985],[24.130877,65.86228],[24.131105,65.862854],[24.131626,65.86314],[24.133493,65.86317],[24.134983,65.86304],[24.13632,65.862946],[24.140116,65.86269],[24.144068,65.86219],[24.144928,65.86223],[24.152977,65.86257],[24.152645,65.862915],[24.151596,65.86381],[24.149794,65.86603],[24.148743,65.86715],[24.147863,65.86819],[24.145803,65.8701],[24.145332,65.87045],[24.141834,65.87268],[24.141062,65.873405],[24.140545,65.87417],[24.138529,65.87671],[24.1381,65.877365],[24.137735,65.87808],[24.137606,65.87863],[24.137241,65.87986],[24.136576,65.881195],[24.136084,65.88204],[24.13514,65.88315],[24.134281,65.8846],[24.134108,65.88552],[24.133936,65.88615],[24.133337,65.887314],[24.1328,65.88799],[24.131641,65.889015],[24.13056,65.88975],[24.129475,65.89035],[24.128315,65.89088],[24.124561,65.89215],[24.123293,65.892525],[24.120205,65.893684],[24.118402,65.8945],[24.118015,65.89487],[24.117565,65.89542],[24.116856,65.896706],[24.11557,65.89866],[24.11516,65.89948],[24.115076,65.89988],[24.115088,65.900925],[24.115355,65.90181],[24.115376,65.90233],[24.115139,65.90357],[24.11484,65.904305],[24.11453,65.904976],[24.113735,65.9061],[24.112856,65.907234],[24.112469,65.90762],[24.111246,65.9089],[24.110968,65.90941],[24.110687,65.909744],[24.110023,65.91148],[24.109915,65.913345],[24.110538,65.9145],[24.111353,65.91526],[24.112406,65.915985],[24.1144,65.917],[24.115452,65.91777],[24.115925,65.91843],[24.116182,65.9192],[24.11646,65.91961],[24.116697,65.92064],[24.11674,65.92177],[24.117126,65.92391],[24.117468,65.924866],[24.118177,65.92568],[24.118305,65.92606],[24.1182,65.926445],[24.11792,65.92679],[24.116955,65.92751],[24.11526,65.92832],[24.11423,65.92874],[24.113285,65.929344],[24.112535,65.92994],[24.111998,65.93041],[24.11116,65.93086],[24.110088,65.931244],[24.10852,65.9316],[24.107834,65.93165],[24.10704,65.93159],[24.106312,65.93145],[24.105516,65.931206],[24.104145,65.930664],[24.102663,65.93007],[24.10219,65.92992],[24.10099,65.92969],[24.100195,65.92954],[24.099337,65.92951],[24.098392,65.92954],[24.096054,65.92981],[24.092663,65.93028],[24.089403,65.930954],[24.088501,65.931206],[24.08685,65.93204],[24.085712,65.93267],[24.080927,65.936356],[24.080368,65.93687],[24.079853,65.93746],[24.07743,65.94084],[24.075304,65.94351],[24.074318,65.94442],[24.07348,65.944855],[24.072495,65.945274],[24.070583,65.945816],[24.069254,65.94611],[24.068224,65.94628],[24.066614,65.946465],[24.065842,65.94654],[24.064684,65.94678],[24.063997,65.947174],[24.063568,65.947556],[24.062645,65.94855],[24.061615,65.949455],[24.061079,65.9498],[24.06007,65.95017],[24.055328,65.950966],[24.054447,65.951195],[24.053675,65.95153],[24.05331,65.95198],[24.05273,65.95339],[24.051207,65.95471],[24.050842,65.955475],[24.050262,65.95701],[24.048826,65.95829],[24.0455,65.96044],[24.043396,65.96201],[24.04256,65.962875],[24.042196,65.963394],[24.042067,65.96395],[24.042282,65.96472],[24.043055,65.966],[24.043097,65.96642],[24.042475,65.96695],[24.040735,65.967964],[24.03992,65.96851],[24.039728,65.96891],[24.039772,65.96936],[24.039944,65.96967],[24.040457,65.97012],[24.041315,65.970566],[24.045437,65.97183],[24.047752,65.9723],[24.0502,65.97272],[24.050865,65.97292],[24.051573,65.97317],[24.05228,65.97359],[24.052904,65.97449],[24.05286,65.97476],[24.052753,65.97509],[24.051466,65.97645],[24.050158,65.9782],[24.04962,65.97933],[24.049427,65.980286],[24.049793,65.98401],[24.049555,65.99064],[24.04917,65.995026],[24.048655,65.996735],[24.047432,65.99916],[24.045973,66.00131],[24.045073,66.00222],[24.040178,66.00646],[24.039213,66.00741],[24.037432,66.00903],[24.03533,66.01057],[24.03061,66.013504],[24.023678,66.017365],[24.018934,66.02004],[24.016983,66.0211],[24.013529,66.02318],[24.012135,66.02418],[24.009708,66.02623],[24.0075,66.02783],[24.003593,66.03049],[23.99988,66.03268],[23.99647,66.03514],[23.994753,66.0366],[23.99351,66.037926],[23.992071,66.0394],[23.991127,66.04029],[23.989044,66.04263],[23.987265,66.04446],[23.98632,66.045555],[23.985312,66.046616],[23.985016,66.04753],[23.98456,66.04973],[23.984066,66.050415],[23.983187,66.05123],[23.982737,66.05165],[23.981941,66.05227],[23.979475,66.05447],[23.976963,66.056435],[23.975634,66.05751],[23.973637,66.05884],[23.972221,66.05959],[23.967115,66.06167],[23.965292,66.06267],[23.964153,66.063354],[23.958746,66.06715],[23.957802,66.06805],[23.957136,66.06884],[23.956322,66.06955],[23.954927,66.07035],[23.952953,66.071014],[23.949736,66.07151],[23.946665,66.07231],[23.944862,66.07314],[23.942308,66.07416],[23.940893,66.0748],[23.939476,66.07568],[23.938362,66.07671],[23.937138,66.07871],[23.936749,66.079475],[23.93658,66.08031],[23.936752,66.08131],[23.937504,66.083496],[23.937548,66.08549],[23.937096,66.08706],[23.936945,66.088],[23.936409,66.08993],[23.936666,66.09121],[23.937075,66.09229],[23.938211,66.093994],[23.93862,66.094986],[23.93877,66.09585],[23.93877,66.097404],[23.939198,66.09863],[23.93965,66.09937],[23.940807,66.10048],[23.944113,66.10198],[23.944607,66.10229],[23.945164,66.10313],[23.945465,66.10451],[23.945335,66.10649],[23.945143,66.10734],[23.944757,66.107956],[23.944113,66.10854],[23.943233,66.10909],[23.941816,66.109795],[23.940744,66.11021],[23.93997,66.11043],[23.938148,66.11085],[23.937096,66.11117],[23.936518,66.11148],[23.936068,66.11188],[23.935766,66.11241],[23.9357,66.11284],[23.935852,66.113335],[23.936409,66.11442],[23.937696,66.11551],[23.939156,66.11664],[23.93993,66.11739],[23.941044,66.11874],[23.941301,66.11924],[23.941538,66.11989],[23.941216,66.120415],[23.940615,66.12096],[23.937803,66.12273],[23.936388,66.123856],[23.933662,66.125885],[23.926905,66.129974],[23.924778,66.13103],[23.92302,66.13177],[23.918814,66.13345],[23.917957,66.13377],[23.91594,66.13467],[23.914759,66.13531],[23.91433,66.13561],[23.914051,66.136116],[23.913986,66.13666],[23.914007,66.137825],[23.914223,66.13864],[23.91435,66.138985],[23.914824,66.13948],[23.915531,66.13994],[23.916111,66.14021],[23.917763,66.14082],[23.91948,66.141335],[23.920918,66.14177],[23.921883,66.14218],[23.92358,66.143105],[23.925638,66.14396],[23.926517,66.14442],[23.927183,66.14499],[23.92759,66.14548],[23.927956,66.14632],[23.928041,66.1471],[23.927696,66.1476],[23.92759,66.14837],[23.927763,66.148575],[23.928385,66.14883],[23.929543,66.14932],[23.929909,66.14954],[23.930016,66.149704],[23.92988,66.14999],[23.929585,66.15034],[23.928856,66.15077],[23.928062,66.1516],[23.925894,66.15439],[23.92154,66.15907],[23.920809,66.15978],[23.919285,66.16088],[23.918148,66.16146],[23.917055,66.161865],[23.915916,66.162155],[23.908579,66.16328],[23.907248,66.16339],[23.906347,66.16342],[23.905575,66.163414],[23.904501,66.16354],[23.903643,66.16377],[23.901691,66.164375],[23.90006,66.16465],[23.898773,66.16491],[23.89772,66.165085],[23.896454,66.16551],[23.895983,66.16577],[23.894781,66.166756],[23.89345,66.16724],[23.89286,66.167435],[23.891863,66.16766],[23.891424,66.16776],[23.890846,66.167816],[23.889603,66.167816],[23.888535,66.16776],[23.887825,66.16765],[23.886847,66.16742],[23.88556,66.16713],[23.883162,66.16666],[23.88165,66.16631],[23.880854,66.16619],[23.880053,66.16599],[23.879253,66.165886],[23.878937,66.165855],[23.878319,66.165794],[23.877653,66.16576],[23.876675,66.16577],[23.876188,66.165794],[23.875698,66.16577],[23.875164,66.16569],[23.874498,66.165596],[23.873743,66.16552],[23.873032,66.1655],[23.87201,66.16557],[23.871342,66.1656],[23.870764,66.16559],[23.870008,66.16555],[23.869522,66.16544],[23.868898,66.165375],[23.8681,66.16534],[23.867477,66.16531],[23.86654,66.16542],[23.866055,66.16551],[23.86565,66.165695],[23.865385,66.16583],[23.86507,66.166046],[23.86467,66.16636],[23.86449,66.16657],[23.864311,66.16679],[23.864134,66.167],[23.86391,66.16711],[23.863731,66.16727],[23.863285,66.16754],[23.863108,66.16769],[23.862928,66.167915],[23.862793,66.16813],[23.862658,66.16838],[23.862434,66.168594],[23.862211,66.16879],[23.86181,66.169014],[23.861542,66.169136],[23.861053,66.16935],[23.86074,66.169495],[23.860115,66.17005],[23.859804,66.17032],[23.85958,66.17062],[23.859264,66.17093],[23.859041,66.17113],[23.858818,66.17125],[23.858461,66.17142],[23.858196,66.171524],[23.857616,66.171555],[23.857128,66.171524],[23.85664,66.17146],[23.856108,66.17136],[23.855618,66.17121],[23.855396,66.171074],[23.85513,66.17096],[23.854597,66.17089],[23.853664,66.1708],[23.853264,66.1708],[23.853043,66.17076],[23.852375,66.17072],[23.851665,66.17076],[23.851263,66.17078],[23.850285,66.17088],[23.84914,66.1707],[23.846088,66.170975],[23.843966,66.170975],[23.841732,66.17081],[23.838717,66.17034],[23.83656,66.17019],[23.834587,66.170204],[23.832726,66.17019],[23.830976,66.17034],[23.82936,66.170746],[23.828064,66.171196],[23.827148,66.17148],[23.825699,66.17169],[23.823805,66.172325],[23.823032,66.1727],[23.821245,66.174034],[23.81927,66.17518],[23.81542,66.17675],[23.80966,66.17816],[23.805124,66.179405],[23.80175,66.18082],[23.797913,66.1819],[23.794132,66.18291],[23.793142,66.18356],[23.79227,66.18439],[23.789827,66.18526],[23.786163,66.1857],[23.782616,66.18605],[23.777748,66.186844],[23.75699,66.191414],[23.751034,66.19232],[23.744114,66.19286],[23.736202,66.19324],[23.731375,66.194084],[23.72835,66.19526],[23.726374,66.19685],[23.72585,66.197914],[23.726025,66.198875],[23.72742,66.20049],[23.73033,66.20185],[23.731724,66.20277],[23.732655,66.20406],[23.732655,66.20521],[23.731724,66.20704],[23.729572,66.20946],[23.725786,66.213486],[23.724142,66.214714],[23.722506,66.215454],[23.719452,66.21642],[23.714134,66.217354],[23.709408,66.218376],[23.705557,66.219666],[23.70281,66.22154],[23.701067,66.22368],[23.699175,66.22553],[23.69709,66.2271],[23.694958,66.22875],[23.693623,66.23026],[23.693504,66.23233],[23.695032,66.23494],[23.69925,66.23945],[23.70012,66.24082],[23.70022,66.24172],[23.698738,66.243576],[23.695614,66.2463],[23.691229,66.24933],[23.685207,66.25244],[23.679756,66.25432],[23.675438,66.25629],[23.67169,66.259026],[23.66955,66.261765],[23.668055,66.26662],[23.669077,66.27032],[23.669416,66.2743],[23.668167,66.278595],[23.665304,66.28057],[23.662579,66.28235],[23.66133,66.28404],[23.661552,66.28659],[23.660013,66.28988],[23.656717,66.29428],[23.653332,66.29655],[23.650856,66.29885],[23.649584,66.30112],[23.648985,66.30377],[23.651766,66.30878],[23.656036,66.317215],[23.65651,66.31921],[23.656145,66.320694],[23.655416,66.32227],[23.655416,66.32434],[23.655853,66.325775],[23.657307,66.3291],[23.658035,66.333626],[23.6584,66.33774],[23.658333,66.340416],[23.657835,66.3464],[23.6582,66.349],[23.657835,66.352],[23.659452,66.355606],[23.661629,66.358574],[23.664787,66.36037],[23.666481,66.36185],[23.66858,66.36431],[23.672136,66.3678],[23.676203,66.36983],[23.682781,66.37416],[23.68421,66.37545],[23.685793,66.37755],[23.687037,66.379585],[23.688038,66.38156],[23.688345,66.383316],[23.68796,66.38573],[23.686829,66.388596],[23.684727,66.391556],[23.680798,66.394264],[23.676487,66.3963],[23.67279,66.39713],[23.669323,66.398506],[23.666245,66.4008],[23.663124,66.404144],[23.66029,66.408485],[23.656681,66.41233],[23.651869,66.41612],[23.647957,66.41931],[23.645401,66.42154],[23.643421,66.42418],[23.642242,66.42725],[23.643143,66.43069],[23.645401,66.43531],[23.645851,66.43724],[23.647055,66.43904],[23.648409,66.4403],[23.64961,66.4427],[23.648859,66.44811],[23.649462,66.452805],[23.650965,66.45575],[23.653875,66.45778],[23.661493,66.46061],[23.671719,66.46343],[23.678938,66.46596],[23.682093,66.46804],[23.684402,66.47022],[23.687176,66.47225],[23.692719,66.47431],[23.697493,66.47539],[23.700573,66.47536],[23.703423,66.47492],[23.706734,66.47462],[23.710121,66.4748],[23.713896,66.475204],[23.717052,66.475815],[23.718369,66.47655],[23.719055,66.477875],[23.718746,66.48027],[23.717436,66.48264],[23.716206,66.484604],[23.715204,66.486145],[23.71451,66.488754],[23.714281,66.49127],[23.714836,66.492676],[23.716206,66.49361],[23.718746,66.494865],[23.72252,66.49625],[23.725368,66.49738],[23.727169,66.49853],[23.727833,66.49984],[23.72737,66.501625],[23.727062,66.50371],[23.727985,66.506134],[23.729065,66.507454],[23.732271,66.50822],[23.734919,66.50779],[23.735994,66.50693],[23.738998,66.50444],[23.74046,66.50398],[23.742464,66.50392],[23.744532,66.50419],[23.749622,66.50555],[23.752703,66.506966],[23.755169,66.50874],[23.757633,66.50979],[23.760405,66.51068],[23.763483,66.51102],[23.768028,66.51199],[23.774931,66.51366],[23.781734,66.51473],[23.787663,66.51537],[23.7929,66.516174],[23.794985,66.51699],[23.796547,66.51818],[23.797703,66.51952],[23.798012,66.52075],[23.79701,66.522446],[23.795887,66.5236],[23.79316,66.52523],[23.792004,66.52689],[23.790771,66.52852],[23.789232,66.529495],[23.787462,66.5306],[23.7862,66.53211],[23.785322,66.53339],[23.785177,66.53407],[23.785667,66.535],[23.786999,66.53582],[23.789364,66.53647],[23.79311,66.53734],[23.80134,66.54024],[23.80779,66.542946],[23.81475,66.545334],[23.823313,66.54764],[23.82981,66.54945],[23.833658,66.552086],[23.839314,66.5541],[23.844606,66.5554],[23.850624,66.55606],[23.855316,66.55702],[23.858204,66.55812],[23.860535,66.55955],[23.861332,66.56128],[23.861332,66.56448],[23.862535,66.56894],[23.8647,66.571236],[23.868517,66.57381],[23.873363,66.577255],[23.877092,66.57864],[23.879486,66.58005],[23.880583,66.58214],[23.880703,66.58429],[23.87962,66.586395],[23.878176,66.587875],[23.877575,66.589455],[23.877815,66.596],[23.876972,66.5982],[23.87649,66.60063],[23.877201,66.6031],[23.878658,66.605225],[23.880943,66.60813],[23.884672,66.61277],[23.884342,66.6155],[23.881304,66.6185],[23.880222,66.62079],[23.876226,66.6245],[23.872375,66.62794],[23.870085,66.63112],[23.869873,66.63358],[23.870644,66.635376],[23.872183,66.6374],[23.87296,66.64023],[23.872665,66.642555],[23.871655,66.64523],[23.870071,66.64793],[23.869171,66.65215],[23.868532,66.65682],[23.870338,66.65885],[23.870724,66.66091],[23.872068,66.66236],[23.872744,66.663506],[23.873417,66.66484],[23.874283,66.6661],[23.87717,66.668465],[23.883139,66.67049],[23.886219,66.671165],[23.889202,66.67277],[23.890165,66.67395],[23.890547,66.675385],[23.89132,66.68062],[23.890318,66.686134],[23.890472,66.69089],[23.891792,66.69541],[23.893398,66.697655],[23.894323,66.700516],[23.895643,66.70406],[23.896881,66.70529],[23.89765,66.706055],[23.897568,66.70717],[23.896418,66.70858],[23.895927,66.710144],[23.89651,66.71165],[23.898468,66.71255],[23.89997,66.71413],[23.90178,66.71694],[23.903053,66.71785],[23.906548,66.71952],[23.907434,66.720436],[23.907843,66.7214],[23.907362,66.72246],[23.906164,66.72353],[23.902351,66.72627],[23.898035,66.730446],[23.894648,66.7331],[23.892042,66.73566],[23.889286,66.73917],[23.888342,66.741035],[23.888678,66.74322],[23.88865,66.74576],[23.88827,66.747154],[23.886152,66.75002],[23.88357,66.751595],[23.880953,66.752655],[23.878412,66.75439],[23.877878,66.75539],[23.87895,66.75691],[23.879799,66.75837],[23.879951,66.76019],[23.87972,66.76205],[23.880337,66.76351],[23.882568,66.76488],[23.88488,66.76551],[23.887575,66.76609],[23.889963,66.76773],[23.890501,66.768974],[23.891731,66.76992],[23.893713,66.77041],[23.896662,66.7708],[23.899895,66.77097],[23.904747,66.77088],[23.909136,66.77094],[23.913294,66.77125],[23.915028,66.771904],[23.916142,66.77292],[23.916374,66.77474],[23.915297,66.779655],[23.9136,66.78372],[23.912773,66.78565],[23.91106,66.787544],[23.909288,66.78964],[23.908056,66.7918],[23.908434,66.792854],[23.90975,66.79398],[23.912445,66.79495],[23.91591,66.79547],[23.922005,66.795715],[23.928385,66.79456],[23.933237,66.79295],[23.938087,66.790405],[23.94394,66.788155],[23.949177,66.786606],[23.95572,66.783516],[23.96107,66.78242],[23.967505,66.78239],[23.973782,66.78318],[23.978207,66.78409],[23.981594,66.78573],[23.982607,66.78706],[23.982288,66.789215],[23.980286,66.791855],[23.977026,66.79576],[23.976742,66.79756],[23.978819,66.79884],[23.985144,66.80145],[23.985283,66.801506],[23.986876,66.80209],[23.987764,66.80295],[23.988493,66.80648],[23.989162,66.8083],[23.989363,66.80914],[23.988169,66.81088],[23.987917,66.81176],[23.988243,66.812645],[23.989117,66.81346],[23.991423,66.81504],[23.992407,66.81585],[23.993513,66.8176],[23.995049,66.81927],[23.995264,66.82017],[23.99566,66.822044],[23.994507,66.82349],[23.991138,66.826065],[23.985073,66.8311],[23.98132,66.83481],[23.978146,66.83704],[23.973621,66.84],[23.971704,66.842094],[23.970636,66.84772],[23.969357,66.8499],[23.9639,66.85438],[23.95899,66.85748],[23.955622,66.86092],[23.953814,66.86341],[23.952444,66.86618],[23.95028,66.86827],[23.944746,66.87166],[23.94253,66.87374],[23.941349,66.87635],[23.939259,66.87968],[23.93743,66.88179],[23.935625,66.883255],[23.933058,66.88457],[23.927757,66.88549],[23.920448,66.88694],[23.91662,66.8885],[23.91222,66.891975],[23.909191,66.89549],[23.899662,66.90186],[23.88982,66.90726],[23.88904,66.907684],[23.884308,66.90896],[23.881872,66.90999],[23.879986,66.91133],[23.877966,66.913025],[23.874788,66.914955],[23.870457,66.91639],[23.866154,66.91928],[23.864058,66.92213],[23.86421,66.92484],[23.866566,66.93447],[23.866194,66.93682],[23.864851,66.93884],[23.862247,66.94063],[23.859552,66.94248],[23.858725,66.94407],[23.858877,66.94579],[23.86007,66.94843],[23.860611,66.95066],[23.8597,66.95279],[23.858385,66.95443],[23.856472,66.955894],[23.852556,66.957344],[23.84653,66.95845],[23.836353,66.95951],[23.832224,66.96024],[23.829712,66.960945],[23.828072,66.96192],[23.827848,66.96329],[23.828846,66.96501],[23.828453,66.966805],[23.827114,66.96836],[23.824749,66.96973],[23.821531,66.97153],[23.81922,66.973335],[23.818066,66.97533],[23.817392,66.97703],[23.816236,66.978455],[23.814407,66.97939],[23.81077,66.98035],[23.806131,66.98128],[23.803083,66.982376],[23.799738,66.98382],[23.799568,66.98557],[23.80103,66.986885],[23.800985,66.9884],[23.798912,66.99072],[23.793402,66.99382],[23.78977,66.99488],[23.785887,66.996574],[23.784378,66.99692],[23.767164,67.00112],[23.7635,67.0028],[23.759459,67.00528],[23.756186,67.00768],[23.754742,67.009636],[23.751564,67.0122],[23.748484,67.014],[23.742708,67.01603],[23.73868,67.01817],[23.734816,67.02217],[23.73212,67.02424],[23.72981,67.02664],[23.727404,67.02988],[23.724327,67.03228],[23.720957,67.03378],[23.716433,67.03596],[23.71396,67.03881],[23.711042,67.04159],[23.70777,67.044106],[23.704016,67.04636],[23.70161,67.04824],[23.697882,67.05206],[23.696028,67.05319],[23.693016,67.05437],[23.688396,67.05598],[23.681313,67.059654],[23.677677,67.06203],[23.67397,67.06508],[23.671455,67.067764],[23.668068,67.07204],[23.665972,67.0754],[23.665062,67.07801],[23.665543,67.08101],[23.666834,67.083626],[23.666405,67.086],[23.66521,67.08832],[23.660923,67.095184],[23.65778,67.10087],[23.655993,67.10245],[23.653652,67.10423],[23.648909,67.10642],[23.639977,67.10997],[23.633694,67.11299],[23.630104,67.11523],[23.62735,67.11764],[23.623775,67.12147],[23.618246,67.1255],[23.610777,67.13052],[23.605356,67.13409],[23.597033,67.139],[23.593098,67.14187],[23.587984,67.14708],[23.583797,67.14991],[23.581272,67.15089],[23.579237,67.15141],[23.577143,67.152756],[23.576035,67.154045],[23.574236,67.155525],[23.571745,67.15772],[23.567135,67.160194],[23.56045,67.163994],[23.556936,67.16579],[23.554543,67.16789],[23.552376,67.17039],[23.551891,67.17211],[23.553196,67.17372],[23.55496,67.174774],[23.55698,67.17714],[23.557894,67.18009],[23.558321,67.18038],[23.559465,67.18117],[23.568777,67.18528],[23.573193,67.1864],[23.581516,67.18798],[23.586218,67.18948],[23.588394,67.19052],[23.589336,67.19155],[23.587858,67.19497],[23.586882,67.19794],[23.587994,67.20066],[23.592382,67.20462],[23.595839,67.20719],[23.596079,67.208206],[23.595642,67.208824],[23.594484,67.20937],[23.586374,67.211784],[23.582218,67.21316],[23.580446,67.21441],[23.578753,67.21608],[23.575672,67.21757],[23.571978,67.21915],[23.567707,67.22174],[23.559963,67.22374],[23.555882,67.22389],[23.553034,67.22383],[23.550724,67.2241],[23.548029,67.22499],[23.547647,67.22568],[23.54826,67.22684],[23.550417,67.228065],[23.553034,67.2291],[23.556576,67.231606],[23.558577,67.233635],[23.56212,67.23539],[23.56267,67.236534],[23.562506,67.23772],[23.56135,67.239174],[23.559118,67.24034],[23.5575,67.24189],[23.55596,67.24397],[23.554342,67.24567],[23.553513,67.246796],[23.553728,67.24746],[23.555729,67.248146],[23.561197,67.248825],[23.565353,67.24942],[23.567741,67.25017],[23.569975,67.251175],[23.569635,67.252106],[23.567125,67.254875],[23.563507,67.25931],[23.563784,67.26067],[23.566816,67.26294],[23.570438,67.264755],[23.574663,67.266205],[23.579138,67.268234],[23.58345,67.26931],[23.587454,67.269875],[23.592691,67.27032],[23.596848,67.27079],[23.60039,67.2716],[23.603992,67.27275],[23.605703,67.27326],[23.608553,67.2735],[23.611612,67.273254],[23.616083,67.271736],[23.620008,67.27096],[23.623852,67.27111],[23.630291,67.27216],[23.636694,67.273705],[23.64354,67.276],[23.649036,67.277176],[23.654985,67.2778],[23.661715,67.278496],[23.668789,67.279434],[23.676989,67.281586],[23.68263,67.28252],[23.690617,67.2832],[23.696243,67.28331],[23.706131,67.28223],[23.714184,67.28197],[23.717875,67.28209],[23.721283,67.28276],[23.724201,67.28382],[23.728416,67.285866],[23.731163,67.287636],[23.736746,67.29564],[23.736898,67.2985],[23.739193,67.301155],[23.739792,67.30333],[23.741129,67.305145],[23.745338,67.30817],[23.7458,67.31156],[23.747211,67.31321],[23.747831,67.31457],[23.748426,67.31549],[23.74926,67.31643],[23.749107,67.31718],[23.74905,67.317444],[23.749107,67.31777],[23.749447,67.31871],[23.749506,67.319115],[23.749296,67.31989],[23.748755,67.32103],[23.748747,67.32133],[23.749031,67.32195],[23.74941,67.32216],[23.74993,67.32231],[23.751284,67.32254],[23.752325,67.32262],[23.753288,67.322586],[23.754852,67.32265],[23.755617,67.32284],[23.756308,67.323296],[23.756575,67.323814],[23.756527,67.32461],[23.756344,67.3251],[23.755922,67.3258],[23.755604,67.32624],[23.755352,67.326805],[23.755224,67.327354],[23.75523,67.32782],[23.75553,67.3281],[23.756062,67.32839],[23.757,67.3287],[23.75839,67.329056],[23.761267,67.330315],[23.765163,67.33227],[23.767452,67.33311],[23.771086,67.33435],[23.772293,67.33489],[23.772865,67.33557],[23.773659,67.33625],[23.774237,67.336945],[23.775066,67.33804],[23.775316,67.33898],[23.775076,67.33938],[23.773436,67.34001],[23.7716,67.34059],[23.770103,67.34141],[23.76944,67.34237],[23.76885,67.343],[23.768156,67.343414],[23.766981,67.34375],[23.765581,67.344025],[23.764076,67.344696],[23.763231,67.34514],[23.762056,67.34621],[23.761591,67.34754],[23.760353,67.34842],[23.758549,67.34933],[23.757841,67.3494],[23.756876,67.349365],[23.752611,67.348816],[23.749216,67.34856],[23.746965,67.348206],[23.745224,67.34809],[23.743729,67.34819],[23.741764,67.34857],[23.739979,67.349236],[23.738531,67.350365],[23.737919,67.351715],[23.737564,67.35248],[23.737604,67.35318],[23.738194,67.354],[23.739464,67.35443],[23.740301,67.35476],[23.740719,67.35536],[23.741106,67.35648],[23.740784,67.35723],[23.739851,67.3586],[23.738386,67.359566],[23.737162,67.360214],[23.735426,67.36103],[23.73462,67.36154],[23.734121,67.36228],[23.733994,67.36359],[23.73359,67.36497],[23.730082,67.36776],[23.729696,67.36868],[23.729855,67.36973],[23.731886,67.374916],[23.732683,67.37565],[23.733524,67.376144],[23.735102,67.37727],[23.735504,67.37823],[23.735443,67.37861],[23.73515,67.379036],[23.734474,67.379456],[23.732563,67.380035],[23.730997,67.38059],[23.727873,67.38195],[23.72207,67.38384],[23.719402,67.38447],[23.717966,67.38484],[23.71722,67.38531],[23.717058,67.385895],[23.717066,67.38621],[23.7172,67.3866],[23.718111,67.3877],[23.718645,67.38866],[23.718859,67.38923],[23.719051,67.39097],[23.71924,67.39125],[23.721052,67.39252],[23.721691,67.3927],[23.727354,67.39363],[23.731064,67.39467],[23.733582,67.39617],[23.73517,67.39807],[23.736382,67.39902],[23.74022,67.40116],[23.742235,67.40248],[23.74298,67.40291],[23.744112,67.40389],[23.744936,67.40435],[23.746254,67.40492],[23.748405,67.40586],[23.750315,67.40685],[23.751808,67.40791],[23.7527,67.408875],[23.752796,67.40936],[23.752882,67.410194],[23.752493,67.41143],[23.751991,67.41235],[23.751785,67.41387],[23.751854,67.41474],[23.751442,67.41622],[23.751053,67.41796],[23.75114,67.418526],[23.751305,67.41914],[23.751526,67.41967],[23.751728,67.42001],[23.75199,67.4203],[23.752369,67.420586],[23.753103,67.42111],[23.753794,67.42143],[23.763285,67.4262],[23.763937,67.42772],[23.762714,67.43031],[23.757816,67.43336],[23.751728,67.43532],[23.743132,67.43706],[23.734028,67.43937],[23.72133,67.44327],[23.71468,67.444496],[23.710043,67.44572],[23.708239,67.44592],[23.703812,67.44587],[23.70017,67.445816],[23.697008,67.44539],[23.69404,67.44465],[23.690062,67.4434],[23.687311,67.442856],[23.684021,67.44238],[23.680256,67.442245],[23.672953,67.44261],[23.667175,67.44348],[23.657999,67.44612],[23.652029,67.44659],[23.645298,67.44683],[23.63872,67.44768],[23.628223,67.449554],[23.622389,67.4502],[23.614166,67.45068],[23.58453,67.4535],[23.576015,67.45519],[23.567019,67.45784],[23.557468,67.45985],[23.55087,67.46047],[23.544846,67.46098],[23.540045,67.46077],[23.536518,67.46],[23.522917,67.45514],[23.52017,67.45322],[23.516964,67.44857],[23.51491,67.44713],[23.511084,67.44602],[23.505827,67.44566],[23.50114,67.445915],[23.493883,67.44639],[23.489573,67.44771],[23.486704,67.44995],[23.483751,67.45109],[23.47523,67.45237],[23.459894,67.453896],[23.453432,67.455925],[23.447025,67.4586],[23.443144,67.459305],[23.438835,67.46014],[23.434908,67.4624],[23.428556,67.46447],[23.424809,67.46492],[23.419998,67.465324],[23.41542,67.46613],[23.410473,67.46759],[23.40824,67.46939],[23.406435,67.47314],[23.405264,67.47661],[23.40462,67.47771],[23.402977,67.47907],[23.398264,67.481346],[23.395456,67.48327],[23.394423,67.484276],[23.394419,67.485146],[23.397066,67.4898],[23.398981,67.49189],[23.401876,67.49357],[23.405571,67.4955],[23.406582,67.496155],[23.40662,67.497406],[23.40588,67.499245],[23.405563,67.500084],[23.405916,67.50091],[23.408102,67.50174],[23.412039,67.502396],[23.41623,67.5026],[23.420233,67.5029],[23.422037,67.50355],[23.426424,67.504944],[23.429968,67.50573],[23.431913,67.50658],[23.433014,67.50746],[23.433786,67.50836],[23.43482,67.50891],[23.435856,67.51005],[23.436003,67.51129],[23.435707,67.51263],[23.435806,67.51378],[23.436447,67.514984],[23.436594,67.51604],[23.437038,67.516884],[23.438316,67.51759],[23.44108,67.519],[23.444332,67.52005],[23.44862,67.52118],[23.450937,67.522125],[23.4534,67.52318],[23.456665,67.52463],[23.45966,67.525856],[23.463108,67.52689],[23.46636,67.52753],[23.470057,67.52815],[23.47178,67.52841],[23.473408,67.52885],[23.474823,67.52974],[23.477068,67.53186],[23.478264,67.53427],[23.479828,67.53558],[23.481873,67.53696],[23.483044,67.53818],[23.483372,67.53923],[23.483202,67.540184],[23.482468,67.54123],[23.481224,67.54263],[23.477972,67.54548],[23.476158,67.546394],[23.474197,67.54709],[23.472408,67.54755],[23.469109,67.548325],[23.466915,67.5492],[23.465387,67.550316],[23.463326,67.55279],[23.461048,67.555504],[23.459717,67.55764],[23.458677,67.559746],[23.45875,67.560646],[23.45909,67.56144],[23.459524,67.562164],[23.46041,67.56271],[23.46182,67.56333],[23.465422,67.56449],[23.467752,67.56491],[23.47067,67.565346],[23.474535,67.565636],[23.47959,67.56603],[23.484304,67.5664],[23.4877,67.56665],[23.49043,67.56663],[23.492281,67.566376],[23.494335,67.565865],[23.49587,67.56526],[23.49749,67.564255],[23.499226,67.56366],[23.500662,67.56341],[23.502642,67.56327],[23.505428,67.56326],[23.507996,67.5634],[23.510103,67.563644],[23.512304,67.56433],[23.514162,67.56523],[23.517397,67.56718],[23.521614,67.57015],[23.523548,67.57125],[23.525524,67.57207],[23.527414,67.57308],[23.528076,67.57396],[23.528368,67.57528],[23.52895,67.575806],[23.530119,67.57624],[23.532188,67.576675],[23.53423,67.5769],[23.536709,67.57721],[23.538572,67.57757],[23.540106,67.57803],[23.541128,67.57863],[23.543427,67.580765],[23.545048,67.582954],[23.545248,67.583885],[23.545086,67.58473],[23.544529,67.58571],[23.544104,67.586845],[23.544006,67.58782],[23.544048,67.58969],[23.544006,67.59041],[23.543976,67.59194],[23.543505,67.59388],[23.542372,67.59598],[23.541533,67.598785],[23.54014,67.600975],[23.53965,67.60237],[23.539545,67.603485],[23.540367,67.60462],[23.542425,67.60678],[23.542974,67.608604],[23.544641,67.61039],[23.546492,67.613075],[23.549364,67.613914],[23.552269,67.61578],[23.555084,67.61753],[23.557714,67.61879],[23.558886,67.61927],[23.559187,67.619576],[23.559286,67.619675],[23.559122,67.62019],[23.558708,67.62081],[23.557558,67.62157],[23.556072,67.622215],[23.554615,67.62261],[23.55286,67.62293],[23.55115,67.62303],[23.54973,67.62294],[23.54859,67.62273],[23.547144,67.62261],[23.545809,67.622635],[23.54465,67.62277],[23.543367,67.62316],[23.541262,67.62441],[23.540407,67.62547],[23.540092,67.62722],[23.540064,67.62901],[23.540783,67.63039],[23.540953,67.63111],[23.540613,67.631775],[23.539972,67.63254],[23.539059,67.633316],[23.536102,67.63517],[23.532553,67.637375],[23.5294,67.639275],[23.526232,67.640854],[23.52477,67.6413],[23.522375,67.64233],[23.520819,67.64323],[23.519512,67.644295],[23.518703,67.64496],[23.516869,67.645775],[23.515182,67.64642],[23.51383,67.647224],[23.512287,67.64809],[23.511415,67.64891],[23.51072,67.649796],[23.509205,67.65173],[23.507847,67.6531],[23.505692,67.65471],[23.500345,67.65817],[23.496593,67.66082],[23.494408,67.662834],[23.493055,67.664185],[23.492249,67.66527],[23.491772,67.66649],[23.492258,67.668045],[23.493454,67.66975],[23.49527,67.67151],[23.496334,67.67337],[23.496586,67.6752],[23.496922,67.67662],[23.49846,67.6785],[23.499277,67.679794],[23.499655,67.68073],[23.499302,67.68153],[23.498707,67.68232],[23.496532,67.684006],[23.493885,67.68596],[23.49207,67.687096],[23.490725,67.68854],[23.490448,67.68914],[23.490437,67.68991],[23.491041,67.69094],[23.492062,67.692245],[23.492947,67.69357],[23.49324,67.694756],[23.492664,67.69563],[23.489851,67.69711],[23.48788,67.69757],[23.485666,67.698204],[23.483347,67.69892],[23.481571,67.699745],[23.480373,67.70066],[23.480007,67.70146],[23.47969,67.702354],[23.479897,67.703316],[23.480768,67.70412],[23.483337,67.70548],[23.484404,67.70676],[23.484877,67.708435],[23.484432,67.70975],[23.482822,67.71225],[23.48083,67.71368],[23.479496,67.71455],[23.47832,67.71579],[23.47832,67.71717],[23.478634,67.71888],[23.478626,67.72097],[23.478937,67.72234],[23.479332,67.72347],[23.479855,67.72446],[23.480724,67.725266],[23.48203,67.7259],[23.484798,67.72715],[23.486427,67.72815],[23.486784,67.72868],[23.486774,67.729225],[23.486061,67.730965],[23.485325,67.73214],[23.484238,67.7329],[23.482584,67.73402],[23.480925,67.735306],[23.479345,67.73602],[23.478941,67.73624],[23.477448,67.737015],[23.476738,67.73779],[23.47664,67.73844],[23.47677,67.73918],[23.477057,67.73981],[23.478476,67.74106],[23.48053,67.7425],[23.484245,67.744865],[23.486853,67.747086],[23.489302,67.74951],[23.490963,67.75157],[23.492033,67.75323],[23.492273,67.7546],[23.492262,67.755936],[23.49161,67.75741],[23.491468,67.75898],[23.490698,67.760765],[23.4907,67.76174],[23.491823,67.7641],[23.491602,67.76524],[23.490467,67.766716],[23.489143,67.76789],[23.48638,67.77097],[23.485113,67.77346],[23.484512,67.775475],[23.484528,67.77659],[23.484957,67.77734],[23.487047,67.779144],[23.491766,67.78214],[23.492699,67.78342],[23.493406,67.78511],[23.49416,67.78716],[23.494654,67.7903],[23.494574,67.791336],[23.493938,67.79222],[23.4918,67.79381],[23.486416,67.7969],[23.483276,67.79851],[23.482374,67.79914],[23.482056,67.79953],[23.480518,67.80206],[23.479824,67.8039],[23.47902,67.80602],[23.478333,67.80894],[23.476917,67.81158],[23.476332,67.812904],[23.474836,67.81481],[23.47427,67.81634],[23.473974,67.81714],[23.47428,67.8185],[23.475183,67.81972],[23.476892,67.82107],[23.478806,67.82227],[23.480629,67.823654],[23.482235,67.825966],[23.48285,67.827484],[23.48282,67.82896],[23.48253,67.83121],[23.481651,67.8335],[23.48118,67.83471],[23.480852,67.83631],[23.480494,67.83802],[23.479994,67.83891],[23.478966,67.84042],[23.478645,67.84116],[23.478712,67.84199],[23.479069,67.84277],[23.479792,67.843376],[23.481184,67.843895],[23.483074,67.84424],[23.485332,67.84455],[23.48705,67.845055],[23.488186,67.845535],[23.489408,67.84624],[23.49008,67.84688],[23.490723,67.84773],[23.491087,67.84892],[23.491245,67.850105],[23.491484,67.851875],[23.491804,67.85604],[23.49258,67.8594],[23.493761,67.86127],[23.49523,67.86342],[23.496515,67.86471],[23.501516,67.86785],[23.50528,67.87032],[23.506142,67.87144],[23.506617,67.872795],[23.506454,67.87416],[23.506536,67.87537],[23.507608,67.87738],[23.5087,67.8788],[23.509838,67.879944],[23.511723,67.881195],[23.514727,67.88312],[23.51719,67.88433],[23.521015,67.88548],[23.540514,67.88946],[23.54511,67.89095],[23.547169,67.89211],[23.548588,67.89351],[23.549831,67.89585],[23.550823,67.897],[23.553476,67.8976],[23.556955,67.89775],[23.561607,67.89594],[23.565653,67.89445],[23.569296,67.89351],[23.571617,67.892944],[23.573938,67.89255],[23.576418,67.89243],[23.578966,67.892456],[23.581636,67.89309],[23.587523,67.895134],[23.589235,67.89838],[23.594149,67.90197],[23.598093,67.903725],[23.606823,67.905396],[23.609392,67.9068],[23.610445,67.90703],[23.611917,67.90718],[23.616537,67.90771],[23.620443,67.908226],[23.621868,67.90864],[23.622662,67.908966],[23.624222,67.90981],[23.62496,67.91043],[23.626114,67.91086],[23.627808,67.911354],[23.6297,67.91165],[23.633072,67.91256],[23.635498,67.913124],[23.638603,67.914116],[23.640797,67.91518],[23.643732,67.91709],[23.645826,67.91959],[23.646593,67.92146],[23.646492,67.92248],[23.645193,67.92486],[23.645136,67.92615],[23.645927,67.92706],[23.647282,67.92802],[23.650543,67.93112],[23.655724,67.93711],[23.657492,67.93782],[23.66001,67.93859],[23.661982,67.939125],[23.66294,67.939514],[23.663668,67.94026],[23.663801,67.94103],[23.66323,67.942184],[23.661606,67.94403],[23.659203,67.94588],[23.653294,67.94953],[23.651157,67.95127],[23.650438,67.95263],[23.6514,67.95444],[23.65235,67.9559],[23.652678,67.9572],[23.652565,67.95894],[23.651196,67.96071],[23.649668,67.96167],[23.648726,67.962265],[23.646992,67.96296],[23.645382,67.9636],[23.643124,67.96428],[23.638977,67.965515],[23.631886,67.96665],[23.621086,67.967964],[23.616005,67.96885],[23.606869,67.971176],[23.60117,67.972145],[23.594095,67.97225],[23.58685,67.972046],[23.582119,67.971756],[23.578526,67.97179],[23.576006,67.97236],[23.569065,67.97425],[23.565264,67.97571],[23.56113,67.97775],[23.558002,67.979454],[23.555584,67.98123],[23.553143,67.98263],[23.551495,67.98387],[23.54952,67.98542],[23.547087,67.98703],[23.544357,67.98882],[23.541714,67.99081],[23.539484,67.992516],[23.53816,67.99443],[23.537382,67.99613],[23.537045,67.9977],[23.537088,67.99896],[23.537088,68.00008],[23.537584,68.00193],[23.53751,68.0034],[23.536867,68.0043],[23.535683,68.00528],[23.534002,68.00602],[23.53102,68.006744],[23.527832,68.00717],[23.525105,68.00753],[23.5218,68.00797],[23.515106,68.00927],[23.510101,68.01037],[23.506845,68.01125],[23.502134,68.01268],[23.499325,68.01346],[23.49693,68.013794],[23.49288,68.01408],[23.4885,68.01482],[23.484533,68.015625],[23.47928,68.016914],[23.474207,68.01844],[23.471294,68.01915],[23.469423,68.01997],[23.46842,68.02076],[23.46655,68.02352],[23.465784,68.02547],[23.465563,68.026634],[23.465775,68.02771],[23.46595,68.028725],[23.46599,68.029625],[23.465662,68.030365],[23.464607,68.031204],[23.45823,68.03291],[23.453148,68.03458],[23.4483,68.036026],[23.445583,68.036896],[23.442825,68.037224],[23.439682,68.037415],[23.437199,68.037346],[23.433334,68.0375],[23.428976,68.03812],[23.423634,68.039406],[23.414677,68.040924],[23.405653,68.04226],[23.399271,68.04354],[23.39662,68.044174],[23.393705,68.04526],[23.389595,68.04732],[23.386675,68.04925],[23.3856,68.05098],[23.385622,68.052185],[23.386143,68.053375],[23.386635,68.05553],[23.386255,68.056274],[23.385845,68.056694],[23.385319,68.0571],[23.384415,68.057526],[23.382277,68.05775],[23.380522,68.05783],[23.379318,68.05793],[23.376604,68.05869],[23.37462,68.059715],[23.373436,68.06062],[23.37224,68.062035],[23.37162,68.06384],[23.371805,68.06584],[23.372164,68.067894],[23.371756,68.06972],[23.370108,68.07136],[23.363352,68.07722],[23.360819,68.07984],[23.359951,68.080956],[23.359339,68.08273],[23.35855,68.08469],[23.35776,68.08673],[23.355564,68.088875],[23.353582,68.09056],[23.350925,68.09251],[23.348576,68.0939],[23.34569,68.095535],[23.342731,68.09695],[23.339779,68.09821],[23.3386,68.09906],[23.337717,68.10042],[23.337284,68.10295],[23.336962,68.105484],[23.336199,68.10783],[23.334421,68.11016],[23.331602,68.112625],[23.329432,68.1145],[23.328096,68.11564],[23.326862,68.11649],[23.32607,68.11742],[23.32606,68.11823],[23.327423,68.119225],[23.32867,68.119934],[23.329905,68.12106],[23.32928,68.12326],[23.32785,68.125114],[23.325876,68.12668],[23.323738,68.127815],[23.322504,68.128944],[23.322258,68.13014],[23.32234,68.13174],[23.322521,68.13269],[23.322222,68.13382],[23.321602,68.13471],[23.319405,68.13662],[23.313953,68.14194],[23.31264,68.1428],[23.310831,68.14344],[23.308939,68.14375],[23.307878,68.14408],[23.307295,68.1445],[23.307213,68.14543],[23.308128,68.14649],[23.308586,68.14712],[23.308634,68.14765],[23.308441,68.14805],[23.30776,68.14838],[23.306885,68.14865],[23.304497,68.14885],[23.302197,68.14905],[23.298992,68.14917],[23.293234,68.1494],[23.292122,68.1495],[23.291052,68.149796],[23.290276,68.15051],[23.288631,68.15208],[23.286766,68.154205],[23.286072,68.15474],[23.283201,68.15598],[23.280445,68.156845],[23.278364,68.15733],[23.277294,68.15744],[23.275501,68.15741],[23.27384,68.15717],[23.26978,68.15674],[23.26825,68.15671],[23.265675,68.156784],[23.263742,68.15687],[23.262451,68.157],[23.26159,68.15697],[23.26035,68.156944],[23.258936,68.15667],[23.258205,68.15631],[23.25736,68.15576],[23.256842,68.15469],[23.256815,68.15434],[23.257092,68.15343],[23.256914,68.152336],[23.256042,68.151535],[23.25196,68.149445],[23.250124,68.14884],[23.248426,68.1485],[23.243656,68.1484],[23.238808,68.1484],[23.225407,68.14742],[23.217916,68.14665],[23.214937,68.14613],[23.212801,68.145485],[23.209457,68.14362],[23.201399,68.139946],[23.196964,68.13884],[23.194822,68.13845],[23.190876,68.137985],[23.18769,68.13781],[23.185602,68.13758],[23.183578,68.13701],[23.180971,68.13613],[23.173939,68.13391],[23.171156,68.13342],[23.168592,68.13318],[23.165634,68.13315],[23.162783,68.13362],[23.159437,68.13451],[23.157274,68.13537],[23.154507,68.1367],[23.15242,68.13835],[23.151493,68.14052],[23.148336,68.14546],[23.144567,68.14976],[23.141531,68.1543],[23.141052,68.15927],[23.14146,68.16166],[23.143105,68.165276],[23.14401,68.166374],[23.144999,68.16794],[23.146326,68.16983],[23.147053,68.171425],[23.146477,68.17253],[23.14522,68.17335],[23.144175,68.17439],[23.143057,68.17584],[23.142612,68.176994],[23.14253,68.178154],[23.14253,68.179504],[23.144175,68.18173],[23.146067,68.18354],[23.148615,68.188705],[23.149282,68.18987],[23.150051,68.19049],[23.15181,68.19129],[23.156672,68.19283],[23.160397,68.194244],[23.161343,68.19506],[23.161863,68.19605],[23.161568,68.19695],[23.160866,68.197845],[23.159496,68.198746],[23.157694,68.19948],[23.15383,68.20042],[23.148369,68.20158],[23.146248,68.202156],[23.143934,68.203156],[23.14223,68.20418],[23.141615,68.20495],[23.141546,68.20616],[23.14286,68.207596],[23.143929,68.208755],[23.14508,68.21015],[23.146034,68.21158],[23.145983,68.21233],[23.145409,68.21377],[23.143534,68.21646],[23.143354,68.217186],[23.143764,68.21822],[23.147465,68.22366],[23.149603,68.2262],[23.150892,68.22824],[23.152203,68.22985],[23.152817,68.23107],[23.15283,68.23242],[23.15264,68.233376],[23.152239,68.23394],[23.151163,68.23544],[23.149675,68.236984],[23.14819,68.23839],[23.147032,68.24124],[23.144619,68.245445],[23.143965,68.24638],[23.142828,68.24731],[23.141926,68.24791],[23.141077,68.24813],[23.140005,68.248405],[23.138342,68.24871],[23.136923,68.24883],[23.13449,68.24878],[23.130678,68.24837],[23.129986,68.248436],[23.12766,68.248924],[23.119356,68.25033],[23.115257,68.25104],[23.112988,68.25154],[23.111166,68.25211],[23.109598,68.25278],[23.108526,68.25347],[23.107534,68.254456],[23.106533,68.25526],[23.105171,68.256065],[23.103172,68.257034],[23.100815,68.258316],[23.098562,68.25922],[23.095716,68.26003],[23.089851,68.2619],[23.085545,68.263466],[23.080282,68.265854],[23.078485,68.26678],[23.077324,68.26758],[23.076504,68.268456],[23.076075,68.26938],[23.075968,68.26986],[23.07552,68.27066],[23.074608,68.27241],[23.073637,68.27398],[23.072844,68.27503],[23.071714,68.27564],[23.070223,68.2763],[23.0684,68.27727],[23.067488,68.2779],[23.066278,68.278755],[23.065073,68.27983],[23.064816,68.28068],[23.06524,68.283424],[23.065567,68.28635],[23.065855,68.28841],[23.066183,68.28924],[23.066473,68.28994],[23.067213,68.29075],[23.069098,68.29197],[23.06986,68.29256],[23.070211,68.293236],[23.07013,68.294716],[23.069801,68.29593],[23.069635,68.29706],[23.06982,68.297905],[23.070084,68.29862],[23.07025,68.2997],[23.0697,68.30029],[23.068651,68.300804],[23.067139,68.30127],[23.06564,68.30186],[23.064705,68.302505],[23.062967,68.3042],[23.061867,68.30515],[23.060707,68.30583],[23.059113,68.306404],[23.057564,68.306755],[23.055939,68.30692],[23.053724,68.30701],[23.048304,68.30691],[23.045053,68.30689],[23.039324,68.30701],[23.037563,68.3071],[23.035604,68.307434],[23.029762,68.30877],[23.024286,68.31017],[23.015648,68.31253],[23.011045,68.313866],[23.005919,68.31537],[23.000721,68.31695],[22.992533,68.31905],[22.988106,68.32019],[22.986494,68.32069],[22.985529,68.32115],[22.984974,68.321465],[22.984287,68.32201],[22.98339,68.32252],[22.98134,68.32319],[22.97907,68.32364],[22.977592,68.32422],[22.977123,68.32467],[22.97706,68.325226],[22.977224,68.32595],[22.977554,68.32702],[22.977394,68.32769],[22.977068,68.3283],[22.975613,68.3306],[22.974525,68.33148],[22.973759,68.33185],[22.972612,68.33202],[22.970694,68.33223],[22.967999,68.33237],[22.96333,68.33248],[22.958725,68.33248],[22.950422,68.33282],[22.943762,68.33297],[22.938828,68.33306],[22.934065,68.33304],[22.929543,68.33305],[22.923746,68.3332],[22.91813,68.33351],[22.916958,68.33373],[22.914822,68.33455],[22.913095,68.335464],[22.912025,68.33617],[22.911161,68.33724],[22.909721,68.33896],[22.908737,68.34035],[22.907736,68.34169],[22.906126,68.34273],[22.904604,68.343254],[22.902014,68.34388],[22.900524,68.3444],[22.89713,68.3465],[22.89356,68.3487],[22.8918,68.34925],[22.890156,68.34965],[22.885963,68.35037],[22.878311,68.35165],[22.876165,68.35215],[22.87362,68.35323],[22.869602,68.354774],[22.867052,68.35578],[22.864313,68.35702],[22.858488,68.35952],[22.856968,68.36003],[22.854929,68.36037],[22.851694,68.360695],[22.848404,68.3611],[22.846632,68.36134],[22.84508,68.36179],[22.84251,68.36279],[22.84001,68.36375],[22.837227,68.36514],[22.835995,68.36612],[22.835411,68.367096],[22.83504,68.36811],[22.835121,68.36952],[22.835646,68.371346],[22.835808,68.37269],[22.836222,68.37325],[22.836905,68.37367],[22.83869,68.37506],[22.841099,68.37746],[22.84211,68.378174],[22.844168,68.37924],[22.845457,68.38017],[22.846504,68.38103],[22.846527,68.38168],[22.845837,68.382416],[22.844841,68.382965],[22.842533,68.38368],[22.836136,68.38577],[22.83333,68.38668],[22.830551,68.387215],[22.824478,68.38769],[22.817741,68.38831],[22.813442,68.38883],[22.811419,68.38924],[22.80993,68.389725],[22.808235,68.390526],[22.806923,68.3914],[22.805285,68.39236],[22.804106,68.39294],[22.802877,68.39328],[22.79954,68.3934],[22.795677,68.39316],[22.789919,68.392265],[22.784826,68.3914],[22.781384,68.3905],[22.778265,68.38962],[22.775816,68.38869],[22.773388,68.38734],[22.770521,68.386345],[22.767548,68.385735],[22.764057,68.385185],[22.760887,68.38494],[22.75628,68.38475],[22.749401,68.38469],[22.742783,68.38482],[22.738419,68.384995],[22.73624,68.3852],[22.734074,68.3858],[22.732079,68.38681],[22.73129,68.3875],[22.72545,68.39306],[22.723122,68.39452],[22.720978,68.3953],[22.719265,68.39583],[22.717297,68.39623],[22.713816,68.396965],[22.711498,68.39733],[22.706648,68.397896],[22.701805,68.39822],[22.697912,68.39849],[22.69261,68.39904],[22.688967,68.39953],[22.687744,68.39983],[22.68706,68.40026],[22.686563,68.40093],[22.686584,68.401375],[22.687246,68.40198],[22.688272,68.402405],[22.689903,68.40299],[22.691534,68.40389],[22.691952,68.40436],[22.69203,68.40491],[22.691908,68.40553],[22.691526,68.40616],[22.690357,68.40693],[22.68587,68.40869],[22.681578,68.41026],[22.679142,68.41136],[22.67784,68.411835],[22.676184,68.4121],[22.674196,68.41215],[22.669407,68.412025],[22.668001,68.412125],[22.66696,68.41229],[22.663776,68.41321],[22.660706,68.41395],[22.658573,68.41426],[22.655169,68.414566],[22.651075,68.41532],[22.648212,68.41604],[22.646217,68.41676],[22.644474,68.41755],[22.64265,68.41887],[22.641375,68.42024],[22.640768,68.42114],[22.640514,68.422005],[22.640621,68.42305],[22.642656,68.426025],[22.643497,68.42779],[22.643923,68.43097],[22.643923,68.43194],[22.643408,68.43253],[22.64234,68.43315],[22.64068,68.433716],[22.638803,68.43421],[22.636284,68.4346],[22.634203,68.434685],[22.628845,68.434654],[22.625645,68.43455],[22.624136,68.43434],[22.622398,68.43397],[22.62143,68.4335],[22.620684,68.43305],[22.619957,68.43248],[22.619629,68.43203],[22.619453,68.43155],[22.619965,68.429665],[22.619963,68.42918],[22.61937,68.42849],[22.618635,68.42802],[22.617315,68.42755],[22.615396,68.427155],[22.612011,68.42664],[22.608267,68.42625],[22.60401,68.425674],[22.601028,68.425446],[22.597075,68.42538],[22.591436,68.425026],[22.589355,68.42486],[22.588488,68.42473],[22.587296,68.424416],[22.585667,68.4238],[22.583126,68.42274],[22.580242,68.42215],[22.577768,68.42193],[22.575148,68.42188],[22.572777,68.42211],[22.571297,68.42261],[22.57011,68.42322],[22.569382,68.42367],[22.568935,68.42406],[22.562662,68.42971],[22.558992,68.43252],[22.55761,68.43334],[22.55626,68.43381],[22.554895,68.43418],[22.553308,68.43441],[22.551037,68.43454],[22.545256,68.43449],[22.541336,68.43427],[22.5396,68.43423],[22.53798,68.434235],[22.535809,68.43443],[22.533201,68.43487],[22.529606,68.435875],[22.523792,68.43742],[22.517103,68.43878],[22.510645,68.439964],[22.504847,68.44103],[22.500738,68.44164],[22.496473,68.4422],[22.492435,68.44256],[22.48904,68.442795],[22.485626,68.44288],[22.481674,68.44284],[22.478539,68.442955],[22.477411,68.44287],[22.477112,68.44284],[22.475174,68.442444],[22.472261,68.44139],[22.470402,68.44113],[22.468452,68.44102],[22.467133,68.44108],[22.466175,68.4413],[22.465319,68.44179],[22.463827,68.442856],[22.461674,68.44478],[22.458443,68.44731],[22.449617,68.453064],[22.445059,68.4556],[22.442234,68.45716],[22.439589,68.458824],[22.438385,68.459785],[22.437933,68.46037],[22.437647,68.461044],[22.437605,68.46154],[22.438229,68.46259],[22.438297,68.4632],[22.43806,68.46379],[22.437387,68.46417],[22.435875,68.46451],[22.434216,68.464714],[22.432402,68.46475],[22.43069,68.46463],[22.428661,68.46433],[22.42645,68.46389],[22.424335,68.463554],[22.422787,68.463554],[22.421074,68.46368],[22.419268,68.464035],[22.418829,68.46412],[22.417025,68.464775],[22.416462,68.46506],[22.415728,68.46542],[22.415081,68.4659],[22.4144,68.46625],[22.413494,68.46653],[22.412395,68.46658],[22.411612,68.46661],[22.409462,68.46653],[22.405579,68.46612],[22.402481,68.46551],[22.399544,68.46472],[22.397367,68.46393],[22.394735,68.46267],[22.384836,68.45741],[22.380245,68.455345],[22.37047,68.451416],[22.366741,68.4498],[22.356882,68.44612],[22.353949,68.445206],[22.352043,68.44494],[22.349884,68.444916],[22.346449,68.44501],[22.34419,68.445274],[22.342834,68.44574],[22.341578,68.44634],[22.341518,68.44681],[22.341642,68.44731],[22.342117,68.44769],[22.343054,68.44806],[22.344437,68.44857],[22.344955,68.44898],[22.345081,68.449646],[22.345207,68.45172],[22.34479,68.45329],[22.34421,68.454216],[22.343546,68.45541],[22.343752,68.45689],[22.344624,68.458084],[22.346033,68.45967],[22.347942,68.461235],[22.34906,68.46242],[22.349182,68.46318],[22.348923,68.46406],[22.347754,68.46529],[22.345871,68.466286],[22.343962,68.46752],[22.343317,68.46851],[22.342926,68.469696],[22.343546,68.47063],[22.345287,68.472176],[22.346909,68.473274],[22.347021,68.473366],[22.348068,68.47421],[22.348438,68.47526],[22.348568,68.47678],[22.349018,68.4775],[22.349966,68.478096],[22.351002,68.47888],[22.351233,68.47965],[22.35099,68.48036],[22.349932,68.48133],[22.348038,68.481674],[22.34565,68.48177],[22.343239,68.4817],[22.339737,68.48145],[22.336374,68.480965],[22.331955,68.48062],[22.329445,68.48057],[22.326788,68.48067],[22.324545,68.480934],[22.320923,68.48149],[22.315187,68.48228],[22.307499,68.48322],[22.303541,68.48373],[22.29832,68.483955],[22.29609,68.48404],[22.294573,68.483826],[22.292135,68.48282],[22.288652,68.48137],[22.284014,68.4802],[22.281948,68.4797],[22.279228,68.47931],[22.27639,68.479195],[22.271797,68.47937],[22.267006,68.479774],[22.262629,68.48043],[22.259771,68.480934],[22.2554,68.48211],[22.253328,68.48233],[22.251776,68.48233],[22.250395,68.48218],[22.249077,68.48197],[22.247845,68.48164],[22.246677,68.481186],[22.244299,68.47998],[22.241581,68.47898],[22.236565,68.4775],[22.231796,68.47599],[22.22563,68.47412],[22.22324,68.47355],[22.221529,68.4734],[22.220116,68.47349],[22.218725,68.47376],[22.215105,68.47521],[22.212492,68.476265],[22.207624,68.47805],[22.20689,68.478645],[22.206156,68.47928],[22.20517,68.47976],[22.204493,68.47999],[22.203651,68.48009],[22.203108,68.48002],[22.202175,68.479866],[22.200953,68.47967],[22.199085,68.47957],[22.19658,68.479645],[22.194958,68.47985],[22.193405,68.47988],[22.191553,68.47972],[22.189068,68.47922],[22.187262,68.47887],[22.185205,68.478584],[22.181202,68.47799],[22.179358,68.47764],[22.177803,68.47722],[22.177055,68.47697],[22.176195,68.47663],[22.173193,68.47584],[22.171585,68.47545],[22.17056,68.475006],[22.170168,68.47475],[22.169682,68.474335],[22.169468,68.4742],[22.168896,68.473976],[22.167986,68.47376],[22.165052,68.47313],[22.162971,68.47265],[22.16145,68.47223],[22.159859,68.47171],[22.157175,68.47078],[22.15612,68.47054],[22.154413,68.47027],[22.152815,68.47018],[22.150763,68.470276],[22.148932,68.47053],[22.146587,68.470665],[22.1443,68.47069],[22.142088,68.470566],[22.140068,68.47054],[22.137997,68.47067],[22.136007,68.47081],[22.133635,68.47084],[22.131836,68.47095],[22.130466,68.47115],[22.12935,68.47144],[22.128695,68.47163],[22.127798,68.47195],[22.127268,68.47221],[22.12698,68.47246],[22.126772,68.47283],[22.126774,68.47328],[22.126741,68.47368],[22.126614,68.47411],[22.125935,68.47476],[22.125305,68.47522],[22.12483,68.47556],[22.124502,68.47603],[22.124216,68.4766],[22.123821,68.47761],[22.123257,68.47901],[22.123037,68.47984],[22.122961,68.48035],[22.122484,68.480865],[22.121899,68.481064],[22.120901,68.48129],[22.118835,68.48145],[22.117485,68.48179],[22.116278,68.48204],[22.115627,68.48212],[22.115133,68.48209],[22.114735,68.48203],[22.113478,68.48173],[22.111996,68.481445],[22.10983,68.48116],[22.109045,68.48096],[22.10864,68.48077],[22.108006,68.48016],[22.10733,68.47986],[22.105246,68.47927],[22.103981,68.47899],[22.102013,68.478615],[22.101141,68.47858],[22.100458,68.47862],[22.09975,68.478935],[22.099136,68.47936],[22.098747,68.479836],[22.098558,68.48068],[22.098667,68.48103],[22.097513,68.481224],[22.095089,68.48158],[22.093115,68.4818],[22.091707,68.48196],[22.090403,68.48205],[22.08882,68.48206],[22.083153,68.48201],[22.081375,68.48201],[22.080324,68.48207],[22.07811,68.48222],[22.07708,68.48222],[22.076044,68.48206],[22.075254,68.481865],[22.07457,68.48167],[22.073437,68.48132],[22.071905,68.48105],[22.069567,68.48073],[22.06693,68.48024],[22.064402,68.47987],[22.062315,68.47962],[22.060808,68.47948],[22.05965,68.47927],[22.058407,68.479195],[22.056578,68.4792],[22.054548,68.479294],[22.052258,68.4794],[22.051174,68.47943],[22.050093,68.479385],[22.049076,68.47925],[22.048183,68.47911],[22.0471,68.47905],[22.04618,68.47915],[22.04504,68.479324],[22.043957,68.47957],[22.043245,68.47979],[22.042187,68.48018],[22.04119,68.48075],[22.040483,68.481285],[22.039913,68.481964],[22.0393,68.48259],[22.038603,68.483116],[22.037876,68.48358],[22.037495,68.483734],[22.03698,68.48396],[22.036175,68.48414],[22.035122,68.484276],[22.034,68.48448],[22.03329,68.4847],[22.032635,68.48501],[22.032238,68.485374],[22.031448,68.486176],[22.030527,68.48715],[22.029663,68.488144],[22.028181,68.48934],[22.027287,68.48993],[22.026363,68.49053],[22.025232,68.49106],[22.024706,68.491455],[22.024204,68.491776],[22.023573,68.49225],[22.023413,68.492645],[22.022993,68.493065],[22.02207,68.49349],[22.021017,68.49388],[22.020357,68.4942],[22.019901,68.49445],[22.018238,68.49595],[22.012821,68.505356],[22.01069,68.51048],[22.009289,68.51321],[22.006649,68.51541],[22.004797,68.516945],[22.000473,68.519615],[21.998198,68.521545],[21.99759,68.523026],[21.99865,68.52416],[22.000385,68.52528],[22.001766,68.52634],[22.001959,68.52743],[22.002207,68.52843],[22.003363,68.52909],[22.005846,68.529816],[22.0075,68.530334],[22.008318,68.53091],[22.007769,68.53123],[22.007214,68.531555],[22.006428,68.532936],[22.00676,68.533264],[22.004456,68.53419],[22.001617,68.534676],[21.998634,68.53459],[21.996643,68.53435],[21.994219,68.533844],[21.993391,68.53384],[21.991913,68.53398],[21.991041,68.53452],[21.989468,68.53542],[21.987146,68.536415],[21.98491,68.537315],[21.983644,68.53813],[21.982744,68.53918],[21.98213,68.54033],[21.981407,68.54157],[21.980288,68.54218],[21.978771,68.5425],[21.976967,68.543],[21.975054,68.54371],[21.973717,68.54459],[21.97296,68.545204],[21.971804,68.5456],[21.970757,68.54634],[21.970366,68.54676],[21.970345,68.54722],[21.970577,68.547585],[21.971262,68.54809],[21.971544,68.54844],[21.971554,68.54878],[21.970816,68.549774],[21.97004,68.55038],[21.969275,68.55092],[21.96719,68.55165],[21.962954,68.55252],[21.96091,68.55313],[21.95916,68.55377],[21.95733,68.55431],[21.955276,68.55464],[21.951721,68.55499],[21.949566,68.555214],[21.948153,68.55549],[21.945892,68.55631],[21.943003,68.5579],[21.940697,68.559364],[21.93821,68.56074],[21.935808,68.56231],[21.932991,68.564644],[21.93184,68.56534],[21.930523,68.56656],[21.929361,68.56727],[21.927948,68.567795],[21.92648,68.568245],[21.92506,68.5686],[21.922289,68.56913],[21.92027,68.5696],[21.918528,68.57019],[21.91715,68.57075],[21.915598,68.57172],[21.913992,68.57241],[21.911083,68.573105],[21.908707,68.5738],[21.907223,68.57441],[21.906473,68.57505],[21.906141,68.575584],[21.90606,68.57644],[21.906342,68.577095],[21.90648,68.57764],[21.90625,68.578064],[21.905518,68.57841],[21.90467,68.57866],[21.902676,68.57907],[21.900404,68.57981],[21.897886,68.58068],[21.896362,68.58131],[21.895403,68.58187],[21.894232,68.582535],[21.88987,68.584404],[21.888414,68.584854],[21.887373,68.58501],[21.886168,68.58504],[21.884123,68.584946],[21.88256,68.5849],[21.87983,68.58496],[21.877346,68.5851],[21.874685,68.58515],[21.873236,68.58504],[21.870499,68.58463],[21.8683,68.58425],[21.866476,68.58397],[21.86546,68.58394],[21.864635,68.584015],[21.86401,68.58412],[21.863155,68.58444],[21.86274,68.58479],[21.862446,68.585205],[21.862358,68.58557],[21.862516,68.5859],[21.86397,68.58702],[21.86439,68.587395],[21.864614,68.58776],[21.86454,68.58823],[21.86413,68.58855],[21.86319,68.588715],[21.859573,68.58907],[21.855528,68.58917],[21.853611,68.58924],[21.852158,68.58934],[21.851015,68.589485],[21.849016,68.5899],[21.847195,68.59026],[21.843285,68.59069],[21.841042,68.59083],[21.839516,68.590904],[21.83745,68.59085],[21.83531,68.59071],[21.832008,68.59053],[21.82946,68.59029],[21.827026,68.5899],[21.82548,68.58953],[21.82458,68.58931],[21.82386,68.58916],[21.822947,68.589096],[21.822206,68.58908],[21.821156,68.589226],[21.819803,68.58942],[21.818102,68.589615],[21.81667,68.589676],[21.815363,68.58961],[21.814121,68.58949],[21.808455,68.58866],[21.80689,68.58857],[21.805126,68.58854],[21.80368,68.588394],[21.802671,68.58812],[21.802095,68.58776],[21.801167,68.58696],[21.800234,68.58663],[21.799036,68.586426],[21.797264,68.58621],[21.794708,68.58613],[21.793203,68.58614],[21.79146,68.58634],[21.790073,68.58641],[21.78837,68.586266],[21.78643,68.58598],[21.782667,68.58555],[21.780725,68.585396],[21.779003,68.58538],[21.777142,68.585495],[21.775347,68.58562],[21.774002,68.58573],[21.772112,68.585976],[21.770407,68.58623],[21.767254,68.5867],[21.76592,68.58698],[21.764559,68.58716],[21.763376,68.58722],[21.761703,68.58717],[21.759846,68.58717],[21.75669,68.58724],[21.754135,68.587326],[21.751896,68.58746],[21.750767,68.58754],[21.747591,68.58781],[21.746145,68.58807],[21.74458,68.588326],[21.743452,68.588524],[21.742323,68.588715],[21.741312,68.588844],[21.739866,68.58892],[21.738024,68.58901],[21.735687,68.58914],[21.73436,68.58918],[21.73327,68.589195],[21.731707,68.58929],[21.73024,68.589455],[21.728935,68.58971],[21.727777,68.58988],[21.727293,68.59024],[21.726557,68.59049],[21.724129,68.590706],[21.721745,68.59091],[21.720072,68.5908],[21.719408,68.590614],[21.718529,68.59049],[21.717743,68.590515],[21.717047,68.59069],[21.716442,68.59093],[21.71598,68.59131],[21.71577,68.59166],[21.715767,68.59197],[21.715778,68.59239],[21.715616,68.59262],[21.7153,68.592896],[21.714952,68.593094],[21.714508,68.59348],[21.713802,68.59375],[21.712315,68.59404],[21.709158,68.594284],[21.707941,68.59441],[21.706316,68.59462],[21.7046,68.59501],[21.703556,68.59541],[21.702524,68.59586],[21.701664,68.596344],[21.701088,68.59687],[21.70083,68.597336],[21.700645,68.59836],[21.69994,68.60021],[21.701096,68.60194],[21.699566,68.60598],[21.700134,68.6066],[21.699766,68.607834],[21.699348,68.60881],[21.698631,68.6093],[21.696657,68.60995],[21.695862,68.61029],[21.696024,68.61065],[21.696884,68.61075],[21.697802,68.61067],[21.69868,68.6109],[21.698746,68.611534],[21.69838,68.61317],[21.698574,68.6138],[21.699266,68.61434],[21.700233,68.614716],[21.701408,68.61426],[21.702143,68.61472],[21.703518,68.61522],[21.705666,68.61586],[21.707912,68.61641],[21.708555,68.616875],[21.710737,68.61696],[21.711689,68.61719],[21.712154,68.617355],[21.712492,68.61758],[21.712404,68.61793],[21.712288,68.61832],[21.712286,68.61879],[21.712648,68.61896],[21.71286,68.619125],[21.712687,68.619286],[21.711056,68.61943],[21.710314,68.620056],[21.710358,68.621],[21.710161,68.622086],[21.710842,68.622955],[21.709936,68.62341],[21.709879,68.62389],[21.711008,68.62507],[21.70965,68.62589],[21.707962,68.626656],[21.706667,68.627426],[21.70516,68.628555],[21.701368,68.63056],[21.699467,68.63141],[21.697235,68.632126],[21.695202,68.6325],[21.693605,68.632675],[21.691988,68.63293],[21.690012,68.633514],[21.687578,68.634125],[21.68517,68.63501],[21.683613,68.63575],[21.681868,68.636406],[21.679796,68.63704],[21.678038,68.63737],[21.675774,68.637695],[21.673065,68.63801],[21.670902,68.63836],[21.669243,68.63884],[21.667452,68.63964],[21.666052,68.64039],[21.664568,68.64117],[21.66326,68.642365],[21.661787,68.64351],[21.659512,68.64473],[21.65615,68.64607],[21.65419,68.647255],[21.653713,68.6478],[21.653671,68.648346],[21.653727,68.64868],[21.654116,68.6491],[21.654089,68.64942],[21.65382,68.64983],[21.653175,68.650185],[21.652126,68.65043],[21.65079,68.650635],[21.649273,68.65071],[21.64666,68.65078],[21.644466,68.65072],[21.643366,68.65079],[21.642294,68.65089],[21.64123,68.65116],[21.640406,68.65161],[21.63895,68.65259],[21.638206,68.65291],[21.636763,68.65346],[21.634808,68.65386],[21.632658,68.65408],[21.629885,68.6543],[21.62771,68.65452],[21.626537,68.654884],[21.62529,68.65571],[21.624804,68.65644],[21.624243,68.657295],[21.623888,68.658165],[21.623539,68.65934],[21.623363,68.66009],[21.623562,68.66058],[21.62436,68.66102],[21.62486,68.661354],[21.624916,68.66163],[21.624918,68.66193],[21.624514,68.66224],[21.62358,68.66254],[21.622393,68.66277],[21.621443,68.66302],[21.620707,68.66329],[21.619753,68.663734],[21.618767,68.663895],[21.618998,68.66415],[21.616755,68.665],[21.61359,68.6661],[21.609531,68.66729],[21.606161,68.66788],[21.603378,68.668076],[21.600443,68.6682],[21.59777,68.668076],[21.594872,68.66793],[21.59308,68.66789],[21.59121,68.66808],[21.585037,68.669],[21.570583,68.67152],[21.56913,68.67191],[21.5683,68.672455],[21.567902,68.673065],[21.567814,68.67377],[21.567392,68.67448],[21.566595,68.67496],[21.565151,68.67525],[21.563671,68.675285],[21.562275,68.67519],[21.560741,68.67524],[21.558983,68.675514],[21.557947,68.67599],[21.55741,68.67649],[21.556665,68.67684],[21.555422,68.677055],[21.554068,68.677086],[21.552607,68.6769],[21.551708,68.67663],[21.550873,68.67622],[21.550278,68.67601],[21.549337,68.67575],[21.547375,68.675545],[21.540504,68.67537],[21.538412,68.67551],[21.532837,68.67531],[21.530724,68.67537],[21.529037,68.6755],[21.52797,68.6758],[21.527168,68.67616],[21.526499,68.67651],[21.525751,68.676895],[21.52489,68.67704],[21.522879,68.67728],[21.52122,68.67719],[21.519928,68.676926],[21.51843,68.676476],[21.516817,68.67607],[21.514347,68.67575],[21.51243,68.67561],[21.511103,68.6758],[21.508896,68.6761],[21.507149,68.6762],[21.505314,68.67617],[21.503126,68.67626],[21.501179,68.676414],[21.498344,68.677155],[21.496723,68.67767],[21.495474,68.67828],[21.49365,68.678764],[21.489767,68.679535],[21.484543,68.68049],[21.480484,68.68127],[21.477379,68.68172],[21.475048,68.682014],[21.474167,68.682],[21.472048,68.68196],[21.471,68.68187],[21.469189,68.68172],[21.46844,68.68169],[21.467424,68.68169],[21.467278,68.68174],[21.464989,68.68249],[21.46333,68.683235],[21.462488,68.68375],[21.460743,68.684685],[21.45874,68.6857],[21.457863,68.68619],[21.45678,68.686516],[21.454693,68.68697],[21.452656,68.68709],[21.44969,68.68726],[21.446766,68.68766],[21.44566,68.688194],[21.444864,68.688805],[21.443714,68.68916],[21.439638,68.68947],[21.436052,68.68975],[21.434105,68.690254],[21.429869,68.69135],[21.428658,68.691956],[21.428179,68.69257],[21.427923,68.69328],[21.427052,68.693985],[21.423191,68.69521],[21.42153,68.69587],[21.420631,68.6966],[21.42023,68.697655],[21.420372,68.69871],[21.42101,68.69952],[21.421976,68.70014],[21.423182,68.70088],[21.42364,68.70161],[21.423481,68.70245],[21.422935,68.70352],[21.422287,68.704605],[21.421186,68.70578],[21.419712,68.70666],[21.417328,68.7077],[21.415846,68.70862],[21.414972,68.7094],[21.414186,68.710175],[21.413994,68.7107],[21.41438,68.71143],[21.414885,68.71194],[21.415934,68.71252],[21.417795,68.71309],[21.419735,68.71361],[21.421154,68.714294],[21.421476,68.71482],[21.421694,68.71555],[21.421112,68.71669],[21.419878,68.71803],[21.418337,68.71914],[21.417469,68.719765],[21.416798,68.72037],[21.414003,68.72331],[21.413128,68.7241],[21.412037,68.72516],[21.411863,68.72568],[21.41233,68.72633],[21.413317,68.72707],[21.415022,68.72838],[21.41561,68.72922],[21.415714,68.73002],[21.41519,68.7308],[21.414421,68.73146],[21.41276,68.73233],[21.410587,68.73324],[21.408571,68.73437],[21.407421,68.735466],[21.406998,68.736275],[21.406935,68.73745],[21.407587,68.73911],[21.407673,68.74006],[21.40719,68.74091],[21.407139,68.74222],[21.407845,68.74315],[21.4084,68.74406],[21.409777,68.74543],[21.410864,68.74636],[21.411562,68.747185],[21.412027,68.74766],[21.4124,68.748055],[21.412554,68.74835],[21.412281,68.7486],[21.411297,68.748955],[21.40981,68.74949],[21.409235,68.74973],[21.408852,68.74992],[21.408228,68.75028],[21.407398,68.7508],[21.405876,68.75228],[21.40501,68.75327],[21.404762,68.754585],[21.404621,68.755066],[21.404028,68.75553],[21.403433,68.75617],[21.402172,68.75687],[21.398546,68.75847],[21.39693,68.75907],[21.396227,68.759346],[21.395489,68.759575],[21.39398,68.760025],[21.392187,68.760895],[21.391436,68.76132],[21.390745,68.76147],[21.39024,68.76169],[21.389936,68.76188],[21.389694,68.762085],[21.389603,68.762245],[21.389647,68.762405],[21.389856,68.76258],[21.390724,68.76289],[21.391273,68.76322],[21.391438,68.76356],[21.391565,68.76394],[21.39116,68.76451],[21.390419,68.764786],[21.389334,68.764946],[21.388187,68.76499],[21.386616,68.764946],[21.384413,68.76473],[21.3841,68.764725],[21.383642,68.76479],[21.380884,68.76547],[21.378996,68.76578],[21.377836,68.76594],[21.377775,68.7662],[21.376436,68.766235],[21.37517,68.76623],[21.373888,68.76628],[21.37213,68.7664],[21.37077,68.766594],[21.369604,68.766785],[21.368355,68.766914],[21.365898,68.766975],[21.363222,68.76701],[21.36239,68.767],[21.361584,68.7669],[21.361069,68.76679],[21.36036,68.76661],[21.359713,68.766365],[21.358673,68.76608],[21.357044,68.765755],[21.353508,68.765175],[21.350082,68.76464],[21.348667,68.76434],[21.347267,68.76399],[21.344809,68.763275],[21.34371,68.763016],[21.34221,68.76283],[21.339241,68.76253],[21.337532,68.76217],[21.336266,68.7617],[21.335588,68.76126],[21.333754,68.76044],[21.33207,68.75988],[21.330765,68.759674],[21.32896,68.7595],[21.327461,68.759315],[21.325697,68.7592],[21.322487,68.75921],[21.319427,68.75927],[21.317196,68.75947],[21.31554,68.75967],[21.312937,68.75984],[21.309408,68.76029],[21.307533,68.76061],[21.303892,68.76137],[21.302368,68.76173],[21.29903,68.76275],[21.297743,68.76325],[21.29682,68.76391],[21.29607,68.76465],[21.295332,68.76558],[21.294552,68.76637],[21.293062,68.76747],[21.290907,68.76854],[21.287813,68.76986],[21.286446,68.77081],[21.285658,68.77202],[21.283657,68.773735],[21.280514,68.77519],[21.274885,68.77835],[21.27275,68.779106],[21.271318,68.779686],[21.270123,68.780594],[21.268984,68.78133],[21.268414,68.78199],[21.267725,68.78317],[21.267218,68.78405],[21.266281,68.78515],[21.265213,68.78584],[21.263903,68.78637],[21.262909,68.78713],[21.262316,68.7877],[21.262016,68.78832],[21.261658,68.789314],[21.260958,68.79028],[21.260893,68.79064],[21.261251,68.79091],[21.262238,68.79114],[21.262968,68.79139],[21.263414,68.79176],[21.263334,68.79239],[21.262257,68.793396],[21.25861,68.79509],[21.255125,68.796974],[21.253525,68.7982],[21.252577,68.7994],[21.252666,68.80013],[21.253355,68.80091],[21.25417,68.80156],[21.254187,68.8022],[21.253809,68.802666],[21.252897,68.80331],[21.251575,68.80384],[21.249918,68.80434],[21.249224,68.804634],[21.247803,68.80554],[21.247208,68.80635],[21.246752,68.80693],[21.245832,68.80743],[21.244724,68.80765],[21.243458,68.808],[21.241253,68.80894],[21.239788,68.809746],[21.239016,68.810555],[21.238197,68.81172],[21.237528,68.81236],[21.236729,68.812874],[21.235811,68.8132],[21.235435,68.813545],[21.234919,68.81386],[21.234016,68.81409],[21.232893,68.813995],[21.231976,68.81385],[21.23105,68.81402],[21.230253,68.81439],[21.228748,68.8147],[21.227465,68.814545],[21.225517,68.814865],[21.224854,68.81525],[21.224941,68.81563],[21.224373,68.815926],[21.221489,68.816505],[21.219296,68.816635],[21.21736,68.81658],[21.213486,68.817215],[21.212595,68.81756],[21.210901,68.81808],[21.20975,68.81834],[21.207645,68.81893],[21.206171,68.81952],[21.204388,68.82059],[21.203583,68.82093],[21.202656,68.821236],[21.201677,68.82149],[21.20051,68.8218],[21.198494,68.8226],[21.197264,68.82301],[21.196404,68.823204],[21.195477,68.82331],[21.1938,68.823395],[21.19259,68.82347],[21.191452,68.82358],[21.19043,68.82371],[21.188238,68.82445],[21.18729,68.82478],[21.186108,68.825226],[21.18575,68.82554],[21.18558,68.82591],[21.18558,68.82645],[21.185839,68.82672],[21.186094,68.82701],[21.185947,68.8278],[21.185602,68.828415],[21.18513,68.82878],[21.184061,68.8291],[21.182568,68.8293],[21.18138,68.829575],[21.179953,68.83017],[21.178587,68.83079],[21.17641,68.83146],[21.175503,68.83195],[21.17468,68.832504],[21.173948,68.832855],[21.173037,68.83317],[21.171856,68.83345],[21.170614,68.833725],[21.169222,68.83394],[21.167856,68.83416],[21.166992,68.83441],[21.166208,68.83459],[21.16552,68.83483],[21.164907,68.83519],[21.163733,68.835594],[21.158564,68.83706],[21.15587,68.8379],[21.153484,68.8386],[21.152435,68.838936],[21.150532,68.83937],[21.148567,68.839714],[21.147367,68.83998],[21.147255,68.840004],[21.14636,68.84024],[21.145962,68.84046],[21.145864,68.840836],[21.145859,68.84129],[21.145842,68.841644],[21.14557,68.841995],[21.144972,68.842354],[21.14412,68.84267],[21.143757,68.842896],[21.143362,68.843376],[21.143454,68.843834],[21.144148,68.84445],[21.144382,68.844826],[21.144249,68.84524],[21.143702,68.84565],[21.1422,68.84629],[21.139044,68.84701],[21.13267,68.84852],[21.131937,68.84891],[21.131493,68.84939],[21.131603,68.85015],[21.13047,68.851944],[21.130438,68.852264],[21.1295,68.853035],[21.128662,68.85355],[21.127474,68.85401],[21.126835,68.85418],[21.126078,68.85437],[21.125166,68.85454],[21.123466,68.85481],[21.120476,68.85544],[21.11964,68.855675],[21.118696,68.85591],[21.11776,68.856384],[21.116886,68.85696],[21.115334,68.85729],[21.114809,68.85751],[21.11432,68.8576],[21.112087,68.85836],[21.110062,68.8589],[21.10942,68.85898],[21.108276,68.85931],[21.107292,68.859566],[21.106377,68.85973],[21.10571,68.85962],[21.105354,68.859375],[21.104435,68.85915],[21.102978,68.85949],[21.101467,68.86019],[21.100767,68.86043],[21.099781,68.86063],[21.09774,68.86081],[21.094517,68.86116],[21.092829,68.86142],[21.091421,68.86172],[21.088709,68.8622],[21.086786,68.862816],[21.085108,68.86339],[21.082127,68.864075],[21.0796,68.86451],[21.078339,68.865814],[21.07849,68.86615],[21.07894,68.86661],[21.077965,68.86742],[21.077,68.86848],[21.076368,68.869514],[21.076078,68.86992],[21.075785,68.870026],[21.075752,68.87015],[21.075853,68.87024],[21.076326,68.87053],[21.076841,68.8707],[21.07701,68.870804],[21.07715,68.87122],[21.076717,68.871475],[21.075428,68.87175],[21.074837,68.87193],[21.073832,68.87235],[21.072283,68.87285],[21.071009,68.8732],[21.069712,68.87341],[21.06754,68.8739],[21.066025,68.87414],[21.06552,68.874306],[21.064995,68.874855],[21.063793,68.87532],[21.063261,68.875626],[21.063005,68.87585],[21.062305,68.87623],[21.061575,68.87655],[21.06091,68.876755],[21.059942,68.87698],[21.058344,68.87725],[21.056973,68.87753],[21.05597,68.87784],[21.055134,68.87802],[21.053652,68.87844],[21.052862,68.87877],[21.05144,68.87913],[21.051172,68.879326],[21.05094,68.879845],[21.05009,68.880646],[21.049515,68.88096],[21.04865,68.88127],[21.047285,68.88159],[21.046377,68.881775],[21.04494,68.88196],[21.043331,68.88203],[21.039936,68.88205],[21.037909,68.8821],[21.036386,68.882195],[21.035254,68.88233],[21.033373,68.882576],[21.032019,68.88263],[21.030575,68.88254],[21.028818,68.882195],[21.028526,68.88213],[21.028208,68.88207],[21.02784,68.88199],[21.027035,68.881966],[21.026236,68.8821],[21.026066,68.88237],[21.026217,68.882645],[21.028282,68.883644],[21.029205,68.88423],[21.029854,68.88485],[21.029871,68.885155],[21.029648,68.88542],[21.02879,68.88588],[21.027534,68.88627],[21.026535,68.88641],[21.025753,68.88663],[21.025045,68.88697],[21.02463,68.887375],[21.022732,68.88799],[21.021418,68.88832],[21.020351,68.88873],[21.019653,68.8892],[21.01877,68.88957],[21.017649,68.88982],[21.015966,68.88998],[21.01407,68.89033],[21.012613,68.89099],[21.010849,68.891914],[21.00995,68.89223],[21.008295,68.89259],[21.005066,68.8933],[21.000753,68.89548],[20.998838,68.89612],[20.996792,68.89674],[20.99358,68.89729],[20.991749,68.89743],[20.990952,68.8974],[20.990767,68.89722],[20.9904,68.89613],[20.990667,68.89496],[20.989819,68.89398],[20.987257,68.8923],[20.986591,68.89208],[20.984724,68.89189],[20.980764,68.891266],[20.980232,68.8913],[20.976837,68.89288],[20.976105,68.89303],[20.97524,68.89302],[20.972927,68.89287],[20.970898,68.89275],[20.9693,68.89273],[20.968365,68.89248],[20.967617,68.8921],[20.96612,68.8913],[20.965271,68.89111],[20.96379,68.89119],[20.961992,68.89153],[20.960794,68.89169],[20.959995,68.891754],[20.958881,68.89192],[20.958132,68.892265],[20.95765,68.89309],[20.958082,68.8948],[20.958382,68.89565],[20.958364,68.89625],[20.957813,68.89663],[20.956882,68.89692],[20.955702,68.89712],[20.954138,68.897125],[20.95028,68.89659],[20.947464,68.89636],[20.94495,68.89633],[20.942322,68.89664],[20.939709,68.89714],[20.93698,68.89795],[20.935331,68.89839],[20.933968,68.89859],[20.932802,68.898636],[20.93142,68.89852],[20.926893,68.89781],[20.923882,68.89761],[20.919157,68.897316],[20.915693,68.89714],[20.91483,68.89697],[20.91433,68.89658],[20.91353,68.895836],[20.912647,68.89517],[20.910267,68.894554],[20.908339,68.89377],[20.907572,68.892914],[20.906956,68.89179],[20.902462,68.89113],[20.895357,68.89124],[20.888266,68.89164],[20.88334,68.89232],[20.879812,68.89294],[20.878033,68.89353],[20.87735,68.89424],[20.877216,68.8946],[20.877449,68.89507],[20.878048,68.8956],[20.87928,68.896],[20.880795,68.89635],[20.882076,68.89662],[20.883142,68.89678],[20.884357,68.89689],[20.884905,68.896866],[20.886934,68.89646],[20.887835,68.89645],[20.890697,68.896645],[20.894657,68.897255],[20.895905,68.89786],[20.896372,68.89797],[20.898663,68.89861],[20.900673,68.89869],[20.902721,68.89905],[20.903866,68.89948],[20.903948,68.900536],[20.900726,68.90241],[20.897247,68.90495],[20.893848,68.906555],[20.891354,68.908035],[20.89062,68.90896],[20.889805,68.91012],[20.889242,68.91063],[20.888752,68.910934],[20.887796,68.91142],[20.886816,68.911934],[20.884851,68.913445],[20.884338,68.91435],[20.883617,68.91502],[20.881807,68.91657],[20.878984,68.91842],[20.877314,68.91921],[20.876116,68.91972],[20.874233,68.92067],[20.87163,68.921486],[20.867407,68.92232],[20.863699,68.92285],[20.86152,68.922874],[20.859756,68.922745],[20.856762,68.92309],[20.854048,68.92372],[20.853046,68.92425],[20.85293,68.92506],[20.852163,68.92632],[20.850986,68.92767],[20.850163,68.92821],[20.84765,68.93157],[20.846285,68.93292],[20.845734,68.93421],[20.844723,68.9354],[20.84419,68.93656],[20.845186,68.936905],[20.847286,68.93745],[20.84916,68.93805],[20.851786,68.93867],[20.852285,68.9388],[20.85265,68.93911],[20.853117,68.93962],[20.854103,68.9401],[20.856234,68.94054],[20.857956,68.94074],[20.858717,68.94096],[20.861605,68.94185],[20.86408,68.94253],[20.864529,68.94262],[20.865002,68.942924],[20.865864,68.94353],[20.866463,68.94365],[20.867355,68.943634],[20.871271,68.94333],[20.875978,68.942894],[20.884401,68.94194],[20.890238,68.941414],[20.891672,68.94145],[20.89232,68.941696],[20.893007,68.942474],[20.893442,68.943474],[20.89346,68.94508],[20.894304,68.94644],[20.895145,68.94736],[20.89664,68.94817],[20.90087,68.95008],[20.906263,68.95315],[20.910423,68.95594],[20.911825,68.95711],[20.912912,68.95874],[20.913729,68.960396],[20.913729,68.96202],[20.912983,68.96343],[20.9121,68.966446],[20.911644,68.96883],[20.909836,68.97027],[20.906988,68.972336],[20.90516,68.97359],[20.895088,68.97789],[20.892706,68.97895],[20.890875,68.980095],[20.888054,68.981415],[20.883888,68.983055],[20.883284,68.98346],[20.882202,68.98447],[20.881124,68.98597],[20.88059,68.986336],[20.87951,68.98676],[20.878075,68.98688],[20.875433,68.98698],[20.873243,68.98698],[20.868868,68.9869],[20.867378,68.98701],[20.866549,68.98716],[20.8626,68.988686],[20.859869,68.98952],[20.855652,68.99042],[20.852886,68.99113],[20.852463,68.99131],[20.851536,68.99144],[20.850533,68.991394],[20.849684,68.99121],[20.84887,68.99118],[20.84784,68.99141],[20.847477,68.99157],[20.846636,68.99172],[20.845081,68.99232],[20.843462,68.992744],[20.842667,68.99302],[20.841873,68.99335],[20.840925,68.99358],[20.839825,68.99416],[20.839207,68.99464],[20.838331,68.99505],[20.83612,68.99568],[20.835377,68.995895],[20.834663,68.99621],[20.833328,68.99753],[20.830448,68.99951],[20.826088,69.00291],[20.82036,69.00588],[20.816992,69.0116],[20.813454,69.01715],[20.811129,69.018845],[20.807522,69.02028],[20.799862,69.02271],[20.788168,69.02655],[20.783255,69.02827],[20.779411,69.02996],[20.776814,69.03184],[20.775042,69.03261],[20.771936,69.03316],[20.76471,69.0341],[20.749683,69.03571],[20.735838,69.036995],[20.72475,69.03878],[20.71881,69.03977],[20.7144,69.04091],[20.707771,69.04294],[20.705023,69.04389],[20.702766,69.04448],[20.700773,69.04439],[20.692562,69.04366],[20.688707,69.04305],[20.684303,69.042984],[20.680128,69.04285],[20.67647,69.043015],[20.673248,69.04332],[20.670414,69.04346],[20.667221,69.04328],[20.662413,69.043106],[20.659441,69.04323],[20.657503,69.04344],[20.651308,69.043945],[20.649414,69.04403],[20.644953,69.044426],[20.642775,69.044464],[20.641037,69.04463],[20.638641,69.04479],[20.634687,69.04528],[20.631115,69.0455],[20.627684,69.04581],[20.625807,69.046295],[20.624088,69.046555],[20.621868,69.04665],[20.616285,69.04741],[20.614332,69.04812],[20.61234,69.04873],[20.610968,69.049],[20.609627,69.04943],[20.607615,69.04977],[20.606527,69.049995],[20.606003,69.05002],[20.604952,69.05016],[20.60372,69.05023],[20.603039,69.05014],[20.602415,69.04992],[20.601746,69.05002],[20.601137,69.05027],[20.60096,69.0506],[20.601318,69.05068],[20.601236,69.05092],[20.600708,69.05098],[20.599669,69.05099],[20.5984,69.05093],[20.597157,69.05098],[20.596584,69.05099],[20.596376,69.05106],[20.595875,69.05114],[20.595497,69.05114],[20.595331,69.051186],[20.595087,69.05119],[20.59492,69.05128],[20.594683,69.05131],[20.593843,69.05176],[20.593307,69.05206],[20.59347,69.05224],[20.593813,69.05251],[20.593502,69.05274],[20.59237,69.053085],[20.590921,69.05346],[20.590553,69.05348],[20.589663,69.05349],[20.589048,69.05348],[20.587637,69.053505],[20.587172,69.053345],[20.586609,69.05315],[20.585907,69.05302],[20.585209,69.05311],[20.585152,69.05322],[20.584919,69.05345],[20.584667,69.05357],[20.583952,69.05356],[20.58307,69.05365],[20.58253,69.0539],[20.582073,69.053955],[20.581316,69.05387],[20.580595,69.05366],[20.580156,69.05341],[20.580004,69.05326],[20.57968,69.05306],[20.579155,69.05296],[20.578339,69.05272],[20.577843,69.052635],[20.577087,69.052765],[20.576897,69.05283],[20.575455,69.053474],[20.570852,69.05505],[20.56993,69.05596],[20.56881,69.05667],[20.568338,69.05686],[20.567501,69.05704],[20.56652,69.05712],[20.564335,69.05656],[20.563282,69.056404],[20.560863,69.05631],[20.559107,69.05656],[20.558256,69.05687],[20.557682,69.05738],[20.556042,69.05756],[20.554985,69.05804],[20.554792,69.05832],[20.553833,69.05832],[20.552977,69.05853],[20.551977,69.05857],[20.550161,69.05883],[20.548643,69.05997],[20.468925,69.05759],[20.440037,69.05676],[20.302917,69.05263],[20.194103,69.04959],[20.143236,69.048096],[20.060047,69.04575],[20.108215,69.0219],[20.130642,69.01055],[20.188135,68.98132],[20.237707,68.95606],[20.262741,68.94474],[20.306427,68.92618],[20.30928,68.91312],[20.313591,68.893105],[20.321737,68.85558],[20.323244,68.84986],[20.32912,68.827446],[20.334412,68.807755],[20.335863,68.80234],[20.334532,68.80102],[20.316133,68.78276],[20.300983,68.76757],[20.27374,68.74026],[20.24655,68.71184],[20.216173,68.68001],[20.202702,68.66591],[20.16128,68.64537],[20.083546,68.60673],[20.052124,68.59105],[19.991484,68.57358],[19.937502,68.55794],[20.00159,68.53823],[20.025768,68.53081],[20.066526,68.52271],[20.140465,68.50801],[20.226418,68.49081],[20.154121,68.46153],[20.110466,68.44382],[20.070255,68.42699],[20.011116,68.40216],[19.977858,68.38815],[19.954432,68.37485],[19.921396,68.35601],[19.824831,68.37316],[19.780863,68.38095],[19.70749,68.393906],[19.653046,68.40329],[19.553986,68.42055],[19.500742,68.42936],[19.44923,68.43823],[19.352234,68.45467],[19.268599,68.46889],[19.231426,68.47514],[19.1399,68.49067],[19.091188,68.49889],[19.031963,68.50886],[18.983696,68.516945],[18.901966,68.5148],[18.829676,68.51286],[18.740215,68.51042],[18.684883,68.50849],[18.621147,68.506935],[18.55254,68.53277],[18.485626,68.556496],[18.462406,68.56386],[18.43883,68.57133],[18.40561,68.581856],[18.361973,68.574715],[18.33197,68.5698],[18.29984,68.56451],[18.226395,68.552765],[18.18748,68.54647],[18.12585,68.53649],[18.120258,68.50451],[18.117662,68.489784],[18.112854,68.46522],[18.110655,68.45453],[18.109858,68.4506],[18.105816,68.43069],[18.105734,68.43008],[18.10328,68.41815],[18.101091,68.406044],[18.103441,68.39496],[18.104872,68.385635],[18.107822,68.37428],[18.114618,68.34053],[18.123857,68.308014],[18.127277,68.293976],[18.136635,68.25984],[18.138792,68.24909],[18.145025,68.228325],[18.151411,68.19875],[18.140118,68.18731],[18.126291,68.17459],[18.094912,68.148224],[18.062506,68.1154],[18.053267,68.10893],[18.03437,68.091736],[18.014639,68.07408],[17.993666,68.05512],[17.973625,68.03756],[17.95368,68.01865],[17.91911,67.98728],[17.899805,67.96933],[17.848469,67.98448],[17.789776,68.00174],[17.712252,68.024475],[17.664812,68.03847],[17.599258,68.05251],[17.545889,68.063995],[17.495369,68.07483],[17.43838,68.086685],[17.402964,68.09395],[17.354734,68.103714],[17.350012,68.10457],[17.281897,68.118805],[17.252937,68.10013],[17.208649,68.070465],[17.180002,68.05051],[17.110733,68.03042],[17.04721,68.012115],[17.014364,68.00225],[16.952147,67.98441],[16.929712,67.97708],[16.907902,67.97002],[16.833393,67.945206],[16.786026,67.92975],[16.738129,67.914185],[16.732048,67.90563],[16.724905,67.894],[16.703548,67.861885],[16.692402,67.84496],[16.678877,67.82445],[16.652878,67.787865],[16.63759,67.767075],[16.621576,67.74289],[16.61723,67.73632],[16.600597,67.711006],[16.58009,67.68016],[16.555733,67.647285],[16.517765,67.614],[16.496298,67.59464],[16.443098,67.55905],[16.407797,67.53398],[16.379581,67.53278],[16.285507,67.52799],[16.246193,67.52499],[16.156599,67.519455],[16.131828,67.48662],[16.113188,67.46342],[16.090149,67.435234],[16.152945,67.391106],[16.18041,67.371346],[16.21164,67.34869],[16.264511,67.30988],[16.2911,67.29021],[16.329706,67.26208],[16.365255,67.23477],[16.384514,67.22002],[16.384539,67.22],[16.38772,67.217545],[16.40401,67.20498],[16.402493,67.190414],[16.400312,67.17999],[16.398518,67.15742],[16.393229,67.10973],[16.392708,67.10417],[16.390833,67.08409],[16.38951,67.06903],[16.3877,67.045494],[16.380493,67.04309],[16.362408,67.03705],[16.30605,67.01859],[16.2776,67.0096],[16.195223,66.98223],[16.148262,66.96184],[16.129293,66.95327],[16.092827,66.93678],[16.080374,66.931206],[16.038763,66.912415],[15.993599,66.87324],[15.957203,66.84532],[15.925064,66.82111],[15.907029,66.80749],[15.861263,66.77428],[15.846654,66.763596],[15.80794,66.73527],[15.773888,66.71667],[15.753332,66.70083],[15.731111,66.685],[15.710833,66.66917],[15.68861,66.65333],[15.668332,66.6375],[15.646111,66.621666],[15.625833,66.605835],[15.62111,66.60333],[15.590555,66.58833],[15.558333,66.57333],[15.533365,66.55785],[15.495832,66.54305],[15.463611,66.52805],[15.433332,66.513054],[15.401388,66.498055],[15.37723,66.48431],[15.386013,66.46916],[15.394949,66.4537],[15.40859,66.43007],[15.430428,66.39237],[15.44208,66.36904],[15.4538555,66.345345],[15.461832,66.32925],[15.477729,66.29678],[15.4847145,66.282455],[15.316092,66.23568],[15.305534,66.23274],[15.249541,66.21614],[15.22921,66.210106],[15.206144,66.20318],[15.192443,66.199104],[15.178478,66.195076],[15.035653,66.153564],[14.951339,66.15001],[14.931703,66.14917],[14.864161,66.145996],[14.845283,66.145294],[14.782135,66.14286],[14.719493,66.140396],[14.697555,66.13954],[14.647404,66.13763],[14.594912,66.135635],[14.590743,66.13547],[14.538539,66.13343],[14.516284,66.13256],[14.528365,66.095566],[14.57319,65.9576],[14.584253,65.90135],[14.607988,65.85121],[14.624003,65.81419],[14.568492,65.73815],[14.541983,65.70492],[14.529521,65.68223],[14.496771,65.51743],[14.499603,65.45899],[14.500193,65.44449],[14.505657,65.30992],[14.379021,65.24805],[14.331272,65.132614],[14.32576,65.11906],[14.281886,65.08787],[14.205048,65.03291],[14.108192,64.96226],[14.046588,64.91449],[14.015118,64.889824],[13.990863,64.87007],[13.989716,64.86926],[13.96921,64.85272],[13.949695,64.83687],[13.93371,64.82414],[13.931199,64.82212],[13.916439,64.810265],[13.910693,64.805664],[13.906207,64.80207],[13.873362,64.77573],[13.849665,64.75647],[13.849317,64.75619],[13.844364,64.75217],[13.844147,64.75198],[13.8438015,64.7517],[13.829286,64.73989],[13.817285,64.73011],[13.815563,64.72871],[13.803081,64.71836],[13.783735,64.70269],[13.764616,64.68687],[13.743608,64.67041],[13.721404,64.65261],[13.705099,64.63966],[13.696834,64.62947],[13.691575,64.62353],[13.68872,64.61934],[13.687499,64.61806],[13.682221,64.61278],[13.677301,64.60774],[13.672576,64.601776],[13.663375,64.59129],[13.657959,64.58518],[13.65408,64.579926],[13.692499,64.56833],[13.702778,64.56528],[13.708899,64.56366],[13.713056,64.5625],[13.803314,64.533264],[13.892441,64.507],[13.959191,64.49756],[14.086005,64.47814],[14.114243,64.46186],[14.120555,64.45278],[14.121898,64.4354],[14.12583,64.407005],[14.126912,64.39916],[14.148373,64.26174],[14.150604,64.237656],[14.155156,64.20878],[14.155811,64.203026],[14.15793,64.18607],[14.101666,64.13389],[14.094999,64.12944],[14.04111,64.07833],[14.035832,64.07305],[13.981667,64.013054],[13.943056,64.01666],[13.905,64.02083],[13.866462,64.02383],[13.715122,64.0453],[13.533274,64.06509],[13.305352,64.08571],[13.2913885,64.08666],[13.284068,64.08744],[13.210943,64.09517],[13.202348,64.0941],[13.172137,64.09008],[13.160471,64.08869],[13.139092,64.086105],[13.085806,64.079],[12.997987,64.06762],[12.937241,64.059204],[12.926836,64.05784],[12.908443,64.051544],[12.888916,64.04489],[12.863159,64.035805],[12.79186,64.01231],[12.740749,63.993416],[12.692221,63.975372],[12.686055,63.97389],[12.479777,63.819664],[12.368495,63.741848],[12.339966,63.726982],[12.335108,63.717934],[12.318819,63.695496],[12.315033,63.691013],[12.297582,63.673214],[12.293119,63.6704],[12.27501,63.657368],[12.227328,63.630924],[12.197429,63.616688],[12.149762,63.593945],[12.158403,63.578056],[12.182389,63.53392],[12.191762,63.51693],[12.212878,63.47859],[12.192846,63.459972],[12.188626,63.456036],[12.171867,63.440403],[12.140104,63.4107],[12.098379,63.369675],[12.084089,63.35558],[12.060301,63.336945],[12.033833,63.316257],[12.031937,63.31475],[12.017934,63.30363],[11.974582,63.269222],[11.998322,63.24258],[12.024126,63.214607],[12.047143,63.189304],[12.052459,63.183445],[12.072769,63.161037],[12.092493,63.139572],[12.100833,63.13048],[12.118708,63.110973],[12.14129,63.086308],[12.16993,63.054356],[12.199482,63.02133],[12.218232,63.00033],[12.178365,62.97289],[12.170416,62.967407],[12.150035,62.95358],[12.13478,62.94322],[12.097309,62.917877],[12.074688,62.902546],[12.091872,62.85956],[12.098548,62.8428],[12.103829,62.829544],[12.117694,62.794827],[12.136384,62.747917],[12.111781,62.706253],[12.097087,62.681343],[12.092321,62.67321],[12.09136,62.67157],[12.08131,62.65455],[12.073822,62.64181],[12.065432,62.627647],[12.056144,62.611916],[12.068824,62.593742],[12.105512,62.541077],[12.141317,62.49081],[12.165304,62.457645],[12.181561,62.43415],[12.204941,62.40111],[12.227463,62.369427],[12.244887,62.34484],[12.254665,62.33102],[12.2561455,62.329884],[12.288524,62.290718],[12.299389,62.26598],[12.279493,62.207863],[12.271916,62.18187],[12.26719,62.165646],[12.255566,62.11907],[12.244778,62.08665],[12.243357,62.08175],[12.241458,62.075283],[12.231561,62.044403],[12.222846,62.01447],[12.2159605,61.991642],[12.213875,61.984627],[12.206698,61.96114],[12.194394,61.918697],[12.182604,61.877525],[12.182875,61.87113],[12.169787,61.834724],[12.158253,61.79465],[12.14612,61.752666],[12.137911,61.723732],[12.271239,61.640934],[12.339581,61.61395],[12.419737,61.56258],[12.446586,61.56693],[12.568276,61.56833],[12.838125,61.380325],[12.841459,61.378002],[12.848966,61.372772],[12.854546,61.36829],[12.870856,61.356483],[12.869818,61.35368],[12.867298,61.346878],[12.862352,61.333527],[12.860381,61.3282],[12.856305,61.317112],[12.855453,61.31489],[12.853085,61.308346],[12.850241,61.301506],[12.844932,61.286777],[12.836539,61.265392],[12.833627,61.258163],[12.833011,61.257298],[12.823868,61.24437],[12.8190365,61.237583],[12.790349,61.19705],[12.769297,61.18315],[12.751755,61.17201],[12.74063,61.164692],[12.707328,61.143223],[12.701406,61.122818],[12.695226,61.101463],[12.68763,61.0764],[12.682866,61.06112],[12.681578,61.05948],[12.671408,61.05618],[12.670635,61.05582],[12.668551,61.055088],[12.6573515,61.05268],[12.651428,61.05212],[12.6102295,61.04643],[12.60199,61.04645],[12.60023,61.04643],[12.598128,61.04695],[12.597269,61.04697],[12.596583,61.04699],[12.596394,61.046997],[12.565083,61.04828],[12.5402775,61.049442],[12.513333,61.050556],[12.486388,61.051666],[12.447881,61.051186],[12.379173,61.040257],[12.34201,61.034504],[12.294759,61.02716],[12.289359,61.02641],[12.286717,61.02581],[12.285422,61.025696],[12.254848,61.02159],[12.24738,61.020596],[12.242059,61.01976],[12.2396555,61.01895],[12.223873,61.013123],[12.236266,60.999046],[12.254205,60.97863],[12.284503,60.9438],[12.304801,60.92141],[12.316303,60.908554],[12.326775,60.896767],[12.332782,60.89025],[12.332826,60.88674],[12.333082,60.88071],[12.334242,60.85735],[12.334498,60.852566],[12.337494,60.845367],[12.340422,60.83833],[12.347373,60.822033],[12.349435,60.817856],[12.364412,60.790577],[12.37454,60.77206],[12.381922,60.758457],[12.39531,60.733837],[12.410502,60.722588],[12.429,60.708817],[12.460929,60.685207],[12.481528,60.667828],[12.506462,60.646465],[12.511655,60.643223],[12.517963,60.601852],[12.518177,60.60038],[12.571882,60.55812],[12.58195,60.551044],[12.597751,60.526714],[12.606798,60.51277],[12.606541,60.492146],[12.606455,60.477642],[12.606283,60.46747],[12.606069,60.443726],[12.606026,60.427677],[12.605983,60.405895],[12.585898,60.386288],[12.578002,60.378735],[12.574346,60.375114],[12.569911,60.370724],[12.565173,60.366226],[12.563687,60.36482],[12.549946,60.351772],[12.547648,60.34959],[12.547338,60.349297],[12.53827,60.343777],[12.537674,60.343475],[12.535664,60.34245],[12.519348,60.334145],[12.504309,60.32647],[12.4987955,60.32365],[12.499659,60.317112],[12.501019,60.306793],[12.501812,60.29957],[12.504421,60.281208],[12.505955,60.276848],[12.506405,60.27557],[12.513514,60.255756],[12.514839,60.25211],[12.520071,60.237476],[12.525016,60.22363],[12.533059,60.209232],[12.541906,60.19338],[12.529834,60.166058],[12.529586,60.1655],[12.5167,60.13632],[12.505345,60.11001],[12.502366,60.103046],[12.50181,60.101765],[12.501108,60.10015],[12.500642,60.099075],[12.499548,60.097652],[12.497421,60.094887],[12.4805155,60.07302],[12.459787,60.05107],[12.456914,60.048027],[12.449678,60.04036],[12.448559,60.039173],[12.436088,60.032536],[12.424844,60.026543],[12.402198,60.018047],[12.395662,60.015594],[12.380839,60.001987],[12.37781,59.999218],[12.377319,59.99877],[12.369353,59.99145],[12.35869,59.981716],[12.35397,59.977398],[12.341138,59.965668],[12.319871,59.958324],[12.296974,59.9504],[12.280259,59.94462],[12.273053,59.94212],[12.253986,59.935566],[12.242539,59.931545],[12.240625,59.930885],[12.239988,59.930668],[12.234194,59.928673],[12.233504,59.928436],[12.231043,59.92759],[12.223581,59.922726],[12.219682,59.92024],[12.205972,59.91152],[12.193328,59.903137],[12.174454,59.889847],[12.155379,59.886723],[12.12622,59.894077],[12.112331,59.892326],[12.099832,59.890755],[12.088993,59.889664],[12.066167,59.887417],[12.053458,59.885937],[12.048424,59.886833],[12.033299,59.888954],[12.024359,59.89109],[12.001173,59.89601],[11.986478,59.899086],[11.98522,59.90061],[11.984187,59.900467],[11.957177,59.89385],[11.941963,59.89002],[11.934934,59.886864],[11.929373,59.885715],[11.922982,59.882355],[11.921624,59.881584],[11.921049,59.881107],[11.920914,59.88061],[11.921074,59.88003],[11.921457,59.87915],[11.92231,59.877747],[11.922478,59.87709],[11.92238,59.876476],[11.921851,59.875248],[11.9212265,59.87448],[11.920169,59.87398],[11.915314,59.87231],[11.914679,59.87215],[11.914034,59.87204],[11.913295,59.87198],[11.91256,59.871975],[11.911839,59.871986],[11.91094,59.872025],[11.909978,59.872086],[11.909276,59.87217],[11.9091015,59.87224],[11.908983,59.8723],[11.908924,59.872368],[11.908867,59.87242],[11.9087715,59.872456],[11.908565,59.872463],[11.908359,59.87244],[11.908171,59.87233],[11.908012,59.87229],[11.9078665,59.872288],[11.907377,59.872276],[11.906922,59.87231],[11.90659,59.87234],[11.906256,59.872345],[11.90587,59.87232],[11.905572,59.87228],[11.9048195,59.872154],[11.904417,59.872147],[11.903727,59.87219],[11.902965,59.872265],[11.901763,59.87226],[11.9003935,59.872192],[11.899774,59.87207],[11.899256,59.871883],[11.897935,59.87141],[11.897039,59.871243],[11.896057,59.871113],[11.895521,59.871162],[11.895095,59.871334],[11.89383,59.872143],[11.893447,59.872204],[11.893006,59.872173],[11.89255,59.872066],[11.892319,59.87204],[11.892113,59.87209],[11.891931,59.87218],[11.891609,59.872288],[11.891091,59.872364],[11.890961,59.872353],[11.890763,59.87233],[11.890564,59.872288],[11.890508,59.872276],[11.890114,59.872185],[11.889621,59.872097],[11.884998,59.87186],[11.883926,59.870636],[11.882124,59.86946],[11.88155,59.8674],[11.882413,59.865536],[11.882912,59.864983],[11.88303,59.864056],[11.883267,59.863857],[11.882962,59.863346],[11.882913,59.86318],[11.883002,59.863113],[11.883243,59.86312],[11.883378,59.863205],[11.883512,59.863247],[11.883779,59.86322],[11.883873,59.86295],[11.883959,59.8628],[11.884462,59.862465],[11.884989,59.862293],[11.885253,59.862213],[11.886133,59.861042],[11.887911,59.859524],[11.886453,59.858086],[11.886113,59.857872],[11.885796,59.85738],[11.884884,59.857],[11.884799,59.856777],[11.884523,59.85661],[11.884333,59.85618],[11.883654,59.855946],[11.882891,59.85543],[11.881957,59.855167],[11.878438,59.853825],[11.877833,59.853264],[11.876083,59.852844],[11.875426,59.852676],[11.874768,59.852654],[11.874324,59.85213],[11.872375,59.851135],[11.87092,59.850567],[11.870421,59.850227],[11.870274,59.84986],[11.869596,59.849907],[11.869235,59.849728],[11.868449,59.849735],[11.868163,59.849487],[11.867159,59.849224],[11.866504,59.848927],[11.866208,59.848755],[11.865518,59.84848],[11.864945,59.848297],[11.86474,59.848194],[11.864592,59.84805],[11.864169,59.847836],[11.863953,59.847755],[11.861991,59.847572],[11.860369,59.846962],[11.858848,59.846848],[11.858101,59.846645],[11.856807,59.84609],[11.854602,59.845245],[11.8544855,59.844807],[11.854047,59.844604],[11.852189,59.84416],[11.851409,59.844448],[11.85084,59.844456],[11.850153,59.844315],[11.848366,59.843777],[11.843368,59.842133],[11.840446,59.84174],[11.840228,59.84155],[11.840121,59.841293],[11.839804,59.840935],[11.839768,59.840626],[11.840666,59.84013],[11.841137,59.83967],[11.8415165,59.838524],[11.842421,59.837807],[11.847513,59.83463],[11.8517275,59.831936],[11.853723,59.830036],[11.858614,59.82953],[11.863055,59.82982],[11.870297,59.82847],[11.875797,59.828705],[11.881495,59.82624],[11.885907,59.82398],[11.890316,59.821068],[11.892395,59.817955],[11.895221,59.815857],[11.8988695,59.813705],[11.904248,59.811775],[11.905951,59.80923],[11.905994,59.806946],[11.908451,59.80426],[11.9095545,59.802284],[11.916016,59.79838],[11.918183,59.797817],[11.919725,59.79719],[11.92041,59.796585],[11.92631,59.793667],[11.926978,59.790585],[11.926958,59.79048],[11.926953,59.79046],[11.926007,59.78689],[11.925913,59.785236],[11.927466,59.781116],[11.928019,59.77992],[11.930171,59.776505],[11.931426,59.77393],[11.931693,59.773304],[11.930657,59.771423],[11.930811,59.77011],[11.932186,59.770237],[11.931811,59.768387],[11.932853,59.767193],[11.93252,59.765827],[11.931769,59.76449],[11.932687,59.76394],[11.932228,59.76312],[11.929269,59.762913],[11.928936,59.762074],[11.93337,59.76103],[11.933658,59.760185],[11.93377,59.759766],[11.932436,59.75752],[11.932005,59.75694],[11.931682,59.756763],[11.928852,59.754917],[11.925369,59.75334],[11.925226,59.753193],[11.924893,59.752228],[11.924934,59.751617],[11.9230175,59.75084],[11.923025,59.74994],[11.925563,59.74605],[11.926655,59.744614],[11.929382,59.741825],[11.933105,59.73958],[11.933528,59.738728],[11.933478,59.737423],[11.932383,59.73601],[11.93307,59.735195],[11.933645,59.734863],[11.932436,59.733917],[11.933353,59.731754],[11.93348,59.730873],[11.932395,59.730236],[11.934717,59.729813],[11.935015,59.729725],[11.93554,59.729588],[11.935784,59.729477],[11.936104,59.72931],[11.936389,59.72926],[11.936594,59.729187],[11.936922,59.729],[11.937086,59.728893],[11.937429,59.728737],[11.937683,59.728565],[11.9378,59.728382],[11.937771,59.728138],[11.936187,59.72625],[11.9365225,59.723206],[11.937008,59.717484],[11.936313,59.71547],[11.936146,59.713913],[11.936106,59.713005],[11.935562,59.71204],[11.934145,59.71181],[11.933645,59.710316],[11.936146,59.709663],[11.935979,59.709267],[11.937604,59.70832],[11.937729,59.707226],[11.936729,59.706764],[11.938063,59.704704],[11.937161,59.7025],[11.937896,59.701866],[11.937271,59.70056],[11.9383545,59.69964],[11.942565,59.700417],[11.945982,59.700687],[11.944607,59.698227],[11.942773,59.69806],[11.940886,59.69501],[11.889387,59.693336],[11.878095,59.683155],[11.875123,59.672367],[11.870152,59.662735],[11.862374,59.652714],[11.855416,59.648304],[11.843137,59.64742],[11.817383,59.645634],[11.790208,59.64377],[11.779124,59.642925],[11.772278,59.640766],[11.764166,59.638332],[11.75293,59.634956],[11.737092,59.63035],[11.720557,59.62549],[11.718468,59.623886],[11.718451,59.623875],[11.717964,59.6235],[11.7159605,59.621964],[11.708188,59.61618],[11.697901,59.60875],[11.695629,59.60221],[11.694871,59.60034],[11.69396,59.597515],[11.691306,59.589664],[11.691789,59.58816],[11.69801,59.575504],[11.698376,59.574314],[11.703675,59.563374],[11.704797,59.56093],[11.707814,59.554874],[11.711747,59.546352],[11.715143,59.539425],[11.715502,59.538795],[11.717303,59.53491],[11.718783,59.531372],[11.723822,59.521347],[11.726322,59.51583],[11.728675,59.511074],[11.737273,59.501938],[11.74035,59.498386],[11.740948,59.497738],[11.746888,59.49125],[11.749107,59.487076],[11.750377,59.484688],[11.753207,59.47937],[11.756811,59.467903],[11.76009,59.457638],[11.760373,59.44558],[11.760953,59.428696],[11.77291,59.415592],[11.773181,59.41529],[11.773292,59.415173],[11.774145,59.414265],[11.777556,59.398155],[11.779917,59.386463],[11.79134,59.37463],[11.792181,59.373688],[11.791675,59.373238],[11.790723,59.37265],[11.790302,59.372387],[11.789786,59.372078],[11.789805,59.371056],[11.790616,59.370304],[11.808155,59.354107],[11.808934,59.353195],[11.811289,59.350445],[11.813178,59.348248],[11.814156,59.347115],[11.81618,59.344765],[11.81749,59.33732],[11.818305,59.33268],[11.821631,59.31179],[11.821609,59.31165],[11.820515,59.30494],[11.821308,59.298176],[11.825742,59.265354],[11.825821,59.26495],[11.829827,59.242268],[11.8297415,59.241432],[11.829527,59.240753],[11.829012,59.239876],[11.828411,59.239067],[11.827467,59.238407],[11.826245,59.237846]]],[[[17.681402,57.334827],[17.679464,57.321613],[17.67913,57.308365],[17.680395,57.295128],[17.683258,57.281963],[17.6877,57.268932],[17.693705,57.256084],[17.70124,57.243477],[17.710276,57.231163],[17.713673,57.227066],[17.732437,57.202095],[17.782383,57.05061],[17.757723,56.94646],[17.757038,56.94337],[17.755095,56.930164],[17.754736,56.916912],[17.755964,56.903675],[17.75877,56.89051],[17.76314,56.877476],[17.769054,56.864624],[17.776485,56.852013],[17.785402,56.83969],[17.795763,56.827717],[17.807524,56.81614],[17.820633,56.805004],[17.835032,56.794365],[17.85066,56.78426],[17.867453,56.774734],[17.885332,56.765835],[17.904226,56.75759],[17.924055,56.750042],[17.94473,56.743217],[17.966167,56.73715],[17.988276,56.731853],[18.004028,56.72864],[18.073713,56.715378],[18.080622,56.7141],[18.08064,56.7141],[18.103788,56.71042],[18.127323,56.70757],[18.151142,56.70557],[18.175148,56.704433],[18.199234,56.704155],[18.223303,56.704735],[18.247253,56.706177],[18.270983,56.708477],[18.294394,56.711617],[18.299055,56.71235],[18.391945,56.727272],[18.410286,56.730495],[18.432781,56.735268],[18.454668,56.74083],[18.475853,56.747166],[18.496244,56.754246],[18.515759,56.76204],[18.534311,56.77051],[18.551825,56.779636],[18.552696,56.78012],[18.621038,56.81831],[18.636595,56.82754],[18.65184,56.837826],[18.659185,56.843315],[18.703686,56.877705],[19.001898,57.10329],[19.287188,57.30776],[19.299507,57.317055],[19.312548,57.328274],[19.32421,57.33993],[19.334444,57.35197],[19.343206,57.364346],[19.350456,57.377007],[19.356163,57.389896],[19.3603,57.40296],[19.36141,57.407734],[19.36491,57.424385],[19.366352,57.4328],[19.3673,57.44604],[19.366638,57.45929],[19.364372,57.472485],[19.360506,57.485573],[19.355053,57.498497],[19.34804,57.511196],[19.33949,57.52363],[19.329445,57.53573],[19.31794,57.547447],[19.305027,57.558735],[19.293537,57.56756],[19.39999,57.646393],[19.400755,57.646957],[19.661545,57.839664],[19.667908,57.844475],[19.681253,57.85566],[19.693207,57.86728],[19.703714,57.879288],[19.712732,57.891644],[19.72022,57.904278],[19.726145,57.91715],[19.730478,57.930202],[19.7332,57.94337],[19.734297,57.95661],[19.733763,57.96986],[19.731598,57.98306],[19.72781,57.99616],[19.722414,58.009098],[19.715431,58.02182],[19.70689,58.03427],[19.696823,58.046406],[19.685278,58.058155],[19.672297,58.06948],[19.657938,58.080334],[19.645641,58.08855],[19.600712,58.11698],[19.597324,58.119095],[19.58037,58.12885],[19.562237,58.137997],[19.543005,58.146492],[19.522753,58.154297],[19.50157,58.161385],[19.487316,58.16549],[19.498905,58.16923],[19.519405,58.17686],[19.53893,58.185184],[19.557392,58.19416],[19.574709,58.203754],[19.590813,58.21392],[19.60563,58.224617],[19.605688,58.224663],[19.61214,58.229656],[19.625566,58.23821],[19.640404,58.2489],[19.65389,58.260086],[19.66597,58.27171],[19.67659,58.28372],[19.679365,58.28724],[19.680878,58.289207],[19.687214,58.29804],[19.694778,58.31068],[19.70076,58.32355],[19.705135,58.3366],[19.707876,58.349773],[19.708977,58.363014],[19.708427,58.37626],[19.70623,58.38946],[19.702389,58.402557],[19.696922,58.415497],[19.689848,58.428215],[19.6812,58.440666],[19.671011,58.45279],[19.65932,58.464542],[19.646183,58.47586],[19.63165,58.48671],[19.615786,58.497036],[19.598656,58.506786],[19.580334,58.515934],[19.564724,58.522846],[19.562862,58.52363],[19.562376,58.523888],[19.544037,58.533028],[19.524586,58.541515],[19.5041,58.549324],[19.482677,58.556408],[19.460405,58.56274],[19.43738,58.568295],[19.42121,58.57164],[19.416761,58.572823],[19.393724,58.57837],[19.370033,58.58311],[19.345795,58.587032],[19.32111,58.590107],[19.296091,58.59233],[19.28932,58.59278],[19.271252,58.59494],[19.246225,58.597153],[19.220976,58.598503],[19.219261,58.59856],[19.206406,58.59914],[19.181038,58.59962],[19.155664,58.59922],[19.130396,58.597958],[19.105343,58.595825],[19.097115,58.594933],[19.092764,58.594433],[19.076267,58.59234],[19.051971,58.588516],[19.028215,58.58386],[19.005098,58.578396],[18.982723,58.572155],[18.961184,58.56516],[18.940577,58.557438],[18.92099,58.549026],[18.902508,58.53996],[18.885208,58.530277],[18.87434,58.523487],[18.871698,58.52176],[18.866526,58.518295],[18.85181,58.507515],[18.838482,58.496246],[18.8266,58.48455],[18.81621,58.47247],[18.80736,58.46006],[18.800081,58.447372],[18.794405,58.434456],[18.790356,58.42138],[18.788088,58.40931],[18.7877,58.40634],[18.787561,58.405216],[18.786802,58.39197],[18.787697,58.37873],[18.790236,58.365543],[18.794409,58.352474],[18.800196,58.33958],[18.807568,58.32691],[18.816496,58.314518],[18.826937,58.302464],[18.838844,58.29079],[18.839314,58.290363],[18.840815,58.288635],[18.841396,58.287903],[18.842373,58.285946],[18.842955,58.2848],[18.850302,58.27213],[18.8592,58.25973],[18.86961,58.247673],[18.881489,58.235996],[18.89478,58.22475],[18.909428,58.21399],[18.925371,58.20375],[18.942537,58.19408],[18.960857,58.185024],[18.975689,58.1786],[18.623043,58.126568],[18.602335,58.12313],[18.578945,58.118393],[18.556198,58.11285],[18.534195,58.10653],[18.513025,58.09946],[18.492783,58.091667],[18.476091,58.084305],[18.462545,58.08122],[18.442268,58.083164],[18.422949,58.07511],[18.400412,58.063843],[18.361774,58.041306],[18.300598,57.949543],[18.252302,57.904465],[18.176638,57.84973],[18.054949,57.787086],[17.958227,57.73633],[17.872374,57.709667],[17.779474,57.634277],[17.768213,57.622482],[17.75928,57.611465],[17.758766,57.610783],[17.757912,57.609627],[17.749632,57.597145],[17.742897,57.584393],[17.737732,57.571434],[17.734158,57.558323],[17.733597,57.55547],[17.715618,57.4574],[17.683296,57.342594],[17.681402,57.334827]]]]}}
