{"type":"Feature","id":"relation/535880","properties":{"type":"relation","id":535880,"tags":{"ISO3166-1":"ST","ISO3166-1:alpha2":"ST","ISO3166-1:alpha3":"STP","ISO3166-1:numeric":"678","admin_level":"2","boundary":"administrative","flag":"http://upload.wikimedia.org/wikipedia/commons/4/4f/Flag_of_Sao_Tome_and_Principe.svg","is_in:continent":"Africa","name":"São Tomé e Príncipe","name:cs":"Svatý Tomáš a Princův ostrov","name:de":"São Tomé und Príncipe","name:en":"São Tomé and Príncipe","name:fr":"Sao Tomé-et-Principe","name:fy":"Sao Tomee en Prinsipe","name:hr":"Sveti Toma i Princip","name:nl":"Sao Tomé en Principe","name:ru":"Сан-Томе и Принсипи","name:sk":"Svätý Tomáš a Princov ostrov","name:sr":"Сао Томе и Принсипе","name:ta":"சாவோ தொமே மற்றும் பிரின்சிப்பி","name:tzl":"Sant-Tomás-es-Prinç","name:uk":"Сан-Томе і Принсіпі","timezone":"Africa/Sao_Tome","type":"boundary","wikidata":"Q1039","wikipedia":"en:São Tomé and Príncipe"},"labels":[{"id":"node/295342933","role":"admin_centre","coordinates":[6.7313027,0.33892417]},{"id":"node/249399429","role":"label","coordinates":[6.9648714,0.8875498]}]},"geometry":{"type":"Polygon","coordinates":[[[7.292515,0.81836015],[7.6098604,1.4180872],[7.6195283,1.439251],[7.626669,1.4613953],[7.6591215,1.588126],[7.6695957,1.6659546],[7.6704783,1.6916459],[7.66696,1.7234136],[7.658415,1.7542131],[7.6450615,1.7832546],[7.627242,1.809794],[7.605413,1.8331507],[7.5801344,1.8527262],[7.5520535,1.8680184],[7.460981,1.9085329],[7.445462,1.9146731],[7.4294844,1.9194969],[7.404903,1.9241933],[7.3829885,1.92576],[7.3582096,1.9246079],[7.3466754,1.9230083],[7.33448,1.9205779],[7.3114257,1.9137418],[7.292756,1.9058557],[7.272157,1.8943477],[7.261691,1.8871636],[7.247081,1.8753661],[7.233644,1.8622491],[7.221499,1.8479285],[7.2107544,1.8325311],[6.7674947,1.1291126],[6.323206,0.4238897],[6.3121233,0.40382478],[6.2835045,0.34147918],[6.2716274,0.3089088],[6.2666483,0.2923021],[6.263129,0.2753261],[6.2606416,0.2494502],[6.2612963,0.19095539],[6.262983,0.1723891],[6.266394,0.1540611],[6.2850814,0.0842819],[6.318242,-0.0594582],[6.3257833,-0.0823724],[6.3319325,-0.0962743],[6.339122,-0.109667994],[6.3473096,-0.122475795],[6.356448,-0.1346235],[6.3664837,-0.1460407],[6.383193,-0.16193901],[6.3990874,-0.17489919],[6.4162283,-0.1861604],[6.4344335,-0.1956038],[6.4535108,-0.20312959],[6.4732604,-0.20865849],[6.4934726,-0.2121321],[6.5139346,-0.21351369],[6.5408196,-0.21223329],[6.559456,-0.2097237],[6.577774,-0.2054718],[6.6042986,-0.19591379],[6.713918,-0.1413515],[6.7361608,-0.1283736],[6.7466073,-0.1208362],[6.765937,-0.103821196],[6.7829156,-0.084459595],[6.926822,0.1293343],[6.934999,0.14261769],[7.292515,0.81836015]]]}}
