{"type":"Feature","id":"relation/3577163","properties":{"type":"relation","id":3577163,"tags":{"addr:country":"RU","addr:district":"Горнозаводский район","addr:postcode":"618861","addr:region":"Пермский край","addr:subdistrict":"Бисерское сельское поселение","boundary":"administrative","name":"Старый Бисер","name:ja":"スタールイ・ビーセル","name:ru":"Старый Бисер","official_status":"ru:посёлок городского типа","okato:user":"57214554000","oktmo:user":"57614401056","place":"village","type":"boundary","wikipedia":"ru:Старый Бисер"},"labels":[]},"geometry":{"type":"Polygon","coordinates":[[[58.88782,58.432274],[58.886833,58.43212],[58.886204,58.43207],[58.88328,58.43124],[58.883656,58.426006],[58.88234,58.423798],[58.882126,58.422092],[58.87609,58.42263],[58.87212,58.422386],[58.870808,58.421093],[58.871685,58.41859],[58.87106,58.416878],[58.87053,58.416798],[58.860954,58.41405],[58.859352,58.413258],[58.85817,58.41229],[58.863174,58.411015],[58.867355,58.41051],[58.869225,58.410667],[58.8715,58.410347],[58.872173,58.409912],[58.87424,58.410835],[58.87948,58.407745],[58.880184,58.40655],[58.886044,58.40204],[58.89233,58.401115],[58.89817,58.402515],[58.896374,58.406467],[58.898582,58.40694],[58.902504,58.409058],[58.90476,58.410885],[58.90948,58.41555],[58.906933,58.42031],[58.900387,58.425896],[58.897972,58.42877],[58.895706,58.432224],[58.893616,58.4323],[58.88782,58.432274]]]}}
