{"type":"Feature","id":"relation/3940403","properties":{"type":"relation","id":3940403,"tags":{"addr:postcode":"85670-85671","admin_level":"9","boundary":"administrative","koatuu":"1414800000","name":"Вугледар","name:ar":"فوهليدار","name:de":"Wuhledar","name:en":"Vuhledar","name:fa":"ووهلدار","name:fr":"Vouhledar","name:nn":"Vuhledar","name:pl":"Wuhłedar","name:prefix":"місто","name:ro":"Vuhledar","name:ru":"Угледар","name:uk":"Вугледар","name:vi":"Vuhledar","place":"town","population":"15486","type":"boundary","wikidata":"Q2416423","wikipedia":"uk:Вугледар","wikipedia:ru":"Угледар"},"labels":[{"id":"node/256614070","role":"admin_centre","coordinates":[37.248436,47.780506]}]},"geometry":{"type":"Polygon","coordinates":[[[37.240074,47.788322],[37.23993,47.787228],[37.239155,47.782116],[37.23859,47.779064],[37.237473,47.77256],[37.237377,47.771122],[37.237457,47.77111],[37.240025,47.772095],[37.243073,47.77327],[37.24587,47.77439],[37.251522,47.77658],[37.253735,47.777447],[37.255486,47.77813],[37.25648,47.778515],[37.25718,47.778797],[37.25741,47.77945],[37.257683,47.780926],[37.257076,47.78099],[37.257828,47.784992],[37.256218,47.785038],[37.25598,47.785175],[37.251232,47.785294],[37.251007,47.785133],[37.245216,47.785286],[37.243053,47.785336],[37.243553,47.788303],[37.240074,47.788322]]]}}
