{"type":"Feature","id":"relation/1152704","properties":{"type":"relation","id":1152704,"tags":{"admin_level":"8","boundary":"administrative","de:amtlicher_gemeindeschluessel":"07232109","de:regionalschluessel":"072325008109","name":"Rittersdorf","name:en":"Rittersdorf","name:eo":"Rittersdorf","name:fr":"Rittersdorf","name:it":"Rittersdorf","name:kk":"Риттерсдорф","name:lb":"Rittersdorf","name:ms":"Rittersdorf","name:nl":"Rittersdorf","name:pl":"Rittersdorf","name:pt":"Rittersdorf","name:ro":"Rittersdorf","name:ru":"Риттерсдорф","name:sr":"Ритерсдорф","name:uz":"Rittersdorf","name:vi":"Rittersdorf","name:vo":"Rittersdorf","name:zh":"里特尔斯多尔夫","type":"boundary","wikidata":"Q553351","wikipedia":"de:Rittersdorf (Eifel)"},"labels":[]},"geometry":{"type":"Polygon","coordinates":[[[6.477134,50.012424],[6.4773226,50.011932],[6.4775977,50.01157],[6.473247,50.004166],[6.474981,50.00391],[6.475336,50.003704],[6.475974,50.003098],[6.476282,50.000313],[6.473155,50.000366],[6.472637,50.000446],[6.4706326,50.000786],[6.4705462,49.998543],[6.467136,49.99847],[6.467837,49.996876],[6.4679704,49.994904],[6.4666066,49.994564],[6.466151,49.994324],[6.4647274,49.993305],[6.461752,49.989166],[6.458356,49.989],[6.454242,49.981606],[6.45482,49.980682],[6.4551897,49.980038],[6.469978,49.978405],[6.4733543,49.979862],[6.4743834,49.98009],[6.4753957,49.980537],[6.4764256,49.981243],[6.4791555,49.98204],[6.4831147,49.98292],[6.4833856,49.98283],[6.483454,49.984123],[6.484024,49.984722],[6.495879,49.980934],[6.500017,49.98635],[6.5043297,49.986763],[6.5095596,49.987263],[6.509753,49.988132],[6.5105863,49.991875],[6.526848,49.994602],[6.5284967,50.003044],[6.519493,50.00757],[6.5076284,50.00819],[6.5034285,50.01035],[6.5046234,50.013756],[6.502291,50.014053],[6.5016794,50.01324],[6.50143,50.013218],[6.501125,50.01379],[6.5017047,50.01407],[6.5016184,50.01447],[6.501103,50.01473],[6.5011744,50.015068],[6.501425,50.015472],[6.500644,50.015972],[6.500594,50.016254],[6.500895,50.016476],[6.4989953,50.016403],[6.4990253,50.01531],[6.498094,50.015175],[6.4966254,50.015053],[6.4962025,50.016632],[6.4952354,50.016438],[6.4945197,50.017807],[6.4940004,50.017365],[6.4934573,50.016796],[6.494236,50.015507],[6.4935374,50.01521],[6.493317,50.015427],[6.492403,50.015064],[6.4905324,50.01447],[6.490673,50.01397],[6.4896603,50.014023],[6.488616,50.01395],[6.4886513,50.01385],[6.484295,50.012886],[6.4831085,50.012703],[6.4818263,50.012753],[6.48101,50.01285],[6.4804063,50.01263],[6.4788723,50.01309],[6.477134,50.012424]]]}}
