{"type":"Feature","id":"relation/6053207","properties":{"type":"relation","id":6053207,"tags":{"addr:postcode":"44442","admin_level":"9","boundary":"administrative","koatuu":"0725084803","name":"Нова Воля","name:de":"Nowa Wolja","name:en":"Nova Volia","name:pl":"Boża Wola","name:ru":"Новая Воля","name:uk":"Нова Воля","phone":"+380 3346","place":"village","population":"53","start_date":"1939","type":"boundary","wikipedia":"uk:Нова Воля","wikipedia:ru":"Новая Воля"},"labels":[]},"geometry":{"type":"Polygon","coordinates":[[[24.65492,51.456135],[24.647924,51.45565],[24.644384,51.45478],[24.64404,51.45303],[24.641552,51.451706],[24.644855,51.45105],[24.645092,51.451225],[24.646187,51.450825],[24.645908,51.450317],[24.645779,51.449326],[24.646852,51.44899],[24.646465,51.44831],[24.646206,51.448406],[24.645737,51.448444],[24.64535,51.44827],[24.64537,51.447895],[24.645607,51.447468],[24.646122,51.44736],[24.64638,51.447094],[24.64668,51.44719],[24.647451,51.447254],[24.64756,51.44756],[24.648546,51.44795],[24.64977,51.44772],[24.649899,51.448044],[24.64992,51.448227],[24.650543,51.44851],[24.6505,51.44882],[24.650864,51.44958],[24.6508,51.449898],[24.6505,51.450207],[24.651186,51.450466],[24.652195,51.450718],[24.652431,51.45104],[24.653332,51.451557],[24.653954,51.451855],[24.654232,51.452225],[24.654598,51.452335],[24.654903,51.452587],[24.65317,51.45296],[24.65492,51.456135]]]}}
