{"type":"Feature","id":"relation/6722278","properties":{"type":"relation","id":6722278,"tags":{"addr:country":"BY","addr:district":"Пружанский район","addr:region":"Брестская область","admin_level":"8","alt_name:be":"Пружана","boundary":"administrative","int_name":"Pružany","name":"Пружаны","name:be":"Пружаны","name:be-tarask":"Пружаны","name:lt":"Pružanai","name:pl":"Prużana","name:ru":"Пружаны","name:uk":"Пружани","place":"town","population":"19838","population:date":"2013","type":"multipolygon","wikidata":"Q956159"},"labels":[{"id":"node/242978895","role":"label","coordinates":[24.456709,52.55819]}]},"geometry":{"type":"Polygon","coordinates":[[[24.466564,52.547646],[24.468868,52.546608],[24.471506,52.546955],[24.478903,52.547333],[24.480503,52.549072],[24.48421,52.550175],[24.487192,52.550343],[24.488663,52.552464],[24.48294,52.553303],[24.482107,52.55398],[24.479496,52.55393],[24.479141,52.554626],[24.47862,52.555565],[24.476658,52.55553],[24.478134,52.55779],[24.48058,52.561237],[24.482094,52.56332],[24.48564,52.569054],[24.483135,52.570065],[24.482077,52.573765],[24.471409,52.573963],[24.471401,52.577778],[24.457035,52.577946],[24.456959,52.572018],[24.45254,52.571953],[24.453154,52.56927],[24.4542,52.567314],[24.453714,52.566162],[24.451277,52.565483],[24.449432,52.564217],[24.436024,52.56417],[24.425106,52.564877],[24.422579,52.564564],[24.421955,52.564342],[24.412443,52.561356],[24.413754,52.557682],[24.42045,52.558372],[24.42202,52.547882],[24.423384,52.546883],[24.444592,52.546165],[24.444225,52.545017],[24.443327,52.545074],[24.443169,52.544506],[24.4421,52.544575],[24.440712,52.542908],[24.451591,52.53808],[24.457792,52.540035],[24.455196,52.542694],[24.466564,52.547646]]]}}
