{"type":"Feature","id":"relation/3244381","properties":{"type":"relation","id":3244381,"tags":{"ISO3166-2":"IQ-KA","admin_level":"4","alt_name":"Karbalāʾ‎","boundary":"administrative","name":"كربلاء","name:ar":"كربلاء","name:en":"Karbala","name:ja":"カルバラー","name:pl":"Karbala","name:ru":"Кербела","name:uk":"Кербела","type":"boundary","wikidata":"Q214104","wikipedia":"en:Karbala Governorate"},"labels":[{"id":"node/2480077678","role":"admin_centre","coordinates":[44.01648,32.5979]},{"id":"node/2914855222","role":"label","coordinates":[43.819664,32.451168]}]},"geometry":{"type":"Polygon","coordinates":[[[44.24417,32.33829],[44.211224,32.404762],[44.16913,32.474274],[44.136185,32.50978],[44.090427,32.54836],[44.075787,32.563786],[44.10324,32.606964],[44.134354,32.667076],[44.161808,32.68248],[44.209396,32.69018],[44.209396,32.716366],[44.189262,32.742542],[44.158146,32.751778],[44.061367,32.774876],[43.923874,32.76717],[43.879944,32.741],[43.821373,32.713287],[43.729862,32.670155],[43.652992,32.64396],[43.275955,32.568413],[43.737186,32.15873],[44.24417,32.33829]]]}}
