{"type":"Feature","id":"relation/2398560","properties":{"type":"relation","id":2398560,"tags":{"ISO3166-2":"KR-49","admin_level":"4","alt_name:en":"Jeju Special Autonomous Province","boundary":"administrative","is_in":"대한민국","is_in:continent":"Asia","is_in:country":"Republic of Korea","is_in:country_code":"KR","name":"제주도","name:ar":"مقاطعة جيجو","name:be":"Чэджуда","name:bg":"Чеджу-до","name:bn":"জেজু দ্বীপ","name:ca":"Jeju-do","name:cs":"Čedžu","name:cv":"Чеджу","name:da":"Jeju-do","name:de":"Jeju-do","name:en":"Jeju-do","name:eo":"Jeju-do","name:es":"Jeju","name:et":"Cheju provints","name:eu":"Jejudo","name:fa":"ججو-دو","name:fi":"Jeju","name:fr":"Jeju","name:gl":"Jeju","name:he":"ג'ג'ו","name:hr":"Jeju","name:hu":"Csedzsu-sziget","name:ia":"Jeju-do","name:id":"Jeju","name:io":"Jeju insulo","name:it":"Jeju-do","name:ja":"済州道","name:jv":"Jejudo","name:ko":"제주도","name:lt":"Čedžu","name:ms":"Jeju","name:nl":"Jeju-do","name:no":"Jeju","name:pl":"Czedżu","name:pt":"Jeju","name:ro":"Insula Jeju","name:ru":"Чеджудо","name:sr":"Чеџу","name:sv":"Jeju","name:sw":"Jeju-do","name:th":"เกาะเชจู","name:uk":"Провінція Чеджу","name:vi":"Jeju (tỉnh)","official_name":"제주특별자치도","official_name:en":"Jeju Special Self-Governing Province","official_name:ja":"済州特別自治道","official_name:ko":"제주특별자치도","official_name:zh":"濟州特別自治道","short_name":"제주","type":"boundary","wikidata":"Q41164","wikipedia":"en:Jeju Province"},"labels":[{"id":"node/1904543635","role":"admin_centre","coordinates":[126.498024,33.489044]},{"id":"node/1900155946","role":"label","coordinates":[126.56267,33.394005]}]},"geometry":{"type":"Polygon","coordinates":[[[125.790665,33.728943],[126.16971,33.678234],[126.15339,33.65642],[126.06688,33.59381],[125.947914,33.482513],[125.902145,33.427486],[125.89864,33.395374],[125.89314,33.29425],[125.9055,33.211132],[125.94602,33.13385],[125.96696,33.121185],[125.98687,33.100636],[125.99547,33.060387],[126.02034,33.00898],[126.04371,32.974705],[126.08404,32.93758],[126.10944,32.920277],[126.163506,32.886818],[126.22187,32.87875],[126.28007,32.87788],[126.37707,32.897915],[126.444435,32.928905],[126.47942,32.954845],[126.50133,32.984505],[126.53175,32.98033],[126.62309,32.996017],[126.71293,33.00279],[126.79668,33.0248],[127.02241,33.142467],[127.13684,33.29267],[127.17821,33.353775],[127.210205,33.397934],[127.237404,33.46515],[127.24338,33.534195],[127.19572,33.628937],[127.15253,33.67642],[127.0856,33.725796],[126.95923,33.77418],[126.89273,33.800575],[126.79764,33.845562],[126.700775,33.90223],[126.65433,33.927902],[126.58924,33.958378],[126.49546,34.02068],[126.36698,34.099255],[126.33591,34.113197],[126.312454,34.122902],[126.28459,34.12744],[126.251724,34.12435],[126.2175,34.10876],[126.1728,34.080593],[126.085785,34.007668],[125.790665,33.728943]]]}}
