{"type":"Feature","id":"relation/3606547","properties":{"type":"relation","id":3606547,"tags":{"addr:postcode":"65481-65489","addr:region":"Одеська область","admin_level":"6","boundary":"administrative","koatuu":"5111700000","name":"Южне","name:de":"Juschne","name:en":"Yuzhne","name:prefix":"місто","name:ru":"Южное","place":"town","population":"29327","type":"boundary","wikidata":"Q586710","wikipedia":"uk:Южне","wikipedia:ru":"Южное (город)"},"labels":[{"id":"node/1628073978","role":"admin_centre","coordinates":[31.099537,46.62259]}]},"geometry":{"type":"Polygon","coordinates":[[[31.08701,46.62632],[31.090824,46.62232],[31.090887,46.61699],[31.092203,46.613224],[31.103813,46.615368],[31.105318,46.615505],[31.106632,46.615692],[31.111813,46.616226],[31.113287,46.621185],[31.110088,46.621506],[31.109789,46.628235],[31.104616,46.636787],[31.091593,46.633514],[31.09071,46.63579],[31.088589,46.634876],[31.087992,46.63536],[31.087313,46.63502],[31.0823,46.63973],[31.081408,46.640255],[31.075096,46.63925],[31.075388,46.637833],[31.081469,46.63155],[31.083784,46.629723],[31.087261,46.626396],[31.08701,46.62632]]]}}
