{"type":"Feature","id":"relation/192774","properties":{"type":"relation","id":192774,"tags":{"ISO3166-1":"GM","ISO3166-1:alpha2":"GM","ISO3166-1:alpha3":"GMB","ISO3166-1:numeric":"270","admin_level":"2","boundary":"administrative","flag":"http://upload.wikimedia.org/wikipedia/commons/7/77/Flag_of_The_Gambia.svg","is_in:continent":"Africa","name":"Gambia","name:ace":"Gambia","name:af":"Gambië","name:als":"Gambia","name:am":"ጋምቢያ","name:an":"Gambia","name:ang":"Gambia","name:ar":"غامبيا","name:arz":"جامبيا","name:ast":"Gambia","name:az":"Qambiya","name:ba":"Гамбия","name:bat-smg":"Gambėjė","name:bcl":"Gambya","name:be":"Гамбія","name:be-tarask":"Гамбія","name:bg":"Гамбия","name:bjn":"Gambia","name:bm":"Gambia","name:bn":"গাম্বিয়া","name:bo":"གེམ་བྷི་ཡ།","name:bpy":"গাম্বিয়া","name:br":"Gambia","name:bs":"Gambija","name:bxr":"Гамби","name:ca":"Gàmbia","name:ce":"Гамби","name:ceb":"Gambia","name:ckb":"گامبیا","name:crh":"Gambiya","name:cs":"Gambie","name:cv":"Гамби","name:cy":"Y Gambia","name:da":"Gambia","name:de":"Gambia","name:diq":"Gambiya","name:dv":"ގެމްބިއާ","name:dz":"གྷེམ་བི་ཡ","name:ee":"Gambia","name:el":"Γκάμπια","name:en":"Gambia","name:eo":"Gambio","name:es":"Gambia","name:et":"Gambia","name:eu":"Gambia","name:ext":"Gambia","name:fa":"گامبیا","name:ff":"Gammbi","name:fi":"Gambia","name:fiu-vro":"Gambia","name:fo":"Gambia","name:fr":"Gambie","name:frp":"Gambie","name:fy":"Gambia","name:ga":"An Ghaimbia","name:gag":"Gambiya","name:gd":"A' Ghaimbia","name:gl":"Gambia","name:gv":"Yn Ghambia","name:he":"גמביה","name:hi":"गाम्बिया","name:hif":"Gambia","name:hr":"Gambija","name:hsb":"Gambija","name:ht":"Ganbi","name:hu":"Gambia","name:hy":"Գամբիա","name:ia":"Gambia","name:id":"Gambia","name:ie":"The Gambia","name:ilo":"Gambia","name:io":"Gambia","name:is":"Gambía","name:it":"Gambia","name:ja":"ガンビア","name:jv":"Gambia","name:ka":"გამბია","name:kg":"Gambia","name:ki":"Gambia","name:kk":"Гамбия","name:ko":"감비아","name:ku":"Gambiya","name:kw":"Gambi","name:ky":"Гамбия","name:la":"Gambia","name:lb":"Gambia","name:li":"Gambia","name:lij":"Gambia","name:lmo":"Gambia","name:ln":"Gambi","name:lt":"Gambija","name:lv":"Gambija","name:map-bms":"Gambia","name:min":"Gambia","name:mk":"Гамбија","name:ml":"ഗാംബിയ","name:mn":"Гамби","name:mr":"गांबिया","name:mrj":"Гамби","name:ms":"Gambia","name:mt":"Gambja","name:my":"ဂမ်ဘီယာနိုင်ငံ","name:na":"Gambiya","name:nah":"Gambia","name:nds":"Gambia","name:ne":"गाम्बिया","name:nl":"Gambia","name:nn":"Gambia","name:no":"Gambia","name:nov":"Gambia","name:nso":"Gambia","name:nv":"Géémbiya","name:oc":"Gàmbia","name:or":"ଗାମ୍ବିଆ","name:os":"Гамби","name:pa":"ਗਾਂਬੀਆ","name:pam":"The Gambia","name:pl":"Gambia","name:pms":"Gambia","name:pnb":"گیمبیا","name:ps":"ګامبيا","name:pt":"Gâmbia","name:qu":"Gambya","name:rm":"Gambia","name:ro":"Gambia","name:roa-rup":"Gambia","name:ru":"Гамбия","name:rw":"Gambiya","name:sa":"गाम्बिया","name:sah":"Гамбия","name:sc":"Gàmbia","name:scn":"Gambia","name:sco":"The Gambie","name:se":"Gámbia","name:sg":"Gambïi","name:sh":"Gambija","name:simple":"The Gambia","name:sk":"Gambia","name:sl":"Gambija","name:sn":"Gambia","name:so":"Gambia","name:sq":"Gambia","name:sr":"Гамбија","name:ss":"IGambiya","name:st":"Gambia","name:stq":"Gambia","name:su":"Gambia","name:sv":"Gambia","name:sw":"Gambia","name:ta":"காம்பியா","name:te":"గాంబియా","name:tg":"Гамбия","name:th":"ประเทศแกมเบีย","name:tk":"Gambiýa","name:tl":"Ang Gambiya","name:tr":"Gambiya","name:ts":"Gambiya","name:tt":"Гамбия","name:tzl":"Gambia","name:ug":"گامبىيە","name:uk":"Гамбія","name:ur":"گیمبیا","name:uz":"Gambia","name:vec":"Gambia","name:vi":"Gambia","name:vo":"Gambiyän","name:war":"Gambia","name:wo":"Gàmbi","name:wuu":"冈比亚","name:xal":"Гамбудин Орн","name:xmf":"გამბია","name:yi":"די גאמביע","name:yo":"Gámbíà","name:zh":"冈比亚","name:zh-min-nan":"Gambia","name:zh-yue":"甘比亞","name:zu":"IGambia","official_name":"Islamic Republic of The Gambia","timezone":"Africa/Banjul","type":"boundary","wikidata":"Q1005","wikipedia":"en:The Gambia"},"labels":[{"id":"node/249167555","role":"admin_centre","coordinates":[-16.575645,13.455349]},{"id":"node/424297579","role":"label","coordinates":[-15.490046,13.470061]}]},"geometry":{"type":"Polygon","coordinates":[[[-16.546947,13.589923],[-16.816587,13.587043],[-16.816933,13.587041],[-16.857573,13.602827],[-16.858019,13.603001],[-16.859077,13.601999],[-16.86115,13.599999],[-16.864153,13.596999],[-16.866087,13.594999],[-16.868889,13.592],[-16.872456,13.587999],[-16.876652,13.582999],[-16.880175,13.5789995],[-16.882727,13.575999],[-16.883705,13.575],[-16.889374,13.573],[-16.892027,13.572],[-16.897034,13.57],[-16.899405,13.569],[-16.908546,13.565],[-16.91292,13.563],[-16.919025,13.56],[-16.92467,13.557],[-16.929928,13.554],[-16.934853,13.551],[-16.937973,13.548999],[-16.940973,13.546999],[-16.943865,13.544999],[-16.946655,13.542999],[-16.951954,13.539],[-16.956917,13.534999],[-16.96158,13.530999],[-16.963808,13.528999],[-16.967031,13.525999],[-16.971119,13.521999],[-16.973078,13.5199995],[-16.975918,13.516999],[-16.980404,13.511999],[-16.9846,13.507],[-16.988531,13.502],[-16.990768,13.499],[-16.992922,13.496],[-16.996326,13.491],[-16.998266,13.488],[-17.00013,13.485],[-17.003077,13.48],[-17.004753,13.477],[-17.006361,13.473999],[-17.008894,13.468999],[-17.011705,13.462999],[-17.014277,13.457],[-17.016617,13.450999],[-17.018734,13.445],[-17.020638,13.438999],[-17.02233,13.433],[-17.023344,13.429],[-17.02427,13.425],[-17.025108,13.421],[-17.025858,13.417],[-17.026524,13.413],[-17.027102,13.409],[-17.027597,13.405],[-17.02801,13.401],[-17.028337,13.396999],[-17.028675,13.390999],[-17.028797,13.386999],[-17.028824,13.381],[-17.02874,13.377],[-17.028574,13.372999],[-17.028326,13.3689995],[-17.027994,13.365],[-17.02758,13.361],[-17.02708,13.356999],[-17.026175,13.351],[-17.025463,13.347],[-17.024666,13.342999],[-17.02378,13.339],[-17.022287,13.333],[-17.02118,13.329],[-17.019978,13.324999],[-17.018684,13.320999],[-17.017963,13.315],[-17.017424,13.310999],[-17.016798,13.306999],[-17.016087,13.3029995],[-17.01529,13.299],[-17.014406,13.294999],[-17.013432,13.290999],[-17.01237,13.287],[-17.012077,13.285],[-17.0122,13.281],[-17.01224,13.276999],[-17.012207,13.273],[-17.012102,13.269],[-17.011791,13.263],[-17.01148,13.259],[-17.010859,13.253],[-17.010048,13.246999],[-17.009047,13.240999],[-17.00785,13.235],[-17.006458,13.228999],[-17.004864,13.223],[-17.003063,13.217],[-17.00105,13.2109995],[-16.99882,13.205],[-16.997208,13.201],[-16.994595,13.195],[-16.99174,13.189],[-16.990997,13.187],[-16.991741,13.181],[-16.992296,13.174999],[-16.992662,13.169],[-16.992846,13.162999],[-16.992865,13.158999],[-16.992802,13.155],[-16.992552,13.148999],[-16.992117,13.143],[-16.991495,13.137],[-16.990976,13.132999],[-16.990372,13.129],[-16.989307,13.123],[-16.98849,13.1189995],[-16.987595,13.115],[-16.986103,13.109],[-16.984995,13.1050005],[-16.983795,13.100999],[-16.98182,13.094999],[-16.979626,13.089],[-16.97721,13.082999],[-16.977,13.080999],[-16.976942,13.075],[-16.976723,13.068999],[-16.976475,13.065],[-16.976145,13.061],[-16.74861,13.0611105],[-16.746365,13.06252],[-16.74616,13.062675],[-16.744415,13.063982],[-16.744946,13.064532],[-16.74544,13.064992],[-16.746058,13.06588],[-16.746359,13.066424],[-16.746618,13.067146],[-16.746723,13.067803],[-16.74666,13.068221],[-16.746382,13.068848],[-16.745117,13.071033],[-16.744581,13.07187],[-16.743977,13.07259],[-16.743164,13.073249],[-16.742306,13.073917],[-16.741833,13.074148],[-16.741426,13.074273],[-16.740889,13.074294],[-16.740374,13.074294],[-16.739838,13.074231],[-16.739044,13.074043],[-16.738207,13.073855],[-16.737757,13.073875],[-16.737242,13.074001],[-16.736319,13.074273],[-16.735912,13.074357],[-16.735397,13.074399],[-16.734795,13.074377],[-16.73441,13.074482],[-16.733915,13.07467],[-16.733616,13.074963],[-16.733315,13.07513],[-16.733057,13.075151],[-16.732672,13.075234],[-16.732328,13.075443],[-16.732027,13.075694],[-16.731642,13.076029],[-16.731361,13.076655],[-16.731169,13.077137],[-16.730911,13.077534],[-16.730097,13.078641],[-16.729795,13.079059],[-16.729536,13.079487],[-16.729387,13.080071],[-16.729237,13.080553],[-16.729193,13.080992],[-16.729193,13.08143],[-16.729239,13.081965],[-16.729366,13.082466],[-16.729538,13.08301],[-16.729818,13.083678],[-16.73018,13.08444],[-16.73209,13.087847],[-16.732779,13.088653],[-16.733208,13.089364],[-16.733444,13.089782],[-16.733551,13.0901785],[-16.733486,13.090576],[-16.733315,13.090868],[-16.733036,13.091078],[-16.732521,13.091287],[-16.7319,13.091454],[-16.730825,13.0916],[-16.730247,13.091746],[-16.729454,13.092102],[-16.729067,13.092269],[-16.728638,13.092353],[-16.728163,13.092486],[-16.727757,13.092687],[-16.727522,13.092937],[-16.727285,13.093459],[-16.727135,13.09392],[-16.727089,13.094494],[-16.727047,13.094933],[-16.726963,13.095258],[-16.726685,13.0956335],[-16.726297,13.096177],[-16.72606,13.096604],[-16.725952,13.096938],[-16.725956,13.097284],[-16.726082,13.097754],[-16.72636,13.098276],[-16.726683,13.098674],[-16.727072,13.098936],[-16.727478,13.099061],[-16.727905,13.09903],[-16.729881,13.09833],[-16.730526,13.098204],[-16.730825,13.098226],[-16.731102,13.098381],[-16.731253,13.098694],[-16.73147,13.09927],[-16.73164,13.099885],[-16.731749,13.100315],[-16.731983,13.100742],[-16.73239,13.101077],[-16.732714,13.101192],[-16.73338,13.101317],[-16.734108,13.101537],[-16.734732,13.101841],[-16.73533,13.102121],[-16.735802,13.102497],[-16.736233,13.102927],[-16.736769,13.103785],[-16.736982,13.104232],[-16.737068,13.104588],[-16.73707,13.104871],[-16.736942,13.105247],[-16.736362,13.1066265],[-16.736147,13.107086],[-16.736105,13.107483],[-16.73608,13.107952],[-16.736212,13.108696],[-16.736233,13.109592],[-16.736168,13.110138],[-16.736048,13.110687],[-16.735846,13.111484],[-16.735634,13.111893],[-16.735247,13.112457],[-16.734713,13.112945],[-16.734041,13.113318],[-16.733385,13.113537],[-16.73282,13.113689],[-16.731531,13.113992],[-16.731192,13.114107],[-16.730865,13.114181],[-16.73042,13.114087],[-16.730053,13.11394],[-16.72971,13.113606],[-16.729496,13.113147],[-16.729538,13.112687],[-16.72984,13.112374],[-16.730415,13.111923],[-16.730677,13.111642],[-16.730719,13.11135],[-16.730589,13.110868],[-16.730375,13.110158],[-16.730139,13.108863],[-16.730051,13.108412],[-16.729904,13.1080675],[-16.729622,13.107806],[-16.72913,13.107546],[-16.728357,13.107264],[-16.727156,13.106752],[-16.726622,13.106606],[-16.726042,13.106522],[-16.724838,13.106585],[-16.723724,13.10673],[-16.7231,13.106877],[-16.722048,13.107222],[-16.720547,13.107881],[-16.719732,13.108194],[-16.71915,13.108392],[-16.718658,13.108612],[-16.717241,13.109562],[-16.716728,13.109928],[-16.716385,13.110263],[-16.716255,13.11066],[-16.716211,13.111192],[-16.71632,13.111705],[-16.716513,13.112237],[-16.717115,13.112979],[-16.717415,13.113272],[-16.717735,13.113365],[-16.718187,13.113252],[-16.71857,13.113009],[-16.719324,13.112039],[-16.719536,13.111777],[-16.719883,13.111684],[-16.72018,13.111756],[-16.720377,13.111935],[-16.72063,13.11253],[-16.720913,13.112979],[-16.721298,13.113398],[-16.721964,13.113773],[-16.72338,13.114569],[-16.723871,13.114869],[-16.724365,13.115267],[-16.724882,13.115842],[-16.725311,13.1163435],[-16.725462,13.116804],[-16.725548,13.117264],[-16.725588,13.117921],[-16.725613,13.118287],[-16.725739,13.118756],[-16.725956,13.119249],[-16.726017,13.1198015],[-16.726082,13.120157],[-16.726042,13.120586],[-16.725824,13.121045],[-16.725441,13.121747],[-16.725256,13.121943],[-16.725098,13.122081],[-16.72488,13.122164],[-16.724655,13.122226],[-16.723831,13.122299],[-16.723518,13.12229],[-16.72323,13.122227],[-16.7231,13.122143],[-16.723003,13.122027],[-16.722973,13.121903],[-16.722929,13.121736],[-16.72295,13.121569],[-16.722994,13.121422],[-16.72309,13.121026],[-16.72311,13.120889],[-16.723133,13.120618],[-16.7231,13.120378],[-16.723013,13.120168],[-16.722876,13.119897],[-16.722723,13.119718],[-16.72247,13.119437],[-16.722122,13.119164],[-16.721867,13.119008],[-16.721567,13.118894],[-16.7212,13.118799],[-16.71999,13.118632],[-16.7197,13.118581],[-16.71898,13.118486],[-16.718658,13.118476],[-16.718348,13.118476],[-16.718102,13.118518],[-16.717823,13.11859],[-16.717459,13.118715],[-16.716965,13.118946],[-16.715246,13.119792],[-16.714773,13.120021],[-16.71427,13.12021],[-16.71368,13.120419],[-16.712555,13.120723],[-16.712252,13.120814],[-16.711962,13.120951],[-16.711718,13.1210985],[-16.711514,13.121255],[-16.711222,13.121535],[-16.71075,13.122037],[-16.71029,13.12253],[-16.709702,13.123251],[-16.709604,13.12348],[-16.709572,13.12369],[-16.709538,13.12395],[-16.709541,13.124494],[-16.709484,13.124754],[-16.709398,13.125005],[-16.70926,13.125267],[-16.708895,13.126081],[-16.708746,13.126511],[-16.70867,13.127022],[-16.70866,13.127389],[-16.70867,13.127743],[-16.708725,13.128026],[-16.708832,13.128381],[-16.709011,13.128641],[-16.70926,13.128987],[-16.709389,13.129226],[-16.709602,13.129707],[-16.70969,13.12999],[-16.70988,13.130605],[-16.710009,13.131191],[-16.710085,13.131577],[-16.710098,13.131861],[-16.710085,13.132173],[-16.71002,13.132518],[-16.709915,13.132833],[-16.709776,13.133136],[-16.709604,13.133428],[-16.709259,13.133814],[-16.70899,13.13399],[-16.708765,13.134074],[-16.708563,13.134086],[-16.708403,13.134044],[-16.70824,13.133939],[-16.708046,13.133751],[-16.707867,13.133512],[-16.707737,13.133292],[-16.707039,13.131787],[-16.706848,13.131463],[-16.706684,13.131243],[-16.706472,13.131045],[-16.706203,13.130857],[-16.70588,13.13069],[-16.705603,13.130586],[-16.705214,13.13048],[-16.70484,13.130449],[-16.704561,13.130471],[-16.704155,13.130533],[-16.703789,13.130607],[-16.703445,13.130763],[-16.70309,13.13095],[-16.702286,13.131535],[-16.701159,13.132392],[-16.700365,13.133051],[-16.700129,13.133249],[-16.699873,13.133532],[-16.699635,13.133844],[-16.699528,13.134085],[-16.699541,13.1342945],[-16.699636,13.134566],[-16.69982,13.134796],[-16.699957,13.13492],[-16.70015,13.1350565],[-16.700354,13.13514],[-16.700611,13.135193],[-16.701286,13.13538],[-16.701694,13.135558],[-16.702148,13.135768],[-16.702513,13.135967],[-16.702803,13.136196],[-16.70306,13.1363945],[-16.703218,13.136593],[-16.703403,13.136875],[-16.703478,13.137148],[-16.703531,13.137502],[-16.703455,13.137888],[-16.703337,13.138169],[-16.703186,13.138432],[-16.702866,13.138902],[-16.702353,13.139665],[-16.702223,13.139927],[-16.702137,13.14025],[-16.702091,13.140583],[-16.702124,13.140886],[-16.702223,13.14116],[-16.702597,13.142077],[-16.702692,13.14237],[-16.702768,13.1426735],[-16.702803,13.142956],[-16.702845,13.143415],[-16.702896,13.14376],[-16.702984,13.1439905],[-16.703135,13.144199],[-16.703306,13.144387],[-16.703552,13.144554],[-16.703873,13.1447315],[-16.704388,13.14496],[-16.705225,13.145327],[-16.705904,13.145662],[-16.706245,13.145913],[-16.706728,13.14631],[-16.707254,13.146895],[-16.707575,13.147312],[-16.707767,13.147656],[-16.707888,13.148013],[-16.70795,13.14843],[-16.707952,13.148796],[-16.707993,13.149098],[-16.708113,13.149413],[-16.7085,13.150029],[-16.70926,13.151147],[-16.7094,13.151502],[-16.709454,13.151815],[-16.70956,13.1524315],[-16.709614,13.15311],[-16.709614,13.153591],[-16.70955,13.153947],[-16.709421,13.154291],[-16.709194,13.154625],[-16.70897,13.154907],[-16.708551,13.155293],[-16.708036,13.155627],[-16.707695,13.155786],[-16.707275,13.15588],[-16.70689,13.155931],[-16.706482,13.155901],[-16.70613,13.155786],[-16.705904,13.155598],[-16.705742,13.155357],[-16.705473,13.154907],[-16.705301,13.154448],[-16.705194,13.153999],[-16.704937,13.152891],[-16.704756,13.15238],[-16.704615,13.15217],[-16.704454,13.152024],[-16.704176,13.151919],[-16.703886,13.151878],[-16.703596,13.151847],[-16.703262,13.151899],[-16.702856,13.151983],[-16.702406,13.152203],[-16.70204,13.152411],[-16.701323,13.152996],[-16.700836,13.153476],[-16.700579,13.153726],[-16.700356,13.153905],[-16.699753,13.15426],[-16.699574,13.154428],[-16.699423,13.154616],[-16.699305,13.154877],[-16.69926,13.155201],[-16.699238,13.155513],[-16.69925,13.155869],[-16.699293,13.156202],[-16.699358,13.156433],[-16.699593,13.156808],[-16.699839,13.157216],[-16.700203,13.157989],[-16.700354,13.158313],[-16.700518,13.1586485],[-16.700655,13.158918],[-16.701437,13.160224],[-16.701622,13.16055],[-16.701708,13.160821],[-16.701847,13.161291],[-16.701887,13.161583],[-16.701859,13.161866],[-16.70174,13.162043],[-16.701567,13.162251],[-16.701256,13.162439],[-16.70103,13.162523],[-16.700773,13.162566],[-16.70056,13.162566],[-16.700367,13.162535],[-16.700012,13.162398],[-16.699602,13.162147],[-16.699411,13.161981],[-16.699251,13.161751],[-16.699144,13.161521],[-16.699068,13.161333],[-16.698843,13.160842],[-16.698744,13.160632],[-16.698593,13.160402],[-16.698208,13.159869],[-16.698006,13.159651],[-16.697735,13.159483],[-16.697481,13.1593275],[-16.697266,13.159307],[-16.696997,13.159338],[-16.696793,13.159401],[-16.696695,13.1594305],[-16.696354,13.159484],[-16.696108,13.159536],[-16.695292,13.159631],[-16.6948,13.159682],[-16.694134,13.159829],[-16.693554,13.159912],[-16.692986,13.159986],[-16.692663,13.1600065],[-16.692266,13.1600065],[-16.69188,13.159953],[-16.691677,13.159891],[-16.691301,13.159829],[-16.691097,13.159807],[-16.690937,13.15984],[-16.69061,13.159985],[-16.68985,13.160413],[-16.689606,13.160581],[-16.689478,13.160748],[-16.689411,13.160925],[-16.68938,13.161166],[-16.68936,13.16149],[-16.68938,13.161741],[-16.689455,13.161939],[-16.689583,13.162272],[-16.689722,13.16269],[-16.689817,13.163118],[-16.689936,13.163923],[-16.690056,13.164791],[-16.69012,13.165167],[-16.69016,13.165459],[-16.690184,13.165772],[-16.690151,13.166368],[-16.690096,13.166587],[-16.689991,13.166785],[-16.68984,13.166952],[-16.68952,13.167204],[-16.689188,13.167402],[-16.68881,13.167574],[-16.686481,13.168447],[-16.685413,13.168786],[-16.685255,13.168834],[-16.685104,13.16885],[-16.684896,13.168839],[-16.684607,13.168802],[-16.684246,13.168715],[-16.684006,13.168635],[-16.68387,13.168541],[-16.683748,13.168396],[-16.683666,13.168233],[-16.683592,13.167994],[-16.683393,13.167168],[-16.68332,13.166938],[-16.683231,13.166718],[-16.682926,13.166191],[-16.682707,13.165862],[-16.68241,13.165579],[-16.682146,13.165361],[-16.681805,13.165241],[-16.681437,13.165147],[-16.681044,13.165142],[-16.680843,13.165176],[-16.680687,13.165244],[-16.680647,13.165261],[-16.680458,13.165393],[-16.680197,13.165637],[-16.67997,13.165902],[-16.679905,13.166022],[-16.679834,13.166201],[-16.679773,13.1663475],[-16.679688,13.166468],[-16.67955,13.166608],[-16.679384,13.166722],[-16.679155,13.166881],[-16.67903,13.166968],[-16.678936,13.167074],[-16.678837,13.167225],[-16.678774,13.1673975],[-16.678753,13.167586],[-16.678774,13.167799],[-16.678822,13.16805],[-16.678898,13.168374],[-16.5732,13.166402],[-16.468811,13.1661625],[-16.233604,13.165087],[-16.146034,13.165854],[-16.025055,13.164531],[-16.00044,13.164998],[-15.993884,13.165759],[-15.991158,13.165764],[-15.981887,13.16299],[-15.980215,13.163065],[-15.96483,13.166737],[-15.963518,13.164387],[-15.955644,13.164347],[-15.928028,13.161635],[-15.913431,13.161338],[-15.895001,13.168208],[-15.871076,13.168002],[-15.844214,13.167377],[-15.826544,13.167245],[-15.816625,13.167176],[-15.808995,13.167491],[-15.803606,13.167101],[-15.80366,13.19249],[-15.804178,13.198429],[-15.804325,13.2013035],[-15.804797,13.209936],[-15.803718,13.218358],[-15.803949,13.227191],[-15.804306,13.240147],[-15.804382,13.241112],[-15.805439,13.270351],[-15.805376,13.296238],[-15.804806,13.302424],[-15.80487,13.321421],[-15.805328,13.326158],[-15.80492,13.336954],[-15.805226,13.340262],[-15.80494,13.342994],[-15.804363,13.347164],[-15.805109,13.349468],[-15.802027,13.349767],[-15.799965,13.349195],[-15.795411,13.348775],[-15.792925,13.348177],[-15.788358,13.34923],[-15.786604,13.3493805],[-15.784249,13.349243],[-15.781904,13.349395],[-15.778525,13.349695],[-15.774997,13.349417],[-15.772495,13.349569],[-15.767941,13.349004],[-15.762956,13.349164],[-15.759284,13.350179],[-15.754583,13.350047],[-15.751204,13.349922],[-15.74944,13.350208],[-15.744593,13.350077],[-15.739893,13.35038],[-15.733649,13.349855],[-15.729884,13.350436],[-15.7245865,13.351538],[-15.721853,13.351743],[-15.7184305,13.352694],[-15.713733,13.353701],[-15.709297,13.355441],[-15.707417,13.356378],[-15.704418,13.357507],[-15.697115,13.361244],[-15.693649,13.363387],[-15.691308,13.36493],[-15.689298,13.366056],[-15.687186,13.36703],[-15.685741,13.368806],[-15.683685,13.36996],[-15.683106,13.370966],[-15.680466,13.371262],[-15.678403,13.370119],[-15.677366,13.368974],[-15.6760435,13.368399],[-15.6736965,13.368115],[-15.671193,13.367833],[-15.668844,13.366402],[-15.667522,13.365835],[-15.665165,13.364973],[-15.6635475,13.364689],[-15.660905,13.364125],[-15.656932,13.363413],[-15.65414,13.362416],[-15.651202,13.3617],[-15.648408,13.359845],[-15.646643,13.35927],[-15.640619,13.358138],[-15.636495,13.356132],[-15.632384,13.355564],[-15.62974,13.354132],[-15.626941,13.353995],[-15.62371,13.354002],[-15.620548,13.352717],[-15.619374,13.352295],[-15.612908,13.351587],[-15.610414,13.350879],[-15.607616,13.351021],[-15.605123,13.3510275],[-15.600863,13.350323],[-15.598659,13.350762],[-15.597041,13.350332],[-15.594104,13.350049],[-15.591019,13.350057],[-15.587494,13.350499],[-15.582941,13.350655],[-15.579859,13.351521],[-15.5767765,13.352386],[-15.571194,13.353991],[-15.56753,13.355002],[-15.564007,13.356882],[-15.560417,13.357957],[-15.557465,13.359409],[-15.555364,13.361278],[-15.551804,13.363545],[-15.548624,13.366148],[-15.5461,13.368332],[-15.543481,13.370653],[-15.541102,13.372467],[-15.539978,13.3734455],[-15.538301,13.375394],[-15.536534,13.377802],[-15.534053,13.37957],[-15.531907,13.381755],[-15.530717,13.38248],[-15.530172,13.382825],[-15.528392,13.38367],[-15.52749,13.385154],[-15.525433,13.386307],[-15.523532,13.387323],[-15.521697,13.388503],[-15.519032,13.390552],[-15.514726,13.393807],[-15.511936,13.393812],[-15.510321,13.393961],[-15.508558,13.394542],[-15.505177,13.3939705],[-15.503117,13.393975],[-15.501362,13.393833],[-15.499748,13.394994],[-15.498567,13.395286],[-15.496359,13.395001],[-15.494456,13.395149],[-15.491294,13.3936],[-15.489314,13.391958],[-15.486486,13.391105],[-15.483935,13.390296],[-15.481107,13.3894415],[-15.479175,13.388251],[-15.476623,13.387073],[-15.473748,13.386038],[-15.471661,13.385698],[-15.468721,13.384691],[-15.465783,13.383403],[-15.462843,13.381826],[-15.46019,13.380394],[-15.455633,13.378675],[-15.452547,13.377533],[-15.449754,13.375811],[-15.44506,13.374579],[-15.44253,13.374964],[-15.438337,13.374808],[-15.431093,13.372678],[-15.425502,13.370815],[-15.412714,13.367238],[-15.394198,13.361806],[-15.391408,13.360806],[-15.388904,13.359942],[-15.379644,13.355788],[-15.370837,13.357953],[-15.360253,13.357543],[-15.355121,13.358121],[-15.339083,13.360249],[-15.338667,13.360304],[-15.338076,13.360594],[-15.319648,13.364072],[-15.300996,13.366536],[-15.299812,13.365535],[-15.299379,13.366538],[-15.286458,13.373173],[-15.271554,13.383045],[-15.248586,13.402274],[-15.231263,13.417826],[-15.228762,13.419122],[-15.227295,13.422142],[-15.224067,13.427182],[-15.22143,13.432935],[-15.220408,13.437114],[-15.217763,13.443726],[-15.213667,13.459699],[-15.208682,13.475961],[-15.207219,13.482436],[-15.204441,13.497114],[-15.201073,13.512795],[-15.20019,13.518837],[-15.19726,13.529482],[-15.195496,13.530497],[-15.191829,13.532651],[-15.187274,13.534672],[-15.184328,13.536834],[-15.178307,13.542734],[-15.173171,13.547196],[-15.170373,13.549928],[-15.170184,13.550043],[-15.166557,13.5522375],[-15.152009,13.565484],[-15.144655,13.571528],[-15.141289,13.582752],[-15.11894,13.59053],[-15.096443,13.597151],[-15.090122,13.600463],[-15.08805,13.595464],[-15.085663,13.58992],[-15.082174,13.57842],[-15.080156,13.573204],[-15.078899,13.570753],[-15.0761795,13.565347],[-15.074488,13.562661],[-15.073065,13.560769],[-15.067914,13.55392],[-15.059223,13.544951],[-15.05094,13.535242],[-15.041142,13.525967],[-15.034229,13.520353],[-15.023055,13.510289],[-15.015857,13.504674],[-15.008797,13.498924],[-15.003067,13.49547],[-14.9995,13.492115],[-14.999149,13.491645],[-14.997274,13.490859],[-14.99586,13.489891],[-14.994353,13.489385],[-14.991859,13.488191],[-14.990539,13.487639],[-14.988283,13.486716],[-14.985686,13.484962],[-14.983709,13.483633],[-14.981825,13.482204],[-14.980135,13.481282],[-14.977307,13.479944],[-14.974859,13.478569],[-14.971468,13.4773655],[-14.968835,13.4758005],[-14.965869,13.474517],[-14.963143,13.473178],[-14.96064,13.471614],[-14.957961,13.470736],[-14.954617,13.46908],[-14.951559,13.467832],[-14.950238,13.46737],[-14.948215,13.466728],[-14.94572,13.465299],[-14.943512,13.46406],[-14.941914,13.463047],[-14.940399,13.4625845],[-14.938237,13.462259],[-14.934662,13.460604],[-14.932777,13.459726],[-14.930423,13.458713],[-14.929156,13.45807],[-14.927595,13.456957],[-14.926237,13.456089],[-14.924491,13.455763],[-14.921388,13.4546585],[-14.919688,13.454151],[-14.9166765,13.453093],[-14.916113,13.452722],[-14.913905,13.45198],[-14.912963,13.451292],[-14.910137,13.450414],[-14.907264,13.449536],[-14.905619,13.449174],[-14.903402,13.448621],[-14.901619,13.448159],[-14.899542,13.447462],[-14.897001,13.447235],[-14.895874,13.446955],[-14.8947,13.446954],[-14.8925295,13.446862],[-14.890655,13.446582],[-14.889047,13.446264],[-14.885897,13.446262],[-14.884114,13.446262],[-14.882183,13.446162],[-14.879263,13.445933],[-14.876104,13.445607],[-14.875966,13.445607],[-14.873712,13.445696],[-14.870127,13.445377],[-14.86877,13.445377],[-14.866792,13.445051],[-14.864012,13.444823],[-14.863255,13.444868],[-14.860861,13.445183],[-14.859586,13.445373],[-14.857231,13.445688],[-14.856389,13.445923],[-14.855253,13.446012],[-14.854782,13.446101],[-14.853655,13.446101],[-14.85262,13.445966],[-14.851872,13.445639],[-14.850838,13.445268],[-14.850312,13.444951],[-14.849841,13.444625],[-14.848622,13.443476],[-14.84768,13.4424095],[-14.846646,13.441629],[-14.845658,13.440065],[-14.844717,13.439053],[-14.843305,13.437713],[-14.841652,13.4361925],[-14.839159,13.434074],[-14.8377,13.432691],[-14.836712,13.432003],[-14.835198,13.430664],[-14.834026,13.429605],[-14.831764,13.427895],[-14.830544,13.426971],[-14.829409,13.426193],[-14.828098,13.425541],[-14.825318,13.424066],[-14.82386,13.423332],[-14.8220215,13.422453],[-14.8202305,13.421394],[-14.81868,13.420471],[-14.817599,13.420335],[-14.816935,13.419547],[-14.815614,13.41904],[-14.81397,13.418207],[-14.812086,13.417744],[-14.80974,13.417291],[-14.808041,13.416873],[-14.805686,13.416501],[-14.805363,13.4165],[-14.80418,13.415993],[-14.802961,13.415902],[-14.801871,13.415946],[-14.799802,13.415619],[-14.798814,13.415482],[-14.797262,13.415292],[-14.795803,13.41511],[-14.794999,13.415199],[-14.79354,13.415289],[-14.791803,13.415378],[-14.789402,13.415013],[-14.788275,13.414687],[-14.787333,13.414597],[-14.785586,13.414684],[-14.783989,13.41482],[-14.781403,13.414907],[-14.780036,13.4149065],[-14.778668,13.41495],[-14.776692,13.414767],[-14.77636,13.414857],[-14.775842,13.415037],[-14.774577,13.415136],[-14.773819,13.415136],[-14.771888,13.41536],[-14.771001,13.415541],[-14.769773,13.415773],[-14.768267,13.416099],[-14.766761,13.416549],[-14.7663355,13.416694],[-14.764599,13.416963],[-14.763979,13.417007],[-14.76299,13.417467],[-14.761818,13.417557],[-14.761208,13.417602],[-14.760497,13.41742],[-14.760359,13.417284],[-14.760073,13.416687],[-14.759889,13.415854],[-14.759224,13.415069],[-14.758801,13.413919],[-14.758239,13.41258],[-14.757813,13.411848],[-14.7574835,13.410374],[-14.757208,13.40908],[-14.756543,13.408066],[-14.756405,13.408066],[-14.756257,13.40756],[-14.755465,13.406176],[-14.754422,13.404845],[-14.75339,13.402629],[-14.753104,13.401987],[-14.752588,13.400739],[-14.75137,13.398712],[-14.751086,13.397835],[-14.750799,13.397788],[-14.750523,13.396686],[-14.748688,13.394287],[-14.748071,13.393048],[-14.747739,13.392035],[-14.746843,13.390831],[-14.746143,13.389909],[-14.745627,13.389175],[-14.743459,13.387283],[-14.742333,13.386179],[-14.741484,13.385392],[-14.740164,13.384188],[-14.73913,13.383825],[-14.738376,13.382025],[-14.737434,13.381011],[-14.736262,13.379907],[-14.735884,13.379671],[-14.734989,13.378431],[-14.73428,13.377779],[-14.733338,13.376631],[-14.732868,13.376033],[-14.732259,13.375291],[-14.731272,13.374647],[-14.730284,13.374186],[-14.728965,13.373172],[-14.72831,13.372501],[-14.727461,13.371651],[-14.725623,13.370636],[-14.7235,13.369666],[-14.722042,13.369013],[-14.721009,13.368279],[-14.719782,13.367446],[-14.717999,13.366712],[-14.7164955,13.365833],[-14.715028,13.364863],[-14.712822,13.363705],[-14.710746,13.362554],[-14.708863,13.361629],[-14.706566,13.360378],[-14.703971,13.360149],[-14.702468,13.358303],[-14.698987,13.357612],[-14.6964855,13.35627],[-14.694751,13.355391],[-14.692583,13.353688],[-14.689943,13.352709],[-14.687312,13.351332],[-14.684914,13.350216],[-14.682653,13.348323],[-14.680623,13.347308],[-14.678084,13.346473],[-14.675353,13.345366],[-14.67263,13.344259],[-14.670221,13.34384],[-14.667635,13.343376],[-14.664764,13.34282],[-14.661515,13.342536],[-14.658412,13.342026],[-14.655633,13.341696],[-14.653417,13.341693],[-14.6502695,13.340766],[-14.647962,13.340717],[-14.645423,13.340253],[-14.6429205,13.340159],[-14.640242,13.340562],[-14.636141,13.340746],[-14.633131,13.340878],[-14.63049,13.340412],[-14.628143,13.340961],[-14.625364,13.341047],[-14.622022,13.341595],[-14.619194,13.342278],[-14.616277,13.342272],[-14.61383,13.342404],[-14.611335,13.343051],[-14.608554,13.344286],[-14.605957,13.34534],[-14.6034155,13.346765],[-14.601253,13.347548],[-14.598757,13.349198],[-14.596354,13.350208],[-14.593249,13.351767],[-14.590421,13.353472],[-14.587973,13.354199],[-14.585374,13.355669],[-14.583442,13.356959],[-14.580809,13.358149],[-14.5780735,13.358741],[-14.57695,13.35694],[-14.575164,13.353944],[-14.5736065,13.351915],[-14.571819,13.3492365],[-14.570365,13.347028],[-14.5689,13.344999],[-14.566642,13.3425],[-14.564439,13.34029],[-14.563021,13.338489],[-14.561472,13.336876],[-14.559029,13.3344755],[-14.557426,13.332393],[-14.556109,13.330601],[-14.554931,13.328935],[-14.553851,13.32792],[-14.551455,13.326072],[-14.549334,13.324503],[-14.547591,13.323206],[-14.544012,13.321446],[-14.541945,13.320204],[-14.539401,13.318218],[-14.537751,13.316688],[-14.535308,13.314893],[-14.532671,13.313134],[-14.531259,13.312444],[-14.52994,13.312025],[-14.528206,13.311235],[-14.527071,13.310681],[-14.525235,13.309893],[-14.522976,13.30855],[-14.520291,13.307441],[-14.517239,13.305681],[-14.514785,13.304845],[-14.512431,13.304334],[-14.510318,13.3038225],[-14.507816,13.303448],[-14.504476,13.30289],[-14.500996,13.302693],[-14.498734,13.302228],[-14.4951515,13.30222],[-14.492329,13.301292],[-14.489791,13.300646],[-14.486254,13.30091],[-14.483291,13.300948],[-14.480697,13.300717],[-14.478768,13.300252],[-14.475898,13.300147],[-14.473303,13.300286],[-14.470477,13.300461],[-14.467892,13.300456],[-14.465344,13.30035],[-14.46323,13.300211],[-14.46106,13.300714],[-14.459509,13.300203],[-14.458562,13.298537],[-14.457673,13.295822],[-14.456033,13.2943],[-14.454431,13.292724],[-14.453491,13.291483],[-14.451982,13.289544],[-14.45109,13.287508],[-14.451091,13.287499],[-14.449443,13.285569],[-14.447611,13.283404],[-14.446109,13.281737],[-14.44484,13.279529],[-14.44333,13.277817],[-14.441877,13.275598],[-14.439998,13.273522],[-14.438397,13.270843],[-14.436564,13.269501],[-14.434354,13.26747],[-14.431762,13.266127],[-14.429459,13.264466],[-14.42734,13.262797],[-14.425276,13.260948],[-14.422825,13.259233],[-14.421138,13.258082],[-14.4182625,13.256141],[-14.415913,13.254517],[-14.414263,13.253365],[-14.4128065,13.25262],[-14.412051,13.252202],[-14.411396,13.25202],[-14.410594,13.251466],[-14.408667,13.250449],[-14.407064,13.249198],[-14.404714,13.247482],[-14.402834,13.246466],[-14.40076,13.245448],[-14.39935,13.244151],[-14.397044,13.243594],[-14.394832,13.242713],[-14.391909,13.241232],[-14.390223,13.24007],[-14.387861,13.239694],[-14.385464,13.238495],[-14.383721,13.237929],[-14.381978,13.237193],[-14.379534,13.236536],[-14.376944,13.2355175],[-14.375348,13.235007],[-14.37271,13.234404],[-14.36937,13.233609],[-14.366399,13.233275],[-14.364141,13.232113],[-14.3636265,13.231289],[-14.361791,13.230723],[-14.358868,13.229704],[-14.3559065,13.229326],[-14.354448,13.229367],[-14.352464,13.229453],[-14.349686,13.229355],[-14.339305,13.228402],[-14.330653,13.228732],[-14.322684,13.227977],[-14.312831,13.2277975],[-14.305531,13.228286],[-14.29905,13.229551],[-14.292528,13.231038],[-14.2853565,13.234439],[-14.281177,13.237288],[-14.276061,13.239844],[-14.272223,13.242335],[-14.269478,13.244268],[-14.266641,13.246783],[-14.261839,13.245017],[-14.257156,13.242982],[-14.252003,13.240911],[-14.248055,13.23861],[-14.243055,13.236943],[-14.236944,13.235556],[-14.232222,13.233889],[-14.226666,13.232499],[-14.220833,13.231388],[-14.214443,13.231111],[-14.206787,13.228952],[-14.20008,13.229255],[-14.193651,13.22943],[-14.186905,13.232265],[-14.182699,13.23389],[-14.176389,13.236388],[-14.171389,13.23861],[-14.1658325,13.240277],[-14.160832,13.242499],[-14.156111,13.244721],[-14.151111,13.246943],[-14.146944,13.249999],[-14.142222,13.252221],[-14.137499,13.254444],[-14.133332,13.2575],[-14.129167,13.260278],[-14.125833,13.263889],[-14.123055,13.268056],[-14.120277,13.272222],[-14.118333,13.277222],[-14.115832,13.281388],[-14.113889,13.286388],[-14.107499,13.287222],[-14.10111,13.286943],[-14.095278,13.285556],[-14.088889,13.285277],[-14.0824995,13.286111],[-14.075556,13.286388],[-14.072592,13.286776],[-14.069167,13.287222],[-14.064166,13.289444],[-14.05861,13.291111],[-14.053056,13.292778],[-14.048056,13.294999],[-14.043888,13.297777],[-14.040555,13.301389],[-14.035556,13.302221],[-14.03,13.30111],[-14.024167,13.299999],[-14.017777,13.299443],[-14.010833,13.299722],[-14.004444,13.300555],[-14.001631,13.301044],[-13.998056,13.301666],[-13.992499,13.303056],[-13.989771,13.303874],[-13.989508,13.303953],[-13.986943,13.304722],[-13.981943,13.306943],[-13.9772215,13.309166],[-13.972221,13.311388],[-13.967221,13.31361],[-13.963056,13.316667],[-13.958611,13.318889],[-13.954444,13.321666],[-13.94861,13.323332],[-13.942778,13.322221],[-13.94123,13.32208],[-13.936389,13.321666],[-13.930833,13.320555],[-13.924444,13.319999],[-13.9180565,13.319444],[-13.912221,13.318333],[-13.906111,13.318055],[-13.898889,13.318055],[-13.891944,13.318333],[-13.884722,13.31861],[-13.878333,13.319721],[-13.872778,13.32111],[-13.867222,13.322777],[-13.862222,13.324999],[-13.858056,13.327778],[-13.8538885,13.330833],[-13.849722,13.333611],[-13.846389,13.337222],[-13.842221,13.340278],[-13.838888,13.343611],[-13.834722,13.346666],[-13.830555,13.349443],[-13.827221,13.353056],[-13.82361,13.356667],[-13.820277,13.360277],[-13.816943,13.363889],[-13.814166,13.368055],[-13.808056,13.375833],[-13.805555,13.379999],[-13.802777,13.384443],[-13.800833,13.389166],[-13.798333,13.400278],[-13.797778,13.406667],[-13.798333,13.413333],[-13.798333,13.420278],[-13.798889,13.427221],[-13.799444,13.433332],[-13.801389,13.438889],[-13.803332,13.44361],[-13.805833,13.448333],[-13.808056,13.453055],[-13.8116665,13.456388],[-13.815556,13.459722],[-13.817778,13.463056],[-13.819444,13.467221],[-13.821667,13.471943],[-13.824721,13.475832],[-13.826943,13.480556],[-13.829721,13.484722],[-13.833611,13.488056],[-13.836666,13.491944],[-13.840832,13.494721],[-13.845277,13.497222],[-13.849722,13.5],[-13.854722,13.501667],[-13.859243,13.503615],[-13.863049,13.505427],[-13.865499,13.506955],[-13.865525,13.506971],[-13.866121,13.507325],[-13.866578,13.507657],[-13.870554,13.511392],[-13.87361,13.515558],[-13.875277,13.521113],[-13.876942,13.526391],[-13.878331,13.531946],[-13.880831,13.53667],[-13.883054,13.541392],[-13.886109,13.545559],[-13.88972,13.548892],[-13.893331,13.552225],[-13.896942,13.555558],[-13.900554,13.558614],[-13.904998,13.561392],[-13.909442,13.563891],[-13.913887,13.566669],[-13.918886,13.568336],[-13.924441,13.569724],[-13.93083,13.570003],[-13.938054,13.569724],[-13.944442,13.57028],[-13.950831,13.570835],[-13.9547205,13.574169],[-13.958887,13.57667],[-13.963054,13.579169],[-13.968331,13.581114],[-13.9733305,13.583058],[-13.980554,13.58278],[-13.987497,13.582502],[-13.993053,13.580835],[-13.997219,13.578058],[-14.002219,13.575835],[-14.006388,13.573058],[-14.010554,13.570003],[-14.01472,13.566947],[-14.0188875,13.56417],[-14.022221,13.560558],[-14.026387,13.55778],[-14.030554,13.556113],[-14.035276,13.558059],[-14.040554,13.560002],[-14.045554,13.561947],[-14.051387,13.563059],[-14.057498,13.563614],[-14.064719,13.563335],[-14.070554,13.563059],[-14.07501,13.561489],[-14.080439,13.560085],[-14.0842285,13.558647],[-14.089351,13.55607],[-14.095125,13.553622],[-14.100555,13.550622],[-14.103036,13.549371],[-14.106656,13.548042],[-14.111562,13.545755],[-14.113992,13.544428],[-14.116555,13.542529],[-14.117222,13.541944],[-14.120555,13.538332],[-14.123332,13.535555],[-14.123888,13.535555],[-14.126666,13.534721],[-14.133055,13.533888],[-14.139809,13.53079],[-14.146014,13.530947],[-14.15255,13.531216],[-14.158144,13.530657],[-14.163719,13.529461],[-14.167742,13.528106],[-14.170485,13.52671],[-14.1735525,13.523856],[-14.174713,13.522247],[-14.176555,13.521279],[-14.180419,13.520644],[-14.18636,13.519731],[-14.192484,13.518285],[-14.195556,13.517221],[-14.200555,13.514722],[-14.204875,13.512531],[-14.209443,13.509722],[-14.213763,13.506795],[-14.217778,13.503889],[-14.221111,13.5002775],[-14.224722,13.496667],[-14.228056,13.493055],[-14.230833,13.488889],[-14.233333,13.484722],[-14.236944,13.481111],[-14.240832,13.478333],[-14.248055,13.478056],[-14.254999,13.477778],[-14.261389,13.476667],[-14.267221,13.475278],[-14.273333,13.474167],[-14.279721,13.473332],[-14.284721,13.47111],[-14.289443,13.468888],[-14.294444,13.466666],[-14.3,13.464999],[-14.305556,13.463332],[-14.311389,13.461944],[-14.316944,13.460278],[-14.322499,13.458611],[-14.327499,13.456388],[-14.3319435,13.454166],[-14.337777,13.453888],[-14.342777,13.4558325],[-14.347777,13.457777],[-14.353055,13.459722],[-14.357778,13.461389],[-14.363056,13.463332],[-14.3675,13.465833],[-14.372222,13.467777],[-14.376667,13.470277],[-14.381111,13.473056],[-14.385556,13.475556],[-14.389999,13.478333],[-14.394167,13.480833],[-14.398333,13.483333],[-14.402222,13.486667],[-14.406388,13.489444],[-14.410832,13.491944],[-14.4152775,13.494444],[-14.418888,13.497778],[-14.424167,13.499722],[-14.427777,13.503056],[-14.431388,13.506389],[-14.434999,13.509722],[-14.438056,13.513611],[-14.440833,13.517777],[-14.443333,13.522499],[-14.446213,13.526165],[-14.446389,13.526388],[-14.448847,13.527546],[-14.4558325,13.530832],[-14.461389,13.532222],[-14.466944,13.533333],[-14.472065,13.5348425],[-14.473056,13.539999],[-14.473399,13.541891],[-14.474167,13.54611],[-14.474999,13.552222],[-14.475833,13.558333],[-14.476944,13.564722],[-14.4777775,13.570833],[-14.4788885,13.576943],[-14.480556,13.5824995],[-14.481388,13.588611],[-14.483055,13.593888],[-14.485277,13.598888],[-14.487778,13.60361],[-14.49,13.608333],[-14.492499,13.613055],[-14.495277,13.616943],[-14.497548,13.62084],[-14.501389,13.625],[-14.504999,13.628333],[-14.50862,13.631968],[-14.513341,13.636489],[-14.51989,13.64121],[-14.524568,13.6445875],[-14.530231,13.647916],[-14.535587,13.650401],[-14.542622,13.65264],[-14.549622,13.654338],[-14.557294,13.655797],[-14.564984,13.657055],[-14.573542,13.657932],[-14.581396,13.658199],[-14.589163,13.658266],[-14.596974,13.65825],[-14.604578,13.658016],[-14.611334,13.657532],[-14.622199,13.655956],[-14.629615,13.654705],[-14.640026,13.6520195],[-14.652566,13.648199],[-14.663974,13.645714],[-14.67496,13.642102],[-14.687594,13.636981],[-14.696667,13.632222],[-14.700832,13.629167],[-14.704444,13.625556],[-14.707777,13.621943],[-14.71111,13.618332],[-14.714443,13.614721],[-14.718611,13.611943],[-14.719443,13.612499],[-14.7375,13.623056],[-14.755556,13.633333],[-14.773889,13.643611],[-14.791944,13.653333],[-14.792221,13.658889],[-14.7925,13.665556],[-14.793332,13.671666],[-14.793611,13.678611],[-14.795278,13.684166],[-14.797221,13.689721],[-14.798056,13.695832],[-14.799443,13.701111],[-14.801388,13.706667],[-14.803165,13.711867],[-14.804713,13.716389],[-14.806933,13.721285],[-14.809443,13.726944],[-14.811389,13.731667],[-14.813889,13.736388],[-14.8159,13.740052],[-14.818562,13.744998],[-14.821827,13.749594],[-14.825278,13.753332],[-14.828889,13.756666],[-14.8324995,13.759999],[-14.836111,13.763332],[-14.84,13.766388],[-14.843888,13.769721],[-14.847777,13.7725],[-14.851584,13.775385],[-14.855045,13.777345],[-14.85861,13.779754],[-14.86227,13.782106],[-14.865165,13.783905],[-14.869166,13.786111],[-14.874355,13.788604],[-14.878611,13.790556],[-14.883055,13.793056],[-14.888056,13.795],[-14.893056,13.796944],[-14.898056,13.798889],[-14.903056,13.800555],[-14.908898,13.801964],[-14.914444,13.803056],[-14.9194765,13.803853],[-14.923125,13.804217],[-14.927194,13.804701],[-14.933645,13.805199],[-14.937849,13.805472],[-14.939583,13.805405],[-14.941415,13.805158],[-14.943454,13.804723],[-14.945671,13.804044],[-14.950303,13.802359],[-14.959581,13.798287],[-14.9690275,13.794151],[-14.970015,13.793719],[-14.974922,13.793457],[-14.979583,13.79359],[-14.985751,13.793755],[-14.991667,13.795],[-14.998333,13.798333],[-15.016388,13.804999],[-15.034443,13.8125],[-15.052222,13.819444],[-15.067085,13.824847],[-15.068871,13.825248],[-15.07029,13.825314],[-15.071924,13.825255],[-15.073821,13.824966],[-15.076667,13.824166],[-15.094166,13.817778],[-15.106251,13.814001],[-15.111369,13.812139],[-15.123295,13.807688],[-15.126311,13.806541],[-15.128688,13.805244],[-15.129818,13.804354],[-15.130986,13.803266],[-15.13181,13.802185],[-15.141585,13.788952],[-15.142569,13.787922],[-15.143803,13.787134],[-15.145466,13.786228],[-15.147523,13.785361],[-15.148637,13.78491],[-15.150293,13.784196],[-15.1552105,13.781745],[-15.180782,13.7694235],[-15.205612,13.754564],[-15.264985,13.740973],[-15.266551,13.751083],[-15.269829,13.761013],[-15.272323,13.767578],[-15.275563,13.772759],[-15.27964,13.777298],[-15.285438,13.7814665],[-15.290505,13.78435],[-15.295073,13.786364],[-15.30233,13.789327],[-15.307634,13.790986],[-15.313646,13.792023],[-15.32104,13.792603],[-15.328868,13.792532],[-15.336309,13.79199],[-15.342696,13.790736],[-15.349999,13.788055],[-15.355,13.785833],[-15.359722,13.783611],[-15.364444,13.781389],[-15.36861,13.778333],[-15.372778,13.775556],[-15.377242,13.771895],[-15.384498,13.7656765],[-15.392258,13.757264],[-15.401255,13.7526245],[-15.409683,13.744704],[-15.411799,13.742764],[-15.414113,13.740146],[-15.41561,13.738113],[-15.41722,13.735736],[-15.418604,13.733278],[-15.424963,13.720517],[-15.432748,13.711007],[-15.436954,13.704899],[-15.443502,13.693383],[-15.447897,13.682926],[-15.452082,13.674203],[-15.455858,13.663932],[-15.458703,13.654758],[-15.461063,13.6456995],[-15.462274,13.635699],[-15.463617,13.6308365],[-15.46614,13.626361],[-15.46845,13.620839],[-15.470779,13.615713],[-15.472711,13.608129],[-15.4744,13.60053],[-15.476032,13.593777],[-15.477371,13.584183],[-15.605549,13.591359],[-15.6057,13.591364],[-15.911943,13.591944],[-16.000832,13.592221],[-16.01111,13.5925],[-16.029165,13.5925],[-16.031574,13.5925],[-16.046944,13.5925],[-16.14681,13.592427],[-16.170832,13.5925],[-16.18861,13.592221],[-16.206667,13.592221],[-16.224167,13.592221],[-16.241943,13.591944],[-16.259443,13.591944],[-16.277222,13.591944],[-16.295277,13.591666],[-16.312777,13.591666],[-16.330557,13.591389],[-16.348333,13.591389],[-16.365833,13.591389],[-16.383888,13.59111],[-16.401667,13.59111],[-16.418783,13.591691],[-16.42061,13.591637],[-16.422096,13.591708],[-16.423166,13.591705],[-16.42597,13.591486],[-16.436943,13.590833],[-16.454721,13.590555],[-16.459848,13.590555],[-16.4603,13.590565],[-16.4725,13.590555],[-16.489855,13.590555],[-16.490278,13.590555],[-16.50672,13.590299],[-16.508055,13.590278],[-16.509087,13.590296],[-16.512642,13.590362],[-16.514235,13.590372],[-16.545435,13.589929],[-16.546947,13.589923]]]}}
