{"type":"Feature","id":"relation/1854614","properties":{"type":"relation","id":1854614,"tags":{"ISO3166-2":"CU-99","admin_level":"4","boundary":"administrative","name":"Isla de la Juventud","name:de":"Insel der Jugend","name:en":"Isle of Youth","name:es":"Isla de la Juventud","name:fr":"Île de la Jeunesse","name:it":"Isola della Gioventù","name:la":"Insula Iuventutis","name:pt":"Ilha da Juventude","name:ru":"Остров Хувентуд","official_name":"Municipio Especial Isla de la Juventud","old_name":"Isla de Pinos","old_name:de":"Kieferninsel","old_name:es":"Isla de Pinos","old_name:fr":"Île des Pins","type":"boundary","wikidata":"Q115027","wikipedia":"en:Isla de la Juventud"},"labels":[{"id":"node/259846365","role":"admin_centre","coordinates":[-82.806,21.88546]}]},"geometry":{"type":"Polygon","coordinates":[[[-81.19605,21.417906],[-81.100494,21.518585],[-81.109276,21.733824],[-82.18255,22.240906],[-82.426575,22.342913],[-82.92608,22.347744],[-83.56621,21.469137],[-83.16811,21.28669],[-83.139435,21.275774],[-83.109375,21.268845],[-82.932945,21.24053],[-82.89667,21.237629],[-82.883354,21.237627],[-82.85808,21.239025],[-82.82003,21.24325],[-82.2028,21.272816],[-82.16986,21.276743],[-81.72522,21.36236],[-81.6068,21.379723],[-81.487785,21.39538],[-81.19605,21.417906]]]}}
