{"type":"Feature","id":"relation/2313456","properties":{"type":"relation","id":2313456,"tags":{"admin_level":"8","boundary":"administrative","name":"Чорнобиль","name:af":"Černobylis","name:ar":"تشيرنوبيل","name:ca":"Txernòbil","name:cs":"Černobyl","name:da":"Tjernobyl","name:de":"Tschornobyl","name:en":"Chornobyl","name:eo":"Ĉernobilo","name:es":"Chernóbil","name:et":"Tšornobõl","name:eu":"Txernobyl","name:fi":"Tšernobyl","name:fr":"Tchernobyl","name:he":"צ'רנוביל","name:hr":"Černuobīlis","name:hu":"Csernobil","name:id":"Chernobyl","name:it":"Černobyl","name:ja":"チョルノーブィリ","name:ko":"초르노빌","name:lb":"Tschernobyl","name:ms":"Chernobyl","name:nl":"Tsjernobyl","name:nn":"Tsjernobyl","name:no":"Tsjernobyl","name:oc":"Chornobyl","name:pl":"Czarnobyl","name:prefix":"місто","name:pt":"Chernobyl","name:ro":"Cernobîl","name:ru":"Чернобыль","name:scn":"Chernobyl","name:sk":"Černobyľ","name:sl":"Černobil","name:sr":"Černobilj","name:sv":"Tjernobyl","name:tr":"Çernobil","name:uk":"Чорнобиль","name:vi":"Chernobyl","name:yi":"טשערנאבל","name:zh":"切尔诺贝利","place":"town","type":"boundary"},"labels":[{"id":"node/127834997","role":"admin_centre","coordinates":[30.21943,51.270523]}]},"geometry":{"type":"Polygon","coordinates":[[[30.243753,51.274864],[30.240705,51.27765],[30.23751,51.27924],[30.231361,51.28151],[30.228899,51.2832],[30.22779,51.28319],[30.226994,51.282887],[30.220957,51.28173],[30.214788,51.282196],[30.210466,51.28448],[30.204063,51.289913],[30.20017,51.28959],[30.19794,51.289013],[30.20774,51.280334],[30.195627,51.274113],[30.216106,51.26105],[30.223045,51.261333],[30.233692,51.26287],[30.240765,51.268967],[30.243753,51.274864]]]}}
