{"type":"Feature","id":"relation/2506784","properties":{"type":"relation","id":2506784,"tags":{"admin_level":"8","boundary":"administrative","name":"Merikarvia","name:da":"Sastmola","name:fi":"Merikarvia","name:nn":"Sastmola","name:no":"Sastmola","name:ru":"Мерикарвиа","name:sv":"Sastmola","ref":"484","type":"boundary","wikidata":"Q1009215","wikipedia":"fi:Merikarvia"},"labels":[{"id":"node/30969718","role":"admin_centre","coordinates":[21.5,61.85]}]},"geometry":{"type":"Polygon","coordinates":[[[20.829153,61.921673],[20.84199,61.87383],[20.852192,61.836018],[20.862394,61.798157],[20.872597,61.760246],[20.888847,61.700222],[21.367752,61.727875],[21.418444,61.721973],[21.459713,61.724937],[21.548885,61.741543],[21.577517,61.747402],[21.700861,61.738518],[21.728527,61.74812],[21.678963,61.816154],[21.693554,61.872414],[21.72479,61.875103],[21.751993,61.94532],[21.750986,62.015377],[21.70121,62.021065],[21.647272,62.019505],[21.523933,62.024906],[21.427114,62.010086],[21.359482,61.96026],[21.282578,61.9446],[20.829153,61.921673]]]}}
