{"type":"Feature","id":"relation/2878463","properties":{"type":"relation","id":2878463,"tags":{"addr:postcode":"94800-94819","admin_level":"8","boundary":"administrative","koatuu":"4412700000","name":"Свердловськ","name:cs":"Sverdlovsk","name:de":"Swerdlowsk","name:en":"Sverdlovsk","name:eo":"Dovĵansk","name:fa":"اسوردلوفسک","name:fi":"Sverdlovsk","name:fr":"Sverdlovsk","name:it":"Sverdlovs'k","name:nn":"Sverdlovsk","name:pl":"Dowżanśk","name:ro":"Sverdlovsk","name:ru":"Свердловск","name:rue":"Свердловск","name:sr":"Свердловск","name:uk":"Свердловськ","name:vi":"Sverdlovsk","name:zh":"斯維爾德洛夫斯克","old_name:eo":"Sverdlovsk","old_name:pl":"Swerdłowśk","place":"town","population":"64503","type":"boundary","wikidata":"Q572366","wikipedia":"uk:Свердловськ"},"labels":[{"id":"node/337660247","role":"admin_centre","coordinates":[39.642563,48.08113]}]},"geometry":{"type":"MultiPolygon","coordinates":[[[[39.66439,48.01206],[39.65996,48.01896],[39.65316,48.014748],[39.65425,48.013584],[39.652176,48.012344],[39.65412,48.011333],[39.656563,48.01256],[39.66019,48.01007],[39.660027,48.009884],[39.660545,48.009453],[39.66439,48.01206]]],[[[39.652866,48.02415],[39.65523,48.025852],[39.651596,48.030766],[39.64693,48.02601],[39.648335,48.023144],[39.65252,48.021797],[39.652866,48.02415]]],[[[39.620327,48.108704],[39.62013,48.10587],[39.61361,48.10432],[39.612057,48.105007],[39.60402,48.103485],[39.605335,48.0969],[39.606148,48.090233],[39.604645,48.08919],[39.602432,48.088467],[39.589848,48.09008],[39.5871,48.08465],[39.587906,48.081043],[39.59389,48.080925],[39.594627,48.078926],[39.596176,48.078472],[39.602528,48.078884],[39.613926,48.070705],[39.627125,48.061054],[39.6286,48.05879],[39.629417,48.056553],[39.62588,48.046696],[39.634872,48.04894],[39.64049,48.047924],[39.640793,48.03888],[39.64413,48.03884],[39.649002,48.04041],[39.657543,48.040268],[39.664112,48.04314],[39.664425,48.045635],[39.664906,48.047382],[39.66562,48.049988],[39.667236,48.052208],[39.66899,48.054005],[39.67197,48.055927],[39.673313,48.05668],[39.676228,48.05786],[39.697258,48.065544],[39.701534,48.067],[39.711704,48.07132],[39.72983,48.081635],[39.726574,48.08436],[39.73081,48.086372],[39.72682,48.087482],[39.723766,48.09066],[39.71095,48.0903],[39.707592,48.090168],[39.697224,48.090366],[39.68603,48.08855],[39.68011,48.08963],[39.67898,48.09034],[39.676888,48.090775],[39.672474,48.092533],[39.66723,48.09321],[39.665806,48.093372],[39.65825,48.09349],[39.656437,48.09605],[39.656853,48.097458],[39.653946,48.096786],[39.652637,48.09672],[39.651417,48.096878],[39.649944,48.09721],[39.648335,48.097813],[39.64675,48.098846],[39.645237,48.10015],[39.644283,48.101334],[39.643673,48.10233],[39.643574,48.103508],[39.644295,48.104458],[39.64283,48.105606],[39.64052,48.10484],[39.639637,48.104843],[39.638588,48.105076],[39.637573,48.10564],[39.636368,48.106937],[39.633194,48.107735],[39.62959,48.108196],[39.624443,48.10828],[39.62101,48.10839],[39.620327,48.108704]]]]}}
