{"type":"Feature","id":"relation/5675756","properties":{"type":"relation","id":5675756,"tags":{"FIXME":"ajouter les 12 arrondissements groupant les 55 secteurs","admin_level":"6","admin_type:BF":"commune urbaine à statut particulier","alt_name:de":"Wagadugu","alt_name:gl":"Ouagadougou","boundary":"administrative","capital":"2","is_in":"Kadiogo;Centre;Burkina Faso;Africa","is_in:continent":"Africa","is_in:country":"Burkina Faso","is_in:country_code":"BF","is_in:province":"Kadiogo","is_in:province_code":"11","is_in:region":"Centre","is_in:region_code":"11","name":"Ouagadougou","name:af":"Ouagadougou","name:am":"ዋጋዱጉ","name:an":"Ouagadougou","name:ar":"واغادوغو","name:az":"Uaqaduqu","name:be":"Уагадугу","name:be-tarask":"Уагадугу","name:bg":"Уагадугу","name:bo":"ཨོ་འ་ག་དོའུ་གོའུ།","name:br":"Ouagadougou","name:bs":"Ouagadougou","name:ca":"Ouagadougou","name:ceb":"Ouagadougou","name:ckb":"ئۆئاگادۆگۆ","name:cs":"Ouagadougou","name:cv":"Уагадугу","name:cy":"Ouagadougou","name:da":"Ouagadougou","name:de":"Ouagadougou","name:el":"Ουαγκαντουγκού","name:en":"Ouagadougou","name:eo":"Uagaduguo","name:es":"Uagadugú","name:et":"Ouagadougou","name:eu":"Uagadugu","name:fa":"اوآگادوگو","name:fi":"Ouagadougou","name:fr":"Ouagadougou","name:frp":"Ouagadougou","name:fy":"Ouagadougou","name:ga":"Ouagadougou","name:gd":"Ouagadougou","name:gl":"Uagadugú","name:he":"ואגאדוגו","name:hif":"Ouagadougou","name:hr":"Ouagadougou","name:hsb":"Ouagadougou","name:ht":"Ouagadougou","name:hu":"Ouagadougou","name:hy":"Ուագադուգու","name:is":"Ouagadougou","name:it":"Ouagadougou","name:ja":"ワガドゥグー","name:jv":"Ouagadougou","name:ka":"უაგადუგუ","name:kab":"Wagadugu","name:ko":"와가두구","name:kw":"Ouagadougou","name:ky":"Уагадугу","name:la":"Uagadugum","name:lb":"Ouagadougou","name:lij":"Ouagadougou","name:lmo":"Ouagadougou","name:lt":"Uagadugu","name:lv":"Vagadugu","name:mg":"Ouagadougou","name:mk":"Уагадугу","name:mr":"वागाडुगू","name:mrj":"Уагадугу","name:ms":"Ouagadougou","name:na":"Ouagadougou","name:nah":"Huagadugu","name:nan":"Ouagadougou","name:nb":"Ouagadougou","name:nl":"Ouagadougou","name:nn":"Ouagadougou","name:nov":"Uagadugu","name:oc":"Ouagadougou","name:pl":"Wagadugu","name:pms":"Ouagadougou","name:pnb":"اوگاڈوگو","name:pt":"Ouagadougou","name:ro":"Ouagadougou","name:ru":"Уагадугу","name:rw":"Wagadugu","name:scn":"Ouagadougou","name:sco":"Ouagadougou","name:sh":"Ouagadougou","name:sk":"Ouagadougou","name:sl":"Ouagadougou","name:sn":"Ouagadougou","name:so":"Ougadougou","name:sq":"Ouagadougou","name:sr":"Уагадугу","name:sv":"Ouagadougou","name:sw":"Wagadugu","name:ta":"வாகடூகு","name:tg":"Уагадугу","name:th":"วากาดูกู","name:tl":"Ouagadougou","name:tr":"Ouagadougou","name:udm":"Уагадугу","name:uk":"Уагадугу","name:ur":"اواگادوگو","name:uz":"Uagadugu","name:vec":"Ouagadougou","name:vep":"Uagadugu","name:vi":"Ouagadougou","name:vo":"Ouagadougou","name:war":"Ouagadougou","name:yi":"וואגאדוגו","name:yo":"Ouagadougou","name:zh":"瓦加杜古","name:zh-hant":"烏格都古","official_name":"Département de Ouagadougou","old_name":"Wagadugu","place":"department","population":"1915102","population:date":"2012","short_name":"Ouaga","type":"boundary","wikidata":"Q3357901","wikipedia":"fr:Ouagadougou (département)"},"labels":[{"id":"node/27565002","role":"admin_centre","coordinates":[-1.5270851,12.368148]}]},"geometry":{"type":"Polygon","coordinates":[[[-1.4467905,12.263512],[-1.4458749,12.266246],[-1.4454122,12.286136],[-1.4423981,12.311486],[-1.4354242,12.310689],[-1.4316193,12.3104315],[-1.4270669,12.310382],[-1.4272381,12.312325],[-1.4272419,12.317281],[-1.4262763,12.32248],[-1.4251605,12.325604],[-1.42412,12.327465],[-1.4234171,12.328482],[-1.4223549,12.330976],[-1.4218829,12.331845],[-1.4191309,12.334733],[-1.4155205,12.337951],[-1.4121356,12.340246],[-1.4081017,12.343852],[-1.4075867,12.346451],[-1.4087453,12.349092],[-1.4113632,12.351858],[-1.4124253,12.3531275],[-1.4130208,12.359544],[-1.4130048,12.361349],[-1.4129646,12.362837],[-1.4130329,12.363945],[-1.4137946,12.364972],[-1.414299,12.36565],[-1.4154034,12.367086],[-1.4154758,12.3671875],[-1.4155166,12.367239],[-1.4155697,12.367291],[-1.4160001,12.367757],[-1.4160597,12.367849],[-1.416434,12.368616],[-1.416729,12.369218],[-1.418201,12.371729],[-1.4189178,12.372477],[-1.4193478,12.372925],[-1.4196416,12.37328],[-1.420001,12.373686],[-1.4205005,12.374295],[-1.4216552,12.376135],[-1.4219402,12.376593],[-1.4222715,12.377126],[-1.4226034,12.377668],[-1.423746,12.379502],[-1.4245286,12.380787],[-1.4252856,12.3820305],[-1.4254237,12.382284],[-1.425883,12.383087],[-1.4262854,12.383867],[-1.426583,12.384371],[-1.4268004,12.384661],[-1.4271196,12.38495],[-1.4276855,12.385338],[-1.428297,12.385668],[-1.4289354,12.385992],[-1.429488,12.386283],[-1.4301076,12.386596],[-1.4306172,12.386854],[-1.4314781,12.387263],[-1.4331894,12.388114],[-1.4339403,12.388487],[-1.4345492,12.388764],[-1.4358126,12.38937],[-1.4367782,12.389833],[-1.4383768,12.3906765],[-1.438995,12.39105],[-1.4394591,12.391406],[-1.439911,12.391996],[-1.4404541,12.392615],[-1.4411435,12.393373],[-1.4415405,12.393829],[-1.442439,12.394808],[-1.4428132,12.395281],[-1.4429862,12.3956585],[-1.4432799,12.396767],[-1.4441676,12.399359],[-1.4443092,12.399662],[-1.4449737,12.39936],[-1.445596,12.3991],[-1.4455436,12.399262],[-1.445447,12.399524],[-1.4453733,12.399875],[-1.4453546,12.400063],[-1.4453613,12.400272],[-1.4454095,12.400523],[-1.4454699,12.400674],[-1.4455503,12.400812],[-1.4456147,12.4009075],[-1.4456375,12.401021],[-1.4456402,12.40117],[-1.4455583,12.401775],[-1.4454403,12.4021015],[-1.4453036,12.402406],[-1.444987,12.402758],[-1.4447939,12.402848],[-1.4439906,12.4027815],[-1.4437037,12.4027815],[-1.4434013,12.4029045],[-1.4432229,12.403065],[-1.443149,12.403221],[-1.443127,12.403467],[-1.4430854,12.403679],[-1.4429828,12.40387],[-1.4429096,12.404031],[-1.4428916,12.404181],[-1.4429955,12.4044695],[-1.4430157,12.404759],[-1.4430968,12.405002],[-1.4432806,12.40514],[-1.4433287,12.40529],[-1.443261,12.405453],[-1.4429874,12.405795],[-1.4428989,12.406026],[-1.4428614,12.406306],[-1.4428506,12.406698],[-1.4427568,12.407284],[-1.4428185,12.407617],[-1.442891,12.407776],[-1.4428803,12.4079485],[-1.4428132,12.408043],[-1.442789,12.408179],[-1.4429163,12.408275],[-1.4428803,12.408481],[-1.4430692,12.409174],[-1.4430947,12.409508],[-1.443009,12.410392],[-1.443143,12.410967],[-1.4432878,12.4112],[-1.4432383,12.411661],[-1.4433012,12.411964],[-1.4431618,12.412288],[-1.4431108,12.4126],[-1.4432973,12.412928],[-1.4434046,12.413191],[-1.4433535,12.413308],[-1.4431337,12.413411],[-1.4430506,12.413541],[-1.4430908,12.4137335],[-1.4434528,12.414147],[-1.4434931,12.414285],[-1.4435037,12.414552],[-1.4434246,12.414709],[-1.4432155,12.414777],[-1.4430734,12.414937],[-1.4431471,12.415095],[-1.4433389,12.415303],[-1.4436232,12.415557],[-1.443827,12.41581],[-1.4442092,12.416923],[-1.4441757,12.417122],[-1.4438298,12.41741],[-1.4437358,12.417661],[-1.4434676,12.41802],[-1.4434569,12.418279],[-1.4433872,12.4185095],[-1.4431511,12.41865],[-1.4428856,12.418366],[-1.4427434,12.418413],[-1.4426575,12.418536],[-1.4426603,12.4187565],[-1.4427139,12.418968],[-1.442805,12.419099],[-1.4427272,12.419202],[-1.4425557,12.419249],[-1.4423357,12.419186],[-1.4422606,12.419552],[-1.442046,12.4196825],[-1.4415499,12.419667],[-1.4413809,12.419598],[-1.4412708,12.419649],[-1.4410322,12.419726],[-1.4409665,12.419673],[-1.440662,12.419552],[-1.4405065,12.419592],[-1.4400799,12.419932],[-1.4395971,12.420119],[-1.4393986,12.420158],[-1.4391922,12.419883],[-1.4391801,12.419756],[-1.4390688,12.419738],[-1.4388489,12.420149],[-1.4386691,12.420353],[-1.4384412,12.420448],[-1.438366,12.420903],[-1.4384464,12.421059],[-1.4380844,12.421178],[-1.4377867,12.421464],[-1.4366977,12.422148],[-1.436357,12.422769],[-1.4362203,12.423277],[-1.4358877,12.423316],[-1.435319,12.423622],[-1.4351045,12.423882],[-1.4349784,12.423871],[-1.4349194,12.42375],[-1.4347852,12.423657],[-1.4347639,12.424087],[-1.43456,12.424167],[-1.4341496,12.424162],[-1.4339403,12.42491],[-1.4338518,12.424955],[-1.4333798,12.4254265],[-1.4330338,12.426163],[-1.432492,12.426553],[-1.4321138,12.426698],[-1.4316926,12.4269285],[-1.4319046,12.427575],[-1.4311804,12.429319],[-1.4297642,12.430933],[-1.4286376,12.430451],[-1.4278356,12.429668],[-1.4273742,12.430229],[-1.4266126,12.430053],[-1.4252528,12.429935],[-1.42514,12.429975],[-1.4250087,12.430189],[-1.4249067,12.430285],[-1.424743,12.430204],[-1.4247136,12.430077],[-1.4245259,12.430024],[-1.4244052,12.430072],[-1.4242417,12.43042],[-1.4240994,12.430501],[-1.4238982,12.430477],[-1.4240671,12.431281],[-1.4239787,12.431504],[-1.4236354,12.431614],[-1.4233295,12.431956],[-1.4227931,12.431902],[-1.4224203,12.432096],[-1.4221252,12.432484],[-1.4219644,12.4328165],[-1.4221977,12.433078],[-1.4222487,12.43329],[-1.4219106,12.433534],[-1.4215459,12.433618],[-1.4212776,12.433885],[-1.4211837,12.43421],[-1.4208512,12.434505],[-1.4204462,12.434519],[-1.4200305,12.43446],[-1.4197946,12.434691],[-1.4196148,12.434964],[-1.4195906,12.435252],[-1.4194376,12.435354],[-1.4191132,12.435334],[-1.4187403,12.435519],[-1.4184399,12.435533],[-1.4180751,12.435885],[-1.4175011,12.453065],[-1.4177355,12.4679],[-1.4230399,12.467569],[-1.4321282,12.468865],[-1.4354638,12.467152],[-1.44278,12.465839],[-1.4473599,12.465859],[-1.44942,12.4655],[-1.4511,12.4667],[-1.45194,12.46754],[-1.45287,12.4687395],[-1.45453,12.47233],[-1.4559,12.4785795],[-1.4574499,12.48512],[-1.4586393,12.488829],[-1.458701,12.489006],[-1.4587855,12.489068],[-1.4588124,12.489153],[-1.4588379,12.489261],[-1.4588366,12.489371],[-1.4588445,12.489426],[-1.4588795,12.489512],[-1.4588795,12.489567],[-1.4590458,12.489926],[-1.4593062,12.491113],[-1.4622617,12.490557],[-1.4654052,12.489908],[-1.468644,12.488854],[-1.4699677,12.487972],[-1.4707241,12.48748],[-1.4707831,12.487122],[-1.4707885,12.486784],[-1.4708756,12.486574],[-1.4713129,12.486228],[-1.471396,12.486152],[-1.4715354,12.486107],[-1.4716936,12.486186],[-1.4718735,12.486199],[-1.47208,12.48618],[-1.4722731,12.48627],[-1.4723965,12.486288],[-1.4725493,12.486238],[-1.4726137,12.486165],[-1.4725977,12.48605],[-1.4724822,12.485843],[-1.4724448,12.485704],[-1.4724822,12.485616],[-1.4727063,12.485588],[-1.472843,12.48556],[-1.472941,12.485495],[-1.4730241,12.485369],[-1.4731019,12.485287],[-1.4731663,12.48525],[-1.4732761,12.485259],[-1.4733862,12.485291],[-1.4735216,12.485385],[-1.4736342,12.485494],[-1.4736758,12.485513],[-1.4737617,12.485498],[-1.4739467,12.485392],[-1.4740206,12.485314],[-1.4740729,12.485232],[-1.4741465,12.485077],[-1.4741465,12.485014],[-1.4741144,12.484949],[-1.4739857,12.484878],[-1.4739146,12.484799],[-1.4739133,12.484693],[-1.4739374,12.484499],[-1.4739857,12.484381],[-1.4740835,12.484314],[-1.4741575,12.4843025],[-1.4742553,12.4843445],[-1.4743397,12.484349],[-1.4743932,12.484364],[-1.4744416,12.484346],[-1.4745624,12.48425],[-1.4745824,12.484203],[-1.4745785,12.4841],[-1.4746293,12.483973],[-1.4746388,12.48392],[-1.4747983,12.48372],[-1.4750438,12.483413],[-1.4751109,12.483261],[-1.4751592,12.483095],[-1.4752073,12.483062],[-1.4752517,12.4830475],[-1.4754074,12.4830885],[-1.4754608,12.4830885],[-1.4756353,12.483025],[-1.4757318,12.482961],[-1.4758109,12.4828825],[-1.4758685,12.482767],[-1.4759263,12.482698],[-1.4760334,12.4826975],[-1.4762051,12.482684],[-1.4764103,12.482691],[-1.4766277,12.482733],[-1.4766718,12.482773],[-1.4767604,12.482806],[-1.4768126,12.482805],[-1.4769146,12.482778],[-1.4769818,12.482711],[-1.4770246,12.482702],[-1.4771184,12.482754],[-1.4772016,12.482783],[-1.4772445,12.482818],[-1.4773196,12.482854],[-1.4773277,12.482948],[-1.477376,12.483023],[-1.477447,12.483147],[-1.4775544,12.483285],[-1.4776638,12.483342],[-1.4777106,12.4834],[-1.4777293,12.48346],[-1.4777447,12.483487],[-1.4778205,12.483506],[-1.4779226,12.4835005],[-1.4780364,12.483503],[-1.4781646,12.48357],[-1.4783227,12.483655],[-1.4784045,12.483682],[-1.478457,12.483665],[-1.4785863,12.483526],[-1.4786379,12.483482],[-1.4786781,12.48342],[-1.478697,12.483339],[-1.478681,12.483289],[-1.478642,12.483259],[-1.4786333,12.483223],[-1.4786983,12.483118],[-1.478758,12.482984],[-1.4787813,12.4829235],[-1.4787922,12.482881],[-1.4787881,12.482834],[-1.4788164,12.482763],[-1.478874,12.4827175],[-1.4789356,12.482675],[-1.4789894,12.4826145],[-1.4790055,12.482504],[-1.4790295,12.482416],[-1.4790685,12.482349],[-1.4790819,12.482258],[-1.4790685,12.4822],[-1.4790698,12.482151],[-1.4791033,12.482115],[-1.4791716,12.482108],[-1.4792213,12.482129],[-1.4792991,12.482137],[-1.4794319,12.482104],[-1.4795077,12.4821],[-1.4795793,12.482079],[-1.4796445,12.482014],[-1.4797001,12.481979],[-1.4798489,12.481983],[-1.47992,12.482025],[-1.4799669,12.482066],[-1.4799911,12.482104],[-1.4800059,12.482179],[-1.4800528,12.482278],[-1.4801172,12.4823265],[-1.4801722,12.482382],[-1.4802084,12.482451],[-1.4802259,12.482576],[-1.4802445,12.48266],[-1.4802902,12.482718],[-1.4803734,12.482778],[-1.4804015,12.482819],[-1.480462,12.48282],[-1.4805114,12.482811],[-1.4807891,12.482749],[-1.4811122,12.482667],[-1.4815065,12.482524],[-1.48174,12.482333],[-1.4818956,12.482202],[-1.482078,12.482009],[-1.4821355,12.481752],[-1.4821074,12.481643],[-1.4820645,12.481528],[-1.482078,12.481426],[-1.4822,12.481332],[-1.4823247,12.481321],[-1.4824976,12.481236],[-1.4826385,12.481086],[-1.4827887,12.480849],[-1.4829926,12.480811],[-1.4833546,12.480882],[-1.483639,12.480787],[-1.4840064,12.480331],[-1.4843966,12.480225],[-1.4848795,12.479816],[-1.4852738,12.479261],[-1.4854857,12.479074],[-1.4858397,12.478905],[-1.4859416,12.478579],[-1.4859898,12.478379],[-1.4859846,12.478079],[-1.486041,12.477998],[-1.4861294,12.477945],[-1.4864043,12.47789],[-1.4866269,12.477867],[-1.4867382,12.477821],[-1.4867623,12.477773],[-1.486726,12.477702],[-1.4866363,12.477576],[-1.4866015,12.477471],[-1.4866993,12.477232],[-1.4867691,12.477107],[-1.4868977,12.477055],[-1.4869837,12.477097],[-1.4870977,12.477088],[-1.48717,12.476999],[-1.4871742,12.4769125],[-1.4871446,12.476863],[-1.4871459,12.476815],[-1.4871916,12.47672],[-1.4872706,12.476645],[-1.4874114,12.4766655],[-1.4876448,12.476833],[-1.4877588,12.476979],[-1.4877917,12.477121],[-1.4878452,12.47714],[-1.4879781,12.477037],[-1.4880418,12.476897],[-1.4881115,12.476815],[-1.4882175,12.476779],[-1.4884454,12.476794],[-1.4885218,12.476886],[-1.4885675,12.477013],[-1.4885433,12.477149],[-1.4885902,12.477385],[-1.4887593,12.477763],[-1.4888318,12.477862],[-1.4889551,12.477965],[-1.4889979,12.478064],[-1.4890423,12.478248],[-1.4891226,12.478308],[-1.4893157,12.478361],[-1.4893748,12.478413],[-1.4894071,12.478514],[-1.4894981,12.478592],[-1.4896498,12.47861],[-1.4897866,12.4786],[-1.4899126,12.478427],[-1.4900053,12.478317],[-1.4901809,12.478267],[-1.4903377,12.478298],[-1.490492,12.478259],[-1.4906797,12.47823],[-1.4910042,12.47788],[-1.4911371,12.477652],[-1.4911827,12.477537],[-1.4911907,12.477335],[-1.4912417,12.477217],[-1.4913033,12.477163],[-1.4913731,12.477146],[-1.4915394,12.477175],[-1.4916171,12.477151],[-1.4916694,12.47711],[-1.4916868,12.477046],[-1.4916774,12.476914],[-1.4916359,12.476789],[-1.4916285,12.476722],[-1.4916748,12.476571],[-1.4917177,12.476544],[-1.4917713,12.476545],[-1.4918425,12.476571],[-1.4918773,12.476611],[-1.4919001,12.476667],[-1.4918786,12.47676],[-1.4918921,12.476804],[-1.4919276,12.476834],[-1.4920651,12.476832],[-1.4921248,12.476821],[-1.492155,12.476803],[-1.4922018,12.476734],[-1.4922173,12.476638],[-1.492224,12.476531],[-1.4924104,12.476221],[-1.49245,12.476194],[-1.4924788,12.476203],[-1.4925137,12.476251],[-1.492586,12.476288],[-1.4926927,12.476298],[-1.4927993,12.47629],[-1.4929053,12.476272],[-1.4929804,12.476226],[-1.4930373,12.476156],[-1.4930869,12.476063],[-1.4931333,12.475954],[-1.4931587,12.475849],[-1.4932024,12.475764],[-1.4932165,12.475653],[-1.4931735,12.475599],[-1.4931648,12.475557],[-1.4932112,12.475444],[-1.493303,12.475355],[-1.4933459,12.475327],[-1.4934276,12.475301],[-1.493543,12.4752445],[-1.493655,12.475118],[-1.4937462,12.475012],[-1.4938366,12.474875],[-1.4938681,12.474815],[-1.4939708,12.474745],[-1.4940418,12.474731],[-1.4941357,12.474726],[-1.4942071,12.474755],[-1.494231,12.474759],[-1.494338,12.474713],[-1.4945068,12.474611],[-1.4947107,12.474556],[-1.4948113,12.474596],[-1.4948944,12.474592],[-1.4949306,12.474554],[-1.4950758,12.474431],[-1.4951668,12.474453],[-1.4952445,12.474451],[-1.4953344,12.474485],[-1.4954041,12.474558],[-1.4954389,12.474658],[-1.495435,12.474816],[-1.4954524,12.474903],[-1.4955235,12.475005],[-1.4955503,12.475107],[-1.4955395,12.475194],[-1.4955462,12.475261],[-1.4956816,12.475397],[-1.4957608,12.475379],[-1.4958427,12.475397],[-1.4959139,12.475498],[-1.4959627,12.475586],[-1.495976,12.475638],[-1.4959607,12.475678],[-1.4958923,12.475726],[-1.4957983,12.4757395],[-1.4957608,12.475762],[-1.4957118,12.475833],[-1.4957105,12.475871],[-1.4957247,12.475902],[-1.4958225,12.475995],[-1.4958574,12.476007],[-1.4959627,12.475989],[-1.496184,12.475929],[-1.4962342,12.4759035],[-1.4964447,12.475739],[-1.496599,12.475747],[-1.4968002,12.4758],[-1.4969476,12.475795],[-1.4970804,12.475771],[-1.4971704,12.475688],[-1.4971837,12.475564],[-1.4971837,12.4754],[-1.4972239,12.475049],[-1.4972118,12.474957],[-1.4971408,12.474829],[-1.4971342,12.474615],[-1.4971907,12.47454],[-1.4973313,12.474494],[-1.4975181,12.474487],[-1.4976518,12.474525],[-1.4977541,12.474509],[-1.4980876,12.474394],[-1.4982382,12.474401],[-1.4984193,12.474414],[-1.4985667,12.474378],[-1.498671,12.474297],[-1.498741,12.474182],[-1.4987545,12.474003],[-1.4988054,12.473914],[-1.4991997,12.473739],[-1.4998434,12.47376],[-1.5004336,12.473833],[-1.5006132,12.473788],[-1.5007769,12.473702],[-1.5009485,12.4734955],[-1.5009297,12.473398],[-1.5008038,12.473286],[-1.5008171,12.473178],[-1.5010303,12.473053],[-1.5011739,12.473031],[-1.5012652,12.473098],[-1.5013133,12.473293],[-1.5015172,12.4734535],[-1.5019624,12.4732275],[-1.5022695,12.473007],[-1.5024261,12.47296],[-1.5027171,12.472737],[-1.5029199,12.472677],[-1.5030109,12.472693],[-1.5032401,12.4728775],[-1.5035594,12.473022],[-1.5040636,12.472943],[-1.5045973,12.47309],[-1.5050738,12.4730215],[-1.5065382,12.473848],[-1.507579,12.474183],[-1.5085338,12.473964],[-1.5099608,12.472392],[-1.5125786,12.471543],[-1.5141611,12.47124],[-1.5149819,12.4709],[-1.515808,12.470203],[-1.5164285,12.469567],[-1.5175139,12.468579],[-1.5180047,12.467825],[-1.5188066,12.467249],[-1.5192171,12.4670515],[-1.5194155,12.466844],[-1.5195684,12.466513],[-1.519618,12.466361],[-1.5196476,12.466288],[-1.5196381,12.466193],[-1.5195764,12.466125],[-1.5194438,12.466055],[-1.5193955,12.465997],[-1.5193981,12.465932],[-1.5194329,12.465836],[-1.5194666,12.465693],[-1.5195107,12.46559],[-1.519594,12.4655],[-1.519736,12.465485],[-1.5199037,12.465562],[-1.5200057,12.465533],[-1.5200512,12.465431],[-1.5200379,12.465336],[-1.5199211,12.465125],[-1.5198528,12.464943],[-1.5197817,12.464753],[-1.51983,12.46457],[-1.5198393,12.464385],[-1.5199051,12.464303],[-1.5203167,12.464087],[-1.5204322,12.463896],[-1.5205407,12.463309],[-1.5207756,12.462956],[-1.5212367,12.462727],[-1.5215157,12.462609],[-1.5217947,12.462357],[-1.52213,12.462053],[-1.5221634,12.461839],[-1.5221245,12.461645],[-1.5221313,12.461339],[-1.5221742,12.461289],[-1.5222479,12.461256],[-1.5227362,12.461296],[-1.5234255,12.461107],[-1.523793,12.460888],[-1.5241953,12.460707],[-1.5245574,12.460524],[-1.5249275,12.460429],[-1.5254854,12.460303],[-1.5258662,12.460275],[-1.5261533,12.459993],[-1.5263008,12.459766],[-1.5267059,12.459625],[-1.5271913,12.45946],[-1.5275507,12.459282],[-1.5278056,12.459101],[-1.5280871,12.45907],[-1.5283957,12.459354],[-1.5285834,12.45939],[-1.5288944,12.459177],[-1.529498,12.458625],[-1.5296975,12.4585705],[-1.5298988,12.458445],[-1.530655,12.458123],[-1.5322123,12.457732],[-1.5332218,12.458068],[-1.5340213,12.458026],[-1.5377227,12.458455],[-1.5397826,12.4585705],[-1.5421321,12.458251],[-1.5437844,12.457638],[-1.5444121,12.457649],[-1.5453186,12.457518],[-1.5459677,12.45757],[-1.5476898,12.457649],[-1.5481377,12.457656],[-1.5483764,12.458015],[-1.5485535,12.458035],[-1.548996,12.45781],[-1.5494599,12.457832],[-1.5498408,12.458077],[-1.5502808,12.458115],[-1.551005,12.4579935],[-1.5515467,12.457881],[-1.5518955,12.457753],[-1.5524962,12.457251],[-1.5528073,12.456975],[-1.5530487,12.456876],[-1.553375,12.456825],[-1.5536832,12.456921],[-1.5542008,12.457158],[-1.5546782,12.457245],[-1.5551435,12.457261],[-1.5559067,12.457141],[-1.5568079,12.456939],[-1.5586332,12.45625],[-1.5599059,12.45547],[-1.5610434,12.454709],[-1.5611451,12.45464],[-1.5613356,12.454612],[-1.5614522,12.454636],[-1.5615823,12.454689],[-1.5620061,12.454728],[-1.5622045,12.454754],[-1.5625023,12.454735],[-1.5626149,12.454739],[-1.5628294,12.454783],[-1.5629569,12.454783],[-1.5630857,12.454822],[-1.5631353,12.45482],[-1.563319,12.454752],[-1.5633913,12.4547],[-1.5635027,12.454671],[-1.5637387,12.454644],[-1.5638312,12.454617],[-1.5639211,12.45456],[-1.5640337,12.454522],[-1.5641437,12.454522],[-1.5643502,12.4545965],[-1.5645393,12.454602],[-1.5646749,12.454589],[-1.5649323,12.4545555],[-1.5650852,12.454575],[-1.5652555,12.4546175],[-1.5652997,12.454671],[-1.5654178,12.4547415],[-1.5654969,12.454854],[-1.5655974,12.454906],[-1.5656512,12.454893],[-1.5657396,12.454838],[-1.5658388,12.454752],[-1.5659355,12.454674],[-1.5660977,12.454631],[-1.5664853,12.454588],[-1.5666986,12.454564],[-1.5668381,12.454588],[-1.5669895,12.454633],[-1.5671155,12.454665],[-1.5671961,12.454663],[-1.5675033,12.454611],[-1.5677191,12.454569],[-1.5677835,12.454561],[-1.5679096,12.454609],[-1.5679686,12.45468],[-1.5680678,12.454922],[-1.5680544,12.455048],[-1.568029,12.455113],[-1.5680476,12.455159],[-1.5680933,12.455202],[-1.5681885,12.45526],[-1.5683146,12.455358],[-1.5683938,12.455402],[-1.5684862,12.4555],[-1.5685748,12.455518],[-1.5686444,12.455488],[-1.568725,12.455423],[-1.5687557,12.455331],[-1.5688484,12.4551525],[-1.569087,12.45486],[-1.5696181,12.454597],[-1.5699307,12.454793],[-1.5702633,12.454808],[-1.5705662,12.45491],[-1.5707783,12.454771],[-1.5710196,12.45474],[-1.5714729,12.454586],[-1.5716982,12.454606],[-1.5719343,12.454471],[-1.5721072,12.454404],[-1.5722024,12.454331],[-1.5723822,12.454161],[-1.5725619,12.454011],[-1.5729052,12.453869],[-1.5731949,12.453855],[-1.5734147,12.453824],[-1.5735046,12.453859],[-1.5735731,12.453946],[-1.5736616,12.454075],[-1.5738118,12.454132],[-1.5739431,12.454155],[-1.5741068,12.454245],[-1.5742073,12.454255],[-1.5743979,12.454212],[-1.5746325,12.454147],[-1.5747238,12.454156],[-1.5748484,12.454217],[-1.5750443,12.454273],[-1.575118,12.454239],[-1.5751729,12.454249],[-1.5752172,12.454313],[-1.575287,12.454349],[-1.575417,12.454342],[-1.576042,12.454528],[-1.5765624,12.45491],[-1.578696,12.456418],[-1.5894141,12.457738],[-1.5917463,12.458275],[-1.5919957,12.458348],[-1.5921917,12.458531],[-1.5922989,12.458659],[-1.5923995,12.458702],[-1.5924652,12.458679],[-1.5925162,12.45864],[-1.5925564,12.458567],[-1.592594,12.458543],[-1.5927508,12.458547],[-1.5928783,12.4585085],[-1.592964,12.458447],[-1.59307,12.458403],[-1.593172,12.458363],[-1.5933704,12.458424],[-1.5936239,12.458574],[-1.5937191,12.458673],[-1.5938104,12.458776],[-1.5938599,12.458856],[-1.5940208,12.459011],[-1.5941912,12.459181],[-1.5942543,12.459218],[-1.5943803,12.459214],[-1.5945036,12.45923],[-1.5947866,12.459458],[-1.5948403,12.459504],[-1.5948765,12.459596],[-1.5949302,12.45964],[-1.5952293,12.459772],[-1.5953606,12.459847],[-1.5954102,12.459912],[-1.595527,12.459974],[-1.5957308,12.459901],[-1.5957657,12.460016],[-1.5959857,12.460095],[-1.5960916,12.460092],[-1.5962082,12.460069],[-1.5963235,12.460003],[-1.5964603,12.459917],[-1.5965676,12.459914],[-1.5967097,12.459979],[-1.5967942,12.459991],[-1.5968869,12.459983],[-1.59699,12.459915],[-1.5971283,12.459882],[-1.5973053,12.4598875],[-1.5974729,12.459909],[-1.5978832,12.459862],[-1.5981368,12.459838],[-1.5983446,12.459796],[-1.5985458,12.45966],[-1.5986664,12.459646],[-1.5987926,12.459675],[-1.5989227,12.45974],[-1.5990258,12.459827],[-1.5990849,12.459903],[-1.5991505,12.459919],[-1.5992203,12.460045],[-1.5992754,12.460096],[-1.5995194,12.4601],[-1.5997165,12.460143],[-1.599789,12.460256],[-1.5998393,12.460488],[-1.5998333,12.460558],[-1.5998573,12.460664],[-1.5998888,12.460704],[-1.5999002,12.460763],[-1.6000304,12.460823],[-1.6000665,12.460819],[-1.6001577,12.460802],[-1.6002735,12.460836],[-1.6004099,12.460966],[-1.6004864,12.460989],[-1.6005574,12.46099],[-1.6006398,12.460954],[-1.6007472,12.460918],[-1.6008564,12.460906],[-1.6010321,12.460917],[-1.6011771,12.460868],[-1.6012267,12.460818],[-1.6012487,12.460761],[-1.6012661,12.460687],[-1.6013433,12.460636],[-1.6014224,12.4606285],[-1.6014721,12.460643],[-1.6015083,12.460673],[-1.6016872,12.460665],[-1.6017067,12.460654],[-1.6016847,12.460586],[-1.6017008,12.460556],[-1.6018583,12.460547],[-1.6022291,12.460636],[-1.602441,12.46073],[-1.6026574,12.460712],[-1.6028808,12.460683],[-1.6029902,12.46064],[-1.6031088,12.460585],[-1.6031357,12.460462],[-1.6031638,12.460417],[-1.6033664,12.460352],[-1.6034622,12.460262],[-1.6035662,12.460213],[-1.6036427,12.460211],[-1.6037378,12.460257],[-1.6039283,12.460501],[-1.6040343,12.460542],[-1.6042608,12.460581],[-1.6044527,12.460582],[-1.6045922,12.460533],[-1.6046981,12.46052],[-1.6048107,12.460556],[-1.6048765,12.460704],[-1.6051246,12.460761],[-1.6051608,12.460817],[-1.605219,12.460833],[-1.6052747,12.460833],[-1.6053486,12.460797],[-1.605425,12.46075],[-1.6054215,12.460692],[-1.6053873,12.460655],[-1.6053834,12.460619],[-1.6054022,12.460593],[-1.6054772,12.4605255],[-1.6054779,12.460506],[-1.6054411,12.460471],[-1.6054438,12.460422],[-1.6055444,12.460345],[-1.6055967,12.460264],[-1.605767,12.460169],[-1.6059774,12.4601965],[-1.6062014,12.460246],[-1.6063476,12.460382],[-1.606404,12.460391],[-1.6064698,12.460336],[-1.6064925,12.460258],[-1.606628,12.460125],[-1.60677,12.460057],[-1.6068499,12.459957],[-1.6070054,12.4599],[-1.6072147,12.459858],[-1.6074628,12.459843],[-1.6079093,12.459802],[-1.6080582,12.459761],[-1.608187,12.459704],[-1.6083814,12.459538],[-1.608427,12.459452],[-1.6085396,12.459403],[-1.6087784,12.459397],[-1.6089917,12.459353],[-1.6093538,12.459385],[-1.6095066,12.459482],[-1.6096944,12.459704],[-1.6098795,12.459796],[-1.6100055,12.459835],[-1.6101638,12.459904],[-1.610275,12.45989],[-1.610381,12.459802],[-1.6104763,12.459796],[-1.6105405,12.459777],[-1.6106359,12.459783],[-1.6108022,12.459754],[-1.6110059,12.459697],[-1.6111509,12.459562],[-1.6111709,12.459497],[-1.6111951,12.459289],[-1.6112299,12.459208],[-1.6112742,12.459172],[-1.611403,12.459107],[-1.6114043,12.459018],[-1.6114687,12.4589615],[-1.6116377,12.458895],[-1.6117314,12.458762],[-1.6118172,12.458687],[-1.6118925,12.458689],[-1.6119609,12.458668],[-1.6120064,12.458626],[-1.6120734,12.458532],[-1.6121365,12.458514],[-1.612276,12.458542],[-1.6125094,12.45847],[-1.6126032,12.458506],[-1.6126328,12.4586],[-1.6126757,12.458668],[-1.6127574,12.458721],[-1.6128527,12.458752],[-1.6130297,12.458762],[-1.6131182,12.458746],[-1.6131718,12.458708],[-1.6132443,12.458687],[-1.61344,12.458653],[-1.6135662,12.458645],[-1.6136212,12.45866],[-1.6136546,12.458655],[-1.6137297,12.458581],[-1.613774,12.458561],[-1.6139202,12.458547],[-1.6139873,12.4585705],[-1.6140879,12.458603],[-1.6142836,12.4587],[-1.6144714,12.4587965],[-1.6145412,12.458881],[-1.6146135,12.458885],[-1.6146644,12.458853],[-1.6147128,12.458755],[-1.6148107,12.458655],[-1.614871,12.458561],[-1.6148844,12.458496],[-1.6149461,12.458423],[-1.6150534,12.458402],[-1.6151378,12.458374],[-1.6153619,12.458369],[-1.6154222,12.458472],[-1.6154114,12.458544],[-1.6154356,12.458593],[-1.6154865,12.458627],[-1.6156248,12.458553],[-1.6156476,12.458393],[-1.6157683,12.458293],[-1.6159397,12.458286],[-1.6162149,12.458316],[-1.616605,12.458429],[-1.6167339,12.458461],[-1.6168599,12.458432],[-1.6170878,12.458395],[-1.6172031,12.458286],[-1.6172569,12.458274],[-1.6174996,12.458351],[-1.6176189,12.458349],[-1.6176873,12.458295],[-1.6180978,12.458379],[-1.6183338,12.458429],[-1.6185578,12.458415],[-1.618779,12.458435],[-1.6190956,12.458192],[-1.6192698,12.458135],[-1.619463,12.458139],[-1.6196694,12.45825],[-1.6198438,12.458388],[-1.6198518,12.458556],[-1.6198921,12.458639],[-1.6201657,12.458729],[-1.6204916,12.458848],[-1.6207196,12.45904],[-1.6209047,12.459118],[-1.6209556,12.459093],[-1.6209946,12.459011],[-1.6211877,12.458863],[-1.6212721,12.458871],[-1.6213753,12.458952],[-1.6214504,12.459034],[-1.6214465,12.459109],[-1.6213686,12.459192],[-1.6213605,12.459248],[-1.6215417,12.4594145],[-1.621873,12.459645],[-1.6220192,12.459764],[-1.6220459,12.459848],[-1.6221681,12.460004],[-1.6222565,12.46006],[-1.6223584,12.460126],[-1.6226091,12.46024],[-1.6227245,12.460285],[-1.6229739,12.460332],[-1.6231134,12.460257],[-1.6232463,12.460252],[-1.6233629,12.4602995],[-1.623489,12.460275],[-1.6235507,12.460266],[-1.6235775,12.460233],[-1.6235747,12.46013],[-1.6236285,12.460057],[-1.6237545,12.460046],[-1.6245029,12.460337],[-1.6245512,12.460478],[-1.6245323,12.460659],[-1.6247379,12.460806],[-1.6252056,12.460714],[-1.6254282,12.460518],[-1.6257902,12.460341],[-1.6261524,12.460198],[-1.6265146,12.460341],[-1.6267264,12.460497],[-1.6269758,12.46083],[-1.6291645,12.461215],[-1.6332629,12.461111],[-1.6345441,12.461053],[-1.6380695,12.459665],[-1.6410091,12.456942],[-1.6445538,12.4473715],[-1.6463563,12.438236],[-1.6529279,12.432273],[-1.6500363,12.40083],[-1.6495963,12.384588],[-1.6491122,12.356285],[-1.6501436,12.344125],[-1.6542741,12.319672],[-1.6531248,12.316671],[-1.6460344,12.308278],[-1.6454698,12.307222],[-1.6446973,12.306394],[-1.6431577,12.304707],[-1.6414518,12.301824],[-1.6402622,12.297533],[-1.6249897,12.281347],[-1.6092649,12.274094],[-1.5889231,12.271346],[-1.5779796,12.269649],[-1.5693321,12.270502],[-1.5689782,12.270797],[-1.5688441,12.271635],[-1.568726,12.273392],[-1.5670899,12.273826],[-1.566135,12.273897],[-1.5656012,12.2739725],[-1.5651103,12.274025],[-1.564614,12.273941],[-1.5641824,12.273936],[-1.563442,12.274319],[-1.5609475,12.27423],[-1.5609369,12.27381],[-1.5608523,12.273661],[-1.5606164,12.273529],[-1.5605842,12.273068],[-1.5606539,12.27277],[-1.5604541,12.271462],[-1.5613284,12.268013],[-1.5608618,12.2663765],[-1.5585444,12.264238],[-1.557965,12.264259],[-1.5562913,12.262425],[-1.5530405,12.263201],[-1.5518924,12.263075],[-1.5502777,12.262309],[-1.5423653,12.257046],[-1.5339056,12.252413],[-1.529209,12.251235],[-1.5259715,12.251188],[-1.5218892,12.2516365],[-1.5189711,12.253083],[-1.5046802,12.259751],[-1.4761415,12.257026],[-1.4554133,12.257843],[-1.4467905,12.263512]]]}}
