{"type":"Feature","id":"relation/4485298","properties":{"type":"relation","id":4485298,"tags":{"boundary":"political","name":"Bordeaux-5","name:am":"ቦርዶ-5","name:ar":"بوردو-5","name:ast":"Bordeos-5","name:az":"Bordo-5","name:be":"Бардо-5","name:bg":"Бордо-5","name:br":"Bourdel-5","name:ca":"Bordeus-5","name:ce":"Бордо-5","name:el":"Μπορντώ-5","name:es":"Burdeos-5","name:eu":"Bordele-5","name:ext":"Burdeus-5","name:fa":"بوردو-5","name:fr":"Bordeaux-5","name:frp":"Bordôx-5","name:gl":"Bordeos-5","name:he":"בורדו-5","name:hi":"बोर्दो-5","name:hy":"Բորդո-5","name:ja":"ボルドー-5","name:ka":"ბორდო-5","name:kg":"Bordo-5","name:kk":"Бордо-5","name:kn":"ಬೊರ್ಡೋ-5","name:ko":"보르도-5","name:la":"Burdigala-5","name:lo":"ບອກໂດ-5","name:lt":"Bordo-5","name:lv":"Bordo-5","name:mk":"Бордо-5","name:mr":"बोर्दू-5","name:mzn":"بوردو-5","name:oc":"Bordèu-5","name:os":"Бордо-5","name:pa":"ਬੋਰਦੋ-5","name:pms":"Bordò-5","name:pnb":"بورڈو-5","name:pt":"Bordéus-5","name:ru":"Бордо-5","name:sr":"Бордо-5","name:stq":"Bordèu-5","name:ta":"பொர்தோ-5","name:th":"บอร์โด-5","name:tl":"Burdeos-5","name:uk":"Бордо-5","name:ur":"بورڈو-5","name:vec":"Bordò-5","name:yi":"בארדא-5","name:zh":"波尔多-5","planned:ref":"033-06","political_division":"canton","start_date":"2015-03","type":"boundary","wikipedia":"fr:Canton de Bordeaux-5"},"labels":[{"id":"node/1691675873","role":"admin_centre","coordinates":[-0.5800364,44.841225]}]},"geometry":{"type":"Polygon","coordinates":[[[-0.57245547,44.82708],[-0.57252127,44.826202],[-0.5725267,44.826126],[-0.57255197,44.82571],[-0.5725537,44.825665],[-0.5725676,44.825275],[-0.5725779,44.824997],[-0.57258314,44.824886],[-0.5725918,44.8247],[-0.57259375,44.82462],[-0.5726117,44.824078],[-0.5725781,44.82366],[-0.57257134,44.823597],[-0.572553,44.82341],[-0.5725412,44.82329],[-0.5725324,44.82315],[-0.57247716,44.822258],[-0.5724753,44.822212],[-0.5724587,44.821835],[-0.5724544,44.821735],[-0.5724492,44.82162],[-0.57243484,44.821297],[-0.57243234,44.82124],[-0.57242984,44.821182],[-0.57241046,44.820744],[-0.57239693,44.820534],[-0.5723997,44.820522],[-0.5724143,44.820496],[-0.57239985,44.82038],[-0.5723789,44.820137],[-0.57237107,44.820004],[-0.5723552,44.81969],[-0.572348,44.819515],[-0.5723492,44.819435],[-0.57234615,44.819386],[-0.57231486,44.819153],[-0.5723024,44.818954],[-0.5723992,44.81895],[-0.5731244,44.818905],[-0.5736092,44.81886],[-0.5741134,44.818806],[-0.5748384,44.818714],[-0.5752256,44.818665],[-0.5753774,44.818596],[-0.5759207,44.818478],[-0.5764339,44.818466],[-0.5764606,44.818512],[-0.5766982,44.818897],[-0.57672715,44.818947],[-0.57676446,44.819008],[-0.5768156,44.819077],[-0.5770262,44.81937],[-0.57725656,44.819687],[-0.5773014,44.819756],[-0.57755274,44.82017],[-0.5776211,44.820286],[-0.5777622,44.820526],[-0.5777854,44.820568],[-0.57781637,44.82062],[-0.57804424,44.82118],[-0.57809687,44.821304],[-0.5781196,44.821365],[-0.57814044,44.821415],[-0.5782046,44.821487],[-0.57855606,44.82177],[-0.58011144,44.82302],[-0.5801491,44.82305],[-0.58023006,44.822983],[-0.580369,44.82293],[-0.5807333,44.822723],[-0.5822008,44.821888],[-0.58230007,44.821815],[-0.5828881,44.821117],[-0.58122206,44.820053],[-0.57746327,44.817657],[-0.576608,44.81711],[-0.57661176,44.81711],[-0.5764944,44.817028],[-0.5763189,44.81687],[-0.57615715,44.816826],[-0.57574207,44.81656],[-0.5748551,44.815315],[-0.5746761,44.814926],[-0.5745677,44.8146],[-0.5743106,44.813442],[-0.5741275,44.81291],[-0.5739637,44.812702],[-0.57362556,44.81275],[-0.5736675,44.812653],[-0.57396585,44.811314],[-0.57399875,44.810806],[-0.57390755,44.81078],[-0.5735749,44.81099],[-0.5735011,44.811],[-0.5734187,44.811016],[-0.5732389,44.811024],[-0.57297266,44.8111],[-0.5728184,44.811092],[-0.5727608,44.811092],[-0.5727022,44.811085],[-0.57266504,44.811092],[-0.5725537,44.811108],[-0.5723762,44.81115],[-0.5723018,44.811157],[-0.5720956,44.811104],[-0.5720396,44.811104],[-0.571985,44.811104],[-0.5719164,44.81111],[-0.5717746,44.811153],[-0.5716123,44.811195],[-0.57153636,44.81118],[-0.57146317,44.811172],[-0.5713903,44.811165],[-0.5712566,44.811172],[-0.5709218,44.81133],[-0.5708644,44.811348],[-0.5707449,44.811382],[-0.5705633,44.811447],[-0.5704476,44.811493],[-0.5702734,44.811565],[-0.57018256,44.811607],[-0.5700727,44.81165],[-0.56987,44.81172],[-0.5697515,44.811745],[-0.5696611,44.811787],[-0.5695438,44.811832],[-0.56928676,44.811916],[-0.569148,44.811954],[-0.56904334,44.811985],[-0.5689132,44.812027],[-0.5687622,44.812084],[-0.5686765,44.812122],[-0.5683945,44.812214],[-0.5682677,44.81226],[-0.5682114,44.81229],[-0.5673709,44.812557],[-0.5672784,44.812393],[-0.56724906,44.81237],[-0.56721365,44.81237],[-0.56694937,44.812435],[-0.56665635,44.812496],[-0.5665994,44.812504],[-0.5665425,44.812485],[-0.5664935,44.81246],[-0.5664304,44.812485],[-0.56631875,44.812527],[-0.56625795,44.812542],[-0.56620973,44.812565],[-0.5661413,44.8126],[-0.5660056,44.812645],[-0.56586576,44.81259],[-0.5658206,44.812584],[-0.5656329,44.812603],[-0.5655744,44.812595],[-0.5655017,44.81255],[-0.56544316,44.812534],[-0.5653943,44.81254],[-0.56516,44.812614],[-0.5650617,44.812668],[-0.5649655,44.812824],[-0.5649116,44.81293],[-0.5646634,44.813084],[-0.5645699,44.813095],[-0.5645635,44.8131],[-0.56458634,44.813168],[-0.5645278,44.81321],[-0.5645166,44.81317],[-0.56439036,44.81319],[-0.5644147,44.81327],[-0.5644091,44.813274],[-0.5595537,44.81248],[-0.5595973,44.812717],[-0.55950236,44.812702],[-0.5594969,44.812668],[-0.55926377,44.81263],[-0.55926865,44.812664],[-0.5591674,44.81265],[-0.5591505,44.812412],[-0.5586791,44.812336],[-0.55837566,44.812305],[-0.55816936,44.812298],[-0.55790806,44.8123],[-0.5577219,44.81232],[-0.55750257,44.81235],[-0.5573404,44.81238],[-0.55706614,44.81245],[-0.55692476,44.812496],[-0.5567922,44.812542],[-0.556598,44.812622],[-0.55616057,44.812847],[-0.54849815,44.816956],[-0.5450505,44.8188],[-0.54057807,44.8212],[-0.5376015,44.82282],[-0.5348301,44.824326],[-0.5347906,44.824345],[-0.5347148,44.824387],[-0.5346532,44.82442],[-0.5348779,44.82463],[-0.5354204,44.82515],[-0.5360963,44.8257],[-0.5366455,44.82618],[-0.5338717,44.827744],[-0.5336838,44.82784],[-0.53721064,44.829956],[-0.5372265,44.82994],[-0.53791857,44.83035],[-0.5410105,44.832035],[-0.5430397,44.833088],[-0.5480149,44.835686],[-0.54806364,44.835716],[-0.5458476,44.83798],[-0.54456246,44.839283],[-0.54307276,44.840813],[-0.5421622,44.841766],[-0.54166913,44.842308],[-0.5415642,44.842266],[-0.54148036,44.84237],[-0.54121816,44.84264],[-0.54099345,44.84287],[-0.5408284,44.8431],[-0.5403832,44.84355],[-0.5402584,44.843666],[-0.540158,44.843754],[-0.54004246,44.84383],[-0.5402979,44.843964],[-0.53921294,44.845047],[-0.5387649,44.84549],[-0.53866506,44.845573],[-0.5386522,44.84562],[-0.5385474,44.84574],[-0.5384142,44.845898],[-0.53822666,44.846146],[-0.5381011,44.84633],[-0.53798914,44.846508],[-0.5378268,44.84681],[-0.5377191,44.84704],[-0.5376332,44.847282],[-0.5375658,44.84749],[-0.5375175,44.847664],[-0.53749424,44.847755],[-0.537472,44.847866],[-0.5374324,44.848087],[-0.5374073,44.848324],[-0.5373968,44.84856],[-0.5373925,44.84883],[-0.5373953,44.84902],[-0.53739786,44.849255],[-0.5374106,44.84944],[-0.5374327,44.84964],[-0.5374644,44.84984],[-0.5375104,44.850048],[-0.5375589,44.850235],[-0.5375863,44.850338],[-0.5376456,44.85053],[-0.53771573,44.850765],[-0.5378185,44.851093],[-0.5379036,44.851334],[-0.5385283,44.853333],[-0.53877264,44.854137],[-0.5388354,44.854355],[-0.5389191,44.85479],[-0.53896725,44.855225],[-0.53901756,44.85588],[-0.53905,44.856678],[-0.5390364,44.8572],[-0.5390212,44.857533],[-0.53898686,44.85773],[-0.538985,44.857742],[-0.5388962,44.858093],[-0.5388215,44.858536],[-0.53871816,44.85903],[-0.5387913,44.85907],[-0.5387835,44.859116],[-0.5385902,44.860195],[-0.5382839,44.86135],[-0.5380812,44.862114],[-0.5380379,44.862286],[-0.53771645,44.863583],[-0.5376627,44.863693],[-0.53751856,44.864315],[-0.5371495,44.865738],[-0.5371333,44.86583],[-0.5371132,44.866024],[-0.5370155,44.866337],[-0.5370077,44.866375],[-0.53696424,44.866596],[-0.5368896,44.867367],[-0.5368914,44.86843],[-0.53772676,44.868397],[-0.5413769,44.86827],[-0.5421495,44.86603],[-0.5430617,44.863976],[-0.5459168,44.862083],[-0.54705507,44.861313],[-0.54868585,44.86031],[-0.5500974,44.859478],[-0.551,44.858986],[-0.5575998,44.855736],[-0.56156546,44.85372],[-0.5631918,44.852596],[-0.5654018,44.851074],[-0.5670446,44.84899],[-0.56739557,44.847797],[-0.5677875,44.846466],[-0.5671574,44.843884],[-0.5669666,44.843372],[-0.5661289,44.84112],[-0.5644318,44.839718],[-0.56282127,44.838436],[-0.5573858,44.834522],[-0.5596444,44.833466],[-0.5600922,44.83308],[-0.56002575,44.833],[-0.5606543,44.832466],[-0.5616238,44.833103],[-0.5617595,44.83319],[-0.56181246,44.833153],[-0.56353277,44.831818],[-0.5636201,44.831875],[-0.5674299,44.83132],[-0.56763417,44.83082],[-0.5682623,44.830956],[-0.56832147,44.83082],[-0.5719146,44.830944],[-0.57217354,44.830795],[-0.57242364,44.830524],[-0.57284784,44.830326],[-0.5731448,44.829975],[-0.5733939,44.829674],[-0.5737597,44.82924],[-0.5739766,44.82898],[-0.5741914,44.828724],[-0.5743985,44.82847],[-0.57447755,44.828396],[-0.5747788,44.82815],[-0.5749711,44.828014],[-0.57517064,44.827873],[-0.5756536,44.82752],[-0.575779,44.827427],[-0.57576036,44.8274],[-0.575737,44.82737],[-0.5756777,44.827286],[-0.5756371,44.82723],[-0.5755571,44.827225],[-0.57392687,44.82715],[-0.573829,44.827145],[-0.5725466,44.82708],[-0.57245547,44.82708]]]}}
