{"type":"Feature","id":"relation/6572774","properties":{"type":"relation","id":6572774,"tags":{"admin_level":"6","alt_name":"Mazar-i-Sharif District;Mazar-e-Sharif","boundary":"administrative","name":"مزار شریف","name:de":"Masar-e Scharif","name:el":"Μαζάρι Σαρίφ","name:en":"Mazar-i-Sharif","name:fa":"ولسوالی کلدار","name:ps":"مزار شريف","name:tg":"Мазори Шариф","name:tr":"Mezar-ı Şerif","name:uz":"Mozori-Sharif","type":"boundary","wikidata":"Q130469","wikipedia":"en:Mazar-i-Sharif"},"labels":[{"id":"node/2396275966","role":"admin_centre","coordinates":[67.10875,36.711338]}]},"geometry":{"type":"Polygon","coordinates":[[[67.08904,36.702545],[67.08318,36.70039],[67.082886,36.69877],[67.08808,36.687366],[67.089424,36.683132],[67.0925,36.68282],[67.10134,36.68652],[67.11249,36.688522],[67.12209,36.6896],[67.123634,36.690453],[67.130264,36.690987],[67.13449,36.690525],[67.13997,36.69068],[67.1416,36.69153],[67.14381,36.692604],[67.14458,36.694843],[67.14333,36.698692],[67.142365,36.701237],[67.14227,36.702854],[67.14765,36.70401],[67.150055,36.70532],[67.15313,36.713795],[67.15256,36.717724],[67.14516,36.72573],[67.14064,36.72812],[67.1317,36.727966],[67.11988,36.72881],[67.11181,36.73759],[67.10845,36.738205],[67.10528,36.737514],[67.10422,36.736126],[67.10163,36.735973],[67.09875,36.734818],[67.097496,36.73274],[67.089615,36.726192],[67.08674,36.7218],[67.08625,36.71595],[67.08664,36.711792],[67.08904,36.702545]]]}}
