{"type":"Feature","id":"relation/192777","properties":{"type":"relation","id":192777,"tags":{"ISO3166-1":"SL","ISO3166-1:alpha2":"SL","ISO3166-1:alpha3":"SLE","ISO3166-1:numeric":"694","admin_level":"2","boundary":"administrative","flag":"http://upload.wikimedia.org/wikipedia/commons/1/17/Flag_of_Sierra_Leone.svg","is_in:continent":"Africa","name":"Sierra Leone","name:ace":"Sierra Leone","name:af":"Sierra Leone","name:ak":"Sierra Leone","name:als":"Sierra Leone","name:am":"ሴየራ ሌዎን","name:an":"Sierra Leone","name:ar":"سيراليون","name:arz":"سييراليون","name:ast":"Sierra Lleona","name:az":"Syerra-Leone","name:ba":"Сьерра-Леоне","name:bat-smg":"Sėira Leuonė","name:bcl":"Sierra Leona","name:be":"Сьера-Леонэ","name:be-tarask":"Сьера-Леонэ","name:bg":"Сиера Леоне","name:bjn":"Sierra Leone","name:bm":"Sera Leon","name:bn":"সিয়েরা লিওন","name:bo":"སི་ར་ལེ་ཨོན།","name:bpy":"সিয়েরা লিওন","name:br":"Sierra Leone","name:bs":"Sijera Leone","name:bxr":"Сьерра-Леоне","name:ca":"Sierra Leone","name:ce":"Сьерра-Леоне","name:ceb":"Sierra Leone","name:ckb":"سیەرالیۆن","name:crh":"Syerra Leone","name:cs":"Sierra Leone","name:cy":"Sierra Leone","name:da":"Sierra Leone","name:de":"Sierra Leone","name:diq":"Sierra Leone","name:dv":"ސެރެލިއޯން","name:ee":"Sierra Leone","name:el":"Σιέρα Λεόνε","name:en":"Sierra Leone","name:eo":"Siera-Leono","name:es":"Sierra Leona","name:et":"Sierra Leone","name:eu":"Sierra Leona","name:ext":"Sierra Leona","name:fa":"سیرالئون","name:ff":"Sarliyon","name:fi":"Sierra Leone","name:fiu-vro":"Sierra Leone","name:fo":"Sierra Leona","name:fr":"Sierra Leone","name:frp":"Siérra Leone","name:fy":"Sierra Leöane","name:ga":"Siarra Leon","name:gag":"Syerra Leone","name:gd":"Siarra Leòmhann","name:gl":"Serra Leoa","name:gv":"Sierra Leone","name:he":"סיירה לאונה","name:hi":"सिएरा लियोन","name:hif":"Sierra Leone","name:hr":"Sijera Leone","name:hsb":"Sierra Leone","name:ht":"Syera Leòn","name:hu":"Sierra Leone","name:hy":"Սիերա Լեոնե","name:id":"Sierra Leone","name:ie":"Sierra Leone","name:ilo":"Sierra Leon","name:io":"Sierra Leone","name:is":"Síerra Leóne","name:it":"Sierra Leone","name:ja":"シエラレオネ","name:jbo":"sieras. leon","name:jv":"Sierra Leone","name:ka":"სიერა-ლეონე","name:kg":"Siera Leone","name:kk":"Сиерра-Леоне","name:kn":"ಸಿಯೆರ್ರಾ ಲಿಯೋನ್","name:ko":"시에라리온","name:ku":"Sierra Leone","name:kw":"Sierra Leon","name:la":"Mons Leoninus","name:lb":"Sierra Leone","name:li":"Sierra Leone","name:lij":"Sierra Lion","name:lmo":"Sierra Leone","name:ln":"Sierra Leone","name:lt":"Siera Leonė","name:lv":"Sjerraleone","name:mk":"Сиера Леоне","name:ml":"സീറാ ലിയോൺ","name:mn":"Сьерра-Леоне","name:mr":"सियेरा लिओन","name:mrj":"Сьерра-Леоне","name:ms":"Sierra Leone","name:mt":"Sierra Leone","name:my":"ဆီရာလီယွန်နိုင်ငံ","name:nah":"Tepētlah Leona","name:nds":"Sierra Leone","name:nl":"Sierra Leone","name:nn":"Sierra Leone","name:no":"Sierra Leone","name:nov":"Siera Leone","name:nso":"Sierra Leone","name:nv":"Náshdóítsoh Bitsiijįʼ Daditłʼooʼígíí Bidził","name:oc":"Sierra Leone","name:or":"ସିଏରା ଲିଓନ","name:os":"Сьеррæ-Леоне","name:pa":"ਸਿਏਰਾ ਲਿਓਨ","name:pam":"Sierra Leone","name:pl":"Sierra Leone","name:pms":"Sierra Leone","name:pnb":"سیرالیون","name:ps":"سېرالیون","name:pt":"Serra Leoa","name:qu":"Liyun Urqu","name:ro":"Sierra Leone","name:ru":"Сьерра-Леоне","name:rw":"Siyera Lewone","name:sa":"सियारा-लियोन","name:sah":"Сьерра Леоне","name:sc":"Sierra Leone","name:scn":"Serra Liuni","name:sco":"Sierra Leone","name:se":"Sierra Leone","name:sg":"Sierä-Leône","name:sh":"Sijera Leone","name:si":"සියෙරා ලියෝන්","name:simple":"Sierra Leone","name:sk":"Sierra Leone","name:sl":"Sierra Leone","name:sn":"Sierra Leone","name:so":"Sierra Leone","name:sq":"Siera Leone","name:sr":"Сијера Леоне","name:ss":"ISiriya-Liyoni","name:stq":"Sierra Leone","name:su":"Sierra Leone","name:sv":"Sierra Leone","name:sw":"Sierra Leone","name:szl":"Sierra Leone","name:ta":"சியேரா லியோனி","name:tg":"Сиерра Леоне","name:th":"ประเทศเซียร์ราลีโอน","name:tk":"Sýerra-Leone","name:tl":"Bulubunduking Leona","name:tpi":"Sierra Leone","name:tr":"Sierra Leone","name:ts":"Siyera Liyona","name:tw":"Sierra Leone","name:tzl":"Sierra Leone","name:ug":"سيېررا لېئونې","name:uk":"Сьєрра-Леоне","name:ur":"سیرالیون","name:uz":"Syerra Leone","name:vec":"Siera Leon","name:vi":"Sierra Leone","name:vo":"Sieraleonän","name:war":"Sierra Leone","name:wo":"Siraa Leyoon","name:xal":"Сьералегонмудин Орн","name:yi":"סיערע לעאנע","name:yo":"Siẹrra Léònè","name:zh":"塞拉利昂","name:zh-min-nan":"Sierra Leone","name:zh-yue":"塞拉利昂","name:zu":"ISiera Liyoni","timezone":"Africa/Freetown","type":"boundary","wikidata":"Q1044","wikipedia":"en:Sierra Leone"},"labels":[{"id":"node/27565056","role":"admin_centre","coordinates":[-13.267949,8.479004]},{"id":"node/424314123","role":"label","coordinates":[-11.840026,8.640035]}]},"geometry":{"type":"Polygon","coordinates":[[[-11.049654,7.412352],[-11.050428,7.4127636],[-11.047546,7.415211],[-11.045034,7.4176784],[-11.043585,7.4194164],[-11.042648,7.4221687],[-11.041922,7.4243207],[-11.041131,7.4249816],[-11.03884,7.424084],[-11.037561,7.4241276],[-11.035385,7.4247723],[-11.033811,7.425765],[-11.033439,7.4260883],[-11.03285,7.426591],[-11.0330305,7.428369],[-11.032851,7.4299574],[-11.033481,7.432861],[-11.034103,7.4343505],[-11.033664,7.435744],[-11.0327835,7.4364142],[-11.031839,7.436042],[-11.028367,7.432025],[-11.027937,7.432168],[-11.027637,7.4320827],[-11.026966,7.432409],[-11.026436,7.4330025],[-11.026093,7.43377],[-11.026279,7.434855],[-11.026755,7.43542],[-11.027245,7.4360785],[-11.026971,7.4371724],[-11.025739,7.438222],[-11.023817,7.4387193],[-11.019471,7.439231],[-11.014799,7.442307],[-11.010464,7.442037],[-11.009501,7.442838],[-11.009352,7.443306],[-11.009309,7.4440336],[-11.009304,7.445024],[-11.009574,7.4456954],[-11.009955,7.446556],[-11.01007,7.4472585],[-11.010293,7.4480186],[-11.009796,7.448495],[-11.009312,7.4491506],[-11.008201,7.450693],[-11.007111,7.4517183],[-11.004482,7.4540987],[-11.0038395,7.454661],[-11.00345,7.4550953],[-11.002565,7.4549146],[-11.001414,7.4546456],[-11.000738,7.4544377],[-11.000199,7.4545445],[-10.999398,7.4551044],[-10.997628,7.4567995],[-10.992299,7.4639626],[-10.991042,7.465108],[-10.990238,7.4657955],[-10.989368,7.466199],[-10.988157,7.466491],[-10.987314,7.466604],[-10.986413,7.4669266],[-10.9852915,7.467809],[-10.983555,7.469149],[-10.982737,7.469881],[-10.982352,7.470069],[-10.982332,7.4704833],[-10.982365,7.4708905],[-10.98215,7.4711423],[-10.981542,7.4713354],[-10.980729,7.471254],[-10.9791355,7.4707646],[-10.978084,7.470669],[-10.977263,7.470744],[-10.976521,7.471059],[-10.975518,7.471903],[-10.975169,7.472344],[-10.974964,7.4729323],[-10.974849,7.4735312],[-10.97503,7.4743643],[-10.975561,7.47523],[-10.976021,7.4755588],[-10.9769125,7.47602],[-10.976904,7.4765635],[-10.976367,7.477364],[-10.9754715,7.478252],[-10.974434,7.4789],[-10.97358,7.4800677],[-10.973381,7.480339],[-10.972825,7.4808497],[-10.97248,7.48104],[-10.971767,7.4826336],[-10.970846,7.4841385],[-10.969822,7.485128],[-10.968631,7.4863267],[-10.966616,7.487639],[-10.965823,7.4884405],[-10.964067,7.488754],[-10.962188,7.489362],[-10.961504,7.489774],[-10.961097,7.490277],[-10.961031,7.491308],[-10.961272,7.4923563],[-10.961441,7.493042],[-10.96128,7.4933767],[-10.96041,7.4934697],[-10.958789,7.493009],[-10.95753,7.492672],[-10.956662,7.493008],[-10.956341,7.49336],[-10.956353,7.493891],[-10.9564905,7.4946847],[-10.956112,7.4961777],[-10.955475,7.4969196],[-10.954253,7.497854],[-10.95288,7.4985347],[-10.951428,7.4993334],[-10.950224,7.5004387],[-10.949023,7.5020037],[-10.947943,7.5027204],[-10.946254,7.503886],[-10.944155,7.5049763],[-10.941798,7.505692],[-10.940441,7.5061116],[-10.9395075,7.5063167],[-10.938896,7.506997],[-10.93808,7.508178],[-10.937008,7.509593],[-10.935956,7.5111136],[-10.935156,7.511985],[-10.934358,7.5125713],[-10.933639,7.5130177],[-10.932952,7.513666],[-10.932244,7.5124755],[-10.932051,7.511188],[-10.931861,7.5099854],[-10.931724,7.509095],[-10.931214,7.508582],[-10.930581,7.5082526],[-10.929659,7.507274],[-10.929203,7.506513],[-10.928638,7.5058484],[-10.928092,7.5054126],[-10.927941,7.505136],[-10.927728,7.5046887],[-10.927813,7.5042534],[-10.927953,7.5037956],[-10.928328,7.503487],[-10.928724,7.5029554],[-10.928885,7.502073],[-10.928864,7.501189],[-10.928158,7.5006504],[-10.926871,7.5001245],[-10.925183,7.4994235],[-10.924488,7.4991064],[-10.923921,7.498557],[-10.923382,7.497695],[-10.922845,7.4974666],[-10.922288,7.497456],[-10.921375,7.498094],[-10.920413,7.499262],[-10.919835,7.4996214],[-10.918704,7.5004983],[-10.918338,7.5010433],[-10.91803,7.5018206],[-10.917578,7.5034127],[-10.91629,7.5044127],[-10.915459,7.5045133],[-10.914337,7.5042534],[-10.913569,7.5047693],[-10.912974,7.5051146],[-10.911398,7.5059123],[-10.910337,7.5066524],[-10.908376,7.5075665],[-10.90731,7.5092416],[-10.904928,7.5102415],[-10.903126,7.511443],[-10.901924,7.5120926],[-10.900584,7.5125775],[-10.899982,7.512241],[-10.899403,7.512369],[-10.898791,7.5128903],[-10.89805,7.513358],[-10.897332,7.513762],[-10.895515,7.515478],[-10.895551,7.516549],[-10.895734,7.517613],[-10.895669,7.5187187],[-10.894961,7.5199103],[-10.893869,7.521088],[-10.89306,7.5215936],[-10.892636,7.521732],[-10.892158,7.522184],[-10.890605,7.5235057],[-10.889618,7.5247927],[-10.889113,7.525165],[-10.888585,7.5254865],[-10.887985,7.525917],[-10.887647,7.526045],[-10.887265,7.526045],[-10.88534,7.5265393],[-10.884557,7.526816],[-10.88388,7.5267363],[-10.88318,7.5262446],[-10.882493,7.5257835],[-10.881831,7.525258],[-10.880939,7.5253077],[-10.880075,7.5262647],[-10.878703,7.5274744],[-10.877141,7.529134],[-10.87669,7.529728],[-10.8759985,7.5303154],[-10.875392,7.530728],[-10.874655,7.5309367],[-10.873156,7.5313525],[-10.871633,7.5320044],[-10.8706045,7.532764],[-10.869662,7.533206],[-10.868661,7.5339437],[-10.868298,7.5343733],[-10.8680725,7.5347986],[-10.867621,7.535304],[-10.867133,7.535683],[-10.86586,7.5361886],[-10.865229,7.5363994],[-10.864598,7.536649],[-10.863309,7.5370216],[-10.862496,7.537401],[-10.861794,7.5378337],[-10.861002,7.538194],[-10.860061,7.5386014],[-10.859546,7.5390506],[-10.858709,7.53998],[-10.857033,7.541043],[-10.856048,7.5415688],[-10.854812,7.542102],[-10.853821,7.542555],[-10.853438,7.54273],[-10.851809,7.543575],[-10.850874,7.5443296],[-10.849998,7.5450373],[-10.8493,7.545565],[-10.848292,7.5468593],[-10.846959,7.547694],[-10.846335,7.5479646],[-10.845073,7.548304],[-10.844407,7.5487375],[-10.843773,7.549145],[-10.8431835,7.549919],[-10.843032,7.5507803],[-10.843023,7.551867],[-10.843129,7.552385],[-10.843171,7.553076],[-10.842885,7.553752],[-10.842496,7.554217],[-10.841527,7.554575],[-10.840302,7.5548234],[-10.839471,7.554929],[-10.83855,7.5552487],[-10.838259,7.555593],[-10.837897,7.5560217],[-10.837668,7.5570555],[-10.837502,7.55799],[-10.837174,7.5588636],[-10.836967,7.5602245],[-10.836719,7.560983],[-10.835958,7.5618596],[-10.835019,7.5630417],[-10.833627,7.563989],[-10.833189,7.5641975],[-10.832155,7.564034],[-10.831067,7.5633316],[-10.830553,7.5628304],[-10.82976,7.561617],[-10.829119,7.5617943],[-10.828283,7.562298],[-10.827709,7.5627303],[-10.82676,7.562922],[-10.826452,7.563802],[-10.826096,7.5654116],[-10.825819,7.5665784],[-10.82511,7.5691805],[-10.824942,7.569593],[-10.82518,7.5698085],[-10.8256645,7.569818],[-10.826069,7.5702624],[-10.825947,7.570996],[-10.825468,7.571635],[-10.824823,7.572495],[-10.823893,7.5728865],[-10.820259,7.574944],[-10.818722,7.578097],[-10.818964,7.5785766],[-10.819431,7.57905],[-10.820785,7.5796843],[-10.822146,7.579562],[-10.822305,7.580292],[-10.82178,7.581553],[-10.81655,7.5873556],[-10.814953,7.5891976],[-10.814224,7.5897255],[-10.8137865,7.5902953],[-10.81366,7.5906224],[-10.813745,7.591018],[-10.813976,7.5914083],[-10.814852,7.5923643],[-10.815859,7.5933566],[-10.816555,7.5942802],[-10.816896,7.594507],[-10.817736,7.5946283],[-10.817988,7.594856],[-10.8180685,7.595368],[-10.817839,7.5957737],[-10.817361,7.59589],[-10.816599,7.5959377],[-10.81581,7.5956473],[-10.814433,7.5951366],[-10.812962,7.5942225],[-10.81137,7.593177],[-10.809967,7.592778],[-10.807169,7.5925016],[-10.804857,7.5927024],[-10.80365,7.591725],[-10.802674,7.5917788],[-10.801716,7.592079],[-10.800591,7.59148],[-10.7998905,7.5913196],[-10.798479,7.591789],[-10.797366,7.592911],[-10.796376,7.593821],[-10.795492,7.594818],[-10.794485,7.596777],[-10.794017,7.599322],[-10.793796,7.6005683],[-10.793079,7.601548],[-10.792583,7.6021914],[-10.791993,7.6021867],[-10.791024,7.6018014],[-10.790439,7.6014953],[-10.789742,7.601393],[-10.78931,7.6015215],[-10.789261,7.6017704],[-10.789214,7.6020126],[-10.78948,7.6024084],[-10.789837,7.603047],[-10.790076,7.60453],[-10.790354,7.606277],[-10.790278,7.6078286],[-10.790332,7.6093063],[-10.790465,7.6095176],[-10.79095,7.609586],[-10.791408,7.6094594],[-10.791983,7.608879],[-10.792393,7.6084304],[-10.793207,7.6084146],[-10.793249,7.608731],[-10.793079,7.609211],[-10.792697,7.609929],[-10.792143,7.610478],[-10.791552,7.611212],[-10.79104,7.6120086],[-10.790668,7.612774],[-10.79047,7.6140985],[-10.789959,7.614922],[-10.789605,7.615465],[-10.789164,7.615872],[-10.788982,7.6162357],[-10.789302,7.6168323],[-10.790357,7.6176715],[-10.791156,7.61887],[-10.791449,7.6199036],[-10.790983,7.620691],[-10.786964,7.6244426],[-10.785745,7.6257095],[-10.784829,7.6269283],[-10.784126,7.6282],[-10.783732,7.6288705],[-10.783147,7.6289077],[-10.782689,7.6294036],[-10.782387,7.6303515],[-10.781932,7.6312346],[-10.780862,7.6326494],[-10.779936,7.633462],[-10.779025,7.634576],[-10.778359,7.6351933],[-10.777743,7.635328],[-10.777007,7.635399],[-10.776533,7.635631],[-10.776246,7.636101],[-10.776155,7.6371617],[-10.775793,7.637425],[-10.775464,7.6376605],[-10.775404,7.638043],[-10.775585,7.6387815],[-10.775569,7.639257],[-10.775256,7.641009],[-10.775058,7.6416316],[-10.775314,7.6426287],[-10.77549,7.6435785],[-10.775278,7.6443954],[-10.7743025,7.646207],[-10.773472,7.6472626],[-10.772803,7.6480174],[-10.773174,7.6485023],[-10.773778,7.64925],[-10.774734,7.6497746],[-10.775197,7.650376],[-10.77565,7.6518803],[-10.775762,7.652899],[-10.775395,7.653512],[-10.774803,7.6536694],[-10.773726,7.6536217],[-10.772934,7.6535583],[-10.772624,7.6533604],[-10.772157,7.653135],[-10.77149,7.6525135],[-10.771118,7.6516247],[-10.771032,7.6502914],[-10.771177,7.6495895],[-10.771202,7.6490684],[-10.770389,7.6479115],[-10.769546,7.6471505],[-10.768961,7.646972],[-10.768099,7.6473627],[-10.767414,7.6479363],[-10.76714,7.648571],[-10.7670555,7.650007],[-10.7669325,7.6510777],[-10.766507,7.6515317],[-10.765288,7.6524024],[-10.763946,7.653886],[-10.763105,7.6545978],[-10.762534,7.6553893],[-10.762248,7.6561375],[-10.761965,7.657073],[-10.761294,7.657754],[-10.760516,7.6579638],[-10.758935,7.658651],[-10.756699,7.659511],[-10.755309,7.65996],[-10.754244,7.6605043],[-10.753063,7.661294],[-10.751267,7.661469],[-10.748708,7.661394],[-10.747818,7.6616063],[-10.747631,7.661986],[-10.74762,7.662879],[-10.748153,7.6635427],[-10.748603,7.664096],[-10.748915,7.6649833],[-10.748457,7.665441],[-10.748909,7.666044],[-10.749846,7.6663027],[-10.75089,7.666413],[-10.751489,7.6673164],[-10.750836,7.668081],[-10.749655,7.6690307],[-10.748808,7.669297],[-10.747966,7.6707935],[-10.747472,7.671933],[-10.746858,7.672886],[-10.746161,7.6738753],[-10.745044,7.674503],[-10.744176,7.6755247],[-10.74352,7.6774373],[-10.743062,7.678651],[-10.742607,7.6794963],[-10.741402,7.680656],[-10.73966,7.68197],[-10.738686,7.682772],[-10.737804,7.6834188],[-10.737239,7.6834445],[-10.73444,7.6820064],[-10.731063,7.6879363],[-10.730213,7.68783],[-10.729715,7.6871953],[-10.728752,7.6868296],[-10.727139,7.688198],[-10.726841,7.690546],[-10.726964,7.691089],[-10.727209,7.691912],[-10.727358,7.6926165],[-10.727214,7.6934447],[-10.727017,7.694052],[-10.726754,7.694572],[-10.726689,7.695044],[-10.726844,7.69574],[-10.726586,7.6962285],[-10.726439,7.696432],[-10.726157,7.696904],[-10.725659,7.697566],[-10.725239,7.698144],[-10.724761,7.6985598],[-10.72399,7.6990066],[-10.723042,7.6994576],[-10.722374,7.6999803],[-10.7208805,7.7014995],[-10.719395,7.702782],[-10.71887,7.7035894],[-10.718219,7.7042537],[-10.718325,7.7049193],[-10.718679,7.7052817],[-10.719291,7.7053204],[-10.720208,7.705363],[-10.720263,7.705711],[-10.719684,7.706369],[-10.718423,7.7070875],[-10.715922,7.7078047],[-10.715534,7.708407],[-10.71565,7.7095146],[-10.715954,7.710925],[-10.715897,7.7115655],[-10.715428,7.712372],[-10.714633,7.7122917],[-10.71325,7.7119894],[-10.712435,7.711978],[-10.7115135,7.712196],[-10.710651,7.712788],[-10.710174,7.713473],[-10.709956,7.7145805],[-10.710369,7.7162185],[-10.710556,7.717367],[-10.709825,7.7188153],[-10.708925,7.719681],[-10.707479,7.7205753],[-10.707419,7.725977],[-10.708466,7.7285023],[-10.704265,7.731334],[-10.701644,7.7360225],[-10.700774,7.7364316],[-10.699232,7.736812],[-10.698206,7.735285],[-10.697037,7.735274],[-10.695717,7.7355027],[-10.6964245,7.737907],[-10.696219,7.7388906],[-10.697037,7.739816],[-10.696632,7.7403874],[-10.693193,7.7395587],[-10.692629,7.7383013],[-10.691804,7.738894],[-10.691985,7.740916],[-10.692795,7.7426567],[-10.6897955,7.7440114],[-10.688521,7.743201],[-10.68713,7.7421985],[-10.681811,7.74613],[-10.681044,7.749555],[-10.679984,7.750146],[-10.679152,7.7494345],[-10.677241,7.746333],[-10.675546,7.74731],[-10.674407,7.748612],[-10.67324,7.749088],[-10.671485,7.747802],[-10.669619,7.7488723],[-10.669531,7.749538],[-10.669671,7.7501197],[-10.670728,7.750203],[-10.671262,7.750798],[-10.67067,7.7513027],[-10.669619,7.751563],[-10.666786,7.751361],[-10.664089,7.7518682],[-10.658898,7.757655],[-10.658808,7.764395],[-10.657909,7.7650456],[-10.657099,7.7652273],[-10.656741,7.764091],[-10.656953,7.7632766],[-10.657354,7.7624707],[-10.657449,7.761517],[-10.655571,7.7612553],[-10.654682,7.7620077],[-10.653454,7.7620797],[-10.653489,7.763731],[-10.652023,7.766243],[-10.647496,7.766672],[-10.646464,7.7661],[-10.645679,7.766389],[-10.645762,7.767569],[-10.646028,7.7685924],[-10.645804,7.769042],[-10.644958,7.769226],[-10.64312,7.7685513],[-10.640684,7.767978],[-10.639664,7.7691965],[-10.6386385,7.7690454],[-10.631533,7.7662554],[-10.628737,7.766971],[-10.627242,7.768071],[-10.604332,7.774626],[-10.604716,7.776652],[-10.604795,7.777835],[-10.60504,7.8426986],[-10.605025,7.908404],[-10.605021,7.9209156],[-10.605008,7.97409],[-10.6051655,8.040542],[-10.604788,8.040851],[-10.604584,8.041048],[-10.604485,8.041135],[-10.604352,8.041202],[-10.604156,8.041252],[-10.604018,8.041312],[-10.603874,8.041429],[-10.603387,8.041872],[-10.602733,8.042063],[-10.60233,8.042161],[-10.601808,8.042236],[-10.601222,8.042254],[-10.600655,8.042274],[-10.599879,8.042144],[-10.598914,8.041935],[-10.598337,8.041782],[-10.597614,8.041909],[-10.596727,8.04216],[-10.596452,8.042376],[-10.596243,8.042553],[-10.5956745,8.043138],[-10.5952,8.0434885],[-10.594678,8.043809],[-10.593882,8.044218],[-10.593466,8.044405],[-10.592979,8.044603],[-10.5922365,8.04466],[-10.591378,8.044727],[-10.590587,8.044941],[-10.589843,8.045115],[-10.589075,8.045276],[-10.588489,8.045495],[-10.587727,8.045914],[-10.58721,8.046197],[-10.586515,8.046547],[-10.585725,8.046786],[-10.584978,8.046932],[-10.584247,8.047107],[-10.583372,8.047164],[-10.582451,8.047208],[-10.581734,8.047309],[-10.581445,8.047393],[-10.58057,8.047727],[-10.57984,8.047903],[-10.579281,8.048128],[-10.578653,8.048189],[-10.57787,8.048073],[-10.577027,8.04828],[-10.576331,8.048145],[-10.575784,8.0480995],[-10.575632,8.048387],[-10.575094,8.049111],[-10.574983,8.049215],[-10.574692,8.049705],[-10.574142,8.0503235],[-10.573666,8.050592],[-10.573398,8.051156],[-10.573281,8.051745],[-10.573068,8.052173],[-10.572849,8.052435],[-10.572738,8.052636],[-10.57281,8.052938],[-10.572671,8.053294],[-10.572332,8.053843],[-10.571966,8.054225],[-10.571392,8.054756],[-10.571095,8.0550375],[-10.570954,8.055159],[-10.570465,8.055737],[-10.570335,8.056108],[-10.570289,8.056633],[-10.570142,8.057087],[-10.570088,8.057223],[-10.569831,8.0573845],[-10.569356,8.057448],[-10.569172,8.057702],[-10.5690565,8.058044],[-10.568877,8.058229],[-10.568794,8.058591],[-10.568592,8.058862],[-10.5682535,8.0592165],[-10.567999,8.059648],[-10.567773,8.060309],[-10.567404,8.060805],[-10.567054,8.0612335],[-10.56654,8.061477],[-10.566222,8.061879],[-10.565586,8.062735],[-10.565348,8.063091],[-10.5651245,8.063702],[-10.564578,8.064207],[-10.564425,8.064702],[-10.564225,8.065375],[-10.563946,8.065803],[-10.563682,8.0662985],[-10.563219,8.066794],[-10.563087,8.067055],[-10.5628605,8.067946],[-10.562502,8.06875],[-10.562197,8.069199],[-10.561886,8.069606],[-10.561476,8.07007],[-10.560948,8.070649],[-10.560832,8.070998],[-10.560754,8.071744],[-10.560527,8.072536],[-10.560453,8.072996],[-10.560327,8.073549],[-10.559884,8.073924],[-10.559431,8.074337],[-10.55932,8.074821],[-10.558862,8.075312],[-10.558435,8.075949],[-10.557924,8.076564],[-10.557693,8.076861],[-10.557398,8.0774555],[-10.557293,8.077595],[-10.556912,8.077518],[-10.556565,8.077785],[-10.556359,8.078624],[-10.556017,8.079344],[-10.555633,8.079886],[-10.554927,8.080924],[-10.554431,8.081513],[-10.553894,8.0820875],[-10.553284,8.082515],[-10.5528145,8.082725],[-10.552171,8.083011],[-10.551834,8.083334],[-10.551432,8.083777],[-10.551335,8.084218],[-10.550416,8.08451],[-10.5497265,8.084685],[-10.549148,8.084962],[-10.548663,8.085452],[-10.548583,8.085953],[-10.548504,8.0865],[-10.5479355,8.086965],[-10.547172,8.087366],[-10.546566,8.088013],[-10.546281,8.088414],[-10.545865,8.088748],[-10.545507,8.089082],[-10.545212,8.0894],[-10.544527,8.089781],[-10.543984,8.089979],[-10.543478,8.0902195],[-10.543304,8.090511],[-10.54321,8.091164],[-10.5433,8.091492],[-10.543463,8.092018],[-10.543531,8.092598],[-10.543389,8.093166],[-10.543068,8.09387],[-10.542204,8.094439],[-10.541403,8.095013],[-10.5407715,8.095524],[-10.54067,8.096092],[-10.539676,8.097486],[-10.539011,8.097918],[-10.538405,8.098178],[-10.537936,8.098669],[-10.537468,8.099071],[-10.536662,8.100051],[-10.536561,8.100536],[-10.536736,8.101021],[-10.536709,8.101757],[-10.536656,8.102508],[-10.536419,8.103264],[-10.535997,8.103978],[-10.535856,8.104912],[-10.535692,8.105653],[-10.535334,8.106336],[-10.535618,8.106832],[-10.535713,8.107379],[-10.535239,8.107734],[-10.534896,8.1076765],[-10.534676,8.107238],[-10.533975,8.10704],[-10.533469,8.106904],[-10.532936,8.107176],[-10.532489,8.107708],[-10.531752,8.108297],[-10.531072,8.108788],[-10.530755,8.109262],[-10.531204,8.109919],[-10.531698,8.110493],[-10.531904,8.110999],[-10.531772,8.111369],[-10.531467,8.111655],[-10.530782,8.111796],[-10.5303545,8.112089],[-10.530313,8.112485],[-10.530545,8.112845],[-10.530804,8.1132],[-10.53142,8.113022],[-10.531583,8.113101],[-10.531593,8.11357],[-10.531357,8.114181],[-10.530998,8.114582],[-10.53075,8.115014],[-10.530403,8.115583],[-10.529728,8.116021],[-10.529233,8.116465],[-10.529094,8.116817],[-10.52888,8.117373],[-10.5285635,8.117875],[-10.528363,8.118211],[-10.528106,8.118612],[-10.527533,8.119038],[-10.527056,8.119321],[-10.526728,8.119015],[-10.526448,8.118982],[-10.526233,8.119269],[-10.525957,8.11966],[-10.5254345,8.119926],[-10.524918,8.120103],[-10.524608,8.120419],[-10.5243025,8.120843],[-10.523989,8.121219],[-10.523768,8.121643],[-10.523695,8.122311],[-10.523721,8.122705],[-10.523825,8.122945],[-10.524171,8.123229],[-10.524637,8.123642],[-10.525032,8.124033],[-10.52539,8.124361],[-10.525806,8.124545],[-10.52634,8.124627],[-10.526946,8.124778],[-10.527234,8.124734],[-10.527602,8.124616],[-10.527896,8.124704],[-10.528157,8.125143],[-10.528064,8.125427],[-10.527643,8.125825],[-10.527219,8.126113],[-10.526552,8.126227],[-10.525992,8.126411],[-10.52581,8.126699],[-10.525587,8.127311],[-10.525337,8.127798],[-10.525162,8.128344],[-10.524894,8.128669],[-10.524573,8.128908],[-10.524343,8.129192],[-10.523839,8.129398],[-10.523334,8.129465],[-10.522808,8.129365],[-10.522372,8.129107],[-10.522044,8.128989],[-10.521798,8.129155],[-10.521415,8.129495],[-10.521266,8.129819],[-10.520852,8.130243],[-10.52032,8.1306305],[-10.519727,8.131128],[-10.519023,8.131667],[-10.518132,8.1320505],[-10.517667,8.13239],[-10.517324,8.132713],[-10.516892,8.133167],[-10.516334,8.133451],[-10.5160055,8.133773],[-10.515362,8.134056],[-10.515112,8.134374],[-10.514593,8.134591],[-10.514288,8.135022],[-10.513975,8.135387],[-10.513394,8.135889],[-10.5128765,8.1362915],[-10.512221,8.136973],[-10.511636,8.137582],[-10.5110655,8.137906],[-10.510507,8.138364],[-10.50997,8.138832],[-10.509602,8.139201],[-10.50914,8.139618],[-10.5087595,8.139875],[-10.508406,8.140035],[-10.508066,8.140377],[-10.50752,8.14075],[-10.507024,8.141185],[-10.506353,8.1416235],[-10.50604,8.141996],[-10.50588,8.142516],[-10.505515,8.142859],[-10.504852,8.143221],[-10.504345,8.143409],[-10.503806,8.143615],[-10.5028515,8.143788],[-10.502144,8.14405],[-10.50147,8.144227],[-10.501213,8.144466],[-10.5010605,8.144721],[-10.501239,8.145215],[-10.501112,8.145422],[-10.50039,8.145632],[-10.499547,8.145853],[-10.498839,8.145902],[-10.498202,8.145926],[-10.4971,8.146167],[-10.496631,8.146236],[-10.496255,8.146015],[-10.49618,8.14582],[-10.495941,8.145643],[-10.495423,8.14575],[-10.495223,8.145964],[-10.494857,8.146107],[-10.4942255,8.146206],[-10.493692,8.146302],[-10.493166,8.146224],[-10.492816,8.146054],[-10.492381,8.145992],[-10.491915,8.145943],[-10.491667,8.146152],[-10.491387,8.146375],[-10.491097,8.146472],[-10.490695,8.146474],[-10.490379,8.146401],[-10.489992,8.146459],[-10.4895735,8.146568],[-10.489115,8.1468315],[-10.488828,8.146985],[-10.488406,8.147012],[-10.487982,8.147079],[-10.487666,8.147283],[-10.487295,8.147228],[-10.48688,8.147221],[-10.486401,8.147257],[-10.486187,8.147201],[-10.485875,8.147068],[-10.485488,8.147068],[-10.484805,8.147167],[-10.484697,8.147399],[-10.484716,8.147643],[-10.484902,8.148192],[-10.484855,8.14859],[-10.484694,8.148981],[-10.484728,8.149402],[-10.484355,8.149575],[-10.483807,8.149446],[-10.483454,8.149398],[-10.482653,8.149645],[-10.481894,8.149781],[-10.4814825,8.150036],[-10.48088,8.150103],[-10.480208,8.150202],[-10.479758,8.150486],[-10.479501,8.150788],[-10.479244,8.151061],[-10.479021,8.150976],[-10.478678,8.150578],[-10.478375,8.150125],[-10.478134,8.149984],[-10.477829,8.149929],[-10.477243,8.150125],[-10.476822,8.150247],[-10.476405,8.15022],[-10.476092,8.149995],[-10.475608,8.149984],[-10.475041,8.150287],[-10.47464,8.150534],[-10.473899,8.150806],[-10.473168,8.151039],[-10.472628,8.151146],[-10.472465,8.151356],[-10.4725275,8.151717],[-10.472628,8.152245],[-10.4726095,8.15254],[-10.472725,8.153111],[-10.4725275,8.153399],[-10.472088,8.153701],[-10.471875,8.153838],[-10.471388,8.153639],[-10.470862,8.153451],[-10.470635,8.153513],[-10.470452,8.153683],[-10.470479,8.153982],[-10.470515,8.154243],[-10.470456,8.154682],[-10.470206,8.154977],[-10.469819,8.155069],[-10.469417,8.154941],[-10.469073,8.154542],[-10.46885,8.154344],[-10.468452,8.154428],[-10.467767,8.15466],[-10.467386,8.15484],[-10.466865,8.154963],[-10.466518,8.155276],[-10.466162,8.155644],[-10.465912,8.155932],[-10.465662,8.155936],[-10.4653635,8.155851],[-10.464846,8.155862],[-10.464399,8.1561165],[-10.464038,8.156201],[-10.463534,8.156264],[-10.46308,8.156419],[-10.462823,8.156626],[-10.462596,8.157083],[-10.462417,8.157566],[-10.46213,8.157805],[-10.4619,8.158009],[-10.461657,8.158016],[-10.46149,8.15788],[-10.461493,8.157647],[-10.46165,8.157374],[-10.46184,8.157175],[-10.461903,8.156887],[-10.461832,8.156596],[-10.461732,8.156191],[-10.461411,8.155954],[-10.460923,8.155666],[-10.460581,8.155652],[-10.459885,8.155807],[-10.459362,8.156039],[-10.459131,8.156172],[-10.458752,8.156249],[-10.458379,8.155988],[-10.458193,8.155759],[-10.458047,8.15556],[-10.457765,8.155541],[-10.457567,8.155604],[-10.45747,8.156054],[-10.4573765,8.156375],[-10.457116,8.15647],[-10.456807,8.156541],[-10.456469,8.15657],[-10.45636,8.1563015],[-10.456296,8.155804],[-10.456102,8.155445],[-10.4558935,8.155401],[-10.455667,8.155579],[-10.455361,8.15597],[-10.4551525,8.156223],[-10.454792,8.156257],[-10.454386,8.156091],[-10.45399,8.15598],[-10.4536705,8.155903],[-10.453332,8.155958],[-10.452962,8.156065],[-10.452598,8.156124],[-10.452098,8.156043],[-10.451658,8.15597],[-10.4512005,8.156032],[-10.450697,8.155885],[-10.450161,8.155936],[-10.449852,8.156164],[-10.449647,8.15636],[-10.449188,8.156649],[-10.448797,8.157213],[-10.448573,8.157917],[-10.448522,8.158793],[-10.448297,8.159047],[-10.44788,8.159186],[-10.447541,8.159047],[-10.447227,8.1583805],[-10.447065,8.1577015],[-10.446586,8.157175],[-10.445931,8.156769],[-10.445732,8.156534],[-10.4454,8.155709],[-10.4451685,8.155449],[-10.444861,8.155576],[-10.444509,8.155798],[-10.444104,8.155735],[-10.443995,8.155398],[-10.443675,8.154738],[-10.442454,8.154469],[-10.442388,8.154453],[-10.441815,8.154326],[-10.441528,8.154504],[-10.441112,8.155082],[-10.440638,8.15536],[-10.440239,8.155329],[-10.439656,8.154738],[-10.4392395,8.154142],[-10.439124,8.153653],[-10.439265,8.1532345],[-10.439124,8.152911],[-10.438323,8.153051],[-10.437841,8.153647],[-10.437002,8.15425],[-10.435708,8.154365],[-10.434765,8.154688],[-10.434303,8.155119],[-10.433745,8.155049],[-10.433271,8.154745],[-10.432829,8.153793],[-10.431906,8.152778],[-10.43106,8.15175],[-10.430726,8.151255],[-10.429803,8.150976],[-10.428777,8.15024],[-10.427361,8.149427],[-10.426906,8.149294],[-10.426628,8.149171],[-10.426411,8.148878],[-10.4253025,8.149006],[-10.424533,8.149163],[-10.423086,8.149091],[-10.421992,8.149188],[-10.420746,8.149409],[-10.419699,8.149474],[-10.41808,8.149325],[-10.41748,8.149436],[-10.417003,8.14922],[-10.416462,8.148866],[-10.416185,8.14879],[-10.415924,8.148945],[-10.415569,8.149241],[-10.414339,8.149524],[-10.413291,8.149528],[-10.412705,8.149422],[-10.411827,8.149022],[-10.411319,8.1491165],[-10.409858,8.149555],[-10.409164,8.149604],[-10.40858,8.149544],[-10.408041,8.149653],[-10.407209,8.149751],[-10.406625,8.149907],[-10.406147,8.149862],[-10.405669,8.150066],[-10.404531,8.1501465],[-10.4041605,8.150055],[-10.403605,8.14967],[-10.403313,8.1498575],[-10.403037,8.150291],[-10.402777,8.150478],[-10.402453,8.150604],[-10.402101,8.151023],[-10.4017,8.150978],[-10.400885,8.151121],[-10.40073,8.150919],[-10.400513,8.150455],[-10.400418,8.150037],[-10.400249,8.1498375],[-10.400155,8.149605],[-10.400201,8.14945],[-10.400063,8.149187],[-10.3998,8.149172],[-10.399647,8.149312],[-10.399615,8.149483],[-10.399232,8.14967],[-10.398258,8.14879],[-10.397887,8.148342],[-10.397732,8.148002],[-10.397408,8.14774],[-10.397144,8.147601],[-10.396868,8.147664],[-10.396884,8.147911],[-10.396993,8.148035],[-10.397332,8.148158],[-10.39747,8.148359],[-10.397534,8.1486845],[-10.397151,8.149259],[-10.396813,8.149384],[-10.396352,8.149664],[-10.396059,8.150006],[-10.395939,8.150487],[-10.3959255,8.150905],[-10.395772,8.151215],[-10.395325,8.151201],[-10.395046,8.150939],[-10.394416,8.151019],[-10.393677,8.1511755],[-10.393369,8.151161],[-10.392937,8.1509],[-10.392336,8.150778],[-10.39124,8.150457],[-10.390995,8.150473],[-10.390671,8.150257],[-10.390516,8.150319],[-10.390333,8.150506],[-10.390026,8.150709],[-10.389748,8.150554],[-10.389731,8.1501045],[-10.389592,8.149889],[-10.389282,8.149781],[-10.388851,8.149845],[-10.388314,8.150079],[-10.388176,8.150311],[-10.388238,8.150575],[-10.388084,8.150931],[-10.387824,8.151212],[-10.387393,8.151477],[-10.386978,8.1515875],[-10.386594,8.151573],[-10.3862705,8.151729],[-10.38624,8.151945],[-10.386519,8.152471],[-10.386906,8.152795],[-10.38743,8.15298],[-10.387954,8.153008],[-10.389478,8.152678],[-10.3897085,8.15277],[-10.390048,8.153095],[-10.390296,8.153527],[-10.390915,8.154269],[-10.39107,8.154594],[-10.391119,8.155136],[-10.391059,8.155694],[-10.390905,8.155833],[-10.390614,8.156005],[-10.3902445,8.155944],[-10.38995,8.155713],[-10.389794,8.155512],[-10.389472,8.155483],[-10.389349,8.155576],[-10.389488,8.155931],[-10.389428,8.156179],[-10.389121,8.156413],[-10.387921,8.156991],[-10.387599,8.15727],[-10.387432,8.157844],[-10.387403,8.15848],[-10.387251,8.159038],[-10.3871765,8.159565],[-10.3872385,8.159983],[-10.3875475,8.160416],[-10.38761,8.160741],[-10.387519,8.161082],[-10.38729,8.161362],[-10.386951,8.161595],[-10.386707,8.161999],[-10.386616,8.16234],[-10.386293,8.16276],[-10.3853245,8.163197],[-10.384788,8.163555],[-10.3842945,8.163712],[-10.38377,8.163651],[-10.381967,8.1631],[-10.381752,8.1631775],[-10.381414,8.163598],[-10.381215,8.164032],[-10.381,8.164141],[-10.380107,8.164237],[-10.379276,8.164411],[-10.378938,8.164691],[-10.378693,8.165156],[-10.377708,8.165546],[-10.37717,8.165672],[-10.376847,8.165519],[-10.376105,8.164995],[-10.375952,8.164948],[-10.375781,8.164623],[-10.375579,8.164361],[-10.375333,8.164347],[-10.374411,8.164799],[-10.3737955,8.165343],[-10.373411,8.165407],[-10.373056,8.165393],[-10.372749,8.165223],[-10.371837,8.164126],[-10.371405,8.163895],[-10.371157,8.163633],[-10.371047,8.163153],[-10.371031,8.162811],[-10.371123,8.162687],[-10.371353,8.162703],[-10.371987,8.163119],[-10.372217,8.163164],[-10.372355,8.163071],[-10.372463,8.162838],[-10.372462,8.162497],[-10.372091,8.162157],[-10.371628,8.161818],[-10.371271,8.161138],[-10.371008,8.160906],[-10.370654,8.160814],[-10.370176,8.1608925],[-10.36953,8.160895],[-10.368528,8.160464],[-10.36785,8.160358],[-10.36708,8.1604395],[-10.365725,8.160381],[-10.365507,8.160057],[-10.36603,8.159653],[-10.366507,8.159465],[-10.366566,8.158752],[-10.366533,8.158458],[-10.36624,8.157885],[-10.366086,8.157809],[-10.365116,8.157905],[-10.364867,8.157735],[-10.364667,8.157441],[-10.364466,8.157271],[-10.363819,8.157197],[-10.363093,8.15692],[-10.362493,8.156566],[-10.361628,8.155918],[-10.361241,8.155516],[-10.360988,8.15511],[-10.360157,8.154643],[-10.359862,8.154612],[-10.359707,8.154381],[-10.359606,8.154256],[-10.359858,8.153846],[-10.359794,8.153737],[-10.35968,8.1537285],[-10.359701,8.153591],[-10.359871,8.153402],[-10.359914,8.153312],[-10.359832,8.153228],[-10.359568,8.153366],[-10.359473,8.153606],[-10.359445,8.153775],[-10.359188,8.154159],[-10.359036,8.154536],[-10.358868,8.154492],[-10.358697,8.154378],[-10.358496,8.154177],[-10.358418,8.153837],[-10.3585615,8.153811],[-10.358766,8.153762],[-10.358884,8.153591],[-10.358854,8.153401],[-10.358754,8.153293],[-10.358647,8.153216],[-10.35854,8.153191],[-10.358179,8.153168],[-10.357952,8.152971],[-10.357703,8.152476],[-10.35738,8.15226],[-10.357118,8.152292],[-10.356778,8.152606],[-10.356535,8.152654],[-10.356304,8.152582],[-10.356056,8.152389],[-10.3558235,8.152157],[-10.35553,8.151724],[-10.355234,8.151074],[-10.354925,8.1506405],[-10.354478,8.150287],[-10.353953,8.150056],[-10.3529215,8.150028],[-10.352522,8.15023],[-10.352276,8.150433],[-10.351963,8.150486],[-10.351673,8.150164],[-10.35183,8.151123],[-10.351497,8.151707],[-10.350898,8.15216],[-10.350186,8.152152],[-10.349769,8.152511],[-10.349356,8.153526],[-10.348777,8.153968],[-10.34646,8.154795],[-10.345558,8.155811],[-10.344972,8.156579],[-10.344545,8.157422],[-10.34421,8.15771],[-10.3434305,8.15813],[-10.343254,8.159674],[-10.343112,8.160363],[-10.342443,8.161307],[-10.341672,8.161524],[-10.341062,8.161772],[-10.339651,8.162964],[-10.339152,8.162956],[-10.338324,8.163438],[-10.33677,8.16462],[-10.336432,8.16588],[-10.336122,8.16609],[-10.336134,8.166234],[-10.3359785,8.166339],[-10.335853,8.166316],[-10.33556,8.166484],[-10.335077,8.166595],[-10.334883,8.1671295],[-10.334947,8.167407],[-10.334715,8.168412],[-10.333195,8.168037],[-10.333023,8.168415],[-10.333318,8.168859],[-10.333582,8.168878],[-10.333654,8.168958],[-10.333578,8.169049],[-10.333595,8.169246],[-10.333848,8.16935],[-10.333736,8.169479],[-10.333517,8.169597],[-10.333461,8.169825],[-10.333176,8.170042],[-10.332662,8.170251],[-10.332296,8.170681],[-10.332474,8.171153],[-10.332508,8.172366],[-10.3322735,8.17284],[-10.332097,8.1730175],[-10.33132,8.173213],[-10.330841,8.173986],[-10.330703,8.175194],[-10.330367,8.175554],[-10.329208,8.176121],[-10.328786,8.176585],[-10.32839,8.176788],[-10.328383,8.17727],[-10.328232,8.17766],[-10.327223,8.178591],[-10.327157,8.179424],[-10.326985,8.17971],[-10.326887,8.180295],[-10.327376,8.180836],[-10.32743,8.181389],[-10.32727,8.181932],[-10.326933,8.182343],[-10.326315,8.182703],[-10.325382,8.183711],[-10.325506,8.184387],[-10.32514,8.184654],[-10.32414,8.184602],[-10.323432,8.184946],[-10.322014,8.186036],[-10.321434,8.186662],[-10.320544,8.1882305],[-10.319927,8.189001],[-10.319664,8.189617],[-10.319444,8.190651],[-10.319347,8.192514],[-10.317864,8.19342],[-10.318904,8.194893],[-10.317875,8.195088],[-10.314481,8.195454],[-10.31222,8.196482],[-10.311552,8.196902],[-10.309688,8.19754],[-10.309041,8.197543],[-10.3085575,8.198047],[-10.308308,8.19824],[-10.30772,8.1980715],[-10.307269,8.197742],[-10.306283,8.197306],[-10.305876,8.197255],[-10.305007,8.197536],[-10.304156,8.197566],[-10.303126,8.197457],[-10.302365,8.197261],[-10.301803,8.196977],[-10.301603,8.196971],[-10.301531,8.197015],[-10.301583,8.197252],[-10.301694,8.197435],[-10.302444,8.198047],[-10.302578,8.198276],[-10.301855,8.198337],[-10.301003,8.199077],[-10.300699,8.19957],[-10.300671,8.200172],[-10.300877,8.200644],[-10.300906,8.201445],[-10.300396,8.202347],[-10.300294,8.203187],[-10.300887,8.20388],[-10.300767,8.204516],[-10.300374,8.205678],[-10.300083,8.20614],[-10.29982,8.206451],[-10.299856,8.206886],[-10.299447,8.20728],[-10.299313,8.2082815],[-10.29954,8.208813],[-10.29949,8.209181],[-10.299329,8.209567],[-10.299183,8.209656],[-10.298645,8.209663],[-10.298332,8.209976],[-10.298238,8.210627],[-10.299335,8.21166],[-10.299404,8.212],[-10.299324,8.212437],[-10.299186,8.212896],[-10.297845,8.214009],[-10.29735,8.214594],[-10.297311,8.215219],[-10.297382,8.215475],[-10.298074,8.216],[-10.298047,8.216188],[-10.297641,8.2167425],[-10.2965355,8.218067],[-10.295979,8.218878],[-10.295585,8.219596],[-10.295324,8.22034],[-10.295307,8.220913],[-10.296156,8.222097],[-10.296087,8.222545],[-10.295061,8.223272],[-10.294916,8.22354],[-10.294937,8.223805],[-10.29505,8.224101],[-10.295226,8.224264],[-10.295615,8.224208],[-10.295847,8.224392],[-10.2958765,8.227297],[-10.29605,8.227614],[-10.297254,8.228224],[-10.297978,8.228857],[-10.298449,8.229429],[-10.298952,8.230519],[-10.299074,8.230972],[-10.299698,8.2314825],[-10.300786,8.231724],[-10.301279,8.232614],[-10.301691,8.234199],[-10.301712,8.234842],[-10.301624,8.235234],[-10.301457,8.235693],[-10.301451,8.236078],[-10.301627,8.236392],[-10.302627,8.237085],[-10.30256,8.237716],[-10.302376,8.238173],[-10.301122,8.239028],[-10.30074,8.239406],[-10.300713,8.239813],[-10.30081,8.240293],[-10.301055,8.240965],[-10.3013735,8.241343],[-10.302159,8.241636],[-10.302888,8.241781],[-10.304917,8.241871],[-10.305895,8.241779],[-10.306567,8.241585],[-10.3069935,8.241266],[-10.307562,8.24124],[-10.308235,8.241109],[-10.308931,8.242498],[-10.309137,8.243194],[-10.308586,8.2435665],[-10.308258,8.244137],[-10.307994,8.244426],[-10.307254,8.24485],[-10.307292,8.24522],[-10.307748,8.245483],[-10.308228,8.245967],[-10.308289,8.246743],[-10.308815,8.247188],[-10.3091,8.247658],[-10.309122,8.248315],[-10.308912,8.248825],[-10.309333,8.249837],[-10.30974,8.2501745],[-10.309033,8.25187],[-10.3085575,8.253649],[-10.308875,8.253797],[-10.307628,8.254605],[-10.307537,8.254943],[-10.309327,8.254572],[-10.310171,8.254596],[-10.310734,8.255007],[-10.311336,8.25557],[-10.311125,8.256381],[-10.311533,8.256909],[-10.312096,8.257329],[-10.311493,8.257331],[-10.310256,8.2616005],[-10.310667,8.263281],[-10.311028,8.264044],[-10.311224,8.264822],[-10.312006,8.264966],[-10.312995,8.265004],[-10.31381,8.265172],[-10.313726,8.265893],[-10.313824,8.266189],[-10.314325,8.266896],[-10.314439,8.267681],[-10.3151245,8.268336],[-10.315032,8.268863],[-10.314996,8.269423],[-10.315027,8.269963],[-10.315115,8.270244],[-10.315865,8.271703],[-10.315602,8.272129],[-10.315493,8.272539],[-10.316253,8.274885],[-10.315567,8.276523],[-10.315394,8.277222],[-10.315796,8.278099],[-10.316733,8.278577],[-10.317537,8.279889],[-10.317443,8.280081],[-10.31712,8.280364],[-10.317172,8.280615],[-10.317454,8.281243],[-10.318458,8.282688],[-10.318958,8.283293],[-10.319877,8.284027],[-10.320053,8.284528],[-10.320211,8.284757],[-10.318866,8.286098],[-10.318315,8.286759],[-10.315796,8.288611],[-10.31471,8.289679],[-10.313485,8.290215],[-10.311502,8.290981],[-10.310888,8.29132],[-10.309619,8.291741],[-10.309483,8.2925415],[-10.30905,8.293502],[-10.307003,8.29386],[-10.306657,8.293851],[-10.305926,8.294416],[-10.305672,8.294755],[-10.304952,8.295337],[-10.303976,8.295853],[-10.302573,8.296714],[-10.30113,8.297469],[-10.301743,8.298091],[-10.301606,8.298545],[-10.301594,8.298995],[-10.302186,8.299985],[-10.302354,8.300384],[-10.303286,8.303037],[-10.3034725,8.304136],[-10.30331,8.304422],[-10.302972,8.304848],[-10.301045,8.305812],[-10.299907,8.306789],[-10.29924,8.307551],[-10.298803,8.307694],[-10.298296,8.308393],[-10.298719,8.310289],[-10.298517,8.3108225],[-10.298051,8.311301],[-10.297926,8.312013],[-10.298298,8.312793],[-10.298674,8.313388],[-10.298182,8.314132],[-10.297252,8.31605],[-10.297244,8.316808],[-10.29742,8.317503],[-10.297777,8.317676],[-10.296995,8.318762],[-10.298125,8.321655],[-10.297698,8.321785],[-10.296771,8.321809],[-10.296232,8.32199],[-10.295445,8.322929],[-10.295169,8.323465],[-10.294812,8.32362],[-10.29434,8.324151],[-10.294457,8.3244295],[-10.294727,8.324694],[-10.295189,8.324977],[-10.296085,8.325952],[-10.296514,8.326864],[-10.29652,8.327213],[-10.296391,8.327591],[-10.295902,8.328127],[-10.29534,8.328867],[-10.294545,8.328809],[-10.294703,8.330322],[-10.29499,8.330813],[-10.295207,8.331714],[-10.295018,8.332728],[-10.294714,8.333589],[-10.2930155,8.334475],[-10.290821,8.33518],[-10.290922,8.336137],[-10.29066,8.336757],[-10.290465,8.337452],[-10.290317,8.337644],[-10.290186,8.338049],[-10.289939,8.3382635],[-10.289716,8.338699],[-10.289463,8.33899],[-10.289298,8.339256],[-10.288711,8.339559],[-10.288465,8.340018],[-10.28842,8.340435],[-10.2885475,8.340643],[-10.289494,8.341334],[-10.289754,8.3416605],[-10.289864,8.341996],[-10.289829,8.342285],[-10.289929,8.342568],[-10.2905855,8.342659],[-10.290973,8.342936],[-10.291378,8.343144],[-10.291743,8.343133],[-10.292408,8.343424],[-10.293279,8.34422],[-10.293552,8.34458],[-10.293135,8.3449335],[-10.29326,8.345856],[-10.293107,8.346143],[-10.292509,8.346666],[-10.292074,8.347354],[-10.291728,8.347562],[-10.291811,8.347919],[-10.292093,8.348447],[-10.291936,8.348708],[-10.291391,8.348835],[-10.290177,8.34986],[-10.290148,8.350147],[-10.290465,8.350586],[-10.290416,8.350884],[-10.28998,8.35143],[-10.291249,8.35359],[-10.291514,8.353711],[-10.291944,8.354018],[-10.2925625,8.354753],[-10.293461,8.355329],[-10.294421,8.355713],[-10.295004,8.356147],[-10.295313,8.357139],[-10.294829,8.357687],[-10.29467,8.357988],[-10.294665,8.358156],[-10.294758,8.358381],[-10.295451,8.359439],[-10.295378,8.359624],[-10.295217,8.359787],[-10.295004,8.359851],[-10.294406,8.359882],[-10.294348,8.359923],[-10.2941265,8.360516],[-10.294179,8.360851],[-10.294087,8.361037],[-10.294147,8.3614],[-10.294318,8.361931],[-10.294227,8.362383],[-10.293973,8.362855],[-10.294037,8.363651],[-10.2930565,8.364404],[-10.293093,8.364814],[-10.292959,8.365224],[-10.292314,8.365152],[-10.291894,8.3652],[-10.2916355,8.365577],[-10.291406,8.365549],[-10.291176,8.365601],[-10.29105,8.36603],[-10.291306,8.366434],[-10.291283,8.366613],[-10.291133,8.36673],[-10.290745,8.366731],[-10.290459,8.36715],[-10.290654,8.3677635],[-10.290574,8.368071],[-10.290136,8.368267],[-10.289853,8.368697],[-10.289154,8.369375],[-10.288911,8.369486],[-10.288994,8.370029],[-10.288787,8.370297],[-10.288303,8.370229],[-10.288061,8.369986],[-10.287923,8.370044],[-10.287814,8.370924],[-10.287531,8.3715925],[-10.286203,8.37266],[-10.2866,8.374059],[-10.286879,8.374823],[-10.287214,8.375359],[-10.287536,8.375632],[-10.288025,8.375883],[-10.288009,8.376155],[-10.28778,8.376341],[-10.287458,8.376515],[-10.287233,8.376713],[-10.2874365,8.377164],[-10.287982,8.377047],[-10.288219,8.37733],[-10.288216,8.377573],[-10.288447,8.377892],[-10.288511,8.378521],[-10.288437,8.378649],[-10.288335,8.378764],[-10.288225,8.378748],[-10.287821,8.378511],[-10.2875595,8.378455],[-10.287423,8.3784895],[-10.28739,8.37867],[-10.287466,8.379131],[-10.287581,8.379294],[-10.28809,8.379489],[-10.288348,8.379378],[-10.288883,8.37951],[-10.289515,8.380122],[-10.289605,8.3803425],[-10.289784,8.380474],[-10.289958,8.380515],[-10.29037,8.380224],[-10.29028,8.380829],[-10.288522,8.384673],[-10.287994,8.384757],[-10.287507,8.384901],[-10.286914,8.385221],[-10.287473,8.387635],[-10.28602,8.388745],[-10.28638,8.389796],[-10.286312,8.390383],[-10.285559,8.390679],[-10.285511,8.391394],[-10.285197,8.391579],[-10.28354,8.391364],[-10.280874,8.392549],[-10.278826,8.395073],[-10.278807,8.395555],[-10.279282,8.39705],[-10.279405,8.39762],[-10.279091,8.398297],[-10.279317,8.3989935],[-10.280371,8.399593],[-10.280725,8.399992],[-10.280886,8.40042],[-10.281051,8.401623],[-10.281088,8.402463],[-10.27994,8.402676],[-10.278818,8.402157],[-10.278669,8.403839],[-10.278699,8.405241],[-10.279119,8.405883],[-10.27961,8.406194],[-10.279926,8.406286],[-10.2801695,8.406424],[-10.280261,8.406568],[-10.280442,8.406705],[-10.277769,8.408427],[-10.276662,8.408991],[-10.27774,8.411007],[-10.277823,8.411492],[-10.2777195,8.411678],[-10.277547,8.41184],[-10.276978,8.411929],[-10.276759,8.412289],[-10.276369,8.412464],[-10.276151,8.41261],[-10.275944,8.412872],[-10.275887,8.413074],[-10.275866,8.413428],[-10.275918,8.413659],[-10.276103,8.413977],[-10.276243,8.414334],[-10.276289,8.414729],[-10.27628,8.415128],[-10.27635,8.415371],[-10.276632,8.415716],[-10.276675,8.416288],[-10.275324,8.41709],[-10.275543,8.417864],[-10.275624,8.418769],[-10.273859,8.421037],[-10.273791,8.422009],[-10.274324,8.422612],[-10.275163,8.422973],[-10.276051,8.423037],[-10.276276,8.423297],[-10.276295,8.423661],[-10.276203,8.4242],[-10.276464,8.424603],[-10.277665,8.4257],[-10.278154,8.425699],[-10.278245,8.42553],[-10.278395,8.42542],[-10.279402,8.425539],[-10.280296,8.425975],[-10.280729,8.426345],[-10.281179,8.42694],[-10.281113,8.427316],[-10.281096,8.428028],[-10.280966,8.428351],[-10.28069,8.42856],[-10.280311,8.428748],[-10.280348,8.429439],[-10.280314,8.4296465],[-10.2797165,8.429985],[-10.279741,8.430251],[-10.279822,8.430494],[-10.280019,8.430863],[-10.279927,8.431246],[-10.279517,8.432185],[-10.279253,8.43243],[-10.279001,8.432801],[-10.278609,8.432918],[-10.278197,8.432816],[-10.277441,8.432726],[-10.277147,8.432808],[-10.27712,8.4329815],[-10.277352,8.43345],[-10.277353,8.433728],[-10.277158,8.434041],[-10.276492,8.434484],[-10.276338,8.434785],[-10.27635,8.434993],[-10.276663,8.435786],[-10.276624,8.435988],[-10.275961,8.436886],[-10.27502,8.437943],[-10.274493,8.438488],[-10.274148,8.438733],[-10.273803,8.438907],[-10.273368,8.439534],[-10.273035,8.439767],[-10.272804,8.440195],[-10.272704,8.441145],[-10.27227,8.442038],[-10.271813,8.443521],[-10.271683,8.444605],[-10.271734,8.445873],[-10.272028,8.446603],[-10.273902,8.448675],[-10.274821,8.449918],[-10.275662,8.45213],[-10.275765,8.453311],[-10.275686,8.453838],[-10.275715,8.45412],[-10.276058,8.4549055],[-10.2760935,8.455335],[-10.276331,8.455918],[-10.276339,8.456387],[-10.276259,8.45692],[-10.276332,8.457995],[-10.276689,8.459441],[-10.276743,8.460095],[-10.276824,8.460281],[-10.277615,8.460724],[-10.277939,8.461261],[-10.278596,8.461786],[-10.279128,8.462022],[-10.279438,8.462009],[-10.279767,8.461915],[-10.280147,8.46192],[-10.280475,8.462],[-10.280591,8.462202],[-10.280805,8.462404],[-10.280856,8.46256],[-10.281081,8.462746],[-10.281135,8.462943],[-10.281331,8.463311],[-10.2818165,8.463843],[-10.281921,8.464144],[-10.282199,8.464403],[-10.282234,8.464744],[-10.281941,8.4646635],[-10.281585,8.464734],[-10.280652,8.465143],[-10.2789955,8.465542],[-10.278803,8.466352],[-10.278577,8.466851],[-10.278318,8.467188],[-10.27755,8.467972],[-10.276953,8.46842],[-10.277024,8.469421],[-10.277014,8.469833],[-10.276843,8.470551],[-10.277034,8.471325],[-10.275665,8.472047],[-10.2746105,8.472521],[-10.274796,8.472758],[-10.275067,8.473293],[-10.275052,8.473652],[-10.274926,8.474289],[-10.2749,8.47484],[-10.27522,8.475534],[-10.275516,8.475857],[-10.275632,8.476495],[-10.275694,8.477385],[-10.275604,8.477755],[-10.275594,8.478172],[-10.275412,8.478937],[-10.275402,8.479516],[-10.275877,8.480231],[-10.276294,8.4807625],[-10.276491,8.481283],[-10.277269,8.482556],[-10.277602,8.483706],[-10.277915,8.484557],[-10.278066,8.484586],[-10.278739,8.484508],[-10.279245,8.484649],[-10.279913,8.484999],[-10.283085,8.486202],[-10.286205,8.486982],[-10.288407,8.4885845],[-10.2891655,8.490669],[-10.290136,8.491414],[-10.291042,8.49087],[-10.292101,8.490565],[-10.293531,8.49167],[-10.294763,8.493446],[-10.296847,8.493031],[-10.298653,8.49142],[-10.299378,8.491488],[-10.300829,8.4915],[-10.301253,8.491626],[-10.301541,8.492025],[-10.301851,8.494],[-10.302508,8.495384],[-10.302525,8.496559],[-10.303894,8.496823],[-10.304678,8.496856],[-10.307013,8.496951],[-10.308121,8.497304],[-10.30849,8.497832],[-10.308638,8.498302],[-10.309594,8.498822],[-10.310633,8.499245],[-10.3127365,8.499768],[-10.314955,8.500742],[-10.31768,8.50257],[-10.319699,8.504199],[-10.322212,8.506152],[-10.323086,8.506395],[-10.323912,8.506361],[-10.324715,8.5058565],[-10.325148,8.505348],[-10.326337,8.50395],[-10.327262,8.50256],[-10.32817,8.501923],[-10.329476,8.501158],[-10.33182,8.500666],[-10.333447,8.500416],[-10.334796,8.499878],[-10.335844,8.499084],[-10.336969,8.497487],[-10.338203,8.494905],[-10.339228,8.494051],[-10.340313,8.493684],[-10.3419075,8.493649],[-10.343171,8.494466],[-10.344397,8.493989],[-10.345388,8.493597],[-10.348184,8.4912405],[-10.350525,8.4899235],[-10.352409,8.48942],[-10.353799,8.488894],[-10.354693,8.487887],[-10.355036,8.486255],[-10.3559265,8.483744],[-10.356526,8.483078],[-10.357294,8.482837],[-10.357926,8.482819],[-10.3582945,8.482956],[-10.358433,8.4832325],[-10.358123,8.484128],[-10.358222,8.484712],[-10.358876,8.485449],[-10.361414,8.486596],[-10.362284,8.486596],[-10.363222,8.486409],[-10.364538,8.486736],[-10.366416,8.486834],[-10.36786,8.486491],[-10.368515,8.486093],[-10.371212,8.483526],[-10.374937,8.479882],[-10.375115,8.479875],[-10.375199,8.480026],[-10.375177,8.480414],[-10.37529,8.480819],[-10.376716,8.483092],[-10.378294,8.486103],[-10.379327,8.488866],[-10.379629,8.489643],[-10.380352,8.490172],[-10.382053,8.490906],[-10.382647,8.490997],[-10.383236,8.49072],[-10.383675,8.490379],[-10.384026,8.489199],[-10.3845625,8.488813],[-10.385793,8.488184],[-10.386683,8.48722],[-10.387185,8.486148],[-10.387753,8.483637],[-10.388317,8.482651],[-10.389288,8.481658],[-10.389536,8.480996],[-10.38931,8.480273],[-10.388957,8.479647],[-10.388997,8.479007],[-10.389611,8.478154],[-10.389939,8.47736],[-10.390047,8.476541],[-10.390609,8.474214],[-10.393085,8.4709835],[-10.393735,8.468841],[-10.394051,8.467673],[-10.393996,8.466588],[-10.394369,8.464776],[-10.394001,8.463176],[-10.393696,8.460699],[-10.3943,8.45763],[-10.399447,8.449677],[-10.403013,8.445788],[-10.40693,8.442524],[-10.409308,8.441124],[-10.412741,8.441233],[-10.416272,8.436816],[-10.419451,8.433553],[-10.4229965,8.428394],[-10.424925,8.42454],[-10.426537,8.420348],[-10.428679,8.418135],[-10.429249,8.415542],[-10.431149,8.411638],[-10.433995,8.410068],[-10.437101,8.406205],[-10.438299,8.404615],[-10.440771,8.403512],[-10.444338,8.40033],[-10.446347,8.398976],[-10.447426,8.397119],[-10.449792,8.3942],[-10.454725,8.390869],[-10.456824,8.390427],[-10.461537,8.390413],[-10.4629545,8.389902],[-10.463464,8.385575],[-10.465537,8.384004],[-10.467875,8.381932],[-10.469227,8.380993],[-10.471068,8.380334],[-10.475038,8.379258],[-10.478216,8.376716],[-10.481227,8.371957],[-10.482321,8.369685],[-10.482053,8.366416],[-10.4790125,8.364524],[-10.479763,8.362905],[-10.483401,8.36041],[-10.486816,8.35793],[-10.489165,8.353191],[-10.490761,8.350057],[-10.493297,8.347315],[-10.496331,8.344631],[-10.498232,8.342175],[-10.503411,8.340537],[-10.506814,8.336885],[-10.508595,8.334525],[-10.511183,8.33375],[-10.517553,8.328042],[-10.520176,8.326043],[-10.524265,8.323244],[-10.528936,8.319223],[-10.536627,8.3141575],[-10.540543,8.311803],[-10.542492,8.309204],[-10.548569,8.30973],[-10.552529,8.308375],[-10.556229,8.305615],[-10.5571785,8.308625],[-10.558806,8.309228],[-10.560325,8.311813],[-10.561588,8.311772],[-10.565893,8.308885],[-10.5671015,8.307512],[-10.567734,8.307448],[-10.57034,8.308685],[-10.572426,8.308922],[-10.572374,8.311865],[-10.572313,8.314563],[-10.57342,8.3172865],[-10.574393,8.323878],[-10.576025,8.329013],[-10.576954,8.333532],[-10.577285,8.334051],[-10.58143,8.333715],[-10.585802,8.33742],[-10.587459,8.337446],[-10.592248,8.337641],[-10.595957,8.337706],[-10.600149,8.339556],[-10.603982,8.339895],[-10.604635,8.3408785],[-10.6059265,8.340904],[-10.609481,8.338907],[-10.612544,8.33774],[-10.616667,8.338088],[-10.619229,8.339899],[-10.622476,8.343145],[-10.623139,8.344105],[-10.624313,8.346282],[-10.623331,8.349378],[-10.623412,8.350743],[-10.623855,8.351221],[-10.624603,8.351519],[-10.627568,8.350177],[-10.629764,8.347579],[-10.63062,8.346894],[-10.631858,8.34675],[-10.633585,8.343073],[-10.634775,8.34233],[-10.635397,8.342047],[-10.635818,8.34201],[-10.636678,8.342179],[-10.637254,8.342787],[-10.638103,8.344533],[-10.638519,8.347569],[-10.638686,8.348879],[-10.638079,8.350872],[-10.638486,8.352482],[-10.63926,8.353692],[-10.640876,8.3537445],[-10.64265,8.354448],[-10.644689,8.353234],[-10.648673,8.352685],[-10.651665,8.351155],[-10.657483,8.350509],[-10.659021,8.350288],[-10.662907,8.348904],[-10.663115,8.347774],[-10.663196,8.346809],[-10.6635685,8.345933],[-10.6646,8.345887],[-10.66499,8.345691],[-10.665458,8.344798],[-10.665565,8.344254],[-10.665548,8.343867],[-10.665972,8.341884],[-10.665903,8.340357],[-10.666145,8.339804],[-10.667038,8.339317],[-10.669333,8.337437],[-10.672509,8.333929],[-10.673419,8.332204],[-10.673209,8.328939],[-10.673091,8.32707],[-10.675563,8.323164],[-10.676094,8.318145],[-10.677048,8.315233],[-10.679122,8.315387],[-10.680341,8.315912],[-10.682967,8.31541],[-10.684782,8.309661],[-10.685096,8.304178],[-10.686614,8.297429],[-10.68575,8.29259],[-10.685409,8.286502],[-10.686416,8.28654],[-10.6873865,8.286536],[-10.688872,8.286208],[-10.690249,8.28556],[-10.692559,8.284156],[-10.695326,8.283072],[-10.700635,8.280113],[-10.70132,8.280327],[-10.701731,8.281114],[-10.701858,8.282594],[-10.700794,8.288179],[-10.7010565,8.290456],[-10.700791,8.291763],[-10.70026,8.292327],[-10.698939,8.292311],[-10.698023,8.291791],[-10.697886,8.29087],[-10.697298,8.290457],[-10.696563,8.290938],[-10.69586,8.291685],[-10.695604,8.2937975],[-10.696128,8.295397],[-10.697013,8.296064],[-10.698756,8.297358],[-10.69971,8.298502],[-10.700036,8.29979],[-10.699462,8.301185],[-10.697735,8.302655],[-10.696525,8.303972],[-10.695363,8.306304],[-10.694401,8.307817],[-10.694175,8.308895],[-10.694917,8.310471],[-10.696517,8.3117485],[-10.698308,8.312932],[-10.698209,8.313717],[-10.696624,8.315866],[-10.696564,8.315969],[-10.694861,8.318885],[-10.691885,8.320856],[-10.690647,8.321688],[-10.689856,8.322878],[-10.689416,8.324538],[-10.690296,8.325163],[-10.691579,8.325632],[-10.692088,8.326343],[-10.691936,8.327432],[-10.690256,8.328488],[-10.688712,8.329336],[-10.688306,8.329981],[-10.688057,8.33068],[-10.687833,8.332451],[-10.687365,8.333221],[-10.686594,8.333512],[-10.686059,8.334287],[-10.6854725,8.335693],[-10.685073,8.337709],[-10.683655,8.340235],[-10.683237,8.342422],[-10.682603,8.343875],[-10.680887,8.34605],[-10.679031,8.348111],[-10.678623,8.350329],[-10.6785345,8.351257],[-10.67861,8.351799],[-10.678599,8.352924],[-10.678277,8.353455],[-10.678462,8.353811],[-10.679246,8.355796],[-10.678585,8.359343],[-10.678325,8.360736],[-10.6786,8.360877],[-10.678722,8.361747],[-10.678866,8.36216],[-10.679112,8.362455],[-10.678447,8.363757],[-10.678401,8.365361],[-10.678637,8.366086],[-10.67834,8.366649],[-10.678005,8.368521],[-10.677597,8.369562],[-10.676938,8.370983],[-10.676563,8.373966],[-10.676068,8.375577],[-10.673765,8.378331],[-10.673342,8.378365],[-10.6694565,8.378494],[-10.665949,8.381791],[-10.664934,8.383232],[-10.664219,8.38367],[-10.663002,8.383365],[-10.661935,8.382445],[-10.658632,8.381339],[-10.653551,8.381339],[-10.649283,8.382596],[-10.64783,8.384485],[-10.647378,8.386095],[-10.6473465,8.38683],[-10.647582,8.387053],[-10.647388,8.388897],[-10.6451435,8.389176],[-10.642681,8.389977],[-10.641168,8.39143],[-10.639712,8.3919],[-10.639379,8.392304],[-10.639355,8.392653],[-10.638873,8.394087],[-10.639112,8.39538],[-10.639731,8.398128],[-10.640661,8.399421],[-10.640845,8.399865],[-10.64134,8.400929],[-10.642018,8.402702],[-10.642652,8.404806],[-10.64302,8.406946],[-10.644711,8.409538],[-10.645381,8.411163],[-10.644914,8.412554],[-10.643949,8.414413],[-10.644202,8.418133],[-10.6445055,8.419944],[-10.644355,8.421752],[-10.647966,8.423319],[-10.65026,8.422612],[-10.650947,8.423291],[-10.650757,8.424515],[-10.649416,8.425526],[-10.6467705,8.425853],[-10.646438,8.427934],[-10.645089,8.431201],[-10.644671,8.433869],[-10.644088,8.435562],[-10.643975,8.436611],[-10.6444435,8.437982],[-10.644383,8.438709],[-10.642767,8.439691],[-10.641145,8.441216],[-10.640747,8.443263],[-10.641539,8.445509],[-10.641915,8.44658],[-10.64213,8.44806],[-10.641722,8.449779],[-10.640828,8.450527],[-10.6408205,8.45136],[-10.641545,8.452033],[-10.641763,8.452963],[-10.641938,8.453267],[-10.641975,8.4539385],[-10.641709,8.454729],[-10.640589,8.455954],[-10.640062,8.456899],[-10.640698,8.458621],[-10.6409445,8.459008],[-10.6413145,8.459321],[-10.641524,8.459719],[-10.641519,8.460254],[-10.641417,8.46058],[-10.64095,8.461143],[-10.640838,8.461492],[-10.640795,8.461602],[-10.640827,8.461752],[-10.640897,8.461889],[-10.641047,8.46199],[-10.641331,8.462065],[-10.641503,8.462165],[-10.6418085,8.462478],[-10.64197,8.462781],[-10.642028,8.463051],[-10.641958,8.463412],[-10.641745,8.463767],[-10.640354,8.465528],[-10.639732,8.465818],[-10.639019,8.466036],[-10.638692,8.466206],[-10.638579,8.466375],[-10.638579,8.466704],[-10.6386595,8.467033],[-10.638901,8.467458],[-10.639222,8.467851],[-10.639728,8.468695],[-10.640355,8.46958],[-10.640779,8.469962],[-10.640955,8.470132],[-10.641202,8.470644],[-10.641606,8.473093],[-10.641606,8.473489],[-10.641507,8.473868],[-10.641143,8.474568],[-10.640893,8.474759],[-10.6406145,8.474882],[-10.640011,8.475067],[-10.638736,8.475301],[-10.636661,8.475232],[-10.635638,8.475333],[-10.63466,8.475548],[-10.63393,8.475973],[-10.633372,8.476461],[-10.632546,8.47779],[-10.632154,8.47857],[-10.631968,8.478893],[-10.6317425,8.479158],[-10.631608,8.479419],[-10.631503,8.480173],[-10.631549,8.480474],[-10.631747,8.480793],[-10.632273,8.481318],[-10.6336355,8.4821825],[-10.633936,8.482428],[-10.63406,8.482554],[-10.634124,8.482685],[-10.634252,8.48308],[-10.634263,8.483543],[-10.63393,8.485209],[-10.633942,8.488245],[-10.633889,8.489993],[-10.633596,8.490507],[-10.633141,8.4908085],[-10.632567,8.490945],[-10.631878,8.490823],[-10.630923,8.490316],[-10.6284895,8.488601],[-10.626873,8.487953],[-10.625762,8.48719],[-10.6249695,8.487001],[-10.624229,8.487017],[-10.623169,8.487567],[-10.622485,8.487938],[-10.622537,8.488457],[-10.622691,8.488864],[-10.622511,8.489184],[-10.622041,8.489543],[-10.62124,8.490013],[-10.620417,8.490603],[-10.620104,8.491128],[-10.619932,8.491688],[-10.619883,8.49213],[-10.619932,8.49248],[-10.620149,8.492995],[-10.620329,8.493146],[-10.620519,8.493148],[-10.620794,8.493039],[-10.621671,8.492288],[-10.621977,8.492189],[-10.622545,8.492765],[-10.622525,8.4934],[-10.622166,8.493787],[-10.621601,8.494039],[-10.620708,8.494437],[-10.620274,8.494849],[-10.620215,8.495447],[-10.62035,8.495821],[-10.620614,8.496296],[-10.623677,8.498824],[-10.625137,8.50016],[-10.626451,8.50039],[-10.626944,8.501389],[-10.627084,8.501929],[-10.62697,8.5024805],[-10.627661,8.504321],[-10.627638,8.505026],[-10.627403,8.506021],[-10.627207,8.507388],[-10.626051,8.508026],[-10.626004,8.509898],[-10.625752,8.511154],[-10.625179,8.512118],[-10.623713,8.513172],[-10.622904,8.515308],[-10.622407,8.516851],[-10.621999,8.519962],[-10.621153,8.525671],[-10.620531,8.527655],[-10.620059,8.528409],[-10.619595,8.528681],[-10.618633,8.529424],[-10.616986,8.530411],[-10.615244,8.531668],[-10.614675,8.532331],[-10.614079,8.533116],[-10.613994,8.534087],[-10.6139145,8.535339],[-10.613549,8.535928],[-10.613628,8.536321],[-10.613741,8.536532],[-10.613923,8.536809],[-10.614455,8.53719],[-10.614696,8.537498],[-10.614795,8.5376],[-10.614981,8.537789],[-10.61535,8.538023],[-10.616004,8.538283],[-10.616169,8.538386],[-10.616246,8.538616],[-10.616086,8.538977],[-10.61587,8.539369],[-10.61582,8.539765],[-10.6158495,8.540384],[-10.615936,8.54074],[-10.616039,8.541163],[-10.616028,8.541665],[-10.615813,8.542201],[-10.615325,8.542816],[-10.614978,8.543113],[-10.614188,8.544032],[-10.613363,8.545271],[-10.612681,8.546097],[-10.612435,8.546164],[-10.612117,8.546196],[-10.6118355,8.545999],[-10.611611,8.545682],[-10.6114855,8.545322],[-10.611539,8.543577],[-10.611181,8.54331],[-10.610634,8.543065],[-10.610111,8.543115],[-10.608948,8.543466],[-10.606732,8.544722],[-10.605323,8.545791],[-10.604465,8.546242],[-10.603997,8.5463915],[-10.60352,8.546478],[-10.60286,8.546476],[-10.602407,8.546351],[-10.601392,8.54614],[-10.599889,8.54621],[-10.599041,8.546587],[-10.598275,8.547022],[-10.596867,8.548041],[-10.596105,8.548564],[-10.595412,8.548899],[-10.594728,8.549061],[-10.594121,8.549091],[-10.593846,8.549137],[-10.593573,8.54925],[-10.593263,8.549595],[-10.593115,8.549933],[-10.592869,8.550637],[-10.592668,8.552049],[-10.592702,8.554671],[-10.592496,8.556012],[-10.592535,8.556921],[-10.592266,8.557815],[-10.591252,8.559246],[-10.590544,8.560207],[-10.590257,8.561188],[-10.590477,8.562592],[-10.590237,8.563383],[-10.586751,8.568219],[-10.584981,8.569956],[-10.583199,8.572091],[-10.581427,8.573024],[-10.579548,8.573849],[-10.5785885,8.573559],[-10.578395,8.573501],[-10.577561,8.57255],[-10.576344,8.572644],[-10.574422,8.57339],[-10.574326,8.5742445],[-10.57447,8.575068],[-10.574919,8.577175],[-10.574996,8.579425],[-10.57431,8.581753],[-10.573028,8.583147],[-10.574145,8.584524],[-10.574283,8.585097],[-10.574214,8.585918],[-10.573557,8.587486],[-10.573383,8.588886],[-10.573929,8.59003],[-10.575799,8.593252],[-10.57605,8.593851],[-10.576406,8.5951],[-10.576363,8.595394],[-10.576326,8.596116],[-10.574771,8.598732],[-10.573253,8.599381],[-10.570556,8.600004],[-10.568367,8.602344],[-10.56772,8.602364],[-10.567532,8.602368],[-10.564265,8.601155],[-10.562094,8.600008],[-10.561047,8.598827],[-10.560534,8.597908],[-10.559652,8.598305],[-10.558275,8.599778],[-10.558179,8.600506],[-10.558723,8.601885],[-10.559412,8.602644],[-10.55946,8.603389],[-10.559173,8.604006],[-10.558259,8.604117],[-10.55709,8.603738],[-10.554738,8.602721],[-10.554308,8.60291],[-10.55265,8.605191],[-10.5501795,8.60763],[-10.549262,8.607534],[-10.547906,8.607108],[-10.546459,8.607645],[-10.545358,8.608386],[-10.542616,8.609728],[-10.542318,8.610411],[-10.542117,8.61197],[-10.542081,8.61354],[-10.54185,8.614476],[-10.54148,8.614746],[-10.539565,8.615741],[-10.53845,8.615991],[-10.537287,8.616393],[-10.53555,8.616892],[-10.535193,8.616948],[-10.53478,8.617024],[-10.534144,8.616551],[-10.533655,8.616247],[-10.532205,8.61605],[-10.530887,8.614334],[-10.530212,8.614801],[-10.529007,8.61559],[-10.52813,8.615814],[-10.525991,8.616687],[-10.523853,8.617856],[-10.520293,8.620317],[-10.519727,8.620164],[-10.517601,8.619198],[-10.517647,8.617556],[-10.51714,8.616701],[-10.515229,8.6153555],[-10.514388,8.614841],[-10.513451,8.614487],[-10.511354,8.61541],[-10.511114,8.615664],[-10.510838,8.615751],[-10.51042,8.617939],[-10.509866,8.6206045],[-10.50706,8.621254],[-10.505498,8.621062],[-10.503298,8.621987],[-10.502345,8.6227045],[-10.500201,8.624109],[-10.498846,8.624534],[-10.496715,8.624613],[-10.495591,8.6251135],[-10.4948,8.625368],[-10.493102,8.625461],[-10.492699,8.625687],[-10.491119,8.627509],[-10.493309,8.62952],[-10.493573,8.630487],[-10.493353,8.631541],[-10.492427,8.632341],[-10.491481,8.632931],[-10.490559,8.633608],[-10.489635,8.634658],[-10.48845,8.635763],[-10.487446,8.63626],[-10.4834175,8.638393],[-10.482549,8.6389065],[-10.481305,8.639195],[-10.480014,8.639723],[-10.478966,8.640642],[-10.478062,8.641968],[-10.477871,8.643057],[-10.478245,8.64475],[-10.478219,8.645048],[-10.477312,8.645611],[-10.475499,8.645635],[-10.47453,8.646002],[-10.470262,8.651403],[-10.470507,8.651673],[-10.471067,8.651825],[-10.471974,8.652031],[-10.472489,8.652418],[-10.471996,8.653983],[-10.472009,8.654416],[-10.472127,8.654615],[-10.473275,8.654994],[-10.474249,8.655412],[-10.474601,8.65572],[-10.476917,8.655764],[-10.477287,8.655969],[-10.476941,8.656666],[-10.475103,8.657997],[-10.47403,8.6592455],[-10.473532,8.660635],[-10.4723215,8.661657],[-10.471878,8.662231],[-10.471804,8.663082],[-10.473171,8.666657],[-10.472646,8.667418],[-10.472724,8.66786],[-10.47226,8.668126],[-10.471825,8.668944],[-10.471461,8.669118],[-10.47093,8.669242],[-10.470723,8.669374],[-10.469849,8.670244],[-10.469733,8.670674],[-10.469286,8.671497],[-10.468614,8.671645],[-10.46798,8.671477],[-10.467289,8.670988],[-10.467212,8.670255],[-10.467018,8.6699705],[-10.466586,8.669825],[-10.465862,8.670168],[-10.46524,8.670939],[-10.464688,8.67173],[-10.464359,8.672919],[-10.465,8.673484],[-10.465363,8.67359],[-10.466209,8.674115],[-10.466461,8.674571],[-10.466445,8.674932],[-10.466151,8.675373],[-10.46608,8.675916],[-10.465471,8.6763525],[-10.464978,8.67641],[-10.464724,8.676775],[-10.464403,8.677511],[-10.464553,8.678354],[-10.464711,8.679234],[-10.465542,8.679858],[-10.46612,8.680512],[-10.466945,8.680546],[-10.467782,8.681068],[-10.4686,8.681073],[-10.469202,8.681004],[-10.469454,8.681166],[-10.469045,8.681956],[-10.469795,8.682951],[-10.470132,8.683691],[-10.470192,8.683947],[-10.470235,8.685081],[-10.470854,8.685839],[-10.47212,8.687245],[-10.472954,8.686634],[-10.473919,8.685464],[-10.474482,8.684325],[-10.474698,8.683712],[-10.475569,8.68297],[-10.476712,8.682534],[-10.4771385,8.682811],[-10.477246,8.683459],[-10.477166,8.684421],[-10.476778,8.684945],[-10.4758,8.685789],[-10.475527,8.686472],[-10.475493,8.68729],[-10.475601,8.688617],[-10.475965,8.6903305],[-10.47607,8.690915],[-10.4759445,8.691357],[-10.47536,8.692135],[-10.475082,8.692664],[-10.475541,8.693198],[-10.476096,8.693184],[-10.477025,8.693257],[-10.477098,8.693474],[-10.476806,8.69392],[-10.474642,8.694152],[-10.473953,8.694294],[-10.473388,8.694667],[-10.473688,8.695382],[-10.47406,8.695738],[-10.476189,8.695561],[-10.476929,8.6952305],[-10.477635,8.69516],[-10.478289,8.6946945],[-10.4788685,8.694471],[-10.479221,8.694472],[-10.479525,8.694676],[-10.479805,8.695279],[-10.480055,8.696127],[-10.480154,8.697257],[-10.48045,8.698535],[-10.480378,8.699238],[-10.480857,8.699738],[-10.481386,8.699904],[-10.482644,8.699842],[-10.483186,8.699227],[-10.483806,8.69888],[-10.484043,8.699257],[-10.484037,8.699908],[-10.48375,8.700708],[-10.483752,8.701535],[-10.483564,8.701849],[-10.48337,8.702086],[-10.483436,8.702529],[-10.483718,8.702436],[-10.483906,8.702202],[-10.484418,8.702451],[-10.485129,8.702977],[-10.48538,8.704256],[-10.486139,8.70424],[-10.486119,8.704967],[-10.486248,8.705395],[-10.487257,8.705546],[-10.487453,8.706235],[-10.48798,8.707104],[-10.488042,8.707645],[-10.488311,8.707866],[-10.490215,8.707237],[-10.491412,8.706834],[-10.491791,8.706498],[-10.492186,8.706327],[-10.49327,8.706347],[-10.494712,8.706593],[-10.496277,8.706401],[-10.496391,8.706841],[-10.495663,8.707496],[-10.493417,8.709928],[-10.492764,8.711843],[-10.493061,8.713151],[-10.494413,8.712355],[-10.497364,8.711706],[-10.497949,8.712716],[-10.499985,8.713435],[-10.499491,8.715121],[-10.499434,8.716129],[-10.49912,8.7167225],[-10.497674,8.717121],[-10.496554,8.716942],[-10.495923,8.717349],[-10.495771,8.718045],[-10.495198,8.719036],[-10.496345,8.721175],[-10.495797,8.722743],[-10.495277,8.723241],[-10.495061,8.723802],[-10.495244,8.72428],[-10.496536,8.724933],[-10.497912,8.725586],[-10.499897,8.726025],[-10.500249,8.726694],[-10.500829,8.727454],[-10.500537,8.728224],[-10.500948,8.7286215],[-10.502359,8.729617],[-10.503371,8.730163],[-10.504135,8.730546],[-10.504148,8.731375],[-10.503896,8.731504],[-10.503559,8.731675],[-10.503248,8.731965],[-10.503176,8.732327],[-10.503544,8.732626],[-10.503827,8.732789],[-10.504064,8.7329],[-10.504198,8.733018],[-10.504314,8.733312],[-10.504693,8.733213],[-10.505025,8.73331],[-10.505624,8.733682],[-10.506134,8.734112],[-10.506106,8.735104],[-10.505807,8.736385],[-10.505021,8.737331],[-10.503995,8.738407],[-10.502691,8.739792],[-10.502126,8.740309],[-10.5016985,8.740906],[-10.50091,8.741609],[-10.500442,8.741356],[-10.499912,8.741207],[-10.498843,8.740682],[-10.498521,8.739966],[-10.497941,8.739671],[-10.497671,8.739637],[-10.496261,8.7401],[-10.495375,8.740655],[-10.4948015,8.741195],[-10.494925,8.741408],[-10.495352,8.741806],[-10.497827,8.743064],[-10.500023,8.743723],[-10.501072,8.743837],[-10.5016985,8.743609],[-10.502346,8.742244],[-10.502976,8.741573],[-10.503698,8.740803],[-10.504112,8.740495],[-10.504573,8.740515],[-10.5055065,8.740889],[-10.506021,8.740819],[-10.50655,8.741157],[-10.507359,8.741381],[-10.50774,8.741397],[-10.508063,8.742066],[-10.508181,8.742692],[-10.508425,8.742769],[-10.508972,8.742826],[-10.509539,8.742646],[-10.5096855,8.742749],[-10.5100565,8.742692],[-10.510337,8.742243],[-10.510129,8.741155],[-10.510664,8.740625],[-10.511201,8.740679],[-10.511413,8.741303],[-10.511119,8.742376],[-10.511171,8.743412],[-10.511396,8.74471],[-10.511264,8.745063],[-10.510609,8.745657],[-10.509645,8.746025],[-10.509366,8.746492],[-10.5090475,8.74725],[-10.50965,8.748022],[-10.510544,8.749101],[-10.511839,8.750999],[-10.512321,8.75277],[-10.512364,8.753969],[-10.512997,8.7562065],[-10.51307,8.75695],[-10.51245,8.757871],[-10.512404,8.758131],[-10.512736,8.759948],[-10.513615,8.7621765],[-10.514368,8.76378],[-10.5152855,8.765918],[-10.516249,8.7680025],[-10.516398,8.768949],[-10.516821,8.770785],[-10.517143,8.772189],[-10.517324,8.77298],[-10.517351,8.7739725],[-10.51757,8.774616],[-10.517829,8.775152],[-10.518292,8.775852],[-10.518649,8.776346],[-10.518749,8.776774],[-10.519095,8.778359],[-10.519558,8.77953],[-10.519675,8.781414],[-10.519815,8.782636],[-10.520352,8.783035],[-10.521258,8.783854],[-10.521886,8.784712],[-10.522362,8.785133],[-10.523105,8.785509],[-10.523985,8.784771],[-10.524209,8.784812],[-10.52445,8.78519],[-10.52443,8.786087],[-10.524611,8.786628],[-10.525173,8.787669],[-10.525964,8.788394],[-10.526854,8.789172],[-10.527765,8.789114],[-10.527394,8.788411],[-10.52785,8.7882],[-10.528844,8.788694],[-10.530448,8.790345],[-10.532987,8.792033],[-10.533199,8.793509],[-10.534731,8.795473],[-10.536055,8.795763],[-10.537033,8.795436],[-10.537673,8.795574],[-10.537931,8.796003],[-10.537622,8.796825],[-10.536922,8.797843],[-10.536199,8.797971],[-10.536251,8.798567],[-10.536413,8.798753],[-10.537224,8.799092],[-10.537886,8.799133],[-10.539119,8.800064],[-10.539628,8.800187],[-10.539998,8.800408],[-10.540263,8.801148],[-10.540226,8.801668],[-10.539378,8.802845],[-10.539483,8.803524],[-10.540789,8.804244],[-10.543011,8.805279],[-10.543613,8.805164],[-10.543874,8.804897],[-10.544196,8.803519],[-10.544568,8.80308],[-10.545268,8.802717],[-10.546799,8.802461],[-10.548068,8.802502],[-10.548776,8.801873],[-10.549414,8.8003845],[-10.549377,8.799374],[-10.54969,8.798657],[-10.550046,8.798497],[-10.550304,8.798793],[-10.550562,8.799341],[-10.550724,8.800225],[-10.550765,8.801317],[-10.551519,8.80253],[-10.551912,8.803518],[-10.551889,8.803857],[-10.55203,8.804052],[-10.552434,8.804148],[-10.5538435,8.805169],[-10.554687,8.805708],[-10.555639,8.806089],[-10.556309,8.806038],[-10.557014,8.805671],[-10.557399,8.80532],[-10.558129,8.804979],[-10.558667,8.804962],[-10.559216,8.805159],[-10.559855,8.804948],[-10.560488,8.804603],[-10.560845,8.8047],[-10.561048,8.805366],[-10.561061,8.805978],[-10.560853,8.806645],[-10.56044,8.807009],[-10.559749,8.807384],[-10.559608,8.807594],[-10.559723,8.808616],[-10.559705,8.809642],[-10.5595875,8.809994],[-10.559484,8.810143],[-10.558998,8.810532],[-10.558994,8.810852],[-10.55944,8.811373],[-10.560768,8.812336],[-10.561319,8.813125],[-10.561795,8.814559],[-10.562362,8.816174],[-10.562286,8.817079],[-10.561904,8.817644],[-10.561866,8.817865],[-10.561303,8.818094],[-10.560835,8.818271],[-10.560514,8.818392],[-10.560328,8.818693],[-10.560122,8.818747],[-10.559734,8.818834],[-10.559464,8.819431],[-10.559783,8.820055],[-10.558981,8.820317],[-10.558679,8.820433],[-10.558355,8.820338],[-10.558142,8.820214],[-10.558223,8.819837],[-10.558193,8.819415],[-10.557811,8.819473],[-10.5573845,8.819816],[-10.557369,8.8202],[-10.55777,8.820592],[-10.5577,8.820906],[-10.55745,8.8214],[-10.557295,8.822152],[-10.557402,8.823054],[-10.557317,8.823331],[-10.556857,8.823835],[-10.557023,8.824351],[-10.557825,8.824429],[-10.558076,8.824607],[-10.55803,8.825083],[-10.558097,8.82534],[-10.558392,8.825915],[-10.558138,8.826276],[-10.557751,8.826544],[-10.557693,8.826907],[-10.557847,8.827129],[-10.558399,8.827478],[-10.558958,8.827664],[-10.559319,8.827747],[-10.559455,8.828195],[-10.559352,8.828409],[-10.559153,8.828523],[-10.5589285,8.828682],[-10.558752,8.828696],[-10.558672,8.828431],[-10.558395,8.8283],[-10.558085,8.828281],[-10.55794,8.828624],[-10.558023,8.828853],[-10.558789,8.829005],[-10.559201,8.829308],[-10.559615,8.830026],[-10.559646,8.830395],[-10.559868,8.83123],[-10.559467,8.831697],[-10.559355,8.832039],[-10.559383,8.832545],[-10.559224,8.833165],[-10.558883,8.833765],[-10.559324,8.834292],[-10.559941,8.834892],[-10.560276,8.8364525],[-10.560244,8.836851],[-10.559232,8.837899],[-10.559099,8.838516],[-10.559089,8.840022],[-10.559456,8.841185],[-10.559585,8.841861],[-10.5602,8.842981],[-10.559747,8.8437805],[-10.559048,8.844737],[-10.559066,8.845111],[-10.559331,8.845442],[-10.559485,8.845183],[-10.559761,8.845036],[-10.559913,8.845228],[-10.560093,8.8463955],[-10.561141,8.846173],[-10.561616,8.846587],[-10.562123,8.847519],[-10.561314,8.8484335],[-10.561277,8.850288],[-10.561612,8.852058],[-10.562172,8.8546505],[-10.562138,8.855639],[-10.563886,8.8552685],[-10.563897,8.856301],[-10.56304,8.856832],[-10.562594,8.857359],[-10.563032,8.858013],[-10.563066,8.85849],[-10.563448,8.859104],[-10.563528,8.859767],[-10.564442,8.86029],[-10.56534,8.8601675],[-10.565938,8.860424],[-10.566165,8.861091],[-10.566195,8.86152],[-10.566537,8.861535],[-10.566719,8.861613],[-10.567166,8.863103],[-10.56689,8.863434],[-10.566841,8.864139],[-10.567304,8.864134],[-10.567378,8.864343],[-10.567135,8.864746],[-10.567187,8.865169],[-10.567567,8.865548],[-10.567174,8.865778],[-10.566867,8.866053],[-10.566717,8.86631],[-10.566727,8.86663],[-10.566889,8.866737],[-10.567132,8.866508],[-10.5674515,8.866508],[-10.567853,8.866551],[-10.568073,8.866776],[-10.568033,8.866937],[-10.567772,8.867027],[-10.567639,8.86719],[-10.5672455,8.867147],[-10.5671425,8.867336],[-10.567213,8.86774],[-10.567239,8.86846],[-10.56726,8.869132],[-10.5674925,8.869317],[-10.56822,8.869362],[-10.568394,8.869495],[-10.568364,8.869754],[-10.567687,8.870731],[-10.567756,8.870898],[-10.567964,8.871037],[-10.568384,8.870855],[-10.568748,8.870938],[-10.569006,8.871102],[-10.569469,8.871538],[-10.569661,8.872146],[-10.569748,8.872826],[-10.569743,8.873445],[-10.569812,8.874189],[-10.569842,8.874635],[-10.570125,8.875048],[-10.570466,8.875451],[-10.571023,8.875709],[-10.571228,8.875981],[-10.570968,8.876724],[-10.571307,8.877336],[-10.570919,8.877505],[-10.570451,8.877516],[-10.570255,8.877655],[-10.570315,8.877896],[-10.570549,8.8782015],[-10.570617,8.878564],[-10.57049,8.878841],[-10.570061,8.8790455],[-10.569636,8.8795],[-10.569574,8.880006],[-10.569767,8.880312],[-10.5698,8.880528],[-10.569506,8.880991],[-10.569483,8.881212],[-10.569826,8.881343],[-10.570024,8.881546],[-10.570123,8.881986],[-10.5703125,8.882096],[-10.5709,8.882201],[-10.571007,8.882387],[-10.570963,8.882792],[-10.570662,8.883147],[-10.570617,8.883405],[-10.57076,8.883648],[-10.571461,8.884062],[-10.571544,8.884356],[-10.571442,8.884685],[-10.570611,8.885179],[-10.570497,8.885446],[-10.570788,8.886031],[-10.571018,8.886329],[-10.571371,8.886345],[-10.571803,8.886021],[-10.572298,8.886186],[-10.572869,8.885939],[-10.573016,8.885158],[-10.573345,8.884925],[-10.573617,8.885109],[-10.573303,8.886014],[-10.573841,8.886696],[-10.573823,8.8870325],[-10.573957,8.887264],[-10.574531,8.887243],[-10.574765,8.887701],[-10.57466,8.888009],[-10.574296,8.888221],[-10.574135,8.888518],[-10.574156,8.888806],[-10.574336,8.888943],[-10.574675,8.8890705],[-10.574723,8.889189],[-10.574395,8.889513],[-10.574129,8.889749],[-10.573832,8.889828],[-10.573409,8.889898],[-10.573214,8.890275],[-10.573062,8.890862],[-10.57318,8.89121],[-10.573183,8.891429],[-10.573407,8.891447],[-10.573485,8.891332],[-10.573388,8.89107],[-10.57361,8.890707],[-10.574047,8.890687],[-10.574291,8.890893],[-10.574427,8.891104],[-10.574523,8.892173],[-10.574699,8.892381],[-10.5749855,8.892474],[-10.575327,8.892042],[-10.5758,8.891782],[-10.576242,8.891947],[-10.576297,8.892273],[-10.575982,8.892476],[-10.5758705,8.892882],[-10.57642,8.894473],[-10.576107,8.89507],[-10.57591,8.895887],[-10.575765,8.896558],[-10.575511,8.89702],[-10.575158,8.897504],[-10.575053,8.898115],[-10.575121,8.89874],[-10.575342,8.899146],[-10.576021,8.899686],[-10.576039,8.899994],[-10.575894,8.900449],[-10.5749855,8.902012],[-10.574678,8.903358],[-10.5749235,8.904381],[-10.574632,8.904996],[-10.574258,8.905463],[-10.574586,8.905947],[-10.574552,8.90697],[-10.574814,8.907836],[-10.57458,8.908027],[-10.573956,8.908091],[-10.573596,8.90826],[-10.573302,8.908504],[-10.572993,8.908849],[-10.573022,8.909026],[-10.573221,8.909196],[-10.573743,8.90926],[-10.574273,8.909545],[-10.57441,8.909866],[-10.574336,8.909972],[-10.573802,8.910039],[-10.573635,8.910288],[-10.573852,8.910866],[-10.573594,8.911108],[-10.573555,8.911351],[-10.573841,8.911722],[-10.573841,8.912344],[-10.57408,8.913254],[-10.574615,8.913331],[-10.5749,8.912963],[-10.575118,8.912424],[-10.575589,8.912188],[-10.575821,8.912338],[-10.575584,8.913019],[-10.575496,8.913407],[-10.575756,8.913539],[-10.576104,8.913719],[-10.576357,8.914036],[-10.576506,8.914529],[-10.576461,8.914888],[-10.575727,8.915354],[-10.575371,8.915557],[-10.575316,8.9157295],[-10.575714,8.915942],[-10.57591,8.916281],[-10.576068,8.916883],[-10.575928,8.917068],[-10.575436,8.917171],[-10.575017,8.917287],[-10.574921,8.917677],[-10.575214,8.918504],[-10.575758,8.919723],[-10.575295,8.919842],[-10.575127,8.920054],[-10.575214,8.920928],[-10.574949,8.921284],[-10.574939,8.921598],[-10.5751915,8.922039],[-10.575324,8.922375],[-10.575475,8.922693],[-10.57568,8.922776],[-10.575741,8.92239],[-10.576089,8.922111],[-10.576539,8.922501],[-10.576501,8.922778],[-10.576674,8.923225],[-10.577095,8.923386],[-10.577587,8.923295],[-10.577661,8.923478],[-10.577421,8.92366],[-10.577531,8.923994],[-10.5777645,8.924157],[-10.578043,8.9242],[-10.5783415,8.92437],[-10.578552,8.9246235],[-10.578414,8.924886],[-10.578022,8.925259],[-10.577954,8.925762],[-10.578063,8.926035],[-10.578061,8.926276],[-10.57797,8.926443],[-10.577682,8.926549],[-10.577367,8.926719],[-10.577239,8.926968],[-10.577291,8.927174],[-10.577436,8.927282],[-10.577702,8.927363],[-10.577971,8.927515],[-10.577923,8.927667],[-10.577689,8.927672],[-10.57745,8.927567],[-10.57715,8.927541],[-10.577003,8.927703],[-10.577066,8.92795],[-10.577283,8.928217],[-10.577421,8.928584],[-10.577335,8.928777],[-10.577083,8.929216],[-10.57682,8.929369],[-10.576703,8.930003],[-10.576789,8.930139],[-10.576961,8.930182],[-10.577205,8.929494],[-10.577364,8.929574],[-10.577572,8.929109],[-10.577864,8.929227],[-10.578201,8.929738],[-10.578105,8.930214],[-10.577967,8.930884],[-10.578034,8.931051],[-10.578212,8.931013],[-10.578337,8.930861],[-10.578587,8.93071],[-10.57885,8.930679],[-10.579032,8.930874],[-10.579231,8.93136],[-10.580015,8.931586],[-10.580335,8.931861],[-10.580655,8.933033],[-10.58077,8.933254],[-10.581133,8.9333],[-10.58131,8.933406],[-10.581409,8.933578],[-10.581352,8.934046],[-10.581446,8.934264],[-10.581654,8.934487],[-10.581862,8.934393],[-10.582101,8.9342],[-10.582312,8.934207],[-10.582595,8.934374],[-10.582858,8.934814],[-10.582869,8.935187],[-10.582548,8.935521],[-10.582599,8.935732],[-10.582634,8.936192],[-10.582774,8.936384],[-10.583004,8.936698],[-10.583118,8.937174],[-10.582649,8.937382],[-10.582543,8.937584],[-10.5825615,8.937885],[-10.5832405,8.938169],[-10.583782,8.938449],[-10.583771,8.938698],[-10.583251,8.939021],[-10.58271,8.93916],[-10.58214,8.939523],[-10.582441,8.939957],[-10.582413,8.940618],[-10.582658,8.94089],[-10.582911,8.940823],[-10.583058,8.940268],[-10.583399,8.939735],[-10.583793,8.939559],[-10.583995,8.939622],[-10.58401,8.94011],[-10.584164,8.94044],[-10.584206,8.940791],[-10.583839,8.940825],[-10.583482,8.940975],[-10.583159,8.941231],[-10.583144,8.941414],[-10.583482,8.941753],[-10.583904,8.942196],[-10.58387,8.942352],[-10.583337,8.942395],[-10.583173,8.942599],[-10.58328,8.942894],[-10.584141,8.94376],[-10.584231,8.944081],[-10.584084,8.944428],[-10.583528,8.944243],[-10.583243,8.944562],[-10.583284,8.944974],[-10.584081,8.945215],[-10.584564,8.94574],[-10.584258,8.946962],[-10.584544,8.94798],[-10.585079,8.948849],[-10.58496,8.949974],[-10.585121,8.950396],[-10.58507,8.951521],[-10.585419,8.952144],[-10.5853815,8.952493],[-10.585772,8.953341],[-10.585866,8.955001],[-10.586989,8.955926],[-10.587697,8.956728],[-10.587864,8.957684],[-10.588024,8.958306],[-10.588624,8.957899],[-10.588946,8.957222],[-10.5892315,8.956939],[-10.589508,8.95717],[-10.589227,8.957524],[-10.588936,8.959493],[-10.587874,8.959899],[-10.587292,8.959312],[-10.58675,8.959282],[-10.586657,8.959585],[-10.5861,8.959714],[-10.585532,8.959354],[-10.584851,8.959724],[-10.584564,8.960501],[-10.585169,8.961796],[-10.585252,8.962771],[-10.585033,8.963342],[-10.584487,8.963799],[-10.584591,8.964278],[-10.585079,8.964705],[-10.585434,8.9644165],[-10.587072,8.962891],[-10.588009,8.96327],[-10.588551,8.96491],[-10.589087,8.96747],[-10.588665,8.968723],[-10.587832,8.969402],[-10.587645,8.970173],[-10.588722,8.9713545],[-10.589227,8.973221],[-10.588936,8.974197],[-10.589809,8.975687],[-10.590538,8.977697],[-10.589466,8.978642],[-10.589606,8.980165],[-10.589871,8.981351],[-10.5891485,8.983088],[-10.589784,8.98424],[-10.590476,8.985219],[-10.590434,8.985935],[-10.591201,8.986904],[-10.591149,8.987341],[-10.590863,8.987233],[-10.590669,8.987411],[-10.590767,8.987539],[-10.591107,8.987775],[-10.591325,8.99186],[-10.5910425,8.993502],[-10.590144,8.994875],[-10.590592,8.995682],[-10.590378,8.996317],[-10.589337,8.998146],[-10.5890665,9.00009],[-10.587517,9.000469],[-10.5866,9.001702],[-10.586756,9.003561],[-10.587858,9.003477],[-10.589113,9.004229],[-10.589485,9.005047],[-10.590242,9.005126],[-10.590422,9.005665],[-10.589978,9.00676],[-10.589651,9.008864],[-10.58978,9.009423],[-10.588919,9.010725],[-10.589041,9.012097],[-10.589018,9.012044],[-10.587433,9.013287],[-10.5858,9.012891],[-10.584525,9.014373],[-10.583852,9.014659],[-10.583424,9.014492],[-10.583125,9.0147295],[-10.583356,9.0155945],[-10.584356,9.016113],[-10.5838175,9.016612],[-10.582506,9.016408],[-10.581108,9.015216],[-10.5809555,9.015138],[-10.5805645,9.015733],[-10.579993,9.016655],[-10.579996,9.0171585],[-10.580385,9.017924],[-10.580813,9.0181265],[-10.581112,9.019321],[-10.580826,9.020911],[-10.581365,9.021682],[-10.581663,9.02266],[-10.581589,9.023274],[-10.580826,9.02403],[-10.580922,9.024434],[-10.580961,9.024961],[-10.5805855,9.025494],[-10.580903,9.026158],[-10.580191,9.026928],[-10.580682,9.027614],[-10.580624,9.028173],[-10.579968,9.0286875],[-10.580075,9.0291815],[-10.5807295,9.029363],[-10.581432,9.029305],[-10.581663,9.029524],[-10.581808,9.030056],[-10.581605,9.030693],[-10.58148,9.031169],[-10.581245,9.03143],[-10.581079,9.0314665],[-10.580861,9.031516],[-10.580283,9.031173],[-10.579898,9.030736],[-10.57976,9.030712],[-10.579546,9.030884],[-10.579388,9.031454],[-10.579577,9.031835],[-10.580108,9.031854],[-10.580264,9.031814],[-10.580467,9.031959],[-10.580415,9.032353],[-10.580095,9.032329],[-10.579752,9.032517],[-10.579449,9.03322],[-10.578753,9.033547],[-10.578288,9.03405],[-10.578457,9.034354],[-10.578996,9.034462],[-10.579158,9.034882],[-10.578781,9.035884],[-10.578413,9.036135],[-10.578272,9.036746],[-10.578081,9.03798],[-10.577726,9.038176],[-10.5771,9.038284],[-10.577095,9.038683],[-10.576837,9.038836],[-10.576593,9.038743],[-10.576505,9.038487],[-10.576371,9.0382595],[-10.576149,9.038248],[-10.576027,9.038424],[-10.576274,9.038659],[-10.576376,9.039071],[-10.576015,9.039838],[-10.576044,9.041167],[-10.575841,9.04173],[-10.575952,9.042667],[-10.575692,9.043216],[-10.575409,9.043439],[-10.574991,9.043664],[-10.57471,9.043484],[-10.57434,9.043404],[-10.574269,9.043582],[-10.57412,9.043874],[-10.573854,9.043953],[-10.573798,9.044081],[-10.573811,9.044395],[-10.574068,9.044746],[-10.574348,9.045123],[-10.574392,9.045466],[-10.574574,9.046226],[-10.574552,9.046667],[-10.574578,9.0471],[-10.574407,9.047271],[-10.574073,9.04718],[-10.573863,9.047012],[-10.573713,9.04702],[-10.5735855,9.047283],[-10.573726,9.04758],[-10.573919,9.047704],[-10.574168,9.047871],[-10.574123,9.0481],[-10.574024,9.048326],[-10.573747,9.048532],[-10.573611,9.048755],[-10.573567,9.048971],[-10.573579,9.04915],[-10.573593,9.049368],[-10.573514,9.049401],[-10.573469,9.049529],[-10.573506,9.049869],[-10.573685,9.050114],[-10.573899,9.050854],[-10.573873,9.05122],[-10.574412,9.051475],[-10.574746,9.051845],[-10.5752125,9.052251],[-10.575876,9.052646],[-10.576623,9.052824],[-10.577618,9.052824],[-10.57809,9.05276],[-10.578663,9.052872],[-10.578938,9.0528],[-10.57914,9.0526085],[-10.579521,9.052547],[-10.579977,9.052547],[-10.580384,9.052662],[-10.580987,9.052385],[-10.581426,9.052402],[-10.581898,9.052646],[-10.582403,9.05232],[-10.583184,9.051897],[-10.583298,9.051734],[-10.583559,9.051766],[-10.583819,9.052027],[-10.583998,9.051977],[-10.584143,9.051487],[-10.584405,9.05157],[-10.584512,9.051511],[-10.584607,9.051295],[-10.584668,9.051295],[-10.584858,9.051462],[-10.585014,9.051916],[-10.585204,9.052084],[-10.585265,9.052358],[-10.585504,9.0526085],[-10.585527,9.052918],[-10.585885,9.053169],[-10.585933,9.053266],[-10.585897,9.053373],[-10.585695,9.0535755],[-10.585683,9.053779],[-10.585791,9.054029],[-10.585903,9.054614],[-10.586721,9.054936],[-10.586841,9.055594],[-10.586947,9.055737],[-10.586924,9.055928],[-10.586841,9.056034],[-10.586841,9.056143],[-10.587043,9.056274],[-10.587433,9.05639],[-10.587694,9.056323],[-10.587905,9.056438],[-10.588246,9.056357],[-10.588404,9.0565],[-10.588512,9.056823],[-10.588786,9.05711],[-10.58893,9.057157],[-10.589097,9.057122],[-10.58924,9.0570135],[-10.589443,9.05699],[-10.589539,9.057086],[-10.589539,9.05718],[-10.589312,9.0573015],[-10.589228,9.057407],[-10.589324,9.057504],[-10.589515,9.057527],[-10.589574,9.057623],[-10.589561,9.057718],[-10.589264,9.058017],[-10.589288,9.05822],[-10.589561,9.058184],[-10.589574,9.058387],[-10.589431,9.05853],[-10.589431,9.058793],[-10.5892515,9.058971],[-10.589527,9.059306],[-10.58955,9.059557],[-10.589788,9.059808],[-10.589705,9.059962],[-10.589754,9.060142],[-10.590375,9.060488],[-10.590852,9.061026],[-10.591365,9.061397],[-10.591473,9.061372],[-10.5914955,9.061239],[-10.591138,9.060883],[-10.591163,9.0606785],[-10.591628,9.060655],[-10.591902,9.060572],[-10.592189,9.060584],[-10.592283,9.060643],[-10.592272,9.060787],[-10.592189,9.060929],[-10.592249,9.061227],[-10.592404,9.061397],[-10.592618,9.061502],[-10.5928335,9.061526],[-10.593204,9.061264],[-10.593526,9.061227],[-10.593728,9.061072],[-10.59392,9.061049],[-10.594016,9.061109],[-10.594111,9.061336],[-10.594241,9.061359],[-10.594541,9.061144],[-10.59472,9.061121],[-10.594922,9.061467],[-10.595054,9.061502],[-10.595197,9.061431],[-10.5954,9.0614195],[-10.595723,9.061502],[-10.595854,9.061598],[-10.595925,9.0617895],[-10.596378,9.062196],[-10.59675,9.062421],[-10.596666,9.062542],[-10.596462,9.062684],[-10.596462,9.062876],[-10.596582,9.062995],[-10.596939,9.063043],[-10.597096,9.063293],[-10.597215,9.06333],[-10.597502,9.063222],[-10.597799,9.06321],[-10.598242,9.062924],[-10.598683,9.062924],[-10.598863,9.062972],[-10.598922,9.063293],[-10.599054,9.063376],[-10.599244,9.063413],[-10.599317,9.063592],[-10.5994835,9.063701],[-10.599782,9.063711],[-10.5999365,9.063807],[-10.60045,9.063794],[-10.6005335,9.064056],[-10.60082,9.064285],[-10.600867,9.064465],[-10.601047,9.064558],[-10.601429,9.064607],[-10.60156,9.064703],[-10.601715,9.065072],[-10.6018715,9.06518],[-10.60199,9.065216],[-10.602228,9.065024],[-10.602347,9.065062],[-10.602479,9.065167],[-10.602825,9.065167],[-10.602944,9.065264],[-10.603148,9.065216],[-10.603243,9.0650835],[-10.603601,9.065132],[-10.603829,9.0650835],[-10.603888,9.065192],[-10.6039,9.065944],[-10.604019,9.066111],[-10.6043415,9.066159],[-10.604605,9.066481],[-10.604962,9.066457],[-10.605058,9.066612],[-10.60519,9.066601],[-10.605249,9.066493],[-10.605249,9.066338],[-10.60544,9.0662775],[-10.605739,9.066397],[-10.605893,9.066624],[-10.606204,9.066708],[-10.606676,9.067104],[-10.607572,9.067319],[-10.6074915,9.067545],[-10.607729,9.067591],[-10.607854,9.06793],[-10.60816,9.068158],[-10.608664,9.068356],[-10.608831,9.068356],[-10.608898,9.068044],[-10.609362,9.067897],[-10.609543,9.067795],[-10.610484,9.067805],[-10.610669,9.0678425],[-10.610669,9.068176],[-10.610801,9.068308],[-10.611123,9.068368],[-10.611265,9.068486],[-10.611255,9.068678],[-10.610968,9.068881],[-10.6109915,9.069012],[-10.611074,9.069059],[-10.61129,9.069024],[-10.611396,9.069144],[-10.611517,9.069144],[-10.611708,9.068916],[-10.611911,9.068821],[-10.612281,9.068999],[-10.612794,9.068964],[-10.612865,9.069083],[-10.613081,9.069166],[-10.613354,9.069144],[-10.613386,9.069601],[-10.613466,9.069645],[-10.613686,9.069633],[-10.613764,9.069684],[-10.613737,9.069884],[-10.613694,9.070039],[-10.613682,9.070246],[-10.613861,9.070214],[-10.614072,9.070314],[-10.614306,9.0705],[-10.614519,9.07054],[-10.614467,9.070779],[-10.614509,9.070967],[-10.614583,9.0712],[-10.614943,9.071217],[-10.6151495,9.071446],[-10.615387,9.071523],[-10.615589,9.071757],[-10.615786,9.071706],[-10.615708,9.071551],[-10.615934,9.071507],[-10.616037,9.07159],[-10.616206,9.071725],[-10.616532,9.071727],[-10.616494,9.071913],[-10.616611,9.072175],[-10.616703,9.0721445],[-10.616823,9.071988],[-10.616961,9.072043],[-10.617151,9.072271],[-10.617391,9.072426],[-10.617545,9.072438],[-10.618847,9.073191],[-10.619002,9.073234],[-10.619461,9.073577],[-10.619875,9.073828],[-10.619998,9.073806],[-10.620154,9.073634],[-10.620396,9.073585],[-10.620804,9.073631],[-10.620856,9.073368],[-10.620963,9.073185],[-10.621113,9.073194],[-10.621253,9.073275],[-10.621493,9.073008],[-10.621852,9.072891],[-10.621967,9.072625],[-10.622106,9.072713],[-10.622615,9.072416],[-10.62323,9.072327],[-10.62342,9.072148],[-10.623635,9.072067],[-10.624673,9.071519],[-10.62484,9.071614],[-10.625162,9.07171],[-10.6256275,9.07171],[-10.625915,9.071889],[-10.626308,9.072271],[-10.626488,9.07257],[-10.626595,9.072868],[-10.626464,9.073513],[-10.626524,9.073716],[-10.626882,9.074277],[-10.627145,9.074348],[-10.627578,9.074335],[-10.627929,9.073769],[-10.628971,9.073598],[-10.629244,9.073825],[-10.629473,9.074326],[-10.6296625,9.074504],[-10.629961,9.074623],[-10.6304035,9.074707],[-10.630819,9.074902],[-10.631363,9.075061],[-10.631793,9.075163],[-10.63217,9.075183],[-10.632326,9.075315],[-10.632361,9.075495],[-10.632158,9.075853],[-10.632194,9.076032],[-10.632303,9.076228],[-10.632747,9.076353],[-10.632837,9.076137],[-10.633257,9.076008],[-10.6334715,9.076043],[-10.633626,9.07578],[-10.63377,9.075757],[-10.633949,9.0759],[-10.634164,9.075733],[-10.634318,9.075745],[-10.63451,9.076032],[-10.634844,9.076008],[-10.635095,9.076293],[-10.635322,9.076293],[-10.635525,9.076354],[-10.635645,9.076509],[-10.6357155,9.076927],[-10.635859,9.077011],[-10.636122,9.076974],[-10.6363125,9.077011],[-10.636456,9.077141],[-10.636731,9.077524],[-10.636982,9.077715],[-10.637495,9.077966],[-10.63777,9.078084],[-10.638067,9.078133],[-10.638546,9.078062],[-10.638712,9.078084],[-10.63894,9.078347],[-10.639143,9.078479],[-10.640097,9.078634],[-10.640778,9.078909],[-10.642008,9.079615],[-10.642221,9.079685],[-10.642963,9.079518],[-10.643142,9.0795765],[-10.643261,9.079708],[-10.643715,9.080007],[-10.644706,9.080521],[-10.645146,9.080509],[-10.645673,9.08058],[-10.64658,9.08095],[-10.646985,9.081022],[-10.647559,9.080974],[-10.647701,9.081022],[-10.647774,9.081153],[-10.647833,9.081499],[-10.647953,9.081666],[-10.648144,9.081761],[-10.648335,9.081761],[-10.648876,9.081578],[-10.649137,9.081408],[-10.649635,9.08134],[-10.649714,9.081124],[-10.649726,9.080864],[-10.649862,9.08074],[-10.650078,9.080706],[-10.650519,9.0805235],[-10.650663,9.080542],[-10.650734,9.081284],[-10.650928,9.081443],[-10.65111,9.081476],[-10.651551,9.081408],[-10.65197,9.081668],[-10.652457,9.081873],[-10.653161,9.081896],[-10.653558,9.082032],[-10.653942,9.082292],[-10.65426,9.082439],[-10.654589,9.082529],[-10.654826,9.082723],[-10.655241,9.082731],[-10.655474,9.082348],[-10.655733,9.082406],[-10.655813,9.082519],[-10.656039,9.082439],[-10.656641,9.082406],[-10.656709,9.082223],[-10.657038,9.082337],[-10.658239,9.082475],[-10.65875,9.082417],[-10.659838,9.082903],[-10.660256,9.082882],[-10.660518,9.08295],[-10.6608,9.083143],[-10.661084,9.083176],[-10.661402,9.083369],[-10.661707,9.08347],[-10.662149,9.08347],[-10.662763,9.083221],[-10.663374,9.083164],[-10.664042,9.083358],[-10.66436,9.083562],[-10.6647,9.084163],[-10.665605,9.084904],[-10.665887,9.085342],[-10.666421,9.085593],[-10.667079,9.085687],[-10.667549,9.085687],[-10.68135,9.081704],[-10.689568,9.082487],[-10.693533,9.081136],[-10.694398,9.080841],[-10.696389,9.080163],[-10.700703,9.078692],[-10.705533,9.079539],[-10.713782,9.080386],[-10.722439,9.077438],[-10.724057,9.078448],[-10.726077,9.080073],[-10.72752,9.080105],[-10.728963,9.080324],[-10.729778,9.080731],[-10.730468,9.08114],[-10.730751,9.081704],[-10.730813,9.082457],[-10.730774,9.083354],[-10.7308035,9.084298],[-10.730224,9.086253],[-10.729826,9.08676],[-10.728414,9.0879545],[-10.727979,9.088607],[-10.7276535,9.090744],[-10.727219,9.092299],[-10.726929,9.094582],[-10.726929,9.096683],[-10.72729,9.098927],[-10.727074,9.10034],[-10.726712,9.101425],[-10.726276,9.10407],[-10.725951,9.104756],[-10.725408,9.105337],[-10.725408,9.105662],[-10.725807,9.10675],[-10.72577,9.107221],[-10.722356,9.111433],[-10.723346,9.112422],[-10.723629,9.113033],[-10.723723,9.114213],[-10.723676,9.115461],[-10.72318,9.116615],[-10.722285,9.117983],[-10.721909,9.118924],[-10.721296,9.120009],[-10.72007,9.121753],[-10.71993,9.123025],[-10.719741,9.124015],[-10.7196,9.125145],[-10.719081,9.1275015],[-10.71894,9.128539],[-10.718798,9.128869],[-10.718232,9.129529],[-10.719646,9.1307535],[-10.720542,9.131413],[-10.720965,9.132403],[-10.720919,9.1335335],[-10.720589,9.1346655],[-10.719977,9.135654],[-10.719364,9.137069],[-10.717149,9.136503],[-10.715406,9.136408],[-10.714322,9.136974],[-10.713802,9.137445],[-10.713662,9.138293],[-10.714039,9.138718],[-10.714887,9.139425],[-10.714981,9.140321],[-10.714557,9.141829],[-10.71385,9.143054],[-10.713379,9.144562],[-10.714981,9.144704],[-10.716111,9.145503],[-10.716272,9.147268],[-10.716301,9.147578],[-10.716489,9.148662],[-10.716631,9.1499815],[-10.716018,9.150924],[-10.7147455,9.151914],[-10.713001,9.152385],[-10.711777,9.15262],[-10.7114,9.155354],[-10.7114935,9.156485],[-10.711117,9.157191],[-10.710551,9.157662],[-10.708807,9.158087],[-10.707724,9.158039],[-10.708288,9.159077],[-10.709326,9.159971],[-10.709468,9.160868],[-10.709326,9.162233],[-10.708807,9.162753],[-10.707959,9.163318],[-10.709278,9.163742],[-10.710221,9.1641655],[-10.710645,9.164685],[-10.710928,9.165721],[-10.71154,9.166286],[-10.712248,9.166382],[-10.713237,9.166382],[-10.714416,9.166571],[-10.714981,9.166947],[-10.71583,9.168691],[-10.715878,9.1695385],[-10.715453,9.170623],[-10.715499,9.172414],[-10.715406,9.173403],[-10.714934,9.17411],[-10.714133,9.175477],[-10.715311,9.176466],[-10.716111,9.176702],[-10.717054,9.176702],[-10.717761,9.17623],[-10.718422,9.175617],[-10.71927,9.175383],[-10.720023,9.175666],[-10.720684,9.176325],[-10.721107,9.177691],[-10.723134,9.178775],[-10.722663,9.18033],[-10.722332,9.182074],[-10.722144,9.182592],[-10.721814,9.1845255],[-10.72172,9.185892],[-10.721861,9.187117],[-10.721484,9.187964],[-10.720636,9.188861],[-10.72026,9.189709],[-10.719505,9.190933],[-10.718752,9.191359],[-10.717479,9.191546],[-10.716631,9.1915],[-10.715924,9.193762],[-10.71583,9.1951275],[-10.715406,9.196732],[-10.715028,9.197767],[-10.715263,9.198523],[-10.715358,9.199227],[-10.714934,9.2001705],[-10.713897,9.201255],[-10.713143,9.199557],[-10.711965,9.197391],[-10.709939,9.197344],[-10.70909,9.196872],[-10.7079115,9.195882],[-10.707394,9.194798],[-10.707064,9.193291],[-10.706828,9.192631],[-10.706734,9.191736],[-10.706687,9.190132],[-10.705933,9.189332],[-10.705933,9.188766],[-10.706168,9.187683],[-10.706216,9.186503],[-10.705791,9.185986],[-10.704661,9.185609],[-10.702634,9.185702],[-10.701503,9.186127],[-10.699995,9.188671],[-10.699571,9.189709],[-10.699053,9.19117],[-10.698675,9.191688],[-10.698015,9.191923],[-10.696885,9.191546],[-10.696224,9.191594],[-10.69533,9.191971],[-10.693822,9.193291],[-10.6916065,9.193432],[-10.690287,9.193432],[-10.689203,9.193762],[-10.688213,9.193432],[-10.686988,9.192207],[-10.686657,9.191452],[-10.685857,9.191123],[-10.684727,9.191264],[-10.683878,9.19216],[-10.683076,9.193243],[-10.682464,9.194846],[-10.681899,9.195741],[-10.681285,9.196401],[-10.680202,9.196495],[-10.67907,9.197155],[-10.677752,9.19772],[-10.676668,9.197767],[-10.675207,9.197767],[-10.674075,9.197485],[-10.672002,9.198097],[-10.670258,9.198756],[-10.667195,9.199699],[-10.66564,9.201114],[-10.663614,9.203281],[-10.663896,9.20493],[-10.664037,9.206391],[-10.663614,9.207334],[-10.661869,9.209878],[-10.660502,9.210539],[-10.658665,9.21068],[-10.656875,9.211152],[-10.656404,9.212424],[-10.656025,9.213131],[-10.655744,9.215628],[-10.656073,9.21709],[-10.656639,9.218833],[-10.657016,9.219776],[-10.657628,9.221001],[-10.657816,9.222273],[-10.657299,9.222886],[-10.656025,9.224206],[-10.655697,9.225289],[-10.65579,9.226373],[-10.656356,9.227976],[-10.656968,9.229295],[-10.65824,9.231179],[-10.659655,9.231556],[-10.661587,9.231699],[-10.665499,9.231416],[-10.666724,9.231699],[-10.667242,9.232311],[-10.667667,9.235138],[-10.667995,9.236176],[-10.6687975,9.23726],[-10.669645,9.237824],[-10.670446,9.238108],[-10.66941,9.240841],[-10.669551,9.242114],[-10.670164,9.243385],[-10.67073,9.244941],[-10.670493,9.247251],[-10.670541,9.248806],[-10.670022,9.249984],[-10.670211,9.250973],[-10.669786,9.251774],[-10.668609,9.252857],[-10.668562,9.253705],[-10.669222,9.2546015],[-10.667667,9.258749],[-10.667336,9.260162],[-10.668091,9.261248],[-10.6684675,9.262095],[-10.666912,9.264828],[-10.669174,9.266101],[-10.667995,9.269306],[-10.666818,9.273264],[-10.665545,9.273358],[-10.664085,9.274017],[-10.662624,9.274865],[-10.6616335,9.276656],[-10.660078,9.280003],[-10.660974,9.280756],[-10.661116,9.282077],[-10.66088,9.2858],[-10.660219,9.2866],[-10.656686,9.28726],[-10.654047,9.288532],[-10.653857,9.289618],[-10.654518,9.290842],[-10.656733,9.291925],[-10.658759,9.292539],[-10.660078,9.293246],[-10.660833,9.293904],[-10.661869,9.295083],[-10.660219,9.29678],[-10.659843,9.297534],[-10.660362,9.298665],[-10.660032,9.299748],[-10.659136,9.300738],[-10.658948,9.301634],[-10.659607,9.302718],[-10.660645,9.303235],[-10.664273,9.304226],[-10.665169,9.304744],[-10.665451,9.30531],[-10.665545,9.306346],[-10.66531,9.307619],[-10.664556,9.30842],[-10.6634245,9.310683],[-10.664226,9.311859],[-10.665499,9.312379],[-10.66663,9.312897],[-10.667713,9.312802],[-10.6687975,9.3137455],[-10.66974,9.31417],[-10.671813,9.314453],[-10.673368,9.314358],[-10.674264,9.31417],[-10.675865,9.314688],[-10.676714,9.31563],[-10.678035,9.316525],[-10.679731,9.317092],[-10.681333,9.317751],[-10.68204,9.318411],[-10.682181,9.320155],[-10.682936,9.320813],[-10.683547,9.32171],[-10.683642,9.323075],[-10.6835,9.324113],[-10.685999,9.324632],[-10.688779,9.324679],[-10.690428,9.325621],[-10.692501,9.32614],[-10.69335,9.326423],[-10.6951885,9.328118],[-10.69679,9.329014],[-10.698063,9.329297],[-10.698957,9.329156],[-10.701503,9.328072],[-10.702776,9.327318],[-10.703577,9.3272705],[-10.704095,9.327742],[-10.705132,9.328307],[-10.705839,9.3293915],[-10.706357,9.330617],[-10.708619,9.332218],[-10.707724,9.335188],[-10.705178,9.337309],[-10.703341,9.339758],[-10.702916,9.341597],[-10.704235,9.344519],[-10.705509,9.34551],[-10.707864,9.346593],[-10.7097025,9.348101],[-10.710457,9.3489485],[-10.711777,9.349137],[-10.714133,9.347959],[-10.715499,9.347487],[-10.716583,9.348335],[-10.717431,9.34975],[-10.718232,9.350504],[-10.71927,9.351305],[-10.719364,9.352672],[-10.719222,9.354226],[-10.718845,9.355735],[-10.718186,9.357101],[-10.718327,9.360918],[-10.717102,9.361531],[-10.716725,9.362097],[-10.716866,9.362992],[-10.717997,9.363888],[-10.719081,9.364925],[-10.719364,9.366197],[-10.719882,9.36714],[-10.721532,9.369542],[-10.723087,9.37058],[-10.724735,9.373265],[-10.725585,9.3753395],[-10.72648,9.376424],[-10.727281,9.377176],[-10.727894,9.377224],[-10.729072,9.377083],[-10.729685,9.377508],[-10.730156,9.378403],[-10.731005,9.379251],[-10.731523,9.3795805],[-10.7327,9.3795805],[-10.7343025,9.379392],[-10.735717,9.378686],[-10.736329,9.377743],[-10.737177,9.376188],[-10.737601,9.375811],[-10.738356,9.375764],[-10.740852,9.376188],[-10.741278,9.376846],[-10.741278,9.377837],[-10.741609,9.381607],[-10.742032,9.382267],[-10.742785,9.38302],[-10.743681,9.38368],[-10.744765,9.38401],[-10.746225,9.383539],[-10.747734,9.383398],[-10.750185,9.383822],[-10.7533,9.384732],[-10.755427,9.385024],[-10.756678,9.38515],[-10.757929,9.385734],[-10.76135,9.385567],[-10.761807,9.384857],[-10.762767,9.382564],[-10.763018,9.381563],[-10.762893,9.380521],[-10.762559,9.379812],[-10.763559,9.379311],[-10.7648945,9.378852],[-10.766105,9.378769],[-10.767856,9.379353],[-10.768649,9.379186],[-10.769566,9.378185],[-10.770609,9.378394],[-10.771401,9.378727],[-10.771902,9.379353],[-10.773528,9.380604],[-10.773361,9.38127],[-10.773569,9.381814],[-10.774196,9.382106],[-10.774987,9.382147],[-10.775781,9.38198],[-10.776281,9.383189],[-10.777031,9.384274],[-10.77795,9.384899],[-10.778826,9.3859005],[-10.779452,9.386234],[-10.781035,9.386317],[-10.78233,9.385776],[-10.782997,9.385734],[-10.783664,9.386317],[-10.784205,9.3874855],[-10.785124,9.388362],[-10.786041,9.388738],[-10.787375,9.388529],[-10.788878,9.387862],[-10.789837,9.387194],[-10.790672,9.387111],[-10.791589,9.387236],[-10.791923,9.387735],[-10.79284,9.388112],[-10.795342,9.388613],[-10.796511,9.38928],[-10.797761,9.389321],[-10.798929,9.388487],[-10.799932,9.386734],[-10.801183,9.385234],[-10.802475,9.384399],[-10.803518,9.383357],[-10.804018,9.382523],[-10.804269,9.381563],[-10.804352,9.379978],[-10.80406,9.377017],[-10.804018,9.374514],[-10.804728,9.373679],[-10.806146,9.373679],[-10.806937,9.3746805],[-10.807898,9.375264],[-10.808939,9.376059],[-10.809732,9.376975],[-10.810902,9.3778105],[-10.810816,9.379645],[-10.811693,9.382356],[-10.811902,9.383816],[-10.812861,9.385651],[-10.814613,9.385776],[-10.815572,9.385983],[-10.816113,9.387027],[-10.815948,9.387652],[-10.815155,9.388112],[-10.814988,9.390239],[-10.8144455,9.390906],[-10.813612,9.391073],[-10.812527,9.39074],[-10.810149,9.390156],[-10.809441,9.392116],[-10.809107,9.392783],[-10.808439,9.393784],[-10.808981,9.394785],[-10.809233,9.395994],[-10.80823,9.396329],[-10.807731,9.396954],[-10.807146,9.397954],[-10.806146,9.3986635],[-10.80406,9.399539],[-10.803602,9.402543],[-10.806146,9.404254],[-10.805353,9.4051285],[-10.80356,9.405588],[-10.802851,9.406047],[-10.8032675,9.408007],[-10.8021,9.40859],[-10.801767,9.409174],[-10.802225,9.410217],[-10.802475,9.412596],[-10.804144,9.415223],[-10.805102,9.415515],[-10.806396,9.416099],[-10.806812,9.4171],[-10.807689,9.418183],[-10.809107,9.419269],[-10.810441,9.420144],[-10.812402,9.420812],[-10.8160305,9.421645],[-10.816322,9.423732],[-10.816364,9.426109],[-10.816239,9.4274435],[-10.816657,9.428737],[-10.817407,9.429696],[-10.819867,9.431239],[-10.82116,9.430155],[-10.82258,9.430364],[-10.82333,9.430322],[-10.824373,9.429947],[-10.826375,9.431113],[-10.8275,9.433909],[-10.829002,9.434743],[-10.830129,9.434952],[-10.831839,9.434994],[-10.833089,9.435577],[-10.834842,9.436954],[-10.835593,9.438289],[-10.836553,9.439498],[-10.83747,9.439832],[-10.839096,9.439164],[-10.840055,9.438955],[-10.84114,9.439373],[-10.842057,9.439248],[-10.842517,9.43979],[-10.843559,9.442752],[-10.842224,9.44492],[-10.841682,9.4465065],[-10.841974,9.448925],[-10.842558,9.450551],[-10.8436,9.451302],[-10.844352,9.452512],[-10.84552,9.453679],[-10.846896,9.454721],[-10.848147,9.455555],[-10.849274,9.455975],[-10.85015,9.456015],[-10.851985,9.455263],[-10.850692,9.458142],[-10.849232,9.459519],[-10.847438,9.462813],[-10.844184,9.46344],[-10.839639,9.464024],[-10.838221,9.465024],[-10.837678,9.466609],[-10.837804,9.468821],[-10.838012,9.470197],[-10.840097,9.474033],[-10.84043,9.476035],[-10.840097,9.477078],[-10.840682,9.478497],[-10.840848,9.4800825],[-10.840765,9.480874],[-10.842391,9.483501],[-10.840848,9.48613],[-10.840723,9.487088],[-10.841098,9.487923],[-10.841682,9.48884],[-10.842391,9.489173],[-10.843433,9.489215],[-10.8436,9.490885],[-10.843851,9.491344],[-10.84456,9.491594],[-10.847188,9.492344],[-10.847564,9.493304],[-10.84773,9.4946375],[-10.847689,9.49589],[-10.847438,9.496932],[-10.848273,9.4978075],[-10.848523,9.499018],[-10.847947,9.499644],[-10.846693,9.499435],[-10.845021,9.499018],[-10.841572,9.4986515],[-10.839324,9.499331],[-10.8372345,9.499435],[-10.837966,9.5000105],[-10.835301,9.501317],[-10.834308,9.50231],[-10.834204,9.503825],[-10.8338375,9.504453],[-10.8331585,9.504713],[-10.831851,9.504557],[-10.83065,9.504035],[-10.827985,9.507587],[-10.822359,9.513414],[-10.824031,9.51609],[-10.82587,9.516926],[-10.828044,9.517677],[-10.829919,9.518405],[-10.832583,9.518457],[-10.83342,9.518613],[-10.834046,9.518249],[-10.834099,9.517047],[-10.8351965,9.516523],[-10.836346,9.516368],[-10.838697,9.516943],[-10.841414,9.518249],[-10.843295,9.519815],[-10.844969,9.521279],[-10.847685,9.522534],[-10.850559,9.523317],[-10.852075,9.52384],[-10.853276,9.525722],[-10.85427,9.526818],[-10.855472,9.527342],[-10.858451,9.527967],[-10.860019,9.528647],[-10.860958,9.529745],[-10.861273,9.531522],[-10.861743,9.532672],[-10.8630495,9.534135],[-10.8654,9.535546],[-10.866079,9.536799],[-10.867074,9.5394125],[-10.8677,9.540509],[-10.867857,9.541607],[-10.86493,9.542705],[-10.863624,9.54375],[-10.863102,9.544639],[-10.863153,9.546102],[-10.864095,9.548035],[-10.866289,9.550544],[-10.866759,9.551953],[-10.866603,9.553627],[-10.866603,9.556343],[-10.866133,9.558277],[-10.866133,9.559166],[-10.8671255,9.560106],[-10.868693,9.561464],[-10.868798,9.562197],[-10.867596,9.563973],[-10.868798,9.565645],[-10.870157,9.56737],[-10.870678,9.568677],[-10.870993,9.570035],[-10.8712015,9.571237],[-10.871776,9.572282],[-10.872717,9.573432],[-10.875069,9.576933],[-10.875905,9.578501],[-10.876897,9.579286],[-10.878309,9.579807],[-10.881025,9.581845],[-10.883011,9.582002],[-10.88437,9.582525],[-10.885625,9.583726],[-10.886304,9.585137],[-10.886355,9.586078],[-10.8862,9.587228],[-10.885834,9.588534],[-10.885154,9.589162],[-10.882384,9.590625],[-10.881025,9.591513],[-10.881913,9.592715],[-10.882698,9.593865],[-10.8839,9.595066],[-10.886773,9.597732],[-10.888028,9.598619],[-10.889962,9.599508],[-10.892732,9.597575],[-10.893986,9.596581],[-10.895292,9.596425],[-10.896337,9.596111],[-10.897173,9.595276],[-10.898062,9.594074],[-10.89895,9.594858],[-10.9001,9.595328],[-10.9011965,9.595432],[-10.902922,9.595014],[-10.904072,9.5951185],[-10.905325,9.595432],[-10.90658,9.59606],[-10.907259,9.596581],[-10.907415,9.5971575],[-10.906789,9.59909],[-10.907677,9.599665],[-10.908984,9.600292],[-10.910969,9.601756],[-10.910551,9.602538],[-10.9093485,9.603637],[-10.909087,9.604839],[-10.909087,9.605727],[-10.909715,9.606354],[-10.910813,9.606929],[-10.911283,9.611528],[-10.911857,9.613409],[-10.912694,9.615342],[-10.912849,9.617171],[-10.912433,9.618425],[-10.913112,9.619627],[-10.913217,9.62109],[-10.913582,9.622344],[-10.914156,9.623023],[-10.914941,9.623284],[-10.91609,9.622502],[-10.9168215,9.622188],[-10.9180765,9.6222925],[-10.919122,9.623023],[-10.919435,9.624069],[-10.91933,9.625271],[-10.919435,9.626576],[-10.919277,9.627988],[-10.917606,9.631333],[-10.915829,9.63243],[-10.915254,9.633423],[-10.915411,9.634573],[-10.916351,9.635826],[-10.917972,9.636766],[-10.920376,9.637446],[-10.921629,9.637708],[-10.922466,9.6387005],[-10.924243,9.639172],[-10.923458,9.640582],[-10.921838,9.641784],[-10.92074,9.643299],[-10.920062,9.645442],[-10.919853,9.646435],[-10.92048,9.648578],[-10.920376,9.650197],[-10.919853,9.651608],[-10.918336,9.652967],[-10.917815,9.654274],[-10.917866,9.654847],[-10.919277,9.655213],[-10.92142,9.655318],[-10.923145,9.655633],[-10.926541,9.655684],[-10.931558,9.65605],[-10.9324465,9.656521],[-10.933805,9.658349],[-10.93621,9.657827],[-10.93741,9.656939],[-10.938718,9.656312],[-10.939501,9.6563635],[-10.942219,9.657775],[-10.943263,9.657879],[-10.944466,9.657566],[-10.94525,9.656886],[-10.945616,9.655788],[-10.94572,9.654326],[-10.945929,9.653333],[-10.946504,9.653333],[-10.947496,9.653489],[-10.948802,9.653176],[-10.950685,9.652236],[-10.951272,9.652197],[-10.9514675,9.652184],[-10.951886,9.652863],[-10.952618,9.653594],[-10.95544,9.654483],[-10.956955,9.655371],[-10.958001,9.656678],[-10.958784,9.658088],[-10.960717,9.660649],[-10.963904,9.66394],[-10.963958,9.665142],[-10.963331,9.6664505],[-10.964167,9.667547],[-10.964427,9.669063],[-10.964272,9.670578],[-10.964689,9.673451],[-10.965577,9.67596],[-10.965368,9.677319],[-10.965577,9.680089],[-10.96631,9.681552],[-10.967145,9.68406],[-10.967301,9.685679],[-10.9670925,9.68777],[-10.968243,9.69007],[-10.968922,9.692056],[-10.970698,9.696393],[-10.971587,9.697907],[-10.9725275,9.700103],[-10.972685,9.702141],[-10.972736,9.703395],[-10.973469,9.704231],[-10.974984,9.704806],[-10.97697,9.705904],[-10.978287,9.707022],[-10.979024,9.708036],[-10.979126,9.708851],[-10.978769,9.71129],[-10.978287,9.712484],[-10.977195,9.713678],[-10.976992,9.714541],[-10.97727,9.715558],[-10.97783,9.716726],[-10.977855,9.718404],[-10.97722,9.722469],[-10.977702,9.723943],[-10.978872,9.72501],[-10.980547,9.725899],[-10.983419,9.72694],[-10.987205,9.727576],[-10.988144,9.728337],[-10.989441,9.729278],[-10.989974,9.730218],[-10.989924,9.7311325],[-10.989441,9.732581],[-10.991372,9.735452],[-10.99155,9.736264],[-10.990991,9.737916],[-10.99033,9.73944],[-10.990178,9.741524],[-10.990127,9.742947],[-10.990482,9.744292],[-10.993582,9.746962],[-10.991599,9.749934],[-10.991321,9.751102],[-10.991702,9.751814],[-10.992998,9.752677],[-10.995335,9.753313],[-11.000112,9.75443],[-11.002424,9.755498],[-11.003338,9.75697],[-11.004304,9.759004],[-11.005574,9.7603245],[-11.009791,9.7627125],[-11.010807,9.763983],[-11.011164,9.765659],[-11.011417,9.767185],[-11.011468,9.771097],[-11.012129,9.771656],[-11.013348,9.77186],[-11.014111,9.77252],[-11.014517,9.773587],[-11.014822,9.775722],[-11.01528,9.776992],[-11.015737,9.777652],[-11.021377,9.78065],[-11.022902,9.781768],[-11.024172,9.784055],[-11.0251875,9.784664],[-11.026712,9.785376],[-11.026965,9.785986],[-11.026965,9.787612],[-11.027829,9.78817],[-11.030218,9.788322],[-11.031692,9.788119],[-11.032911,9.789136],[-11.033978,9.789238],[-11.034994,9.788881],[-11.03596,9.788017],[-11.037536,9.787205],[-11.038551,9.787104],[-11.039008,9.787408],[-11.039212,9.788119],[-11.039313,9.789441],[-11.040026,9.793353],[-11.040229,9.794929],[-11.040533,9.795793],[-11.041753,9.797164],[-11.041448,9.798129],[-11.041753,9.798891],[-11.0428705,9.800112],[-11.044193,9.801025],[-11.045971,9.801382],[-11.045768,9.802703],[-11.046073,9.805498],[-11.045818,9.807327],[-11.046073,9.808191],[-11.04658,9.808953],[-11.045919,9.810579],[-11.044852,9.8119],[-11.044395,9.812612],[-11.045106,9.814085],[-11.043075,9.815456],[-11.043226,9.8180485],[-11.043938,9.818403],[-11.046276,9.818811],[-11.048002,9.818811],[-11.050187,9.818607],[-11.051813,9.8189125],[-11.053593,9.8189125],[-11.05532,9.81876],[-11.056388,9.818201],[-11.057251,9.817338],[-11.058013,9.816372],[-11.058065,9.814746],[-11.058318,9.81373],[-11.059538,9.8132715],[-11.060554,9.813322],[-11.061469,9.813882],[-11.061823,9.814694],[-11.061976,9.815864],[-11.062433,9.817439],[-11.063501,9.8189125],[-11.063754,9.819471],[-11.06401,9.820335],[-11.063754,9.821453],[-11.063349,9.8236885],[-11.06345,9.826179],[-11.063754,9.827907],[-11.064517,9.829278],[-11.065483,9.830396],[-11.066855,9.831464],[-11.06843,9.831616],[-11.069903,9.831464],[-11.070767,9.831464],[-11.071479,9.832733],[-11.071937,9.8337],[-11.073969,9.83558],[-11.074326,9.836646],[-11.074528,9.838068],[-11.074934,9.839238],[-11.076103,9.8405075],[-11.077577,9.841779],[-11.079151,9.842744],[-11.080117,9.843506],[-11.081032,9.84437],[-11.08337,9.845336],[-11.084232,9.845488],[-11.085047,9.845284],[-11.086114,9.844827],[-11.087282,9.844216],[-11.088704,9.84376],[-11.090178,9.843557],[-11.091449,9.844065],[-11.09216,9.844878],[-11.091855,9.847013],[-11.092414,9.847724],[-11.094396,9.848944],[-11.094396,9.849552],[-11.09409,9.850722],[-11.09409,9.851891],[-11.094344,9.852703],[-11.095158,9.854329],[-11.09587,9.855041],[-11.096174,9.857582],[-11.096733,9.858293],[-11.0981045,9.859258],[-11.102933,9.861493],[-11.103695,9.860477],[-11.103593,9.8587],[-11.104151,9.856972],[-11.106539,9.855752],[-11.107963,9.855396],[-11.109488,9.854939],[-11.110909,9.853465],[-11.112231,9.854482],[-11.113502,9.855549],[-11.114822,9.855853],[-11.117973,9.856972],[-11.119142,9.857225],[-11.120972,9.857124],[-11.122851,9.857479],[-11.124427,9.857938],[-11.132352,9.855091],[-11.133827,9.855091],[-11.134539,9.8558035],[-11.134691,9.857022],[-11.134386,9.858446],[-11.135199,9.859665],[-11.136774,9.860529],[-11.139214,9.860732],[-11.140127,9.861545],[-11.140687,9.862409],[-11.140841,9.864137],[-11.140889,9.865253],[-11.141094,9.86627],[-11.141653,9.86683],[-11.143074,9.867337],[-11.144752,9.867287],[-11.146683,9.86683],[-11.147648,9.866879],[-11.149732,9.867287],[-11.15146,9.867389],[-11.1526785,9.867135],[-11.1535425,9.866322],[-11.15461,9.865509],[-11.1559305,9.865509],[-11.156896,9.867084],[-11.157251,9.868099],[-11.156845,9.870133],[-11.156946,9.870946],[-11.156744,9.872367],[-11.155625,9.873486],[-11.154965,9.874655],[-11.155169,9.875925],[-11.155728,9.876841],[-11.157099,9.877296],[-11.1583185,9.878516],[-11.158573,9.879432],[-11.158624,9.881768],[-11.1603,9.886544],[-11.161418,9.890711],[-11.160758,9.893099],[-11.160605,9.894625],[-11.160554,9.897878],[-11.161164,9.906108],[-11.161571,9.909463],[-11.1623335,9.910732],[-11.163806,9.911647],[-11.1647215,9.912357],[-11.165332,9.913578],[-11.166602,9.914798],[-11.167059,9.915966],[-11.168685,9.917034],[-11.168126,9.91815],[-11.16838,9.918913],[-11.168939,9.919522],[-11.168329,9.920336],[-11.167923,9.921403],[-11.167822,9.922977],[-11.16838,9.925164],[-11.168633,9.927094],[-11.168939,9.92872],[-11.170464,9.930905],[-11.170515,9.932226],[-11.170616,9.932887],[-11.170057,9.933394],[-11.169041,9.9335985],[-11.168126,9.933547],[-11.167161,9.9343605],[-11.165433,9.935377],[-11.164568,9.936545],[-11.16401,9.937714],[-11.164061,9.938628],[-11.164824,9.93934],[-11.166602,9.940712],[-11.167313,9.941627],[-11.167618,9.94305],[-11.168076,9.944117],[-11.16965,9.947217],[-11.170666,9.948894],[-11.171733,9.95052],[-11.172954,9.951433],[-11.173766,9.952754],[-11.174224,9.9543295],[-11.17463,9.956566],[-11.174426,9.958243],[-11.173258,9.958091],[-11.1718855,9.958853],[-11.171633,9.959818],[-11.1718855,9.960631],[-11.17275,9.961241],[-11.177373,9.9632225],[-11.178949,9.963527],[-11.179763,9.964036],[-11.179507,9.965154],[-11.179507,9.966322],[-11.18027,9.967491],[-11.185657,9.969472],[-11.1847925,9.971455],[-11.186926,9.97181],[-11.190382,9.973386],[-11.192161,9.9736395],[-11.193126,9.973184],[-11.193837,9.97242],[-11.194651,9.972217],[-11.196125,9.972369],[-11.198767,9.973232],[-11.200544,9.973894],[-11.200901,9.974351],[-11.200952,9.975367],[-11.202222,9.975469],[-11.202984,9.975672],[-11.203848,9.975367],[-11.2056265,9.973284],[-11.206593,9.972775],[-11.208066,9.973132],[-11.209184,9.973029],[-11.210097,9.973589],[-11.210961,9.974046],[-11.212537,9.974504],[-11.213198,9.975012],[-11.213452,9.976282],[-11.214011,9.976892],[-11.214011,9.977654],[-11.213806,9.979889],[-11.213806,9.981058],[-11.214365,9.981414],[-11.212842,9.9832945],[-11.212131,9.98426],[-11.211877,9.985124],[-11.211877,9.985886],[-11.211318,9.987004],[-11.211013,9.988274],[-11.211318,9.989139],[-11.210911,9.990306],[-11.209894,9.990764],[-11.2096405,9.991475],[-11.209436,9.992643],[-11.209692,9.993101],[-11.209184,9.995235],[-11.208523,9.996657],[-11.208071,9.999973],[-11.250469,9.999969],[-11.284177,9.999967],[-11.337235,9.999963],[-11.413834,9.999953],[-11.474727,9.999948],[-11.483029,9.999947],[-11.490388,9.999946],[-11.500111,9.999944],[-11.639518,9.999944],[-11.750138,9.999944],[-11.790658,9.999944],[-11.894622,9.999944],[-11.8952055,9.997735],[-11.896027,9.995699],[-11.897172,9.993698],[-11.897155,9.99296],[-11.896707,9.99257],[-11.896621,9.991823],[-11.897411,9.989911],[-11.897965,9.98948],[-11.898653,9.989228],[-11.899037,9.98858],[-11.899335,9.987562],[-11.899552,9.984377],[-11.90084,9.982366],[-11.90097,9.980594],[-11.902361,9.976674],[-11.903788,9.972507],[-11.903603,9.970831],[-11.90359,9.96834],[-11.904163,9.966648],[-11.904417,9.964382],[-11.905839,9.960201],[-11.906463,9.959374],[-11.907958,9.958298],[-11.908764,9.957395],[-11.9089365,9.956944],[-11.908815,9.956427],[-11.908368,9.955413],[-11.9078,9.953806],[-11.907704,9.953262],[-11.907774,9.952694],[-11.908058,9.951965],[-11.90805,9.951397],[-11.908357,9.949511],[-11.908949,9.947519],[-11.909272,9.945309],[-11.909169,9.944398],[-11.908839,9.943567],[-11.907693,9.941346],[-11.906884,9.940182],[-11.943705,9.928243],[-11.979521,9.916598],[-12.014951,9.905447],[-12.070556,9.887655],[-12.119944,9.872267],[-12.120224,9.872247],[-12.121803,9.872862],[-12.122277,9.872849],[-12.122701,9.872286],[-12.123115,9.871167],[-12.123133,9.870552],[-12.123279,9.87018],[-12.123623,9.869979],[-12.1240835,9.869955],[-12.125095,9.870364],[-12.125198,9.870658],[-12.125186,9.87105],[-12.124999,9.871469],[-12.1250925,9.871842],[-12.125302,9.872098],[-12.125954,9.872414],[-12.12698,9.872129],[-12.127747,9.87212],[-12.128284,9.87226],[-12.128784,9.872734],[-12.129115,9.873125],[-12.129297,9.873773],[-12.12991,9.874637],[-12.130467,9.874888],[-12.130959,9.874938],[-12.1311655,9.874795],[-12.131171,9.874571],[-12.130999,9.874412],[-12.130773,9.874319],[-12.130601,9.874146],[-12.1306095,9.873866],[-12.1307335,9.873815],[-12.131218,9.873848],[-12.131704,9.873707],[-12.131961,9.874041],[-12.132435,9.874271],[-12.132857,9.874656],[-12.133164,9.874592],[-12.133652,9.874412],[-12.1342535,9.873989],[-12.134754,9.873494],[-12.135406,9.873336],[-12.1358595,9.872831],[-12.137256,9.871992],[-12.137314,9.872168],[-12.137034,9.8727255],[-12.136843,9.8730135],[-12.1367,9.873348],[-12.1367,9.873887],[-12.136765,9.874425],[-12.136371,9.874543],[-12.136189,9.874847],[-12.136172,9.875357],[-12.13629,9.876154],[-12.136674,9.876526],[-12.137105,9.87638],[-12.137453,9.876009],[-12.13785,9.875985],[-12.138314,9.875821],[-12.138524,9.875519],[-12.138915,9.87536],[-12.139299,9.875487],[-12.139642,9.8757515],[-12.139991,9.875821],[-12.140201,9.87566],[-12.14027,9.875309],[-12.139901,9.874771],[-12.139852,9.874472],[-12.13991,9.874274],[-12.140094,9.874143],[-12.140299,9.874168],[-12.140594,9.874425],[-12.140899,9.874797],[-12.141248,9.875008],[-12.141575,9.875008],[-12.142169,9.874579],[-12.142502,9.874899],[-12.142994,9.875124],[-12.143108,9.87538],[-12.143111,9.875706],[-12.14332,9.875985],[-12.143645,9.876567],[-12.144088,9.87701],[-12.144438,9.877266],[-12.144879,9.877358],[-12.145159,9.877475],[-12.145299,9.877336],[-12.145437,9.876892],[-12.145414,9.876265],[-12.145159,9.87538],[-12.144787,9.874705],[-12.144515,9.874398],[-12.144484,9.874075],[-12.144576,9.873844],[-12.144716,9.873774],[-12.144979,9.873709],[-12.145333,9.87386],[-12.145642,9.873841],[-12.145774,9.873615],[-12.145735,9.873377],[-12.145629,9.873165],[-12.145404,9.873152],[-12.144905,9.87229],[-12.144979,9.872024],[-12.145228,9.871864],[-12.145695,9.871943],[-12.146113,9.872184],[-12.146355,9.87204],[-12.146531,9.871851],[-12.146697,9.871953],[-12.146876,9.872421],[-12.147183,9.873564],[-12.147407,9.8739605],[-12.147792,9.873977],[-12.148009,9.874194],[-12.148137,9.874629],[-12.148278,9.874822],[-12.148628,9.875008],[-12.148884,9.874961],[-12.14914,9.874681],[-12.1495285,9.874677],[-12.149816,9.875078],[-12.150161,9.875411],[-12.150577,9.8753],[-12.150954,9.875263],[-12.15125,9.875436],[-12.151744,9.876122],[-12.15209,9.8762],[-12.152445,9.875961],[-12.15277,9.875961],[-12.153324,9.876435],[-12.153803,9.876731],[-12.154158,9.877143],[-12.154849,9.877704],[-12.154951,9.878087],[-12.154768,9.8785095],[-12.154401,9.879035],[-12.154028,9.879709],[-12.153912,9.880268],[-12.154075,9.88057],[-12.155079,9.881149],[-12.155638,9.881233],[-12.156104,9.881008],[-12.156448,9.88064],[-12.156505,9.880049],[-12.15677,9.879715],[-12.15745,9.879384],[-12.157823,9.879594],[-12.157916,9.879849],[-12.157916,9.880711],[-12.1578455,9.881129],[-12.158032,9.881479],[-12.158428,9.881455],[-12.15866,9.881363],[-12.158987,9.881316],[-12.159197,9.881572],[-12.158987,9.881875],[-12.158987,9.882084],[-12.159197,9.882294],[-12.159871,9.882176],[-12.16043,9.882689],[-12.160918,9.88246],[-12.16124,9.882724],[-12.161524,9.883132],[-12.162022,9.884326],[-12.162316,9.884696],[-12.162687,9.884924],[-12.163037,9.88483],[-12.163277,9.884415],[-12.163643,9.884203],[-12.163945,9.884343],[-12.164247,9.884249],[-12.164549,9.883993],[-12.164946,9.884086],[-12.165085,9.8839],[-12.165061,9.883481],[-12.164923,9.883084],[-12.16462,9.882572],[-12.164923,9.882317],[-12.165225,9.882526],[-12.1654825,9.882969],[-12.165994,9.882782],[-12.16611,9.88234],[-12.166295,9.882132],[-12.166832,9.882176],[-12.167157,9.882107],[-12.167506,9.881711],[-12.167856,9.881526],[-12.168181,9.881455],[-12.168624,9.881619],[-12.168834,9.882038],[-12.168857,9.882294],[-12.169276,9.882899],[-12.169486,9.883411],[-12.169617,9.883863],[-12.169671,9.884437],[-12.170001,9.884684],[-12.170254,9.885134],[-12.170552,9.885453],[-12.170642,9.88594],[-12.170512,9.8862705],[-12.170229,9.88646],[-12.170136,9.886996],[-12.17044,9.887113],[-12.171044,9.88688],[-12.171324,9.887181],[-12.171448,9.887797],[-12.171487,9.88827],[-12.17179,9.888905],[-12.172046,9.889022],[-12.172349,9.888858],[-12.1726055,9.888625],[-12.172721,9.888322],[-12.172791,9.8878565],[-12.173512,9.887485],[-12.173746,9.887229],[-12.173907,9.886694],[-12.173932,9.886093],[-12.173664,9.885554],[-12.173606,9.885344],[-12.173885,9.885297],[-12.174537,9.885738],[-12.175112,9.885734],[-12.175368,9.885811],[-12.1757,9.886195],[-12.176309,9.886734],[-12.176865,9.887066],[-12.177446,9.887974],[-12.177475,9.888418],[-12.177174,9.888693],[-12.177097,9.889022],[-12.177283,9.889301],[-12.177609,9.889394],[-12.177889,9.889255],[-12.178494,9.888765],[-12.178882,9.888737],[-12.179174,9.888949],[-12.179401,9.8892765],[-12.1797285,9.889604],[-12.18024,9.889743],[-12.180753,9.889743],[-12.181777,9.889464],[-12.182489,9.889611],[-12.183552,9.889436],[-12.18409,9.8894615],[-12.184486,9.889538],[-12.184705,9.889819],[-12.184538,9.890203],[-12.184473,9.890602],[-12.184231,9.8909855],[-12.184148,9.891297],[-12.184206,9.891716],[-12.184462,9.891996],[-12.184679,9.892446],[-12.184612,9.89269],[-12.184196,9.892722],[-12.184174,9.892931],[-12.184314,9.893212],[-12.184617,9.893397],[-12.184743,9.893382],[-12.185095,9.893337],[-12.185756,9.893134],[-12.186266,9.8930855],[-12.186484,9.892702],[-12.186828,9.89257],[-12.187756,9.89257],[-12.18834,9.892783],[-12.188876,9.893118],[-12.190058,9.894201],[-12.190527,9.894165],[-12.191018,9.894376],[-12.191173,9.894649],[-12.191717,9.894887],[-12.191852,9.895237],[-12.191599,9.895657],[-12.191624,9.896005],[-12.191973,9.896494],[-12.192368,9.896772],[-12.192811,9.896936],[-12.193044,9.896959],[-12.194169,9.896506],[-12.194785,9.896095],[-12.195066,9.896095],[-12.195297,9.896403],[-12.195053,9.897979],[-12.195105,9.898658],[-12.19531,9.898901],[-12.19645,9.899016],[-12.197206,9.89917],[-12.197603,9.899541],[-12.197839,9.899799],[-12.197816,9.900079],[-12.197663,9.900242],[-12.1973505,9.9008],[-12.19749,9.901103],[-12.197792,9.9011965],[-12.1978855,9.901173],[-12.197954,9.90101],[-12.198257,9.900869],[-12.198358,9.901092],[-12.1986065,9.9011965],[-12.19884,9.90101],[-12.19914,9.900861],[-12.199511,9.900834],[-12.1994915,9.901055],[-12.19969,9.901309],[-12.199972,9.901334],[-12.200144,9.901499],[-12.200679,9.901662],[-12.201144,9.902289],[-12.201424,9.902499],[-12.201913,9.902662],[-12.202547,9.902424],[-12.202841,9.902205],[-12.20311,9.901911],[-12.203558,9.90177],[-12.203994,9.901526],[-12.2043085,9.901582],[-12.204545,9.902102],[-12.205108,9.9028845],[-12.205846,9.903501],[-12.205939,9.903687],[-12.206133,9.903871],[-12.206388,9.903985],[-12.207311,9.903922],[-12.208272,9.904486],[-12.208453,9.904711],[-12.208896,9.904803],[-12.209222,9.904943],[-12.210488,9.906061],[-12.210578,9.906329],[-12.210845,9.9067135],[-12.211102,9.90674],[-12.211499,9.906407],[-12.21173,9.906087],[-12.211947,9.906061],[-12.212294,9.906227],[-12.212382,9.906969],[-12.212551,9.907354],[-12.213011,9.907521],[-12.213549,9.907573],[-12.214065,9.908064],[-12.214303,9.908149],[-12.214688,9.908096],[-12.215253,9.907623],[-12.215507,9.907551],[-12.215726,9.907648],[-12.215829,9.907854],[-12.215847,9.908204],[-12.216135,9.908315],[-12.216341,9.908149],[-12.216239,9.907803],[-12.216328,9.907508],[-12.216853,9.90738],[-12.217353,9.90747],[-12.217584,9.907277],[-12.217571,9.906982],[-12.2178,9.9068165],[-12.218032,9.906842],[-12.218453,9.906727],[-12.218658,9.9070215],[-12.2184925,9.907329],[-12.218224,9.907585],[-12.217839,9.907789],[-12.217648,9.908059],[-12.217467,9.908827],[-12.217621,9.909366],[-12.217834,9.9097395],[-12.218161,9.909949],[-12.218347,9.910368],[-12.21851,9.910507],[-12.218813,9.910601],[-12.219107,9.910891],[-12.219488,9.9111595],[-12.219786,9.911747],[-12.219837,9.9122095],[-12.2196455,9.912965],[-12.219351,9.9136305],[-12.219427,9.914026],[-12.21965,9.914418],[-12.21972,9.914791],[-12.21972,9.915071],[-12.219976,9.915584],[-12.219907,9.915838],[-12.219954,9.916118],[-12.220209,9.916461],[-12.220529,9.916575],[-12.220798,9.917166],[-12.221413,9.917921],[-12.221631,9.918344],[-12.221793,9.919097],[-12.221657,9.920021],[-12.221537,9.920493],[-12.221606,9.92089],[-12.22199,9.921469],[-12.222015,9.9220705],[-12.222912,9.922686],[-12.223212,9.923241],[-12.223329,9.923684],[-12.223492,9.92473],[-12.22351,9.925248],[-12.223332,9.926244],[-12.223103,9.926962],[-12.2229395,9.928334],[-12.222891,9.929183],[-12.222759,9.930129],[-12.222857,9.930912],[-12.222857,9.931728],[-12.222597,9.932383],[-12.222482,9.932905],[-12.321469,9.9081],[-12.339327,9.903625],[-12.345401,9.893524],[-12.350452,9.892534],[-12.39045,9.887756],[-12.418095,9.884104],[-12.435534,9.881543],[-12.437889,9.880861],[-12.439458,9.880316],[-12.441505,9.879292],[-12.443758,9.8778925],[-12.444952,9.876732],[-12.446421,9.875026],[-12.450549,9.873251],[-12.455839,9.865846],[-12.458843,9.8625345],[-12.463518,9.854686],[-12.469389,9.850932],[-12.471197,9.849908],[-12.474815,9.849054],[-12.481196,9.848611],[-12.486725,9.848304],[-12.488484,9.848164],[-12.492326,9.846965],[-12.495656,9.845347],[-12.494907,9.84464],[-12.494657,9.844311],[-12.494342,9.843829],[-12.49417,9.843448],[-12.494063,9.843118],[-12.494088,9.84269],[-12.494192,9.84237],[-12.494923,9.8409395],[-12.495476,9.839718],[-12.495701,9.83877],[-12.49608,9.837766],[-12.496787,9.836464],[-12.4972925,9.835254],[-12.497504,9.834041],[-12.4974785,9.833284],[-12.497401,9.832416],[-12.497187,9.831926],[-12.496982,9.831623],[-12.4965105,9.831175],[-12.496004,9.830816],[-12.495252,9.8304405],[-12.494242,9.83009],[-12.493468,9.829992],[-12.49232,9.8301],[-12.490672,9.830686],[-12.489852,9.830816],[-12.48912,9.830806],[-12.488316,9.830609],[-12.487864,9.830378],[-12.487377,9.830019],[-12.486906,9.829297],[-12.486523,9.828509],[-12.48638,9.828127],[-12.486134,9.827096],[-12.486144,9.82536],[-12.4862,9.824649],[-12.486512,9.823675],[-12.487511,9.82149],[-12.488058,9.820031],[-12.488167,9.819389],[-12.488203,9.818866],[-12.488218,9.817982],[-12.487936,9.816513],[-12.4879055,9.815836],[-12.48807,9.814408],[-12.488311,9.813556],[-12.488551,9.812981],[-12.488863,9.812637],[-12.489447,9.812122],[-12.489841,9.811915],[-12.490133,9.811873],[-12.490527,9.811885],[-12.490958,9.812092],[-12.49144,9.812547],[-12.491972,9.812985],[-12.492597,9.813248],[-12.493438,9.813369],[-12.494564,9.813203],[-12.495429,9.812673],[-12.496019,9.812052],[-12.496638,9.810841],[-12.49667,9.809941],[-12.496833,9.808857],[-12.49755,9.805163],[-12.497678,9.80393],[-12.497796,9.802165],[-12.497652,9.799591],[-12.498134,9.7968645],[-12.498606,9.794786],[-12.49923,9.79313],[-12.500633,9.791344],[-12.502877,9.787659],[-12.504465,9.78558],[-12.506378,9.781528],[-12.506506,9.781104],[-12.506629,9.780262],[-12.5066395,9.77889],[-12.506629,9.777228],[-12.506623,9.776002],[-12.506788,9.77466],[-12.507115,9.773023],[-12.507356,9.772342],[-12.508021,9.770459],[-12.508621,9.767855],[-12.509067,9.765972],[-12.510262,9.764137],[-12.514185,9.7593775],[-12.514746,9.758593],[-12.515387,9.757341],[-12.515642,9.756618],[-12.515769,9.755066],[-12.515809,9.754134],[-12.515436,9.753328],[-12.515059,9.753083],[-12.514566,9.753176],[-12.5128145,9.753795],[-12.511821,9.754068],[-12.511087,9.75422],[-12.509778,9.754489],[-12.508782,9.754655],[-12.508076,9.75451],[-12.507299,9.754156],[-12.506499,9.753241],[-12.5059185,9.7524395],[-12.505698,9.752058],[-12.505251,9.751267],[-12.504511,9.749773],[-12.504239,9.748621],[-12.504109,9.747873],[-12.50463,9.745626],[-12.5049095,9.744818],[-12.506313,9.7428465],[-12.50702,9.742155],[-12.508813,9.741391],[-12.509551,9.741131],[-12.51041,9.740987],[-12.513194,9.741172],[-12.514263,9.741454],[-12.518292,9.74301],[-12.519493,9.743189],[-12.520292,9.743204],[-12.521064,9.743074],[-12.521764,9.742855],[-12.522421,9.742502],[-12.523326,9.74176],[-12.524817,9.739333],[-12.525601,9.738338],[-12.526093,9.737096],[-12.526201,9.736043],[-12.525931,9.733808],[-12.523365,9.729498],[-12.523101,9.728817],[-12.522529,9.724886],[-12.522063,9.723551],[-12.520804,9.72136],[-12.518884,9.718892],[-12.51813,9.717846],[-12.51737,9.716442],[-12.516988,9.715157],[-12.516675,9.713545],[-12.516911,9.711445],[-12.517177,9.710213],[-12.517863,9.708001],[-12.51861,9.706567],[-12.519369,9.70584],[-12.520318,9.705716],[-12.521961,9.706598],[-12.523099,9.707052],[-12.525919,9.707863],[-12.527862,9.708527],[-12.528896,9.7094965],[-12.529345,9.710438],[-12.529839,9.712646],[-12.529757,9.714343],[-12.529358,9.715261],[-12.528252,9.716857],[-12.528067,9.717432],[-12.528133,9.717956],[-12.528921,9.719829],[-12.52972,9.72074],[-12.530527,9.72151],[-12.531253,9.721672],[-12.531691,9.721718],[-12.532461,9.721481],[-12.533105,9.721111],[-12.533691,9.720471],[-12.534142,9.719932],[-12.534459,9.719078],[-12.53461,9.71834],[-12.534332,9.715762],[-12.534777,9.715221],[-12.535655,9.714831],[-12.536035,9.714727],[-12.539761,9.713719],[-12.541272,9.712368],[-12.542373,9.71186],[-12.544212,9.71085],[-12.545128,9.710064],[-12.546357,9.708646],[-12.5471945,9.707768],[-12.548342,9.7070465],[-12.549621,9.706587],[-12.550424,9.706283],[-12.553897,9.705347],[-12.555552,9.705283],[-12.558536,9.705412],[-12.559863,9.705273],[-12.561277,9.705117],[-12.561891,9.7049265],[-12.562826,9.704484],[-12.5637245,9.703966],[-12.564143,9.703383],[-12.564323,9.703042],[-12.564526,9.702442],[-12.5646925,9.701263],[-12.565052,9.698546],[-12.565567,9.693826],[-12.5655365,9.692662],[-12.564752,9.68858],[-12.564723,9.687559],[-12.564711,9.686882],[-12.564871,9.684684],[-12.565371,9.681569],[-12.565617,9.6788645],[-12.565882,9.677937],[-12.566541,9.676771],[-12.567623,9.674844],[-12.568608,9.673505],[-12.569579,9.672223],[-12.570651,9.671202],[-12.571327,9.670319],[-12.571668,9.66955],[-12.571788,9.668439],[-12.571723,9.667203],[-12.571318,9.665732],[-12.571086,9.664183],[-12.570927,9.662119],[-12.570959,9.660305],[-12.571028,9.659319],[-12.571185,9.658488],[-12.571759,9.657535],[-12.572194,9.6570635],[-12.57265,9.656814],[-12.57317,9.65671],[-12.57369,9.656812],[-12.574179,9.6572485],[-12.576809,9.660362],[-12.577938,9.661233],[-12.579495,9.663168],[-12.5805025,9.663946],[-12.581227,9.664154],[-12.581992,9.664176],[-12.583059,9.663939],[-12.583913,9.663687],[-12.584661,9.663397],[-12.585233,9.66294],[-12.585769,9.662418],[-12.5862255,9.661597],[-12.586674,9.659969],[-12.586935,9.658712],[-12.586949,9.657198],[-12.587159,9.656141],[-12.587203,9.6542635],[-12.586986,9.652821],[-12.58657,9.651556],[-12.585545,9.649043],[-12.584972,9.648179],[-12.584559,9.646608],[-12.584458,9.645159],[-12.584455,9.641858],[-12.584076,9.640854],[-12.58329,9.639432],[-12.58123,9.636292],[-12.581194,9.635744],[-12.581505,9.633158],[-12.583131,9.630341],[-12.583348,9.629036],[-12.583222,9.626282],[-12.583924,9.623906],[-12.585525,9.619253],[-12.586863,9.6141615],[-12.587171,9.612665],[-12.587359,9.610616],[-12.5875635,9.605975],[-12.587464,9.603421],[-12.5876665,9.601702],[-12.588199,9.600882],[-12.591488,9.599731],[-12.592768,9.599564],[-12.59645,9.599741],[-12.597051,9.59982],[-12.597323,9.599943],[-12.597723,9.600139],[-12.600401,9.602105],[-12.604177,9.603859],[-12.608972,9.606837],[-12.610274,9.6073885],[-12.612243,9.607493],[-12.613035,9.607264],[-12.613776,9.607007],[-12.615513,9.605798],[-12.617318,9.603891],[-12.617387,9.600996],[-12.616856,9.597948],[-12.617256,9.594866],[-12.622815,9.58977],[-12.623818,9.584118],[-12.626084,9.573098],[-12.626369,9.572032],[-12.626854,9.571127],[-12.62712,9.570764],[-12.627553,9.57035],[-12.63227,9.568471],[-12.633073,9.567415],[-12.633701,9.566232],[-12.633659,9.563806],[-12.633062,9.56123],[-12.6307,9.556795],[-12.628418,9.552755],[-12.628156,9.551284],[-12.628262,9.5507345],[-12.62842,9.549889],[-12.628629,9.549166],[-12.629047,9.548303],[-12.629715,9.547634],[-12.63052,9.547087],[-12.631537,9.547066],[-12.632419,9.547042],[-12.633424,9.547513],[-12.635479,9.549701],[-12.635966,9.549823],[-12.638536,9.550061],[-12.640966,9.549339],[-12.644695,9.547372],[-12.64489,9.547294],[-12.644948,9.54724],[-12.646728,9.5463],[-12.648893,9.544741],[-12.65128,9.541235],[-12.65138,9.541195],[-12.652801,9.540762],[-12.653952,9.539907],[-12.654538,9.538523],[-12.655165,9.536193],[-12.655418,9.535551],[-12.655434,9.535381],[-12.655024,9.533988],[-12.654269,9.5322275],[-12.654631,9.53265],[-12.652858,9.530578],[-12.651953,9.529521],[-12.650094,9.527856],[-12.648714,9.527465],[-12.648081,9.526711],[-12.646878,9.524231],[-12.645185,9.522037],[-12.644856,9.521581],[-12.644756,9.521327],[-12.644624,9.513992],[-12.645789,9.511417],[-12.65399,9.498946],[-12.65573,9.496666],[-12.657189,9.494712],[-12.661058,9.488941],[-12.66143,9.488359],[-12.662323,9.487242],[-12.664009,9.484258],[-12.664316,9.483666],[-12.664767,9.482725],[-12.664972,9.48226],[-12.66649,9.47907],[-12.669452,9.477448],[-12.670027,9.476],[-12.670044,9.475917],[-12.6692295,9.474477],[-12.668973,9.474321],[-12.667271,9.471498],[-12.66701,9.470445],[-12.666992,9.470254],[-12.667001,9.470157],[-12.667419,9.468497],[-12.66755,9.468437],[-12.669588,9.467587],[-12.671314,9.466474],[-12.67262,9.465422],[-12.6752,9.463212],[-12.67569,9.46264],[-12.67604,9.462341],[-12.676602,9.461565],[-12.677345,9.459899],[-12.677527,9.459606],[-12.677893,9.458104],[-12.677737,9.456747],[-12.6770525,9.453264],[-12.676858,9.452124],[-12.676985,9.450653],[-12.677068,9.45012],[-12.677294,9.449331],[-12.677438,9.448832],[-12.67781,9.448265],[-12.67861,9.447047],[-12.678782,9.446991],[-12.679084,9.446834],[-12.680076,9.445889],[-12.6804085,9.44515],[-12.680911,9.444413],[-12.681025,9.444094],[-12.680911,9.442987],[-12.680911,9.442722],[-12.680604,9.442326],[-12.680449,9.442124],[-12.679045,9.441398],[-12.67555,9.439609],[-12.675453,9.439569],[-12.67531,9.439288],[-12.674876,9.438434],[-12.674686,9.438062],[-12.674659,9.438007],[-12.674672,9.437846],[-12.674783,9.436502],[-12.674823,9.436015],[-12.674836,9.435846],[-12.674989,9.435777],[-12.6757765,9.435419],[-12.677247,9.434751],[-12.677374,9.434693],[-12.677655,9.434566],[-12.678024,9.434314],[-12.679464,9.433763],[-12.6816635,9.4324045],[-12.6826935,9.431505],[-12.683255,9.430622],[-12.683363,9.4303055],[-12.68342,9.429716],[-12.683322,9.429079],[-12.682667,9.428231],[-12.681932,9.427312],[-12.680941,9.426072],[-12.679159,9.423996],[-12.67882,9.4236],[-12.67881,9.423479],[-12.678731,9.422498],[-12.678673,9.421779],[-12.678701,9.421664],[-12.679103,9.420034],[-12.679139,9.41989],[-12.679154,9.419887],[-12.6812935,9.419455],[-12.682653,9.419181],[-12.683045,9.418859],[-12.683423,9.418533],[-12.6836,9.418069],[-12.684137,9.416975],[-12.684177,9.416766],[-12.682571,9.411666],[-12.682493,9.411425],[-12.682526,9.411273],[-12.683041,9.408795],[-12.683117,9.408428],[-12.684363,9.407813],[-12.684371,9.407814],[-12.685198,9.407877],[-12.685375,9.40789],[-12.685414,9.407956],[-12.687472,9.411475],[-12.688004,9.412384],[-12.691376,9.415893],[-12.692439,9.416999],[-12.694956,9.417788],[-12.697268,9.416945],[-12.699425,9.414807],[-12.703913,9.411733],[-12.704707,9.410704],[-12.706938,9.407819],[-12.7074,9.405746],[-12.707788,9.404015],[-12.708142,9.402434],[-12.708091,9.399913],[-12.70809,9.399877],[-12.708088,9.399871],[-12.705959,9.395151],[-12.705893,9.395005],[-12.705681,9.391349],[-12.705665,9.391063],[-12.705955,9.390683],[-12.7066765,9.38974],[-12.707222,9.389026],[-12.707903,9.389169],[-12.708214,9.389234],[-12.710339,9.389679],[-12.713351,9.393371],[-12.713862,9.393997],[-12.715298,9.394966],[-12.718023,9.396583],[-12.718525,9.396832],[-12.718593,9.396841],[-12.719082,9.396978],[-12.719519,9.396993],[-12.719932,9.396975],[-12.720793,9.396708],[-12.722374,9.395977],[-12.724463,9.394969],[-12.7261915,9.394842],[-12.727828,9.394811],[-12.729608,9.394842],[-12.731293,9.395219],[-12.731928,9.395279],[-12.732419,9.395519],[-12.732847,9.395932],[-12.733342,9.396687],[-12.733731,9.397481],[-12.734079,9.397835],[-12.735074,9.398474],[-12.736046,9.398978],[-12.736489,9.399163],[-12.73857,9.399576],[-12.740574,9.400004],[-12.742686,9.400327],[-12.746793,9.400552],[-12.746795,9.400552],[-12.748858,9.399909],[-12.75127,9.398283],[-12.753742,9.396298],[-12.754064,9.395816],[-12.754294,9.395393],[-12.754367,9.395284],[-12.754781,9.394665],[-12.754993,9.394183],[-12.755182,9.3935375],[-12.755359,9.392148],[-12.75535,9.391786],[-12.755275,9.3887],[-12.755377,9.387702],[-12.756014,9.381468],[-12.755405,9.378921],[-12.754413,9.376758],[-12.753687,9.375718],[-12.753328,9.374608],[-12.753072,9.373815],[-12.753038,9.373089],[-12.753297,9.371885],[-12.753543,9.370885],[-12.753603,9.368989],[-12.753988,9.367233],[-12.753712,9.365527],[-12.753595,9.365098],[-12.75352,9.364302],[-12.75343,9.363915],[-12.753274,9.3637085],[-12.752583,9.363274],[-12.751504,9.3630085],[-12.750016,9.362062],[-12.749722,9.361476],[-12.749449,9.360942],[-12.749225,9.360501],[-12.748957,9.360226],[-12.74881,9.360058],[-12.748303,9.359709],[-12.747864,9.359448],[-12.747738,9.358819],[-12.747481,9.357537],[-12.747443,9.357232],[-12.747216,9.356256],[-12.746289,9.353489],[-12.7460785,9.351962],[-12.746005,9.350891],[-12.745978,9.349928],[-12.746286,9.348647],[-12.746547,9.348026],[-12.74691,9.347158],[-12.747541,9.345654],[-12.747751,9.345213],[-12.747832,9.345023],[-12.748055,9.344919],[-12.748572,9.344679],[-12.749329,9.344688],[-12.750023,9.345107],[-12.751252,9.345973],[-12.752085,9.346018],[-12.753084,9.34553],[-12.753946,9.344948],[-12.756727,9.34467],[-12.758949,9.34391],[-12.76064,9.343562],[-12.763526,9.343416],[-12.766756,9.343952],[-12.768026,9.344485],[-12.768655,9.344635],[-12.769348,9.34504],[-12.771396,9.34593],[-12.772341,9.346038],[-12.773515,9.345726],[-12.774338,9.345152],[-12.774828,9.344635],[-12.774926,9.343711],[-12.773456,9.341736],[-12.771857,9.338852],[-12.772042,9.336146],[-12.772104,9.335242],[-12.774973,9.330841],[-12.775928,9.329379],[-12.777605,9.327186],[-12.778152,9.326468],[-12.778291,9.324513],[-12.777593,9.322533],[-12.777639,9.321958],[-12.778422,9.320913],[-12.782058,9.318409],[-12.7856865,9.317088],[-12.786831,9.31609],[-12.787136,9.31427],[-12.786685,9.31302],[-12.785816,9.311812],[-12.784339,9.30965],[-12.78428,9.307564],[-12.784689,9.305361],[-12.785498,9.303542],[-12.78794,9.301453],[-12.7901745,9.300309],[-12.795711,9.2995405],[-12.798846,9.299552],[-12.800533,9.299016],[-12.801817,9.297807],[-12.803084,9.296406],[-12.804594,9.295313],[-12.805171,9.294434],[-12.80553,9.291676],[-12.806188,9.290738],[-12.807216,9.28989],[-12.808741,9.289532],[-12.81103,9.289431],[-12.813722,9.290954],[-12.816246,9.29228],[-12.819718,9.29397],[-12.823312,9.295372],[-12.824076,9.295435],[-12.824754,9.295205],[-12.829333,9.292224],[-12.833063,9.289855],[-12.83393,9.289656],[-12.835073,9.289848],[-12.837542,9.290582],[-12.839681,9.290337],[-12.843393,9.288687],[-12.844856,9.286719],[-12.845233,9.2847185],[-12.845089,9.283735],[-12.845096,9.282843],[-12.845393,9.282093],[-12.847149,9.281061],[-12.847838,9.281071],[-12.84849,9.281291],[-12.849554,9.283375],[-12.852137,9.28632],[-12.854404,9.288052],[-12.856033,9.291605],[-12.858224,9.293709],[-12.860173,9.294068],[-12.861175,9.293112],[-12.862035,9.291772],[-12.862458,9.292283],[-12.862883,9.293096],[-12.863395,9.293366],[-12.863744,9.2931385],[-12.8643675,9.29235],[-12.865583,9.291187],[-12.866951,9.289524],[-12.867374,9.289058],[-12.86811,9.288714],[-12.871736,9.28957],[-12.873211,9.290498],[-12.87394,9.292645],[-12.874327,9.292791],[-12.876924,9.2935],[-12.879613,9.293537],[-12.880635,9.293026],[-12.881359,9.292436],[-12.881671,9.291093],[-12.882314,9.290299],[-12.883318,9.28972],[-12.8842325,9.289238],[-12.884473,9.28911],[-12.885009,9.289339],[-12.885369,9.289209],[-12.8859005,9.288599],[-12.886425,9.287688],[-12.886569,9.286555],[-12.886682,9.285496],[-12.887299,9.28461],[-12.887742,9.283741],[-12.887941,9.283027],[-12.887775,9.282393],[-12.887436,9.281777],[-12.886875,9.281389],[-12.885558,9.280422],[-12.884933,9.279717],[-12.884441,9.278945],[-12.883961,9.277909],[-12.883631,9.2763605],[-12.883859,9.274388],[-12.884197,9.273335],[-12.884777,9.272269],[-12.8855505,9.271655],[-12.886506,9.271075],[-12.887703,9.27083],[-12.888732,9.270841],[-12.890006,9.27123],[-12.892764,9.272191],[-12.893768,9.272733],[-12.894573,9.273127],[-12.895552,9.273243],[-12.896345,9.272935],[-12.898766,9.271051],[-12.899234,9.270072],[-12.899994,9.269038],[-12.901797,9.267683],[-12.903155,9.266508],[-12.903889,9.265801],[-12.90522,9.264144],[-12.90693,9.2618265],[-12.907339,9.26207],[-12.908012,9.2628355],[-12.908531,9.263007],[-12.909431,9.263182],[-12.909682,9.263346],[-12.909685,9.263679],[-12.90954,9.264022],[-12.908474,9.265061],[-12.908302,9.265395],[-12.908221,9.266066],[-12.908544,9.266422],[-12.908763,9.266457],[-12.909187,9.266367],[-12.910183,9.265461],[-12.910594,9.265221],[-12.911035,9.265292],[-12.911596,9.265259],[-12.911963,9.265102],[-12.912579,9.2650585],[-12.9131,9.265216],[-12.913423,9.265557],[-12.913556,9.266088],[-12.913888,9.2665615],[-12.91399,9.267224],[-12.9143095,9.267778],[-12.91463,9.268098],[-12.914767,9.268513],[-12.915109,9.2687025],[-12.915621,9.268645],[-12.916871,9.268305],[-12.917417,9.268398],[-12.9177,9.268787],[-12.917391,9.26983],[-12.916643,9.269744],[-12.916018,9.269611],[-12.915261,9.269573],[-12.914875,9.269573],[-12.914517,9.269754],[-12.914434,9.270063],[-12.914378,9.270551],[-12.914459,9.270989],[-12.914703,9.271416],[-12.915186,9.272108],[-12.9153595,9.272684],[-12.915139,9.273066],[-12.914749,9.273381],[-12.914085,9.273306],[-12.913726,9.273363],[-12.913442,9.273553],[-12.913328,9.273761],[-12.913346,9.274197],[-12.913393,9.27433],[-12.913641,9.274517],[-12.91393,9.274726],[-12.914448,9.274876],[-12.914898,9.274944],[-12.915302,9.275234],[-12.91581,9.276607],[-12.915791,9.277323],[-12.916113,9.277891],[-12.916511,9.278346],[-12.917269,9.2789135],[-12.918139,9.279369],[-12.918848,9.279882],[-12.920149,9.280695],[-12.920452,9.281169],[-12.92064,9.281814],[-12.920754,9.28276],[-12.920831,9.283045],[-12.921114,9.283329],[-12.921607,9.283518],[-12.922482,9.283487],[-12.92278,9.283553],[-12.9233675,9.283892],[-12.923798,9.283853],[-12.923953,9.283553],[-12.923995,9.2831955],[-12.924524,9.283138],[-12.92498,9.2832155],[-12.925548,9.28348],[-12.926303,9.284113],[-12.926344,9.284667],[-12.926479,9.284897],[-12.927025,9.28509],[-12.927299,9.285298],[-12.927495,9.285544],[-12.92752,9.285702],[-12.927443,9.286027],[-12.927259,9.286391],[-12.927481,9.286777],[-12.927803,9.286834],[-12.928485,9.286815],[-12.928816,9.286882],[-12.929488,9.287175],[-12.931098,9.288444],[-12.93161,9.288614],[-12.932122,9.288614],[-12.93286,9.28833],[-12.933623,9.288247],[-12.934259,9.288435],[-12.93461,9.288937],[-12.935042,9.289192],[-12.935542,9.28926],[-12.935893,9.289239],[-12.93631,9.289542],[-12.936575,9.289807],[-12.936973,9.290016],[-12.937843,9.290036],[-12.938108,9.290131],[-12.938413,9.290168],[-12.939245,9.290036],[-12.940478,9.290357],[-12.941121,9.290661],[-12.9414625,9.290736],[-12.942068,9.290698],[-12.942448,9.290452],[-12.942713,9.290149],[-12.942922,9.289807],[-12.943206,9.289733],[-12.943907,9.289657],[-12.94438,9.28943],[-12.944589,9.289239],[-12.944663,9.288975],[-12.945024,9.28852],[-12.946143,9.287762],[-12.946672,9.287524],[-12.947166,9.287237],[-12.947258,9.286665],[-12.94744,9.286378],[-12.947714,9.286261],[-12.94817,9.286274],[-12.948435,9.286114],[-12.948624,9.285924],[-12.948743,9.285623],[-12.948665,9.285312],[-12.948859,9.28505],[-12.949628,9.2843075],[-12.949754,9.2839775],[-12.950078,9.28383],[-12.951333,9.284035],[-12.951554,9.283826],[-12.951701,9.283583],[-12.951998,9.28354],[-12.952179,9.282888],[-12.952622,9.282628],[-12.9531555,9.282564],[-12.953768,9.282095],[-12.954054,9.281808],[-12.954048,9.281452],[-12.954617,9.280858],[-12.954387,9.280453],[-12.954211,9.279913],[-12.954592,9.2791605],[-12.954516,9.278782],[-12.954308,9.278479],[-12.954081,9.278251],[-12.9540615,9.277512],[-12.953853,9.27719],[-12.953607,9.277039],[-12.953114,9.2763],[-12.953114,9.275959],[-12.953284,9.275485],[-12.95374,9.274575],[-12.95372,9.27431],[-12.953607,9.273893],[-12.95338,9.273553],[-12.953511,9.272965],[-12.953436,9.272472],[-12.953266,9.272189],[-12.952641,9.271923],[-12.952489,9.271658],[-12.952281,9.27109],[-12.952016,9.270749],[-12.951523,9.269858],[-12.95122,9.269062],[-12.950234,9.267642],[-12.949799,9.266656],[-12.94942,9.2653675],[-12.949952,9.263971],[-12.94981,9.263464],[-12.949952,9.263138],[-12.950162,9.262916],[-12.950164,9.262055],[-12.950452,9.261165],[-12.95067,9.260664],[-12.951359,9.26026],[-12.951568,9.259934],[-12.951647,9.259531],[-12.951599,9.259077],[-12.951414,9.25819],[-12.951266,9.25769],[-12.951253,9.25688],[-12.951468,9.256434],[-12.951901,9.2558565],[-12.95274,9.255],[-12.952999,9.254662],[-12.953325,9.253841],[-12.954005,9.252976],[-12.953928,9.252162],[-12.954081,9.251727],[-12.954365,9.251405],[-12.954516,9.2511015],[-12.954725,9.250855],[-12.954838,9.250647],[-12.954951,9.250174],[-12.954906,9.248847],[-12.955182,9.248578],[-12.955231,9.248199],[-12.955537,9.247741],[-12.955792,9.247077],[-12.956387,9.246191],[-12.956532,9.24558],[-12.956412,9.2450695],[-12.956438,9.244695],[-12.9566,9.244547],[-12.956779,9.2445755],[-12.957043,9.244423],[-12.957222,9.244226],[-12.957451,9.244116],[-12.957621,9.243912],[-12.9578,9.243538],[-12.957911,9.243077],[-12.957748,9.242627],[-12.957792,9.242312],[-12.958014,9.241623],[-12.958608,9.240899],[-12.958573,9.240628],[-12.958847,9.240271],[-12.958829,9.239641],[-12.959042,9.239309],[-12.959452,9.239021],[-12.959672,9.238767],[-12.960156,9.237275],[-12.9602585,9.237097],[-12.960581,9.237012],[-12.961297,9.2363825],[-12.96207,9.236025],[-12.962163,9.235668],[-12.962292,9.235421],[-12.962309,9.2351055],[-12.962214,9.234953],[-12.962691,9.234111],[-12.963622,9.233055],[-12.964471,9.232003],[-12.9660635,9.229612],[-12.966835,9.228894],[-12.96812,9.228328],[-12.969506,9.22807],[-12.970047,9.227839],[-12.971358,9.227069],[-12.96817,9.222777],[-12.966752,9.220735],[-12.966012,9.219667],[-12.964932,9.217844],[-12.964547,9.217048],[-12.963983,9.215222],[-12.9627495,9.210855],[-12.961696,9.20533],[-12.961336,9.204249],[-12.960642,9.202863],[-12.959948,9.201654],[-12.959382,9.200782],[-12.9584055,9.199548],[-12.957404,9.198623],[-12.956479,9.197878],[-12.955477,9.197311],[-12.954371,9.196901],[-12.953087,9.196181],[-12.952548,9.195616],[-12.952136,9.194716],[-12.9518795,9.193612],[-12.950286,9.185749],[-12.950184,9.18485],[-12.950286,9.183462],[-12.951057,9.180635],[-12.951828,9.179812],[-12.952727,9.179196],[-12.9552965,9.177989],[-12.958946,9.17637],[-12.964265,9.174571],[-12.972924,9.171847],[-12.978218,9.169894],[-12.979297,9.1692],[-12.979836,9.168507],[-12.980299,9.167633],[-12.98084,9.165731],[-12.9810705,9.161799],[-12.981276,9.16085],[-12.982278,9.157662],[-12.984874,9.152986],[-12.986363,9.15057],[-12.988317,9.148565],[-12.989885,9.147076],[-12.99212,9.144556],[-12.992634,9.144069],[-12.99343,9.141268],[-12.993815,9.139701],[-12.993866,9.136412],[-12.994382,9.133688],[-12.994998,9.131529],[-12.995614,9.130296],[-12.996077,9.129217],[-12.996797,9.127212],[-13.000215,9.118733],[-13.00132,9.11642],[-13.00543,9.1113825],[-13.006972,9.109636],[-13.00836,9.108504],[-13.010776,9.107221],[-13.012575,9.106347],[-13.015195,9.1047535],[-13.0170965,9.103108],[-13.018484,9.101516],[-13.019461,9.099923],[-13.021877,9.096941],[-13.022853,9.096376],[-13.023983,9.096273],[-13.024652,9.096787],[-13.025166,9.0976095],[-13.025372,9.098792],[-13.025783,9.100282],[-13.026708,9.101156],[-13.028506,9.101824],[-13.029996,9.101977],[-13.033183,9.100899],[-13.035599,9.099667],[-13.038065,9.098741],[-13.040532,9.097353],[-13.041302,9.096325],[-13.041972,9.094525],[-13.04228,9.092368],[-13.041816,9.0899515],[-13.042023,9.08728],[-13.042486,9.085841],[-13.043204,9.08507],[-13.044747,9.084042],[-13.046853,9.083373],[-13.049013,9.083117],[-13.053792,9.083014],[-13.061244,9.083477],[-13.063557,9.083477],[-13.066537,9.083785],[-13.068695,9.083631],[-13.070135,9.08322],[-13.071317,9.082552],[-13.072756,9.081216],[-13.073732,9.080085],[-13.074143,9.078954],[-13.0744,9.077824],[-13.075222,9.07623],[-13.075428,9.074894],[-13.0747595,9.072889],[-13.07404,9.07027],[-13.073938,9.06883],[-13.074296,9.067134],[-13.075634,9.064615],[-13.077072,9.063177],[-13.079077,9.061789],[-13.080001,9.0607605],[-13.080772,9.059271],[-13.081183,9.057779],[-13.081081,9.055724],[-13.080361,9.051972],[-13.080465,9.050585],[-13.080863,9.049496],[-13.081903,9.048735],[-13.083137,9.048376],[-13.084885,9.048118],[-13.08617,9.04781],[-13.088635,9.04709],[-13.089921,9.046628],[-13.096962,9.046628],[-13.099532,9.046834],[-13.101022,9.047193],[-13.102717,9.04781],[-13.1042595,9.048785],[-13.105699,9.050123],[-13.107292,9.051099],[-13.108885,9.051613],[-13.110683,9.052692],[-13.1121235,9.053258],[-13.113253,9.053412],[-13.114435,9.053103],[-13.115155,9.052127],[-13.115925,9.051356],[-13.116953,9.050483],[-13.118085,9.050019],[-13.120603,9.049558],[-13.12235,9.049609],[-13.125484,9.050071],[-13.128105,9.050996],[-13.129905,9.051972],[-13.132166,9.0538225],[-13.1335535,9.054594],[-13.134736,9.054955],[-13.136946,9.055365],[-13.139258,9.05593],[-13.141056,9.056444],[-13.142906,9.057626],[-13.144757,9.059425],[-13.14635,9.061429],[-13.1490755,9.065592],[-13.150565,9.067442],[-13.152466,9.069446],[-13.156013,9.072838],[-13.15776,9.074175],[-13.159867,9.0753565],[-13.161459,9.076179],[-13.163773,9.077001],[-13.16552,9.078338],[-13.166394,9.07952],[-13.166959,9.082191],[-13.166445,9.085173],[-13.168346,9.087588],[-13.1700945,9.089079],[-13.172664,9.091032],[-13.175387,9.091854],[-13.1777,9.093036],[-13.178985,9.093242],[-13.180526,9.093654],[-13.182891,9.094577],[-13.185101,9.094783],[-13.186695,9.094321],[-13.188596,9.093497],[-13.190549,9.09314],[-13.193016,9.093293],[-13.194763,9.093703],[-13.196305,9.094372],[-13.197434,9.095297],[-13.1983595,9.095863],[-13.199645,9.095863],[-13.200364,9.095553],[-13.201496,9.094577],[-13.202318,9.093242],[-13.203037,9.091647],[-13.202933,9.089798],[-13.202575,9.088462],[-13.2017,9.086766],[-13.201547,9.085687],[-13.20165,9.084145],[-13.202164,9.083066],[-13.203346,9.082552],[-13.205093,9.082089],[-13.20684,9.081062],[-13.208125,9.079879],[-13.209461,9.078902],[-13.211825,9.078338],[-13.213316,9.078593],[-13.216605,9.078388],[-13.222823,9.07659],[-13.225289,9.076179],[-13.227808,9.075254],[-13.230583,9.074328],[-13.23377,9.073147],[-13.239629,9.070114],[-13.241531,9.068778],[-13.2427635,9.068572],[-13.243998,9.068933],[-13.245231,9.069549],[-13.246053,9.070423],[-13.24744,9.071655],[-13.24852,9.072222],[-13.249342,9.072375],[-13.2498045,9.072016],[-13.250369,9.0714],[-13.25073,9.070833],[-13.250935,9.069652],[-13.251348,9.068522],[-13.252219,9.06703],[-13.253351,9.0659],[-13.254584,9.065284],[-13.256126,9.065026],[-13.25926,9.065181],[-13.263064,9.065129],[-13.265429,9.064975],[-13.267279,9.064615],[-13.269129,9.064101],[-13.270516,9.063948],[-13.27252,9.063948],[-13.274062,9.063639],[-13.275295,9.062868],[-13.276323,9.061686],[-13.276991,9.060812],[-13.277917,9.059321],[-13.280127,9.056958],[-13.28213,9.055518],[-13.284186,9.054337],[-13.2862425,9.052898],[-13.287219,9.052127],[-13.288504,9.050894],[-13.28948,9.050277],[-13.291999,9.049866],[-13.2935915,9.049814],[-13.297087,9.050019],[-13.298731,9.049763],[-13.299759,9.049249],[-13.300683,9.048376],[-13.301402,9.04709],[-13.301815,9.046062],[-13.302072,9.044881],[-13.302072,9.043492],[-13.301917,9.0419],[-13.301455,9.039947],[-13.301381,9.039147],[-13.301206,9.036078],[-13.306658,9.034115],[-13.495776,8.966],[-13.4956665,8.964],[-13.495604,8.96],[-13.495461,8.956],[-13.495237,8.952001],[-13.494931,8.948],[-13.494338,8.941999],[-13.493848,8.938],[-13.493275,8.933999],[-13.492617,8.929999],[-13.491875,8.926],[-13.491047,8.922],[-13.490132,8.917999],[-13.48913,8.914],[-13.48804,8.91],[-13.486856,8.906],[-13.485583,8.901999],[-13.484214,8.898],[-13.48275,8.894],[-13.481186,8.89],[-13.479533,8.886],[-13.477792,8.882],[-13.475943,8.878],[-13.473987,8.874001],[-13.4724455,8.871],[-13.470313,8.867],[-13.468097,8.862999],[-13.465758,8.858999],[-13.463292,8.855],[-13.460693,8.851],[-13.457956,8.846999],[-13.455073,8.842999],[-13.452036,8.839],[-13.449651,8.8359995],[-13.449478,8.834],[-13.450447,8.824],[-13.45075,8.82],[-13.450993,8.816],[-13.451153,8.812],[-13.451234,8.808],[-13.451252,8.802],[-13.451191,8.798],[-13.450946,8.792],[-13.450519,8.785999],[-13.449906,8.78],[-13.449109,8.773999],[-13.448984,8.768],[-13.448842,8.764],[-13.448375,8.756],[-13.448099,8.75],[-13.447641,8.7439995],[-13.446999,8.738],[-13.44685,8.736],[-13.447031,8.732],[-13.447132,8.728001],[-13.44715,8.723999],[-13.447089,8.719999],[-13.446945,8.716],[-13.446722,8.711999],[-13.446417,8.707999],[-13.445853,8.702],[-13.445834,8.7],[-13.44635,8.693999],[-13.446683,8.688],[-13.446834,8.682],[-13.446845,8.6779995],[-13.446783,8.674],[-13.44664,8.67],[-13.446092,8.66],[-13.4457655,8.656],[-13.445357,8.652],[-13.444697,8.643999],[-13.444025,8.638],[-13.444146,8.636],[-13.446939,8.632999],[-13.450493,8.629],[-13.45386,8.625],[-13.457056,8.620999],[-13.46009,8.617],[-13.462969,8.613],[-13.465702,8.609],[-13.468296,8.605],[-13.468924,8.604],[-13.47194,8.599],[-13.474762,8.594],[-13.477399,8.589],[-13.479857,8.584],[-13.481702,8.58],[-13.48427,8.574],[-13.486635,8.568],[-13.488791,8.561999],[-13.490759,8.556],[-13.492561,8.55],[-13.494161,8.544],[-13.49556,8.538],[-13.496765,8.532],[-13.497778,8.526],[-13.49863,8.5199995],[-13.4993305,8.514],[-13.499695,8.51],[-13.499977,8.506],[-13.500179,8.502],[-13.5002985,8.497999],[-13.500339,8.4939995],[-13.500297,8.49],[-13.5001745,8.486],[-13.499971,8.481999],[-13.499686,8.478],[-13.49932,8.474],[-13.498872,8.47],[-13.49834,8.466],[-13.4977255,8.462],[-13.497026,8.457999],[-13.496243,8.4539995],[-13.495374,8.45],[-13.494986,8.448],[-13.495227,8.441999],[-13.495286,8.438],[-13.495269,8.434],[-13.49545,8.43],[-13.49555,8.426],[-13.495548,8.419999],[-13.495365,8.414],[-13.495142,8.41],[-13.494837,8.406],[-13.4942255,8.4],[-13.493714,8.396],[-13.493122,8.392],[-13.492073,8.386],[-13.490834,8.38],[-13.489899,8.375999],[-13.488876,8.372],[-13.487764,8.368],[-13.486561,8.364],[-13.485266,8.36],[-13.483875,8.356],[-13.4823885,8.352],[-13.480802,8.348],[-13.479115,8.344],[-13.477323,8.339999],[-13.475423,8.3359995],[-13.4734125,8.332],[-13.47183,8.3289995],[-13.469618,8.325],[-13.467878,8.322],[-13.46482,8.317],[-13.462226,8.313],[-13.458786,8.308],[-13.455869,8.304],[-13.453579,8.301],[-13.451206,8.297999],[-13.447099,8.293],[-13.442746,8.288],[-13.43999,8.285],[-13.43809,8.283],[-13.437428,8.282],[-13.434371,8.277],[-13.432437,8.273999],[-13.429739,8.2699995],[-13.426898,8.266],[-13.424667,8.263],[-13.422348,8.259999],[-13.418273,8.255],[-13.414815,8.250999],[-13.408403,8.2439995],[-13.407606,8.243],[-13.406163,8.241],[-13.402942,8.236],[-13.399504,8.231],[-13.399221,8.23],[-13.403689,8.224999],[-13.407868,8.22],[-13.411781,8.215],[-13.414009,8.212],[-13.416153,8.209],[-13.419544,8.204],[-13.421474,8.200999],[-13.423331,8.198],[-13.425116,8.195],[-13.42683,8.191999],[-13.428475,8.189],[-13.430056,8.186],[-13.433024,8.179999],[-13.435748,8.174],[-13.438236,8.168],[-13.440499,8.162],[-13.442545,8.156],[-13.444382,8.15],[-13.446012,8.144],[-13.446987,8.14],[-13.447876,8.136],[-13.449047,8.13],[-13.450027,8.124],[-13.450821,8.118],[-13.451247,8.113999],[-13.451591,8.11],[-13.451953,8.104],[-13.452094,8.099999],[-13.452174,8.096],[-13.452173,8.092],[-13.452091,8.087999],[-13.451817,8.082],[-13.451532,8.078],[-13.451166,8.073999],[-13.450463,8.068],[-13.449891,8.064],[-13.449235,8.06],[-13.448093,8.054],[-13.447224,8.049999],[-13.446268,8.046],[-13.444669,8.04],[-13.442865,8.033999],[-13.440852,8.028],[-13.439391,8.024],[-13.437832,8.0199995],[-13.436171,8.016],[-13.434406,8.012],[-13.432537,8.007999],[-13.430556,8.004],[-13.428462,8],[-13.426251,7.996],[-13.423918,7.9919996],[-13.421458,7.9879994],[-13.418865,7.9839997],[-13.416831,7.981],[-13.41399,7.9769998],[-13.411762,7.974],[-13.408651,7.97],[-13.406209,7.967],[-13.402799,7.963],[-13.400118,7.9599996],[-13.397327,7.957],[-13.394419,7.9539995],[-13.391385,7.9509997],[-13.388219,7.948],[-13.384911,7.9449997],[-13.381449,7.942],[-13.37782,7.9389997],[-13.374013,7.936],[-13.3700075,7.933],[-13.367218,7.9309998],[-13.362836,7.928],[-13.359772,7.926],[-13.354934,7.9229994],[-13.35153,7.9209995],[-13.347966,7.9189997],[-13.344225,7.917],[-13.340282,7.9149995],[-13.336113,7.9129996],[-13.33168,7.911],[-13.326939,7.909],[-13.321828,7.9069996],[-13.319108,7.9059997],[-13.313271,7.904],[-13.310113,7.903],[-13.306763,7.902],[-13.303182,7.901],[-13.29932,7.9],[-13.295106,7.8989997],[-13.290427,7.898],[-13.285098,7.897],[-13.27876,7.896],[-13.270488,7.895],[-13.25271,7.894],[-13.240502,7.894],[-13.222724,7.895],[-13.214453,7.896],[-13.211218,7.896],[-13.210699,7.89],[-13.210251,7.8859997],[-13.209721,7.8819995],[-13.209107,7.878],[-13.208409,7.8739996],[-13.207627,7.87],[-13.206759,7.8659997],[-13.205804,7.862],[-13.204761,7.858],[-13.203627,7.854],[-13.202402,7.8499994],[-13.201085,7.8459997],[-13.199672,7.8419995],[-13.198163,7.838],[-13.196554,7.8339996],[-13.19528,7.831],[-13.196009,7.83],[-13.199877,7.8269997],[-13.203559,7.824],[-13.207072,7.821],[-13.211513,7.817],[-13.214677,7.814],[-13.217707,7.8109994],[-13.220612,7.8079996],[-13.224304,7.804],[-13.226946,7.8009996],[-13.230307,7.797],[-13.233497,7.7929997],[-13.236524,7.789],[-13.239397,7.785],[-13.242124,7.781],[-13.244714,7.777],[-13.24717,7.773],[-13.249499,7.7689996],[-13.251707,7.765],[-13.253798,7.7609997],[-13.256251,7.756],[-13.258092,7.752],[-13.259827,7.7479997],[-13.261458,7.744],[-13.263719,7.7379994],[-13.265105,7.7339997],[-13.2663965,7.7299995],[-13.267597,7.726],[-13.269225,7.72],[-13.2702,7.7159996],[-13.2715,7.71],[-13.272258,7.706],[-13.273238,7.6999993],[-13.273787,7.6959996],[-13.274253,7.692],[-13.274638,7.6879997],[-13.275061,7.6819997],[-13.275242,7.678],[-13.275341,7.674],[-13.27534,7.6679997],[-13.275239,7.6639996],[-13.275056,7.66],[-13.274792,7.6559997],[-13.274243,7.6499996],[-13.273776,7.646],[-13.273225,7.6419997],[-13.272242,7.6359997],[-13.272174,7.634],[-13.272335,7.63],[-13.272424,7.6239996],[-13.272332,7.6179996],[-13.272169,7.614],[-13.271774,7.608],[-13.271194,7.6019998],[-13.270431,7.596],[-13.269817,7.592],[-13.26874,7.5859995],[-13.267916,7.582],[-13.267004,7.5779996],[-13.2660055,7.574],[-13.264918,7.5699997],[-13.263741,7.566],[-13.262471,7.562],[-13.2611065,7.558],[-13.259646,7.5539994],[-13.258089,7.5499997],[-13.256431,7.5459995],[-13.254685,7.542],[-13.252312,7.536],[-13.250602,7.532],[-13.248787,7.528],[-13.246864,7.5239997],[-13.24483,7.52],[-13.242681,7.5160003],[-13.239825,7.5109997],[-13.2367735,7.5059996],[-13.233515,7.501],[-13.230751,7.4969997],[-13.22784,7.493],[-13.222501,7.486],[-13.219269,7.482],[-13.215863,7.4779997],[-13.212269,7.4739995],[-13.208475,7.47],[-13.204463,7.4659996],[-13.2013,7.463],[-13.19586,7.4579997],[-13.191283,7.454],[-13.186413,7.45],[-13.181213,7.446],[-13.177071,7.4429994],[-13.172693,7.4399996],[-13.168055,7.437],[-13.1648,7.4349995],[-13.159641,7.4319997],[-13.155995,7.43],[-13.152162,7.4279995],[-13.148113,7.4259996],[-13.143822,7.424],[-13.139247,7.422],[-13.1343355,7.42],[-13.131733,7.4189997],[-13.126173,7.417],[-13.123185,7.416],[-13.120032,7.415],[-13.116685,7.414],[-13.113108,7.413],[-13.111772,7.4119997],[-13.10809,7.409],[-13.105535,7.407],[-13.102891,7.405],[-13.100154,7.4029994],[-13.097317,7.4009995],[-13.094372,7.3989997],[-13.091311,7.397],[-13.088123,7.3949995],[-13.084799,7.3929996],[-13.081321,7.391],[-13.077676,7.389],[-13.073842,7.3869996],[-13.067681,7.384],[-13.063254,7.382],[-13.060928,7.381],[-13.056018,7.3789997],[-13.053415,7.378],[-13.047855,7.376],[-13.041716,7.374],[-13.038369,7.373],[-13.034793,7.372],[-13.030935,7.371],[-13.026726,7.37],[-13.022053,7.369],[-13.016731,7.3679996],[-13.010401,7.3669996],[-13.002139,7.3659997],[-12.984385,7.365],[-12.978506,7.365],[-12.960752,7.3659997],[-12.95249,7.3669996],[-12.950671,7.3669996],[-12.942416,7.365],[-12.93856,7.3639994],[-12.930186,7.3619995],[-12.922676,7.3599997],[-12.918467,7.3589997],[-12.913794,7.358],[-12.902317,7.3549995],[-12.898107,7.3539996],[-12.893536,7.3529997],[-12.878832,7.349],[-12.86748,7.3459997],[-12.860458,7.344],[-12.84898,7.341],[-12.842175,7.3389997],[-12.835086,7.337],[-12.825174,7.334],[-12.818915,7.3319993],[-12.812092,7.3299994],[-12.809105,7.3289995],[-12.802647,7.3269997],[-12.799652,7.3259997],[-12.793365,7.324],[-12.787535,7.3219995],[-12.784383,7.3209996],[-12.781036,7.3199997],[-12.771552,7.317],[-12.762344,7.3139997],[-12.758999,7.3129997],[-12.757596,7.312],[-12.755371,7.3059998],[-12.752922,7.2999997],[-12.75024,7.294],[-12.747822,7.2889996],[-12.74576,7.285],[-12.743583,7.2809997],[-12.741284,7.277],[-12.738861,7.273],[-12.735646,7.2679996],[-12.73292,7.264],[-12.730047,7.26],[-12.727022,7.2559996],[-12.723835,7.2519994],[-12.720475,7.2479997],[-12.71693,7.244],[-12.714145,7.2409997],[-12.71319,7.24],[-12.709236,7.2359996],[-12.705051,7.232],[-12.700614,7.228],[-12.695898,7.224],[-12.69087,7.2199993],[-12.686872,7.2169995],[-12.684086,7.2149997],[-12.681198,7.213],[-12.676653,7.2099996],[-12.671823,7.207],[-12.666667,7.2039995],[-12.661132,7.2009997],[-12.655146,7.198],[-12.650856,7.196],[-12.648607,7.1949997],[-12.643874,7.193],[-12.638772,7.191],[-12.633216,7.189],[-12.627078,7.187],[-12.6237335,7.186],[-12.620157,7.185],[-12.6163025,7.184],[-12.612095,7.183],[-12.607424,7.182],[-12.602104,7.1809998],[-12.5957775,7.18],[-12.587519,7.1789994],[-12.569771,7.1779995],[-12.563734,7.1779995],[-12.545986,7.1789994],[-12.531767,7.1789994],[-12.514019,7.18],[-12.505492,7.18],[-12.494662,7.1769996],[-12.491313,7.1759996],[-12.487758,7.1749997],[-12.476929,7.1719995],[-12.467346,7.1689997],[-12.464001,7.1679997],[-12.453215,7.165],[-12.449799,7.164],[-12.443571,7.1619997],[-12.440227,7.161],[-12.436651,7.16],[-12.421302,7.1549997],[-12.412971,7.152],[-12.403882,7.149],[-12.395643,7.1459994],[-12.385469,7.1419997],[-12.379913,7.1399994],[-12.377398,7.1389995],[-12.372665,7.1369996],[-12.370166,7.1359997],[-12.367563,7.1349998],[-12.359444,7.132],[-12.354273,7.1299996],[-12.344363,7.126],[-12.336541,7.1229997],[-12.324231,7.118],[-12.319498,7.116],[-12.311992,7.113],[-12.309391,7.112],[-12.298344,7.1079993],[-12.293394,7.1059995],[-12.290793,7.1049995],[-12.279889,7.101],[-12.274798,7.0989995],[-12.26697,7.0959997],[-12.261418,7.094],[-12.25671,7.0919995],[-12.251802,7.0899997],[-12.243847,7.087],[-12.238938,7.085],[-12.236338,7.084],[-12.2307825,7.082],[-12.224783,7.08],[-12.216622,7.077],[-12.210886,7.075],[-12.20588,7.073],[-12.198063,7.0699997],[-12.181844,7.0639997],[-12.176935,7.062],[-12.166712,7.0579996],[-12.156874,7.054],[-12.148973,7.0509996],[-12.144065,7.049],[-12.141464,7.048],[-12.134151,7.045],[-12.123493,7.041],[-12.118551,7.039],[-12.113245,7.037],[-12.10344,7.0329995],[-12.098177,7.0309997],[-12.095738,7.0299997],[-12.091315,7.0279994],[-12.088991,7.0269995],[-12.0840845,7.0249996],[-12.076092,7.022],[-12.070537,7.02],[-12.058225,7.015],[-12.047674,7.0109997],[-12.040255,7.008],[-12.035059,7.006],[-12.030621,7.004],[-12.0235405,7.001],[-12.018634,6.999],[-12.01354,6.997],[-12.008969,6.9949994],[-12.004063,6.9929996],[-11.999324,6.9909997],[-11.984946,6.9839997],[-11.980522,6.982],[-11.975897,6.9799995],[-11.969197,6.9769998],[-11.962914,6.974],[-11.958572,6.972],[-11.95256,6.969],[-11.948275,6.967],[-11.946027,6.966],[-11.942077,6.9639997],[-11.935831,6.961],[-11.931407,6.9589996],[-11.926676,6.957],[-11.9244375,6.956],[-11.916466,6.9519997],[-11.912178,6.95],[-11.909932,6.949],[-11.907906,6.9479995],[-11.904172,6.9459996],[-11.900238,6.944],[-11.896078,6.942],[-11.893902,6.941],[-11.890122,6.9389997],[-11.886199,6.937],[-11.882466,6.935],[-11.876483,6.9319997],[-11.868702,6.928],[-11.8555765,6.9209995],[-11.850396,6.9179997],[-11.846754,6.9159994],[-11.842924,6.9139996],[-11.838892,6.9119997],[-11.834164,6.909],[-11.830842,6.9069996],[-11.827369,6.9049997],[-11.821883,6.902],[-11.818415,6.8999996],[-11.813589,6.897],[-11.808435,6.894],[-11.803691,6.891],[-11.800441,6.889],[-11.791891,6.8839993],[-11.788762,6.8789997],[-11.785422,6.8739996],[-11.781858,6.869],[-11.778835,6.865],[-11.77565,6.861],[-11.772294,6.857],[-11.768753,6.853],[-11.763244,6.8469996],[-11.759349,6.8429995],[-11.75628,6.8399997],[-11.751986,6.8359995],[-11.747485,6.832],[-11.742698,6.828],[-11.7389,6.825],[-11.734905,6.822],[-11.730693,6.819],[-11.726319,6.816],[-11.723321,6.814],[-11.7185955,6.8109994],[-11.715274,6.8089995],[-11.711801,6.8069997],[-11.708159,6.805],[-11.696824,6.799],[-11.688912,6.7949996],[-11.684753,6.7929997],[-11.682578,6.792],[-11.675719,6.789],[-11.668602,6.786],[-11.663696,6.784],[-11.656773,6.781],[-11.654906,6.78],[-11.647913,6.776],[-11.6371155,6.7699995],[-11.6332855,6.7679996],[-11.627242,6.765],[-11.621845,6.7619996],[-11.618017,6.7599998],[-11.613976,6.758],[-11.60969,6.7559996],[-11.608076,6.7549996],[-11.506898,6.928077],[-11.506233,6.9292135],[-11.505922,6.9291453],[-11.505737,6.929081],[-11.5047655,6.9287515],[-11.504385,6.9283123],[-11.503802,6.927883],[-11.503603,6.9276156],[-11.503325,6.9273157],[-11.5028,6.926994],[-11.501795,6.9264665],[-11.501128,6.925968],[-11.50013,6.9253078],[-11.498821,6.924575],[-11.49821,6.9242787],[-11.498054,6.924306],[-11.497306,6.9239635],[-11.497029,6.923777],[-11.496434,6.9235063],[-11.496105,6.9234343],[-11.495382,6.9230456],[-11.49478,6.922686],[-11.494349,6.922536],[-11.494011,6.92237],[-11.493555,6.922073],[-11.492716,6.921725],[-11.492704,6.921631],[-11.492383,6.921589],[-11.491765,6.9217396],[-11.491156,6.9219356],[-11.490224,6.9223],[-11.489543,6.9225707],[-11.488515,6.9230256],[-11.487739,6.923307],[-11.486904,6.9235964],[-11.486229,6.9236984],[-11.485103,6.924063],[-11.4846525,6.9241123],[-11.483959,6.9240437],[-11.483051,6.9240084],[-11.48108,6.9240375],[-11.480473,6.924014],[-11.480143,6.9239383],[-11.479921,6.9238987],[-11.479663,6.9239006],[-11.479135,6.92379],[-11.478586,6.923785],[-11.477809,6.9238667],[-11.477087,6.923914],[-11.476057,6.9241767],[-11.475025,6.924183],[-11.474254,6.924444],[-11.473224,6.9247065],[-11.472247,6.9253006],[-11.471191,6.925598],[-11.470126,6.925848],[-11.469623,6.926014],[-11.468496,6.9262133],[-11.467658,6.926333],[-11.466675,6.926404],[-11.465859,6.9263444],[-11.4651165,6.92613],[-11.464613,6.925773],[-11.464247,6.925643],[-11.464011,6.9253054],[-11.463689,6.925014],[-11.463416,6.9246817],[-11.463058,6.9242954],[-11.462661,6.9240637],[-11.462394,6.923862],[-11.461878,6.923736],[-11.461391,6.923448],[-11.460241,6.92352],[-11.459645,6.923552],[-11.458947,6.9236894],[-11.458582,6.923899],[-11.458271,6.9240117],[-11.457757,6.924272],[-11.457382,6.9244533],[-11.456964,6.924655],[-11.45605,6.9252033],[-11.45573,6.9254203],[-11.455242,6.925644],[-11.454848,6.9259887],[-11.454545,6.9262204],[-11.454254,6.92677],[-11.454081,6.9271955],[-11.453825,6.9272346],[-11.453922,6.927449],[-11.454039,6.928027],[-11.453995,6.9284744],[-11.454191,6.9295363],[-11.4541645,6.930029],[-11.454201,6.930559],[-11.4540825,6.9312005],[-11.453908,6.9317493],[-11.453646,6.932111],[-11.453417,6.932409],[-11.453193,6.932862],[-11.45305,6.9330873],[-11.452846,6.933314],[-11.452581,6.9336233],[-11.4522705,6.933897],[-11.4519825,6.9343014],[-11.451707,6.9345512],[-11.451367,6.934866],[-11.45029,6.935783],[-11.449919,6.936175],[-11.449715,6.936377],[-11.449451,6.9366274],[-11.449058,6.936939],[-11.448544,6.937199],[-11.447771,6.937203],[-11.446922,6.9373655],[-11.445453,6.93773],[-11.445076,6.9378176],[-11.444069,6.9381146],[-11.442546,6.9387693],[-11.442109,6.939035],[-11.441081,6.9395547],[-11.440761,6.939709],[-11.440567,6.9398155],[-11.440162,6.9401135],[-11.439925,6.940206],[-11.43954,6.940594],[-11.438723,6.9410777],[-11.43798,6.9413753],[-11.437416,6.941613],[-11.436864,6.941637],[-11.436265,6.9417562],[-11.435163,6.9416456],[-11.434539,6.9415774],[-11.433614,6.9411387],[-11.432944,6.9408875],[-11.4312935,6.941151],[-11.429749,6.9414167],[-11.42857,6.941566],[-11.427429,6.941429],[-11.426867,6.9413633],[-11.426136,6.9410896],[-11.425622,6.9409227],[-11.425362,6.9406667],[-11.424638,6.9403634],[-11.42407,6.940158],[-11.423942,6.9400296],[-11.423571,6.9396973],[-11.423283,6.9393525],[-11.423103,6.9390783],[-11.422911,6.9387927],[-11.422576,6.9383883],[-11.422169,6.938091],[-11.421054,6.9381266],[-11.420682,6.938234],[-11.420107,6.9381385],[-11.4197235,6.9379954],[-11.418956,6.9379954],[-11.41838,6.938031],[-11.418092,6.9381623],[-11.4180565,6.938472],[-11.417749,6.9390306],[-11.417522,6.9393377],[-11.417493,6.940935],[-11.417445,6.941673],[-11.417637,6.942123],[-11.417841,6.9424224],[-11.418033,6.943924],[-11.418297,6.9452105],[-11.418558,6.945725],[-11.418817,6.9459805],[-11.41908,6.94701],[-11.419124,6.9474316],[-11.419399,6.948241],[-11.419604,6.94881],[-11.41964,6.94905],[-11.419928,6.9495263],[-11.420107,6.949788],[-11.4202385,6.9501805],[-11.420646,6.9508657],[-11.420682,6.951109],[-11.421166,6.951893],[-11.421427,6.952407],[-11.421821,6.953072],[-11.422207,6.953691],[-11.422468,6.954205],[-11.4227915,6.95519],[-11.423056,6.9555116],[-11.423103,6.9558444],[-11.423319,6.9562964],[-11.4235115,6.9567747],[-11.4237385,6.956951],[-11.4240265,6.9572487],[-11.424291,6.957802],[-11.424949,6.9586763],[-11.425753,6.9596286],[-11.426616,6.960771],[-11.428065,6.9622674],[-11.428536,6.9626284],[-11.428832,6.9630165],[-11.42908,6.9632654],[-11.429265,6.9634957],[-11.430411,6.964752],[-11.430831,6.9654703],[-11.43107,6.966015],[-11.431449,6.9666085],[-11.4316225,6.967053],[-11.4320755,6.967807],[-11.432234,6.968613],[-11.432172,6.9693727],[-11.431626,6.9706526],[-11.431376,6.9710226],[-11.431129,6.9712386],[-11.430795,6.9714375],[-11.430419,6.971551],[-11.429388,6.9715557],[-11.428871,6.9713006],[-11.427838,6.971049],[-11.426561,6.97051],[-11.425402,6.970034],[-11.424701,6.969686],[-11.424018,6.969438],[-11.423428,6.969455],[-11.422961,6.9693875],[-11.420794,6.9696703],[-11.420097,6.9698],[-11.419069,6.9700627],[-11.418554,6.9703236],[-11.417757,6.9704604],[-11.416494,6.9708486],[-11.415526,6.9713826],[-11.415284,6.971702],[-11.415275,6.9719386],[-11.414915,6.972271],[-11.4146595,6.972383],[-11.414474,6.972943],[-11.4143915,6.9737277],[-11.414444,6.9743586],[-11.414601,6.975171],[-11.414795,6.9757686],[-11.414838,6.976476],[-11.414953,6.9770985],[-11.415333,6.978594],[-11.41553,6.979209],[-11.4155245,6.979662],[-11.415642,6.9805136],[-11.415904,6.9812846],[-11.415916,6.983861],[-11.415495,6.985274],[-11.415327,6.9856873],[-11.41486,6.986424],[-11.413875,6.987735],[-11.413619,6.988252],[-11.412722,6.9891567],[-11.411948,6.989419],[-11.411693,6.989678],[-11.411179,6.98981],[-11.408859,6.9899497],[-11.4086,6.989823],[-11.408167,6.9896307],[-11.406814,6.9893723],[-11.404852,6.988723],[-11.403544,6.9879537],[-11.401883,6.9870048],[-11.400968,6.9864554],[-11.399921,6.9864955],[-11.398271,6.987115],[-11.397376,6.9881935],[-11.39665,6.9912496],[-11.395926,6.997492],[-11.396048,7.0011277],[-11.392807,7.006042],[-11.387694,7.009238],[-11.384152,7.010936],[-11.382281,7.0103364],[-11.380772,7.0094376],[-11.379041,7.0094576],[-11.376284,7.012793],[-11.373723,7.0169706],[-11.371697,7.0195665],[-11.370596,7.020737],[-11.369908,7.021206],[-11.36922,7.0223765],[-11.369908,7.0303593],[-11.369869,7.0338526],[-11.368807,7.0404105],[-11.368531,7.044138],[-11.368531,7.0457187],[-11.367057,7.047202],[-11.365994,7.047827],[-11.364736,7.0479827],[-11.363713,7.0482755],[-11.363261,7.0491343],[-11.363359,7.0521593],[-11.363576,7.053096],[-11.364657,7.0544424],[-11.373153,7.062795],[-11.373605,7.063088],[-11.374726,7.0633025],[-11.375414,7.0635953],[-11.375847,7.064532],[-11.375414,7.067557],[-11.374589,7.0714207],[-11.372701,7.07427],[-11.370931,7.0764556],[-11.367115,7.080437],[-11.365425,7.081432],[-11.36275,7.080983],[-11.359406,7.0802608],[-11.35571,7.079715],[-11.353095,7.0795197],[-11.3488865,7.08032],[-11.347097,7.080105],[-11.345228,7.079539],[-11.341925,7.077802],[-11.339703,7.077295],[-11.337225,7.076807],[-11.335003,7.0767097],[-11.334197,7.0768657],[-11.333666,7.0779],[-11.3335085,7.078407],[-11.332723,7.0787],[-11.3326435,7.079949],[-11.332879,7.0820565],[-11.33343,7.0860963],[-11.333233,7.0883207],[-11.33402,7.0910525],[-11.334885,7.092243],[-11.335082,7.092848],[-11.334945,7.0933356],[-11.334197,7.09355],[-11.333627,7.093882],[-11.332938,7.0949554],[-11.333135,7.0965357],[-11.333646,7.097258],[-11.333823,7.097863],[-11.333823,7.098604],[-11.333686,7.098936],[-11.333174,7.0991116],[-11.3330965,7.099912],[-11.334216,7.101239],[-11.334806,7.1028585],[-11.334945,7.1036196],[-11.336536,7.1053762],[-11.336675,7.107015],[-11.33577,7.108888],[-11.334768,7.1103916],[-11.333449,7.1113663],[-11.333057,7.1120157],[-11.332968,7.113333],[-11.3335285,7.114894],[-11.334482,7.116074],[-11.335771,7.1164846],[-11.336194,7.1167088],[-11.336243,7.116943],[-11.33698,7.117099],[-11.337363,7.1172743],[-11.337334,7.118455],[-11.337865,7.119158],[-11.338425,7.1198115],[-11.338883,7.1198854],[-11.339487,7.1200747],[-11.34049,7.120601],[-11.34048,7.120738],[-11.3405485,7.1211867],[-11.340874,7.121694],[-11.340874,7.122192],[-11.340726,7.122943],[-11.340402,7.1230307],[-11.340283,7.123899],[-11.340589,7.124328],[-11.340805,7.1245823],[-11.341503,7.126836],[-11.34229,7.128221],[-11.343311,7.129626],[-11.343931,7.1302795],[-11.344422,7.130338],[-11.344914,7.130299],[-11.345927,7.1311965],[-11.347038,7.1321235],[-11.347805,7.132992],[-11.348051,7.1330214],[-11.348601,7.1337724],[-11.349339,7.134836],[-11.349575,7.13549],[-11.349162,7.1362314],[-11.34928,7.136758],[-11.349418,7.137119],[-11.349428,7.1376066],[-11.349428,7.1379876],[-11.34929,7.1380167],[-11.349153,7.137782],[-11.348986,7.1376457],[-11.349133,7.1382213],[-11.349751,7.139138],[-11.350892,7.1396556],[-11.352151,7.1398215],[-11.352486,7.140514],[-11.352161,7.1418996],[-11.351454,7.142397],[-11.350637,7.1429234],[-11.349644,7.144348],[-11.348248,7.146582],[-11.346743,7.147733],[-11.34517,7.1479187],[-11.343971,7.1477137],[-11.34282,7.1468945],[-11.342486,7.146387],[-11.34166,7.1457624],[-11.34045,7.1449823],[-11.33935,7.1442895],[-11.335897,7.143558],[-11.333814,7.1438212],[-11.332899,7.144533],[-11.3315325,7.145558],[-11.330186,7.146397],[-11.329635,7.1470404],[-11.329124,7.14747],[-11.328494,7.1479483],[-11.328268,7.148397],[-11.328003,7.148563],[-11.3280325,7.149343],[-11.328759,7.1504164],[-11.329271,7.1508265],[-11.329969,7.1519094],[-11.329989,7.1524363],[-11.330294,7.1526313],[-11.330363,7.152865],[-11.329999,7.1533628],[-11.330195,7.1537433],[-11.330471,7.1543674],[-11.330334,7.155138],[-11.3306875,7.1562796],[-11.331267,7.1569333],[-11.331719,7.157343],[-11.332397,7.1575284],[-11.333323,7.157548],[-11.333882,7.157314],[-11.334256,7.157158],[-11.3352,7.157314],[-11.335545,7.1581426],[-11.335053,7.1586404],[-11.333273,7.1597524],[-11.332122,7.1606503],[-11.330943,7.161499],[-11.330806,7.1618986],[-11.330501,7.163196],[-11.329733,7.1640744],[-11.32819,7.1651087],[-11.326116,7.1658597],[-11.325663,7.1663275],[-11.325456,7.166796],[-11.325053,7.1669717],[-11.323981,7.1669326],[-11.323234,7.167157],[-11.322369,7.1677227],[-11.321602,7.168201],[-11.32108,7.1684446],[-11.32057,7.16863],[-11.320107,7.1691766],[-11.319961,7.169586],[-11.320285,7.170562],[-11.320638,7.171264],[-11.320757,7.17183],[-11.321317,7.1721125],[-11.322054,7.1726203],[-11.32239,7.1729326],[-11.322133,7.1735077],[-11.321582,7.174191],[-11.320913,7.1754885],[-11.320265,7.176064],[-11.319576,7.177664],[-11.318937,7.178288],[-11.318259,7.1785026],[-11.317837,7.178805],[-11.316813,7.1798687],[-11.315841,7.180288],[-11.314916,7.181624],[-11.314239,7.182658],[-11.313775,7.182902],[-11.312782,7.183546],[-11.3120165,7.185165],[-11.311818,7.1866775],[-11.311741,7.18778],[-11.311308,7.1886573],[-11.311445,7.189233],[-11.312684,7.191838],[-11.313422,7.193281],[-11.312634,7.1942377],[-11.312094,7.1955347],[-11.311484,7.1962276],[-11.30999,7.197681],[-11.309498,7.1994267],[-11.309538,7.200344],[-11.308751,7.201349],[-11.309017,7.202344],[-11.309282,7.203007],[-11.309882,7.203485],[-11.31057,7.2040606],[-11.310865,7.2052703],[-11.311317,7.2078357],[-11.31116,7.2088695],[-11.310403,7.210294],[-11.309184,7.211328],[-11.308103,7.212069],[-11.306391,7.2127814],[-11.304946,7.2136006],[-11.304258,7.2138934],[-11.303521,7.213689],[-11.302646,7.2132006],[-11.3024,7.2125273],[-11.302429,7.211806],[-11.302773,7.209874],[-11.303216,7.208372],[-11.303363,7.207719],[-11.303718,7.207358],[-11.303629,7.206636],[-11.302754,7.2055726],[-11.302026,7.204919],[-11.3010235,7.204597],[-11.299588,7.2045193],[-11.297424,7.205026],[-11.295114,7.205914],[-11.293649,7.2060504],[-11.293049,7.2057877],[-11.292695,7.205456],[-11.292586,7.2048607],[-11.292095,7.204431],[-11.291279,7.204119],[-11.290424,7.204168],[-11.289794,7.20407],[-11.289736,7.203875],[-11.289903,7.2032123],[-11.290856,7.2022853],[-11.29182,7.2015734],[-11.293501,7.200832],[-11.295871,7.1996613],[-11.296804,7.1995053],[-11.297011,7.199193],[-11.2975025,7.1989684],[-11.297582,7.198559],[-11.297091,7.197525],[-11.29646,7.196432],[-11.29589,7.1960225],[-11.295409,7.195925],[-11.294131,7.1963935],[-11.291634,7.197447],[-11.290129,7.198198],[-11.287888,7.199125],[-11.286953,7.1997876],[-11.286314,7.201144],[-11.286747,7.203885],[-11.286816,7.20449],[-11.286392,7.20804],[-11.286127,7.2110157],[-11.286501,7.2127323],[-11.2865505,7.2136784],[-11.28595,7.2146444],[-11.285252,7.2149663],[-11.284504,7.2150445],[-11.2836,7.2148495],[-11.28244,7.21522],[-11.281181,7.216],[-11.280622,7.217122],[-11.280611,7.2183022],[-11.280867,7.219141],[-11.280985,7.2199802],[-11.279844,7.2209945],[-11.279677,7.2218237],[-11.279291,7.222196],[-11.277416,7.22253],[-11.276775,7.2232375],[-11.276366,7.224223],[-11.276046,7.2247562],[-11.275309,7.2251935],[-11.275365,7.2258134],[-11.276126,7.2265525],[-11.276783,7.226473],[-11.277192,7.2268624],[-11.276567,7.2275624],[-11.276214,7.2279997],[-11.275292,7.227705],[-11.274829,7.2282534],[-11.273009,7.2286196],[-11.272351,7.2292633],[-11.272175,7.230225],[-11.271888,7.2307816],[-11.272351,7.231195],[-11.273786,7.231052],[-11.273738,7.2317758],[-11.273594,7.2323556],[-11.273754,7.2329597],[-11.273723,7.2338185],[-11.273545,7.2346053],[-11.274115,7.235655],[-11.274524,7.2366805],[-11.274187,7.237634],[-11.273602,7.2382226],[-11.2725525,7.2388744],[-11.270685,7.238986],[-11.269724,7.2385807],[-11.268361,7.237499],[-11.267644,7.2365766],[-11.267792,7.2354746],[-11.268165,7.233652],[-11.268085,7.233574],[-11.267737,7.23255],[-11.267286,7.2320867],[-11.266795,7.231751],[-11.265305,7.2311997],[-11.263751,7.2309723],[-11.262942,7.2307715],[-11.262187,7.2305865],[-11.260029,7.2310605],[-11.259707,7.2310767],[-11.258226,7.2309093],[-11.257397,7.2310853],[-11.2566185,7.2310095],[-11.255765,7.2309175],[-11.254555,7.2307835],[-11.253971,7.2304726],[-11.252836,7.2304473],[-11.251737,7.2304726],[-11.250611,7.2311606],[-11.249545,7.2322435],[-11.24842,7.234141],[-11.2453,7.2370048],[-11.244326,7.2374167],[-11.242289,7.240113],[-11.242505,7.240807],[-11.2407465,7.245043],[-11.238816,7.246228],[-11.234339,7.2506075],[-11.229688,7.2495174],[-11.228387,7.248601],[-11.226849,7.247622],[-11.225745,7.24691],[-11.224363,7.2446322],[-11.223593,7.244365],[-11.222886,7.243783],[-11.221953,7.243902],[-11.220793,7.24484],[-11.218177,7.247294],[-11.216427,7.2492437],[-11.21493,7.2502384],[-11.214118,7.2510185],[-11.211516,7.2504396],[-11.210004,7.2506113],[-11.209204,7.2508616],[-11.208218,7.2514977],[-11.204847,7.2532325],[-11.20353,7.253099],[-11.201955,7.253762],[-11.199714,7.255352],[-11.197945,7.256866],[-11.1963415,7.2589116],[-11.19304,7.2604804],[-11.190322,7.2602],[-11.189161,7.2602687],[-11.188437,7.2605124],[-11.187149,7.2613525],[-11.186933,7.2613277],[-11.186096,7.261861],[-11.185299,7.26263],[-11.184809,7.2628207],[-11.183498,7.2638392],[-11.18194,7.2649527],[-11.180534,7.2667847],[-11.180257,7.2671404],[-11.179482,7.2681313],[-11.1796,7.270118],[-11.179861,7.2715435],[-11.180789,7.2723937],[-11.182691,7.2734447],[-11.183616,7.274607],[-11.18361,7.2755947],[-11.18357,7.2764897],[-11.1828785,7.2771754],[-11.182332,7.2773786],[-11.181739,7.277182],[-11.180856,7.277104],[-11.179894,7.277424],[-11.179413,7.2780447],[-11.178484,7.278685],[-11.177806,7.2792015],[-11.17774,7.2796],[-11.177548,7.2803187],[-11.177272,7.2809525],[-11.177213,7.2818217],[-11.177279,7.282436],[-11.177094,7.2831025],[-11.176258,7.2833834],[-11.175441,7.2836776],[-11.175382,7.2844815],[-11.175257,7.2853374],[-11.175368,7.2865005],[-11.175882,7.287219],[-11.176725,7.287932],[-11.177713,7.2885976],[-11.178511,7.288513],[-11.179361,7.2886043],[-11.179888,7.2894673],[-11.179854,7.29048],[-11.179532,7.290963],[-11.179315,7.291277],[-11.17884,7.2917542],[-11.178676,7.2921524],[-11.178656,7.2928452],[-11.177897,7.2938256],[-11.177009,7.294264],[-11.175645,7.2946687],[-11.174328,7.2947993],[-11.173478,7.2949104],[-11.172885,7.2956223],[-11.172378,7.2967596],[-11.172187,7.2976613],[-11.172128,7.298491],[-11.171792,7.299504],[-11.171435,7.3003273],[-11.171218,7.301085],[-11.171396,7.3020325],[-11.171226,7.302542],[-11.170882,7.302934],[-11.170928,7.3035026],[-11.171297,7.303856],[-11.171916,7.3041496],[-11.172187,7.3044047],[-11.172015,7.304973],[-11.171667,7.305104],[-11.171212,7.3055024],[-11.170513,7.305901],[-11.169149,7.3061557],[-11.167621,7.3065677],[-11.166653,7.306757],[-11.16556,7.306417],[-11.164564,7.306025],[-11.163656,7.3059335],[-11.16249,7.3059077],[-11.161344,7.30594],[-11.160814,7.306114],[-11.160181,7.3064356],[-11.159254,7.307049],[-11.158833,7.307704],[-11.158382,7.3083177],[-11.157623,7.3091674],[-11.156921,7.310255],[-11.156992,7.311175],[-11.156597,7.3120675],[-11.155726,7.312569],[-11.154687,7.3125415],[-11.152593,7.312611],[-11.152199,7.3129454],[-11.151383,7.314033],[-11.150849,7.3150363],[-11.150821,7.315887],[-11.150666,7.316375],[-11.149852,7.3176856],[-11.148649,7.3189797],[-11.148289,7.3193955],[-11.148098,7.319766],[-11.147339,7.320188],[-11.146762,7.32026],[-11.146264,7.3203573],[-11.145983,7.320565],[-11.145813,7.320987],[-11.145387,7.3210526],[-11.145085,7.3212233],[-11.144325,7.321584],[-11.143507,7.321906],[-11.142972,7.3225527],[-11.142726,7.3230867],[-11.14249,7.3232946],[-11.142032,7.323489],[-11.141928,7.323684],[-11.142018,7.323925],[-11.142182,7.324191],[-11.142163,7.324503],[-11.142045,7.3247824],[-11.141882,7.324899],[-11.141796,7.3252306],[-11.141901,7.3253536],[-11.142177,7.3252373],[-11.142314,7.32538],[-11.142209,7.3258414],[-11.142157,7.326114],[-11.142281,7.3263025],[-11.142877,7.3265753],[-11.143179,7.3268027],[-11.143388,7.327141],[-11.143375,7.3275113],[-11.143067,7.3291225],[-11.142412,7.3304543],[-11.141809,7.3307667],[-11.141312,7.331059],[-11.141188,7.3312407],[-11.141535,7.3314157],[-11.141685,7.3311043],[-11.141862,7.3311043],[-11.141953,7.3314486],[-11.142203,7.33163],[-11.142301,7.3317475],[-11.1424055,7.333664],[-11.142405,7.3346395],[-11.14346,7.335436],[-11.143928,7.3360105],[-11.144739,7.3375764],[-11.144937,7.338141],[-11.14484,7.3387127],[-11.144805,7.3388915],[-11.144535,7.339596],[-11.144095,7.340503],[-11.14361,7.341078],[-11.141956,7.3425226],[-11.141349,7.343273],[-11.140836,7.3436437],[-11.140304,7.34444],[-11.139902,7.3445697],[-11.138585,7.3455515],[-11.137567,7.3456535],[-11.13639,7.3462186],[-11.134851,7.3472486],[-11.132999,7.3483033],[-11.132242,7.3489327],[-11.132084,7.3489423],[-11.130057,7.3506007],[-11.129432,7.3512397],[-11.12933,7.35149],[-11.127956,7.352379],[-11.127601,7.353509],[-11.127657,7.354296],[-11.12776,7.354741],[-11.128162,7.3553524],[-11.128097,7.3565288],[-11.126909,7.3589],[-11.126172,7.3610954],[-11.124239,7.3642106],[-11.121965,7.3661904],[-11.1205225,7.3663425],[-11.116561,7.369297],[-11.1148405,7.369891],[-11.113904,7.37149],[-11.113258,7.3730283],[-11.1138735,7.3737893],[-11.114073,7.374627],[-11.11375,7.3759522],[-11.1130905,7.376622],[-11.111555,7.376668],[-11.109558,7.3772616],[-11.105259,7.381937],[-11.102448,7.386262],[-11.102448,7.3868103],[-11.103017,7.3876324],[-11.103324,7.3883786],[-11.103063,7.389688],[-11.102111,7.3907237],[-11.100714,7.3908606],[-11.09927,7.390282],[-11.097857,7.3894753],[-11.097274,7.3890033],[-11.096521,7.3890486],[-11.092099,7.3923836],[-11.089782,7.3922276],[-11.087632,7.3918014],[-11.086588,7.3917403],[-11.085697,7.391588],[-11.085021,7.391253],[-11.084561,7.390735],[-11.083978,7.390674],[-11.083025,7.3910704],[-11.082779,7.3913746],[-11.081581,7.391527],[-11.080108,7.3921666],[-11.07848,7.3930197],[-11.076699,7.3946033],[-11.074242,7.396278],[-11.070232,7.397692],[-11.067758,7.3988547],[-11.064977,7.4006753],[-11.063294,7.401655],[-11.060644,7.4034104],[-11.059504,7.40386],[-11.057841,7.405181],[-11.056668,7.4064083],[-11.05556,7.4082174],[-11.053975,7.409746],[-11.0515,7.411577],[-11.049654,7.412352]]]}}
