{"type":"Feature","id":"relation/3810329","properties":{"type":"relation","id":3810329,"tags":{"admin_level":"7","admin_type:FR":"district","border_type":"territorial","boundary":"administrative","is_in:country":"France","is_in:country_code":"FR","name":"French Antarctic Territory","name:af":"Adélieland","name:ar":"أرض أديلي","name:br":"Douar Adélie","name:ca":"Terra Adèlia","name:cs":"Adélina země","name:de":"Adelieland","name:el":"Αδελία Γη","name:en":"Adélie Land","name:eo":"Adelilando","name:es":"Tierra Adelia","name:et":"Adélie maa","name:fa":"سرزمین ادلی","name:fi":"Adélienmaa","name:fr":"Terre Adélie","name:he":"ארץ אדלי","name:hr":"Zemlja Adélie","name:hy":"Ադելի երկիր","name:id":"Daratan Adélie","name:it":"Terra Adelia","name:ja":"アデリーランド","name:kk":"Адели жері","name:ko":"아델리랜드","name:lt":"Adelės žemė","name:lv":"Adelijas Zeme","name:mk":"Аделина Земја","name:nl":"Adélieland","name:nn":"Terre Adélie","name:no":"Adélie Land","name:oc":"Tèrra d'Adelia","name:pl":"Wybrzeże Adeli","name:pt":"Terra Adélia","name:ro":"Teritoriul Adélie","name:ru":"Земля Адели","name:sh":"Adelina zemlja","name:sk":"Adelina Zem","name:sl":"Adelijina zemlja","name:sr":"Аделина земља","name:su":"Daratan Adélie","name:sv":"Adélieland","name:th":"อาเดลีแลนด์","name:uk":"Земля Аделі","name:ur":"ادیلی لینڈ","name:uz":"Adeli yeri","name:vi":"Vùng đất Adélie","name:zh":"阿黛利地","place":"state","ref:INSEE":"98414","timezone":"Indian/Kerguelen","type":"boundary","wikidata":"Q184319","wikipedia":"fr:Terre Adélie"},"labels":[{"id":"node/2604557728","role":"label","coordinates":[138.96027,-69.17264]}]},"geometry":{"type":"Polygon","coordinates":[[[135.99998,-85.049995],[142,-85.049995],[142,-84.575645],[142,-84.055984],[142,-83.48674],[142,-82.86324],[142,-82.1804],[142,-81.432655],[142,-80.614],[142,-79.71788],[142,-78.73723],[142,-77.66436],[142,-76.49103],[142,-75.20837],[142,-73.80689],[142,-72.27653],[142,-70.606606],[142,-68.78596],[142,-66.802986],[142,-66.193886],[142,-65.569756],[142,-64.930275],[142,-64.27518],[142,-63.60415],[142,-62.916904],[142,-62.213154],[142,-61.492607],[142,-60.754982],[142,-60],[140.49998,-60],[139,-60],[137.5,-60],[135.99998,-60],[135.99998,-60.685352],[135.99998,-61.356407],[135.99998,-62.013382],[135.99998,-62.656475],[135.99998,-63.285904],[135.99998,-63.90189],[135.99998,-64.50465],[135.99998,-65.0944],[135.99998,-65.67136],[135.99998,-66.23574],[135.99998,-68.29576],[135.99998,-70.18513],[135.99998,-71.9161],[135.99998,-73.50049],[135.99998,-74.94961],[135.99998,-76.27414],[135.99998,-77.48415],[135.99998,-78.58906],[135.99998,-79.597595],[135.99998,-80.51791],[135.99998,-81.35747],[135.99998,-82.123215],[135.99998,-82.8215],[135.99998,-83.45818],[135.99998,-84.03862],[135.99998,-84.567726],[135.99998,-85.049995]]]}}
