{"type":"Feature","id":"relation/6526137","properties":{"type":"relation","id":6526137,"tags":{"addr:country":"RU","addr:district":"Добрянский район","addr:postcode":"618740","addr:region":"Пермский край","addr:subdistrict":"Добрянское городское поселение","alt_name":"Лябова","alt_name:en":"Lyabova","boundary":"administrative","landuse":"residential","name":"Лябово","name:en":"Lyabovo","name:ru":"Лябово","official_status":"ru:деревня","place":"hamlet","population":"32","population:date":"2010","type":"boundary","wikipedia":"ru:Лябово"},"labels":[]},"geometry":{"type":"Polygon","coordinates":[[[56.368904,58.433643],[56.370632,58.43496],[56.370358,58.435284],[56.369972,58.435432],[56.37138,58.43697],[56.370663,58.437267],[56.37354,58.439846],[56.37258,58.44049],[56.367493,58.44085],[56.36392,58.43947],[56.36264,58.438168],[56.362507,58.437447],[56.362396,58.43682],[56.363605,58.436707],[56.36479,58.436295],[56.364452,58.43597],[56.36498,58.43501],[56.365196,58.43425],[56.366524,58.434174],[56.368904,58.433643]]]}}
