{"type":"Feature","id":"relation/5862584","properties":{"type":"relation","id":5862584,"tags":{"admin_level":"10","area":"yes","boundary":"administrative","is_in:country":"Israel","name":"Temple Mount","name:ar":"المسجد الأقصى","name:de":"Tempelberg","name:en":"Temple Mount","name:fi":"Temppelivuori","name:he":"הר הבית","name:it":"Monte del Tempio","name:ro":"Templul Muntelui","place":"locality","religion":"jewish","religion_1":"muslim","type":"boundary","wikidata":"Q193163","wikipedia":"en:Temple_Mount"},"labels":[]},"geometry":{"type":"Polygon","coordinates":[[[35.23581,31.775843],[35.237556,31.7761],[35.237206,31.77889],[35.237232,31.778893],[35.237217,31.779043],[35.23719,31.779041],[35.237186,31.77905],[35.237152,31.77934],[35.237137,31.77946],[35.23706,31.78007],[35.237087,31.780073],[35.237083,31.780092],[35.237057,31.780296],[35.236965,31.780287],[35.236942,31.780285],[35.23691,31.780283],[35.236183,31.780218],[35.23585,31.78019],[35.23566,31.78017],[35.235634,31.780169],[35.23561,31.780169],[35.235188,31.780128],[35.235138,31.78012],[35.23511,31.780119],[35.234806,31.780092],[35.234726,31.780087],[35.23453,31.78007],[35.233868,31.78001],[35.23372,31.779999],[35.233837,31.779478],[35.23391,31.779148],[35.234016,31.778652],[35.23403,31.778578],[35.23405,31.778503],[35.234074,31.778399],[35.234077,31.778376],[35.234196,31.77782],[35.234318,31.777214],[35.23448,31.77642],[35.234493,31.776384],[35.234642,31.77567],[35.23581,31.775843]]]}}
