{"type":"Feature","id":"relation/3059672","properties":{"type":"relation","id":3059672,"tags":{"addr:country":"UA","addr:district":"Василівський район","addr:district:ru":"Васильевский район","addr:district:uk":"Василівський район","addr:postcode":"71611","addr:region":"Запорізька область","addr:region:ru":"Запорожская область","addr:region:uk":"Запорізька область","admin_level":"8","boundary":"administrative","koatuu":"2320955700","landuse":"residential","name":"Степногірськ","name:en":"Stepnohirsk","name:ru":"Степногорск","name:uk":"Степногірськ","place":"village","population":"4505","type":"boundary","wikipedia":"uk:Степногірськ","wikipedia:ru":"Степногорск (Запорожская область)"},"labels":[{"id":"node/337674111","role":"label","coordinates":[35.35606,47.586937]}]},"geometry":{"type":"Polygon","coordinates":[[[35.349365,47.586918],[35.34148,47.58448],[35.34555,47.577496],[35.349625,47.572567],[35.362362,47.57154],[35.36813,47.57452],[35.365074,47.57841],[35.371017,47.583107],[35.38902,47.587227],[35.388844,47.591125],[35.37085,47.595417],[35.356686,47.59315],[35.349365,47.586918]]]}}
