{"type":"Feature","id":"relation/1440212","properties":{"type":"relation","id":1440212,"tags":{"addr:country":"RU","addr:district":"Пермский район","addr:postcode":"614513","addr:region":"Пермский край","addr:subdistrict":"Савинское сельское поселение","boundary":"administrative","name":"Ванюки","name:en":"Vaniuki","name:ru":"Ванюки","official_status":"ru:деревня","place":"village","population":"886","population:date":"2010","type":"boundary"},"labels":[]},"geometry":{"type":"Polygon","coordinates":[[[56.054256,57.932095],[56.054604,57.931892],[56.055183,57.93186],[56.0628,57.93578],[56.05793,57.936523],[56.0451,57.938442],[56.04509,57.938484],[56.045063,57.938526],[56.043777,57.93815],[56.04211,57.937813],[56.0389,57.93723],[56.036522,57.936775],[56.03311,57.936035],[56.03205,57.935875],[56.034058,57.93485],[56.03472,57.935047],[56.036163,57.934986],[56.036514,57.93482],[56.036827,57.934208],[56.037525,57.933624],[56.038074,57.93358],[56.038326,57.933617],[56.038326,57.93374],[56.037743,57.933887],[56.037643,57.935005],[56.038445,57.935127],[56.040802,57.935028],[56.040787,57.934734],[56.042423,57.934612],[56.04486,57.935246],[56.04564,57.93495],[56.047417,57.93509],[56.0503,57.934418],[56.054256,57.932095]]]}}
