{"type":"Feature","id":"relation/2675202","properties":{"type":"relation","id":2675202,"tags":{"admin_level":"8","boundary":"administrative","name":"Гребінка","name:en":"Hrebinka","name:eo":"Hrebinka","name:pl":"Hrebinka","name:ru":"Гребёнка","name:uk":"Гребінка","place":"town","population":"10990","type":"boundary","wikidata":"Q268814","wikipedia":"uk:Гребінка"},"labels":[{"id":"node/286421384","role":"admin_centre","coordinates":[32.433636,50.11841]}]},"geometry":{"type":"Polygon","coordinates":[[[32.461037,50.14287],[32.452705,50.133022],[32.447903,50.133957],[32.446606,50.132744],[32.450275,50.130775],[32.447857,50.128273],[32.440453,50.12888],[32.409466,50.127735],[32.40668,50.116287],[32.415386,50.11457],[32.416096,50.108223],[32.437794,50.102737],[32.448208,50.10209],[32.450005,50.11163],[32.472885,50.110073],[32.473095,50.110672],[32.47505,50.114952],[32.47555,50.116127],[32.459747,50.126686],[32.46797,50.14653],[32.462208,50.14811],[32.45913,50.144203],[32.461037,50.14287]]]}}
