{"type":"Feature","id":"relation/1180572","properties":{"type":"relation","id":1180572,"tags":{"addr:country":"BY","addr:district":"Чашникский район","addr:region":"Витебская область","admin_level":"8","boundary":"administrative","int_name":"Novalukomĺ","name":"Новолукомль","name:be":"Новалукомль","name:lt":"Novalukomlis","name:pl":"Nowołukoml","name:ru":"Новолукомль","place":"town","population":"13303","population:date":"2012","type":"boundary","website":"http://novolukoml.com/","wikipedia:be":"Горад_Новалукомль","wikipedia:ru":"Новолукомль"},"labels":[{"id":"node/242979058","role":"label","coordinates":[29.1492,54.65839]}]},"geometry":{"type":"Polygon","coordinates":[[[29.14247,54.661945],[29.141363,54.661026],[29.135664,54.65783],[29.131153,54.655327],[29.127789,54.653538],[29.127466,54.653366],[29.126131,54.652424],[29.126644,54.652065],[29.128035,54.65233],[29.129509,54.651443],[29.12991,54.651775],[29.130796,54.651695],[29.131329,54.651455],[29.130547,54.649117],[29.136873,54.643604],[29.13168,54.641003],[29.13933,54.636005],[29.147753,54.640945],[29.147358,54.64453],[29.166147,54.64626],[29.16593,54.653996],[29.158457,54.654938],[29.15846,54.655163],[29.158527,54.658478],[29.162441,54.66046],[29.162415,54.660698],[29.161985,54.664536],[29.161964,54.664715],[29.152386,54.664303],[29.15224,54.666897],[29.148273,54.672283],[29.155838,54.674793],[29.15076,54.68116],[29.14686,54.68015],[29.139969,54.690186],[29.12665,54.68691],[29.13668,54.673786],[29.144697,54.667255],[29.143852,54.664017],[29.143364,54.663097],[29.14247,54.661945]]]}}
