{"type":"Feature","id":"relation/2518656","properties":{"type":"relation","id":2518656,"tags":{"alt_name:br":"An Naoned-4","disused:boundary":"political","disused:political_division":"canton","end_date":"2015-03","name":"Nantes-4","name:ar":"نانت-4","name:be":"Нант-4","name:bg":"Нант-4","name:br":"Naoned-4","name:ca":"Nantes-4","name:cy":"Naoned-4","name:el":"Ναντ-4","name:eo":"Nanto-4","name:ext":"Nanti-4","name:fa":"نانت-4","name:fr":"Nantes-IV","name:ga":"Naoned-4","name:gd":"Naoned-4","name:gv":"Naoned-4","name:he":"נאנט-4","name:hi":"नांत-4","name:hy":"Նանտ-4","name:ja":"ナント-4","name:ka":"ნანტი-4","name:kk":"Нант-4","name:ko":"낭트-4","name:kw":"Naoned-4","name:la":"Portus-Namnetum-4","name:lt":"Nantas-4","name:lv":"Nante-4","name:mk":"Нант-4","name:mr":"नाँत-4","name:mzn":"نانت-4","name:oc":"Nantas-4","name:pa":"ਨੌਂਤ-4","name:pnb":"نانتیز-4","name:ru":"Нант-4","name:sr":"Нант-4","name:ta":"நாந்து-4","name:th":"น็องต์-4","name:uk":"Нант-4","name:ur":"نانت-4","name:yi":"נאנט-4","name:zh":"南特-4","ref:INSEE":"4423","type":"boundary","wikipedia":"fr:Canton de Nantes-4"},"labels":[{"id":"node/26686548","role":"admin_centre","coordinates":[-1.5541362,47.21864]}]},"geometry":{"type":"Polygon","coordinates":[[[-1.5825956,47.226326],[-1.5827403,47.226345],[-1.5828222,47.22636],[-1.5828534,47.226364],[-1.5828751,47.226368],[-1.582915,47.22638],[-1.5829514,47.226387],[-1.5830777,47.226402],[-1.5831044,47.226326],[-1.5831425,47.22626],[-1.5832014,47.226147],[-1.5836499,47.22539],[-1.5838703,47.22499],[-1.5845035,47.223923],[-1.5845857,47.223774],[-1.5848354,47.223297],[-1.5849882,47.223022],[-1.5851882,47.222652],[-1.5852828,47.22249],[-1.5853916,47.22232],[-1.5854703,47.222145],[-1.585532,47.22204],[-1.5860186,47.221207],[-1.586365,47.220562],[-1.586411,47.220478],[-1.5865644,47.220203],[-1.5866039,47.22014],[-1.5868735,47.219654],[-1.5872408,47.21899],[-1.5875535,47.21845],[-1.587616,47.218296],[-1.5876561,47.21812],[-1.5876666,47.21799],[-1.5876728,47.217842],[-1.5876573,47.21767],[-1.5876371,47.217598],[-1.5875839,47.21748],[-1.587329,47.217007],[-1.5871624,47.216656],[-1.58705,47.216408],[-1.5869622,47.216244],[-1.5867498,47.215847],[-1.5859041,47.214127],[-1.5861913,47.21289],[-1.5865995,47.211212],[-1.5866225,47.211113],[-1.5865343,47.211117],[-1.5863063,47.211124],[-1.5856704,47.211124],[-1.5838988,47.211063],[-1.5836617,47.211056],[-1.5833889,47.21105],[-1.5832078,47.21104],[-1.5829335,47.211025],[-1.5824093,47.21115],[-1.5818322,47.211327],[-1.5810237,47.211544],[-1.5805885,47.21065],[-1.5804123,47.210243],[-1.5801562,47.209652],[-1.5802566,47.2095],[-1.5803685,47.209366],[-1.5805726,47.209236],[-1.5807823,47.209118],[-1.5803583,47.208755],[-1.5799766,47.208443],[-1.5799637,47.208427],[-1.5799549,47.208397],[-1.5799247,47.20838],[-1.5798507,47.20828],[-1.5795107,47.20776],[-1.5794811,47.20774],[-1.5794423,47.20773],[-1.5787765,47.20763],[-1.5787452,47.207623],[-1.5786905,47.20761],[-1.578848,47.207375],[-1.5782822,47.207176],[-1.5781503,47.20715],[-1.5777969,47.20667],[-1.5772235,47.205746],[-1.5769799,47.20594],[-1.5764666,47.20524],[-1.5749258,47.204437],[-1.5746982,47.205208],[-1.5734804,47.20496],[-1.572365,47.205032],[-1.5717179,47.20579],[-1.571122,47.206158],[-1.5699662,47.20688],[-1.567568,47.207767],[-1.5659765,47.20837],[-1.5664436,47.20887],[-1.5666964,47.20914],[-1.5665762,47.209255],[-1.5666997,47.209686],[-1.5669955,47.210625],[-1.5671115,47.210922],[-1.567154,47.211014],[-1.567243,47.211277],[-1.5673236,47.21142],[-1.5670325,47.211517],[-1.5665104,47.211704],[-1.5660127,47.21187],[-1.5659279,47.211895],[-1.5656282,47.211998],[-1.5655216,47.212036],[-1.5652574,47.212124],[-1.5649234,47.212234],[-1.5643057,47.212444],[-1.5632149,47.21281],[-1.5626967,47.213],[-1.5625833,47.21304],[-1.5624332,47.21306],[-1.5624454,47.213184],[-1.561776,47.213318],[-1.5603569,47.213802],[-1.5603734,47.213875],[-1.5604962,47.214214],[-1.5606891,47.21496],[-1.5607747,47.21529],[-1.5608376,47.215492],[-1.560867,47.21559],[-1.5607455,47.21577],[-1.5600307,47.21656],[-1.5598048,47.21676],[-1.5595542,47.21697],[-1.5595051,47.217003],[-1.559475,47.217022],[-1.5594882,47.21704],[-1.5596211,47.217144],[-1.559719,47.217262],[-1.5598676,47.21734],[-1.560026,47.21739],[-1.5602777,47.21743],[-1.56128,47.21759],[-1.5613936,47.217606],[-1.5616976,47.21765],[-1.5620016,47.217697],[-1.5620601,47.217705],[-1.562091,47.217712],[-1.5622054,47.21778],[-1.5623055,47.21784],[-1.5623626,47.217876],[-1.5624557,47.21793],[-1.5625436,47.217987],[-1.5626024,47.21802],[-1.5631794,47.218395],[-1.563215,47.218422],[-1.5633144,47.21849],[-1.5636429,47.218662],[-1.5637248,47.218708],[-1.5643201,47.219078],[-1.563973,47.219425],[-1.563899,47.21948],[-1.5638053,47.219513],[-1.5637838,47.219578],[-1.5637417,47.21964],[-1.5635042,47.219852],[-1.5632024,47.22016],[-1.5629195,47.22044],[-1.5628442,47.22051],[-1.5629762,47.220726],[-1.5630242,47.220825],[-1.563056,47.2209],[-1.5631937,47.22087],[-1.5643494,47.22084],[-1.5644138,47.22084],[-1.5649295,47.220833],[-1.5649241,47.220856],[-1.564926,47.22088],[-1.564942,47.220905],[-1.5649627,47.220932],[-1.5656028,47.221405],[-1.565652,47.22143],[-1.5657268,47.221447],[-1.5678896,47.221905],[-1.5688047,47.22217],[-1.5689614,47.22221],[-1.5690486,47.22224],[-1.5691035,47.222267],[-1.5695928,47.222534],[-1.5696834,47.222565],[-1.5697689,47.222603],[-1.5708281,47.222736],[-1.5708642,47.222733],[-1.5709169,47.222733],[-1.5709643,47.222744],[-1.5710129,47.22276],[-1.5718169,47.223003],[-1.5718607,47.22302],[-1.5719037,47.22303],[-1.5719444,47.223034],[-1.5719892,47.223038],[-1.5735469,47.223236],[-1.5738919,47.22328],[-1.574006,47.223297],[-1.5740639,47.223312],[-1.5742142,47.223377],[-1.5743587,47.223392],[-1.5743911,47.223396],[-1.5744305,47.223404],[-1.5744765,47.223427],[-1.5745862,47.223465],[-1.575237,47.2237],[-1.575537,47.223812],[-1.5755886,47.22383],[-1.5756406,47.223846],[-1.5758322,47.223923],[-1.5759032,47.22394],[-1.5762464,47.224037],[-1.5765767,47.22413],[-1.5766879,47.22416],[-1.5768307,47.224205],[-1.5769734,47.22423],[-1.5770599,47.22426],[-1.5772164,47.224285],[-1.5779163,47.22445],[-1.5787358,47.224644],[-1.5788902,47.22468],[-1.5790465,47.224728],[-1.5791358,47.224777],[-1.5796002,47.22507],[-1.5802096,47.22545],[-1.5802953,47.225487],[-1.5812596,47.22586],[-1.5814148,47.22592],[-1.5816174,47.225998],[-1.5823427,47.226276],[-1.582471,47.2263],[-1.5825956,47.226326]]]}}
