{"type":"Feature","id":"relation/443174","properties":{"type":"relation","id":443174,"tags":{"ISO3166-1":"PH","ISO3166-1:alpha2":"PH","ISO3166-1:alpha3":"PHL","ISO3166-1:numeric":"608","admin_level":"2","boundary":"administrative","flag":"http://upload.wikimedia.org/wikipedia/commons/9/99/Flag_of_the_Philippines.svg","history":"retrieved using undelete JOSM plugin","is_in:continent":"Asia","name":"Philippines","name:ace":"Filipina","name:af":"Filippyne","name:als":"Philippinen","name:am":"ፊሊፒንስ","name:an":"Filipinas","name:ang":"Philippines","name:ar":"الفلبين","name:arc":"ܦܝܠܝܦܝܢܝܐ","name:arz":"الفيليبين","name:ast":"Filipines","name:az":"Filippin","name:bar":"Philippinen","name:bat-smg":"Fėlėpinā","name:bcl":"Filipinas","name:be":"Філіпіны","name:be-tarask":"Філіпіны","name:bg":"Филипини","name:bjn":"Pilipina","name:bn":"ফিলিপাইন","name:bo":"ཧྥི་ལི་པིན།","name:bpy":"ফিলিপাইন","name:br":"Filipinez","name:bs":"Filipini","name:bug":"Filipina","name:bxr":"Филиппин","name:ca":"Filipines","name:cbk-zam":"Filipinas","name:cdo":"Hĭ-lĭ-pĭng","name:ce":"Филиппин","name:ceb":"Pilipinas","name:ckb":"فلیپین","name:crh":"Filippinler","name:cs":"Filipíny","name:csb":"Filipinë","name:cv":"Филиппин","name:cy":"Pilipinas","name:da":"Filippinerne","name:de":"Philippinen","name:diq":"Fılipin","name:dv":"ފިލިޕީންސް","name:el":"Φιλιππίνες","name:en":"Philippines","name:eo":"Filipinoj","name:es":"Filipinas","name:et":"Filipiinid","name:eu":"Filipinak","name:ext":"Hilipinas","name:fa":"فیلیپین","name:fi":"Filippiinit","name:fiu-vro":"Filipiiniq","name:fo":"Filipsoyggjar","name:fr":"Philippines","name:frp":"Felipines","name:fy":"Filipinen","name:ga":"Na hOileáin Fhilipíneacha","name:gan":"菲律賓","name:gd":"Na h-Eileanan Filipineach","name:gl":"Filipinas","name:gn":"Filipina","name:gu":"ફીલીપાઈન્સ","name:gv":"Ny h-Ellanyn Philippeenagh","name:hak":"Fî-li̍t-pîn","name:haw":"ʻĀina Pilipino","name:he":"הפיליפינים","name:hi":"फ़िलीपीन्स","name:hif":"Philippines","name:hr":"Filipini","name:hsb":"Filipiny","name:ht":"Filipin","name:hu":"Fülöp-szigetek","name:hy":"Ֆիլիպիններ","name:ia":"Philippinas","name:id":"Filipina","name:ie":"Filipines","name:ilo":"Pilipinas","name:io":"Filipini","name:is":"Filippseyjar","name:it":"Filippine","name:ja":"フィリピン","name:jbo":"pilipinas","name:jv":"Filipina","name:ka":"ფილიპინები","name:kbd":"Филипинхэр","name:kk":"Филиппиндер","name:kl":"Philippines","name:km":"ហ្វីលីពីន","name:kn":"ಫಿಲಿಪ್ಪೀನ್ಸ್","name:ko":"필리핀","name:krc":"Филиппинле","name:ku":"Filîpîn","name:kv":"Филиппинъяс","name:kw":"Filipinys","name:la":"Philippinae","name:lb":"Philippinen","name:li":"Filipiene","name:lij":"Filippinn-e","name:lmo":"Filipinn","name:lt":"Filipinai","name:lv":"Filipīnas","name:map-bms":"Filipina","name:mg":"Filipina","name:mhr":"Филиппин-влак","name:mk":"Филипини","name:ml":"ഫിലിപ്പീൻസ്","name:mn":"Филиппин","name:mr":"फिलिपाईन्स","name:ms":"Filipina","name:my":"ဖိလစ်ပိုင်နိုင်ငံ","name:na":"Eben Piripin","name:nah":"Filipinas","name:nds":"Philippinen","name:ne":"फिलिपिन्स","name:new":"फिलिपिन्स","name:nl":"Filipijnen","name:nn":"Filippinane","name:no":"Filippinene","name:nov":"Filipines","name:nv":"Kéyah Dańlíinii","name:oc":"Filipinas","name:or":"ଫିଲିପାଇନ୍ସ","name:os":"Филиппинтæ","name:pa":"ਫ਼ਿਲਪੀਨਜ਼","name:pag":"Filipinas","name:pam":"Filipinas","name:pap":"Filipinas","name:pih":"Felapiins","name:pl":"Filipiny","name:pms":"Filipin-e","name:pnb":"فلپائن","name:ps":"فلېپين","name:pt":"Filipinas","name:qu":"Philipinakuna","name:ro":"Filipine","name:ru":"Филиппины","name:rw":"Filipine","name:sa":"कलिंगद्वीप","name:sah":"Пилипиин","name:sco":"Philippines","name:se":"Filippiinnat","name:sg":"Filipîni","name:sh":"Filipini","name:si":"පිලිපීනය","name:simple":"Philippines","name:sk":"Filipíny","name:sl":"Filipini","name:sm":"Filipaina","name:so":"Filibiin","name:sq":"Filipinet","name:sr":"Филипини","name:ss":"IFiliphayi","name:su":"Pilipina","name:sv":"Filippinerna","name:sw":"Ufilipino","name:szl":"Filipiny","name:ta":"பிலிப்பீன்சு","name:te":"ఫిలిప్పీన్స్","name:tet":"Filipinas","name:tg":"Филиппин","name:th":"ประเทศฟิลิปปินส์","name:tk":"Filippinler","name:tl":"Pilipinas","name:tr":"Filipinler","name:tt":"Филиппиннар","name:udm":"Филиппин","name:ug":"فىلىپپىن","name:uk":"Філіппіни","name:ur":"فلپائن","name:uz":"Filippin","name:vec":"Filipine","name:vep":"Filippinad","name:vi":"Philippines","name:vo":"Filipuäns","name:wa":"Filipenes","name:war":"Pilipinas","name:wo":"Filipiin","name:wuu":"菲律宾","name:xal":"Пилипмудин Орн","name:yi":"פיליפינען","name:yo":"Filipínì","name:za":"Feihlizbinh","name:zea":"Filepijn’n","name:zh":"菲律賓","name:zh-classical":"菲律賓","name:zh-min-nan":"Hui-li̍p-pin","name:zh-yue":"菲律賓","note":"do not modify nor delete this boundary unless a consensus is reached","official_name":"Repúblika ng Pilipinas","official_name:en":"Republic of the Philippines","official_name:pt":"República das Filipinas","population":"101562300","timezone":"Asia/Manila","type":"boundary","wikidata":"Q928","wikipedia":"en:Philippines"},"labels":[{"id":"node/198493613","role":"admin_centre","coordinates":[120.979965,14.590621]}]},"geometry":{"type":"Polygon","coordinates":[[[122.60266,17.994864],[122.548546,18.337795],[122.39709,19.781216],[122.375656,19.98355],[122.16782,21.163736],[122.15361,21.201193],[122.12979,21.23637],[122.107635,21.262653],[122.08289,21.27999],[122.031715,21.30512],[121.98416,21.318737],[121.98047,21.319315],[121.97676,21.319832],[121.973045,21.320288],[121.96932,21.320683],[121.9656,21.321018],[121.96186,21.321291],[121.958115,21.321507],[121.95438,21.321657],[121.95063,21.32175],[121.94688,21.321781],[121.894714,21.315634],[121.832214,21.294191],[121.796715,21.273928],[121.76829,21.242357],[121.75014,21.212471],[121.738,21.169907],[121.577324,20.77672],[121.32513,20.086382],[121.03564,19.27369],[120.376625,18.583668],[120.35556,18.536257],[120.14761,17.73918],[120.1411,17.696514],[120.133064,17.591349],[119.83288,16.940601],[119.59273,16.40175],[119.579285,16.363289],[119.568634,16.305443],[119.54467,16.172338],[119.5419,15.937164],[119.57538,15.790585],[119.811874,13.883733],[119.66196,12.407237],[119.06729,11.298492],[118.452034,10.108633],[117.47721,9.184546],[117.32335,9.030071],[117.19205,8.8702135],[117.07676,8.708135],[116.817764,8.280732],[116.71921,8.118328],[116.70071,8.036216],[116.68791,7.9014897],[116.71914,7.767748],[116.8107,7.680178],[116.87121,7.6498003],[117.04629,7.4802713],[117.16668,7.5111985],[117.43716,7.3784456],[117.46836,7.1844196],[117.37953,6.903228],[117.63479,6.7111263],[117.88592,6.506248],[117.882324,6.25773],[118.04293,6.16275],[118.59239,5.8812637],[119.0827,5.63704],[119.3517,5.533282],[119.42458,5.3352494],[119.43966,5.1155457],[119.278885,4.991918],[118.98958,4.8475204],[118.62655,4.8124776],[118.58952,4.7104034],[118.69591,4.588378],[118.79759,4.5261],[118.83773,4.452692],[119.111305,4.263585],[119.20947,4.2191496],[119.24648,4.2158065],[119.34709,4.240727],[119.95501,4.6159806],[120.7858,5.0239625],[122.07724,5.89773],[122.3158,6.2290664],[124.17976,5.9643717],[124.21909,5.937169],[125.20575,5.23084],[125.2629,5.1940413],[125.2978,5.178277],[125.34748,5.166893],[125.43458,5.1658087],[125.490746,5.177872],[125.52282,5.192945],[125.57683,5.219559],[125.62453,5.256972],[126.335884,6.1272135],[126.35943,6.158626],[126.393105,6.221753],[126.78481,7.1950855],[126.80168,7.2464433],[126.80725,7.2930365],[126.799706,7.4644647],[126.80237,7.4911],[126.80192,7.504124],[126.79908,7.5324388],[126.77095,7.7610965],[126.68019,8.256052],[126.54732,8.919734],[126.367485,9.87341],[126.16393,10.814145],[125.76025,12.172767],[125.70759,12.289366],[125.69542,12.30741],[125.66893,12.344966],[125.6153,12.409097],[125.58408,12.4425],[125.54471,12.489689],[125.375046,12.669219],[125.29967,12.732173],[125.23684,12.794012],[124.46102,14.215639],[124.42541,14.253552],[124.41034,14.265736],[124.381195,14.283794],[123.10681,14.632836],[122.461296,16.317968],[122.635635,16.736902],[122.64967,16.776701],[122.66762,16.83523],[122.722595,17.008905],[122.733154,17.054092],[122.73768,17.0911],[122.73757,17.107092],[122.737434,17.127138],[122.60266,17.994864]]]}}
