{"type":"Feature","id":"relation/537701","properties":{"type":"relation","id":537701,"tags":{"ISO3166-2":"IR-07","admin_level":"4","alt_name:vi":"Têhêrăng","boundary":"administrative","name":"استان تهران","name:af":"Teheran","name:am":"ቴህራን","name:an":"Teherán","name:ar":"طهران","name:az":"Tehran","name:ba":"Тегеран","name:be":"Тэгеран","name:be-tarask":"Тэгеран","name:bg":"Техеран","name:bn":"তেহরান","name:bo":"ཏེ་ཧི་རན།","name:br":"Tehran","name:bs":"Teheran","name:ca":"Teheran","name:cs":"Teherán","name:cv":"Тегеран","name:cy":"Tehran","name:da":"Teheran","name:de":"Teheran","name:el":"Τεχεράνη","name:en":"Tehran Province","name:eo":"Tehrano","name:es":"Teherán","name:et":"Teheran","name:eu":"Teheran","name:fi":"Teheran","name:fo":"Teheran","name:fr":"Téhéran","name:fy":"Teheran","name:ga":"Teheran","name:gd":"Tehran","name:gl":"Teherán - تهران","name:he":"טהראן","name:hi":"तेहरान","name:hr":"Teheran","name:ht":"Teheran","name:hu":"Teherán","name:hy":"Թեհրան","name:id":"Teheran","name:ie":"Teheran","name:io":"Tehran","name:is":"Teheran","name:it":"Teheran","name:ja":"テヘラン","name:ka":"თეირანი","name:kk":"Тегеран","name:kl":"Tehran","name:kn":"ತೆಹ್ರಾನ್","name:ko":"테헤란","name:ku":"Tehran","name:kw":"Tehran","name:la":"Teheranum","name:lb":"Teheran","name:lt":"Teheranas","name:lv":"Teherāna","name:mi":"Tehran","name:mk":"Техеран","name:ml":"ടെഹ്റാന്‍","name:mn":"Тегеран","name:mr":"तेहरान","name:ms":"Teheran","name:my":"တီဟီရန်မြို့","name:nl":"Teheran","name:nn":"Teheran","name:no":"Teheran","name:oc":"Teheran","name:or":"ତେହେରାନ","name:os":"Тæхран","name:pa":"ਤਹਿਰਾਨ","name:pl":"Teheran","name:pt":"Teerã","name:rm":"Teheran","name:ro":"Teheran","name:ru":"Тегеран","name:sc":"Teheran","name:se":"Teheran","name:sk":"Teherán","name:sl":"Teheran","name:so":"Tahraan","name:sq":"Teherani","name:sr":"Техеран","name:sv":"Teheran","name:sw":"Tehran","name:ta":"தெஹ்ரான்","name:te":"టెహరాన్","name:tg":"Теҳрон","name:th":"เตหะราน","name:tk":"Tähran","name:tl":"Tehrān","name:tr":"Tahran","name:tt":"Тәһран","name:ug":"تېھران","name:uk":"Тегеран","name:ur":"تہران","name:uz":"Tehron","name:vi":"Tehran","name:vo":"Tehran","name:yi":"טעהראן","name:yo":"Tehran","name:zh":"德黑兰","place":"province","type":"boundary","wikidata":"Q590866","wikipedia":"en:Tehran Province"},"labels":[{"id":"node/25960293","role":"admin_centre","coordinates":[51.401375,35.700615]}]},"geometry":{"type":"Polygon","coordinates":[[[51.446823,35.111355],[51.447933,35.111355],[51.452377,35.110523],[51.453495,35.110523],[51.454323,35.110523],[51.45738,35.109966],[51.45932,35.109966],[51.46043,35.109684],[51.465714,35.109684],[51.467102,35.109406],[51.47099,35.109406],[51.472103,35.109127],[51.474876,35.109127],[51.4821,35.108017],[51.482655,35.108017],[51.488766,35.106907],[51.494877,35.10441],[51.567387,35.058014],[51.570164,35.056347],[51.58155,35.04885],[51.589886,35.027733],[51.599327,35.01773],[51.61433,35.011074],[51.61933,35.009956],[51.63044,35.008015],[51.632107,35.008015],[51.63322,35.007736],[51.636555,35.007736],[51.637665,35.007454],[51.638496,35.007736],[51.64211,35.007736],[51.643776,35.008015],[51.645996,35.008015],[51.647945,35.008286],[51.650444,35.008286],[51.65183,35.008564],[51.656277,35.008564],[51.67739,35.0119],[51.680443,35.0119],[51.68183,35.01218],[51.685722,35.01218],[51.68711,35.012463],[51.688774,35.012463],[51.689888,35.01218],[51.691833,35.01218],[51.692944,35.0119],[51.69461,35.0119],[51.70933,35.009125],[51.710445,35.008564],[51.711277,35.008564],[51.720722,35.006348],[51.723503,35.005238],[51.724335,35.005238],[51.733223,35.00163],[51.73517,35.00022],[51.777115,34.972454],[51.778225,34.971905],[51.81156,34.951347],[51.812954,34.94996],[51.83073,34.939953],[51.83323,34.939125],[51.850452,34.930237],[51.85212,34.92968],[51.909065,34.900234],[51.935177,34.88329],[51.935455,34.88301],[51.95212,34.874397],[51.9524,34.873844],[51.962955,34.86773],[51.9649,34.86524],[51.965454,34.86579],[51.969624,34.871616],[51.969902,34.8719],[51.976845,34.881073],[51.9774,34.882454],[51.97851,34.88385],[51.98518,34.896343],[51.998516,34.914684],[51.99879,34.914955],[52.001568,34.918564],[52.02129,34.96718],[52.021576,34.96774],[52.03574,34.999958],[52.03685,35.003017],[52.040462,35.01524],[52.044632,35.04968],[52.04435,35.05162],[52.044075,35.055798],[52.043797,35.06413],[52.043518,35.06857],[52.042965,35.07219],[52.042683,35.072735],[52.03713,35.086067],[52.03685,35.086346],[52.03574,35.088844],[52.03463,35.090515],[52.0074,35.11663],[51.969345,35.139404],[51.968513,35.139965],[51.9549,35.1508],[51.95268,35.153854],[51.951565,35.154964],[51.95129,35.15552],[51.947956,35.16135],[51.946568,35.16469],[51.938232,35.179688],[51.937675,35.181355],[51.900177,35.234135],[51.884064,35.25191],[51.88379,35.25246],[51.88184,35.254967],[51.87434,35.273293],[51.874065,35.273575],[51.87385,35.274437],[51.873787,35.27552],[51.87351,35.276073],[51.872955,35.278297],[51.872673,35.279686],[51.8724,35.28108],[51.884064,35.294964],[51.8846,35.295322],[51.89768,35.309414],[51.9024,35.315247],[51.904343,35.318024],[51.90629,35.3208],[51.916565,35.339687],[51.916843,35.34413],[51.916565,35.344685],[51.916843,35.34524],[51.916565,35.34552],[51.91794,35.34822],[51.925682,35.346867],[51.934288,35.34683],[51.943928,35.361298],[51.94063,35.365818],[51.938805,35.37558],[51.925457,35.382473],[51.925175,35.38386],[51.9249,35.386356],[51.92462,35.387474],[51.924343,35.390244],[51.924065,35.391914],[51.92379,35.39414],[51.923508,35.39608],[51.923233,35.398026],[51.922123,35.401913],[51.920734,35.4058],[51.920177,35.40636],[51.918785,35.408028],[51.917675,35.409138],[51.916286,35.409687],[51.912678,35.413303],[51.9124,35.414413],[51.912952,35.422474],[51.91351,35.42414],[51.91351,35.42553],[51.917675,35.441357],[51.919067,35.447197],[51.91962,35.44803],[51.925175,35.470245],[51.925457,35.470806],[51.92573,35.47636],[51.92573,35.479416],[51.92601,35.479965],[51.92573,35.481083],[51.925457,35.487747],[51.92379,35.492474],[51.923508,35.4933],[51.923233,35.493584],[51.922955,35.49552],[51.922955,35.495808],[51.922676,35.49636],[51.922398,35.49775],[51.921566,35.503582],[51.921288,35.505527],[51.92101,35.508026],[51.921288,35.508575],[51.92101,35.509964],[51.922955,35.535526],[51.922955,35.537476],[51.923508,35.545807],[51.924343,35.548584],[51.929623,35.558582],[51.935734,35.561638],[51.936565,35.561638],[51.957954,35.578022],[51.960453,35.57858],[51.962955,35.57858],[51.965736,35.57858],[51.96629,35.57831],[51.969345,35.57831],[51.96962,35.57858],[51.970455,35.57858],[51.972954,35.57858],[51.979343,35.57719],[51.980457,35.57719],[51.985733,35.575523],[51.99351,35.56858],[52.009624,35.548862],[52.01407,35.539974],[52.017124,35.529972],[52.017956,35.522194],[52.017956,35.520805],[52.01907,35.516087],[52.025185,35.501644],[52.035183,35.493584],[52.03768,35.492474],[52.07991,35.483303],[52.08102,35.483303],[52.098797,35.478027],[52.106297,35.47525],[52.12324,35.46803],[52.125465,35.46747],[52.12963,35.46581],[52.149635,35.460247],[52.196857,35.450527],[52.202133,35.449966],[52.202965,35.449696],[52.20602,35.449696],[52.212135,35.448856],[52.214355,35.448856],[52.23741,35.44553],[52.25158,35.442196],[52.252132,35.442196],[52.254086,35.441635],[52.25686,35.440525],[52.25769,35.440525],[52.27692,35.42825],[52.28075,35.4258],[52.28103,35.425526],[52.324364,35.386078],[52.332695,35.375526],[52.3332,35.374924],[52.3402,35.366074],[52.3452,35.36108],[52.3602,35.34746],[52.36881,35.341076],[52.378532,35.337753],[52.37909,35.33746],[52.3802,35.33746],[52.3802,35.337753],[52.382977,35.33802],[52.408535,35.356915],[52.410477,35.35858],[52.421867,35.366074],[52.493534,35.386078],[52.494923,35.386078],[52.495758,35.38636],[52.499653,35.386917],[52.51715,35.3958],[52.518818,35.39608],[52.52104,35.39692],[52.52271,35.39719],[52.523262,35.39747],[52.524673,35.397823],[52.53021,35.399414],[52.53104,35.399967],[52.531876,35.399967],[52.532707,35.400524],[52.534096,35.400803],[52.53493,35.401356],[52.536316,35.401634],[52.550205,35.409138],[52.55132,35.409966],[52.555206,35.411915],[52.562984,35.41747],[52.606323,35.461914],[52.607155,35.462467],[52.608265,35.46414],[52.6116,35.46747],[52.615208,35.472473],[52.63382,35.502743],[52.634655,35.50386],[52.63771,35.50831],[52.6591,35.528305],[52.659657,35.528584],[52.659935,35.529415],[52.667156,35.535248],[52.667435,35.53581],[52.669655,35.536915],[52.67271,35.539135],[52.697712,35.551918],[52.707714,35.554417],[52.708546,35.554417],[52.712154,35.554966],[52.71327,35.55525],[52.715214,35.55525],[52.716324,35.555527],[52.72549,35.555527],[52.726044,35.55525],[52.7266,35.555527],[52.72771,35.555527],[52.734386,35.553307],[52.766052,35.546917],[52.766884,35.546917],[52.776886,35.54164],[52.77883,35.54108],[52.782166,35.54108],[52.792995,35.545246],[52.793274,35.54553],[52.794388,35.545944],[52.801052,35.54941],[52.802162,35.55053],[52.80244,35.5508],[52.82272,35.572475],[52.82911,35.579697],[52.82994,35.581085],[52.877163,35.62609],[52.884666,35.63137],[52.885777,35.632202],[52.89911,35.641922],[52.91439,35.6497],[52.926334,35.654144],[52.92911,35.654976],[52.929665,35.655533],[52.974396,35.669426],[52.975224,35.669975],[52.984673,35.672752],[52.995228,35.678585],[52.995785,35.678867],[52.999676,35.681362],[53.00106,35.68276],[53.001896,35.68331],[53.01245,35.70081],[53.020508,35.710815],[53.03412,35.719425],[53.035786,35.72053],[53.04384,35.72359],[53.044674,35.724148],[53.04634,35.72442],[53.047173,35.724976],[53.04912,35.72553],[53.050232,35.726364],[53.051064,35.726364],[53.062668,35.73333],[53.064953,35.734703],[53.06551,35.734974],[53.08801,35.74498],[53.09329,35.748867],[53.09384,35.749695],[53.0944,35.749985],[53.096897,35.755535],[53.109955,35.772755],[53.13329,35.7847],[53.1469,35.78887],[53.148293,35.78942],[53.152733,35.791927],[53.15468,35.794144],[53.156067,35.796093],[53.156902,35.803864],[53.156345,35.80526],[53.156624,35.80553],[53.156067,35.80776],[53.15329,35.811363],[53.141068,35.817753],[53.139954,35.818314],[53.1394,35.81803],[53.128567,35.820538],[53.119953,35.820538],[53.11801,35.82025],[53.107456,35.82025],[53.105232,35.81998],[53.098007,35.81998],[53.097176,35.819702],[53.09384,35.819702],[53.091343,35.81914],[53.08912,35.81914],[53.08551,35.818592],[53.084675,35.818592],[53.083008,35.818314],[53.08162,35.81803],[53.080788,35.818314],[53.07662,35.818314],[53.06579,35.81914],[53.06523,35.81943],[53.06023,35.819427],[53.058563,35.81914],[53.05801,35.81943],[53.05662,35.81914],[53.049953,35.819702],[53.048565,35.81998],[53.047173,35.81998],[53.041065,35.822197],[53.03301,35.82637],[53.0319,35.82665],[53.020508,35.835537],[53.021618,35.844975],[53.022175,35.84803],[53.022175,35.84831],[53.022175,35.849148],[53.021896,35.84998],[53.02023,35.851646],[53.01801,35.853035],[53.017452,35.853592],[53.011063,35.84859],[53.010784,35.84831],[53.007175,35.846092],[53.006893,35.845535],[53.004673,35.844425],[53.00384,35.843586],[52.987453,35.835537],[52.97078,35.83248],[52.967445,35.83248],[52.966335,35.832203],[52.964397,35.832203],[52.96328,35.831924],[52.962727,35.832203],[52.961334,35.831924],[52.951614,35.831924],[52.95078,35.832203],[52.948,35.832203],[52.946888,35.83248],[52.945503,35.83248],[52.944946,35.832752],[52.943,35.832752],[52.937447,35.83387],[52.93689,35.83387],[52.93578,35.83414],[52.92161,35.837753],[52.92078,35.837753],[52.918,35.83914],[52.917168,35.83914],[52.877445,35.856647],[52.871887,35.858585],[52.8705,35.859425],[52.82911,35.873875],[52.828175,35.874104],[52.822994,35.876095],[52.821884,35.876373],[52.815777,35.87915],[52.814663,35.87943],[52.813885,35.87981],[52.796608,35.88942],[52.70577,35.927486],[52.704937,35.928036],[52.701603,35.928596],[52.69938,35.929424],[52.694935,35.930264],[52.693546,35.93082],[52.692432,35.93082],[52.6841,35.93332],[52.683266,35.93332],[52.66168,35.93904],[52.66021,35.93943],[52.6591,35.93943],[52.658543,35.93971],[52.657158,35.93971],[52.656044,35.93998],[52.65382,35.93998],[52.652435,35.940258],[52.65021,35.940258],[52.64882,35.940536],[52.64771,35.940258],[52.64438,35.940815],[52.643543,35.940536],[52.62271,35.941925],[52.619656,35.942482],[52.614933,35.942482],[52.612988,35.942764],[52.607708,35.942764],[52.606598,35.943043],[52.60242,35.943043],[52.583267,35.943043],[52.581043,35.943314],[52.57993,35.943043],[52.57771,35.943314],[52.575764,35.943314],[52.57493,35.943043],[52.568542,35.943043],[52.567986,35.943314],[52.548264,35.941097],[52.54604,35.940536],[52.54354,35.940536],[52.541874,35.940258],[52.54104,35.940536],[52.499924,35.93387],[52.495758,35.933598],[52.494923,35.933598],[52.494366,35.93332],[52.493534,35.93332],[52.480515,35.930435],[52.479645,35.930264],[52.47909,35.930264],[52.4752,35.929424],[52.47409,35.928875],[52.4702,35.927765],[52.468536,35.926926],[52.466312,35.926376],[52.463535,35.92526],[52.4627,35.92526],[52.435757,35.91221],[52.417652,35.894108],[52.415756,35.89221],[52.4152,35.891087],[52.412422,35.887474],[52.40909,35.88303],[52.394367,35.86164],[52.379364,35.849426],[52.378532,35.84887],[52.378254,35.84859],[52.326584,35.828316],[52.31964,35.82637],[52.29214,35.815536],[52.26658,35.798588],[52.26575,35.79748],[52.244633,35.773033],[52.240746,35.771088],[52.23741,35.7697],[52.22741,35.76748],[52.226025,35.766922],[52.22019,35.765812],[52.218246,35.765812],[52.217968,35.765533],[52.21741,35.765533],[52.217136,35.765812],[52.21658,35.765533],[52.21547,35.765533],[52.214634,35.765812],[52.21352,35.765533],[52.2113,35.765533],[52.210743,35.765255],[52.20908,35.765255],[52.204636,35.764694],[52.20241,35.764694],[52.201023,35.764423],[52.199078,35.764423],[52.197964,35.764145],[52.195465,35.764145],[52.194633,35.763866],[52.191856,35.763866],[52.190746,35.763588],[52.184074,35.763317],[52.17713,35.763317],[52.17519,35.763027],[52.15852,35.763027],[52.15602,35.763317],[52.155186,35.763027],[52.13741,35.7622],[52.129353,35.7622],[52.12269,35.76192],[52.11852,35.761646],[52.11213,35.761646],[52.110188,35.76136],[52.096573,35.76136],[52.09574,35.761646],[52.072685,35.763317],[52.060184,35.76609],[52.058796,35.766644],[52.05157,35.76859],[52.03768,35.773865],[52.02685,35.778587],[52.010456,35.7847],[52.00629,35.786644],[51.992958,35.79331],[51.984344,35.798588],[51.934067,35.828865],[51.88212,35.857197],[51.87823,35.85998],[51.877674,35.860584],[51.86073,35.87888],[51.8574,35.88554],[51.8574,35.886086],[51.85073,35.900536],[51.847397,35.90498],[51.829136,35.9346],[51.82462,35.941925],[51.81434,35.95248],[51.77989,35.980812],[51.76989,36.000225],[51.760445,36.006653],[51.7285,36.0261],[51.727417,36.026634],[51.715443,36.03304],[51.714535,36.033497],[51.70711,36.03693],[51.69961,36.039707],[51.693497,36.042763],[51.654884,36.059704],[51.653774,36.060265],[51.59905,36.083595],[51.598495,36.084152],[51.597942,36.084152],[51.594326,36.08609],[51.58655,36.090263],[51.572937,36.094986],[51.55321,36.099148],[51.494324,36.118042],[51.493767,36.118042],[51.49293,36.118874],[51.487377,36.121662],[51.485985,36.122765],[51.480434,36.1261],[51.474045,36.129982],[51.46043,36.139427],[51.459877,36.139706],[51.459297,36.140095],[51.459045,36.135826],[51.45793,36.106976],[51.45793,36.106926],[51.45849,36.103878],[51.458763,36.10137],[51.459038,36.100826],[51.459045,36.100815],[51.458763,36.096943],[51.458763,36.09693],[51.459045,36.09109],[51.45931,36.09003],[51.45932,36.089985],[51.459045,36.08916],[51.459045,36.089153],[51.45932,36.084713],[51.460423,36.081684],[51.46043,36.081657],[51.45849,36.067482],[51.45682,36.06082],[51.45293,36.04998],[51.44988,36.04415],[51.43599,36.031094],[51.41821,36.005264],[51.416958,36.002758],[51.415432,35.999702],[51.410984,35.985535],[51.407375,35.979706],[51.406544,35.977207],[51.40626,35.96862],[51.40626,35.968594],[51.406544,35.964977],[51.41071,35.953316],[51.41821,35.939148],[51.41904,35.93221],[51.419315,35.931377],[51.41932,35.93137],[51.41932,35.93082],[51.41932,35.92422],[51.41932,35.924152],[51.41959,35.92388],[51.419598,35.92387],[51.41932,35.921654],[51.416542,35.898598],[51.413067,35.89311],[51.41302,35.893127],[51.41265,35.89332],[51.389874,35.901646],[51.37907,35.903862],[51.301533,35.926376],[51.29079,35.928574],[51.285145,35.92998],[51.277145,35.93219],[51.27709,35.932205],[51.272087,35.933315],[51.245975,35.939148],[51.244865,35.939705],[51.24321,35.939976],[51.2432,35.939976],[51.2432,35.939705],[51.1982,35.901737],[51.198143,35.901688],[51.198143,35.901688],[51.18987,35.893967],[51.18981,35.893913],[51.18375,35.888683],[51.167366,35.872486],[51.146526,35.845905],[51.132362,35.836365],[51.130695,35.835808],[51.107372,35.82331],[51.1067,35.822704],[51.09514,35.8122],[51.09292,35.808586],[51.09181,35.806087],[51.091526,35.80553],[51.090694,35.803864],[51.09015,35.80032],[51.09015,35.80031],[51.09014,35.800255],[51.090687,35.799232],[51.090965,35.79896],[51.09541,35.789516],[51.101254,35.770363],[51.10126,35.770332],[51.101288,35.770245],[51.101246,35.7703],[51.10122,35.77034],[51.100945,35.770714],[51.10088,35.7708],[51.100826,35.770878],[51.1009,35.77069],[51.1009,35.77069],[51.104942,35.760296],[51.108234,35.75182],[51.108257,35.75177],[51.10826,35.751762],[51.108253,35.75176],[51.108234,35.751747],[51.108227,35.75174],[51.10821,35.751713],[51.108147,35.751644],[51.10814,35.751637],[51.108135,35.751633],[51.108097,35.751583],[51.10809,35.75157],[51.10807,35.751534],[51.10805,35.751488],[51.108032,35.751408],[51.108032,35.751408],[51.10801,35.751354],[51.107986,35.751312],[51.107933,35.751236],[51.107914,35.75122],[51.10789,35.75121],[51.10787,35.751205],[51.10785,35.7512],[51.107796,35.7512],[51.10766,35.751225],[51.10757,35.751247],[51.1075,35.751247],[51.107426,35.751244],[51.107376,35.751236],[51.107327,35.75122],[51.107307,35.751213],[51.107296,35.75121],[51.107285,35.751205],[51.10725,35.751183],[51.107193,35.751163],[51.1071,35.75115],[51.10708,35.751152],[51.10705,35.75116],[51.107025,35.75119],[51.106987,35.751244],[51.106945,35.751297],[51.106934,35.7513],[51.106922,35.7513],[51.10687,35.75125],[51.10685,35.75125],[51.106823,35.75127],[51.106804,35.751278],[51.106762,35.751324],[51.106754,35.751328],[51.106716,35.75137],[51.10671,35.751377],[51.10669,35.751415],[51.106678,35.75148],[51.106678,35.751488],[51.106678,35.751495],[51.10667,35.751522],[51.10666,35.75157],[51.106655,35.75166],[51.106655,35.751663],[51.10666,35.751682],[51.106663,35.751686],[51.10667,35.751698],[51.10669,35.751713],[51.106705,35.751724],[51.106747,35.75174],[51.106766,35.751747],[51.106792,35.75176],[51.106834,35.751785],[51.106873,35.751812],[51.106903,35.751854],[51.106926,35.751896],[51.10694,35.751934],[51.106956,35.752014],[51.106968,35.752064],[51.106968,35.752068],[51.106983,35.75219],[51.107,35.75227],[51.107,35.752293],[51.107,35.752327],[51.107,35.752335],[51.107,35.752346],[51.107,35.752388],[51.107,35.7524],[51.10701,35.75244],[51.107014,35.75247],[51.107018,35.75248],[51.107025,35.75249],[51.107044,35.752537],[51.10705,35.752552],[51.10705,35.75259],[51.107048,35.7526],[51.10704,35.7526],[51.107025,35.75261],[51.10701,35.75262],[51.107018,35.75265],[51.107033,35.75268],[51.107033,35.75269],[51.107033,35.7527],[51.107025,35.752712],[51.107014,35.752716],[51.107006,35.752735],[51.107002,35.75274],[51.107,35.75274],[51.106884,35.752796],[51.10687,35.752804],[51.106834,35.75281],[51.106808,35.75281],[51.10678,35.752804],[51.106762,35.752796],[51.106712,35.75277],[51.106705,35.752766],[51.10669,35.75276],[51.106678,35.752766],[51.10667,35.752785],[51.106667,35.7528],[51.106663,35.752808],[51.10665,35.752808],[51.10665,35.752808],[51.106625,35.75279],[51.106487,35.75266],[51.106426,35.7526],[51.106262,35.752453],[51.10622,35.752426],[51.106197,35.75242],[51.106167,35.752415],[51.10612,35.752415],[51.106083,35.752422],[51.106026,35.752453],[51.10599,35.75247],[51.10595,35.75248],[51.105946,35.75248],[51.10592,35.752476],[51.105892,35.752472],[51.10587,35.75246],[51.10585,35.752438],[51.10584,35.752426],[51.105824,35.752407],[51.10582,35.752403],[51.10581,35.75238],[51.105793,35.752357],[51.105778,35.752316],[51.105774,35.752304],[51.105747,35.752247],[51.105713,35.752213],[51.105682,35.752197],[51.10566,35.752182],[51.105656,35.75218],[51.105534,35.752125],[51.105453,35.75209],[51.10541,35.75207],[51.10531,35.752033],[51.105267,35.752026],[51.105247,35.75203],[51.10522,35.75204],[51.105198,35.752075],[51.105194,35.752083],[51.105175,35.752155],[51.10515,35.752224],[51.105152,35.75226],[51.105156,35.752277],[51.105156,35.75229],[51.105183,35.752594],[51.105198,35.752724],[51.105194,35.75276],[51.10518,35.75283],[51.105152,35.752895],[51.105118,35.752956],[51.10508,35.753082],[51.10503,35.753166],[51.105,35.753212],[51.104984,35.75324],[51.104946,35.753315],[51.104916,35.75337],[51.104877,35.75342],[51.104816,35.75348],[51.104786,35.753513],[51.104774,35.75355],[51.104774,35.753582],[51.104774,35.753593],[51.10478,35.75361],[51.104782,35.75363],[51.10487,35.753876],[51.10488,35.75392],[51.10489,35.753963],[51.10488,35.75402],[51.10488,35.754044],[51.10488,35.754086],[51.10488,35.754086],[51.104885,35.754097],[51.10489,35.754124],[51.104916,35.754166],[51.104927,35.754204],[51.104954,35.754242],[51.104977,35.754272],[51.104946,35.754307],[51.10494,35.75432],[51.104923,35.754345],[51.104923,35.754368],[51.10492,35.754375],[51.1049,35.754383],[51.104824,35.754375],[51.10474,35.754368],[51.10469,35.754356],[51.104584,35.75433],[51.104496,35.754303],[51.104458,35.75428],[51.104424,35.754253],[51.104412,35.754253],[51.10438,35.754314],[51.104343,35.75435],[51.10428,35.7544],[51.10418,35.754456],[51.104065,35.754543],[51.104053,35.754547],[51.10403,35.7545],[51.104008,35.75449],[51.103985,35.75448],[51.103973,35.75448],[51.10396,35.754486],[51.103943,35.7545],[51.103943,35.75453],[51.103935,35.754566],[51.10389,35.754547],[51.103878,35.75455],[51.103836,35.75457],[51.103825,35.754574],[51.1038,35.75457],[51.103775,35.754562],[51.10376,35.754543],[51.10375,35.75454],[51.103733,35.754543],[51.1037,35.754566],[51.103683,35.754566],[51.103657,35.754547],[51.103626,35.754528],[51.103626,35.754528],[51.10362,35.75451],[51.10362,35.754486],[51.10365,35.75441],[51.10367,35.754314],[51.103676,35.754173],[51.103695,35.75408],[51.1037,35.75407],[51.103718,35.753994],[51.103733,35.753956],[51.10374,35.753876],[51.10374,35.753864],[51.10375,35.7538],[51.103737,35.753757],[51.10372,35.75372],[51.10371,35.75371],[51.10369,35.753708],[51.103664,35.753708],[51.10348,35.753746],[51.10338,35.75375],[51.10333,35.753765],[51.10328,35.753777],[51.103268,35.753773],[51.103268,35.753773],[51.103256,35.75377],[51.10325,35.753757],[51.10326,35.75372],[51.10328,35.75369],[51.103344,35.753628],[51.103474,35.753483],[51.103592,35.753345],[51.103645,35.75327],[51.103676,35.75319],[51.103706,35.753105],[51.103714,35.75307],[51.103714,35.753063],[51.103718,35.75302],[51.103714,35.75298],[51.103706,35.752937],[51.103695,35.7529],[51.103657,35.75282],[51.10361,35.752743],[51.10359,35.752705],[51.103565,35.752686],[51.10349,35.7526],[51.10345,35.752518],[51.10343,35.752487],[51.103394,35.752453],[51.10335,35.752422],[51.10331,35.752403],[51.10328,35.752396],[51.103252,35.752396],[51.10321,35.752403],[51.103165,35.75242],[51.10305,35.752514],[51.103004,35.752537],[51.102962,35.75255],[51.102913,35.752556],[51.102863,35.752556],[51.102814,35.752556],[51.102764,35.752525],[51.10271,35.752525],[51.10266,35.75253],[51.102608,35.75253],[51.102562,35.752518],[51.102512,35.75249],[51.102474,35.75247],[51.102413,35.752407],[51.102383,35.75237],[51.102367,35.752335],[51.102337,35.752254],[51.102295,35.752182],[51.102295,35.75215],[51.10229,35.752136],[51.102295,35.752094],[51.102303,35.75204],[51.102306,35.752018],[51.102306,35.751934],[51.102295,35.75181],[51.102283,35.75171],[51.102264,35.751667],[51.102238,35.751633],[51.1022,35.751575],[51.102184,35.751564],[51.102135,35.751514],[51.10208,35.751472],[51.10204,35.751453],[51.101894,35.751472],[51.101788,35.75152],[51.101704,35.751575],[51.10161,35.75162],[51.101562,35.75166],[51.101433,35.751743],[51.101395,35.751766],[51.101334,35.751827],[51.10129,35.751896],[51.10128,35.75193],[51.10128,35.751957],[51.101284,35.751987],[51.101284,35.751995],[51.101295,35.752018],[51.101307,35.752045],[51.101326,35.752064],[51.101345,35.752136],[51.101414,35.75229],[51.101437,35.752365],[51.101448,35.752453],[51.101463,35.7525],[51.10147,35.752518],[51.10147,35.752525],[51.101494,35.75259],[51.101517,35.75264],[51.101536,35.752666],[51.101547,35.752705],[51.10158,35.752827],[51.101593,35.752903],[51.101604,35.752937],[51.10161,35.752983],[51.1016,35.753002],[51.101593,35.75303],[51.10158,35.75311],[51.101585,35.75315],[51.101585,35.75319],[51.10158,35.7532],[51.101566,35.753223],[51.101547,35.753258],[51.101517,35.753296],[51.101475,35.753326],[51.10142,35.75335],[51.10133,35.753384],[51.101196,35.75342],[51.101185,35.75342],[51.10117,35.753345],[51.10115,35.753265],[51.101135,35.753223],[51.101116,35.75319],[51.101063,35.75311],[51.101013,35.753033],[51.101,35.752995],[51.100983,35.752968],[51.100956,35.752937],[51.100945,35.75293],[51.10089,35.75291],[51.10084,35.752884],[51.10075,35.75286],[51.100693,35.752834],[51.10067,35.752834],[51.10064,35.752815],[51.10057,35.75275],[51.100548,35.752743],[51.100525,35.75274],[51.1005,35.752747],[51.100483,35.752758],[51.10048,35.7528],[51.10048,35.75283],[51.10049,35.752956],[51.100487,35.75299],[51.100487,35.752995],[51.100464,35.753033],[51.100433,35.753067],[51.100395,35.75309],[51.10027,35.75315],[51.10022,35.753174],[51.100124,35.7532],[51.100082,35.75322],[51.10003,35.753235],[51.099983,35.75323],[51.099937,35.75322],[51.09989,35.753216],[51.099792,35.753246],[51.09971,35.753277],[51.099617,35.753315],[51.099575,35.75334],[51.099545,35.753372],[51.099514,35.75343],[51.0995,35.753468],[51.09949,35.753487],[51.09949,35.75353],[51.09949,35.75355],[51.099495,35.75357],[51.099503,35.75361],[51.099537,35.753654],[51.099564,35.753693],[51.099586,35.753723],[51.09962,35.7538],[51.099617,35.753853],[51.09963,35.753918],[51.09963,35.753925],[51.09962,35.75393],[51.099613,35.75393],[51.099575,35.753933],[51.099518,35.753925],[51.09947,35.75391],[51.099277,35.75388],[51.099182,35.753857],[51.099094,35.753834],[51.099003,35.753807],[51.098953,35.753803],[51.0989,35.7538],[51.098873,35.753803],[51.098846,35.75381],[51.098766,35.753853],[51.09868,35.753902],[51.09859,35.753956],[51.098557,35.753975],[51.09852,35.75401],[51.09849,35.75404],[51.098476,35.754078],[51.09847,35.754112],[51.09846,35.754173],[51.09846,35.75418],[51.09847,35.754234],[51.09848,35.754276],[51.098515,35.754353],[51.09854,35.75439],[51.09859,35.754467],[51.098667,35.75461],[51.098698,35.754646],[51.098736,35.754677],[51.098866,35.75475],[51.098892,35.754772],[51.098907,35.75478],[51.098934,35.754818],[51.098934,35.754833],[51.098923,35.75484],[51.098892,35.754833],[51.098877,35.754833],[51.098866,35.754833],[51.09882,35.75484],[51.09872,35.754826],[51.098667,35.754826],[51.098568,35.754833],[51.09852,35.754826],[51.098427,35.754795],[51.09834,35.754757],[51.09817,35.754677],[51.098057,35.754597],[51.097973,35.754562],[51.097885,35.75453],[51.097813,35.75448],[51.097767,35.754463],[51.09774,35.754463],[51.09771,35.754456],[51.09768,35.75444],[51.09765,35.75442],[51.097614,35.754414],[51.097584,35.754417],[51.09755,35.754425],[51.097527,35.75444],[51.097507,35.754467],[51.0975,35.75449],[51.0975,35.75452],[51.0975,35.754547],[51.09749,35.754574],[51.09747,35.75459],[51.09744,35.754597],[51.09737,35.754612],[51.09731,35.754635],[51.097237,35.754692],[51.09721,35.75472],[51.0972,35.754745],[51.09719,35.75477],[51.0972,35.754814],[51.097202,35.754826],[51.097218,35.754955],[51.097233,35.754997],[51.09724,35.755077],[51.09724,35.755077],[51.09725,35.755104],[51.097305,35.755257],[51.097313,35.755302],[51.09731,35.755318],[51.097298,35.755333],[51.097298,35.75534],[51.097248,35.75541],[51.09719,35.755516],[51.097164,35.75559],[51.097153,35.755642],[51.09716,35.755657],[51.09716,35.75566],[51.0972,35.75569],[51.097206,35.755695],[51.097248,35.75571],[51.097305,35.75572],[51.097416,35.75573],[51.09746,35.755737],[51.097504,35.75575],[51.09754,35.75577],[51.097557,35.75579],[51.09756,35.755795],[51.097572,35.755814],[51.09759,35.755856],[51.097603,35.755898],[51.097603,35.75591],[51.097607,35.75594],[51.097603,35.75595],[51.097603,35.755974],[51.0976,35.75598],[51.097565,35.756104],[51.097557,35.756165],[51.097557,35.756207],[51.09756,35.75622],[51.097557,35.75626],[51.097557,35.75626],[51.097546,35.75627],[51.097538,35.756268],[51.097504,35.756203],[51.09745,35.75607],[51.09743,35.75603],[51.09742,35.756023],[51.097393,35.75602],[51.097366,35.756027],[51.097336,35.756054],[51.097313,35.756084],[51.097168,35.75629],[51.097126,35.756355],[51.097122,35.756363],[51.09708,35.756462],[51.096916,35.756657],[51.096848,35.756752],[51.096825,35.75679],[51.096783,35.75686],[51.096756,35.756916],[51.09675,35.756916],[51.096737,35.75691],[51.09673,35.756733],[51.09673,35.75672],[51.09672,35.756565],[51.09672,35.75654],[51.096737,35.7563],[51.096764,35.75616],[51.096767,35.756145],[51.09677,35.756096],[51.096767,35.756084],[51.096733,35.75606],[51.09666,35.756016],[51.096622,35.75598],[51.096596,35.75595],[51.096565,35.75591],[51.09651,35.7558],[51.096493,35.755787],[51.096474,35.75579],[51.096447,35.755806],[51.096367,35.75588],[51.09628,35.75595],[51.096233,35.755962],[51.096176,35.755966],[51.096138,35.75598],[51.096096,35.756],[51.096058,35.756027],[51.09599,35.756096],[51.095894,35.756203],[51.09587,35.756237],[51.09586,35.75627],[51.09585,35.756298],[51.09586,35.75632],[51.095863,35.75633],[51.095875,35.75636],[51.0959,35.7564],[51.09593,35.75652],[51.09597,35.756596],[51.09597,35.75662],[51.09596,35.756638],[51.09596,35.756657],[51.095955,35.756676],[51.09596,35.756702],[51.09599,35.756924],[51.09599,35.756966],[51.095985,35.756977],[51.09598,35.756985],[51.095955,35.757],[51.09595,35.75702],[51.095978,35.757057],[51.09598,35.757065],[51.096,35.757103],[51.09602,35.75716],[51.096016,35.75718],[51.096004,35.757187],[51.096,35.757187],[51.09594,35.757183],[51.095932,35.757187],[51.095917,35.75719],[51.095905,35.757187],[51.0959,35.757175],[51.095898,35.757133],[51.095894,35.757122],[51.095886,35.757107],[51.095867,35.757084],[51.09584,35.757076],[51.095818,35.757076],[51.09579,35.757076],[51.095768,35.757084],[51.09572,35.75711],[51.095703,35.75711],[51.09564,35.7571],[51.09559,35.7571],[51.095573,35.757107],[51.09553,35.75713],[51.095516,35.75713],[51.095497,35.757103],[51.09548,35.757095],[51.09545,35.757095],[51.095398,35.757095],[51.09537,35.757107],[51.095295,35.7572],[51.095226,35.75729],[51.09517,35.7574],[51.095158,35.757404],[51.09515,35.7574],[51.095127,35.757236],[51.0951,35.757195],[51.09509,35.757183],[51.095066,35.757175],[51.094994,35.757153],[51.09497,35.757137],[51.094963,35.75713],[51.094925,35.757103],[51.094852,35.75708],[51.094826,35.75708],[51.094795,35.75708],[51.09475,35.757088],[51.094704,35.757103],[51.09468,35.75712],[51.09462,35.75723],[51.09459,35.757263],[51.094444,35.757378],[51.094387,35.75745],[51.09436,35.757473],[51.094334,35.757484],[51.094326,35.757492],[51.094326,35.757515],[51.094337,35.75753],[51.094337,35.757553],[51.094337,35.757572],[51.094334,35.75761],[51.094334,35.757618],[51.09433,35.75762],[51.094307,35.757633],[51.094254,35.757706],[51.094223,35.757736],[51.094204,35.757763],[51.094196,35.757767],[51.094193,35.757767],[51.094185,35.75776],[51.094196,35.75771],[51.094196,35.757694],[51.094196,35.75761],[51.094185,35.75759],[51.09417,35.75758],[51.09412,35.757572],[51.09411,35.757565],[51.094105,35.757553],[51.09411,35.757534],[51.094105,35.757492],[51.094097,35.757454],[51.094086,35.75742],[51.09367,35.756542],[51.093586,35.75627],[51.09347,35.755917],[51.09339,35.755737],[51.09339,35.75573],[51.09331,35.75566],[51.093258,35.755623],[51.09321,35.755592],[51.09316,35.755543],[51.093025,35.755424],[51.092987,35.755333],[51.092976,35.755333],[51.092945,35.755287],[51.09289,35.755173],[51.092884,35.75515],[51.092937,35.75491],[51.09295,35.75485],[51.09289,35.754776],[51.092827,35.75471],[51.092785,35.75468],[51.092728,35.754627],[51.092678,35.75458],[51.092648,35.754513],[51.092613,35.754467],[51.0926,35.75443],[51.092587,35.75438],[51.092583,35.754333],[51.092564,35.754246],[51.092552,35.754158],[51.092552,35.754055],[51.092537,35.753876],[51.092533,35.753803],[51.092476,35.753452],[51.092457,35.753242],[51.09244,35.75319],[51.09243,35.753086],[51.092396,35.752995],[51.092377,35.752907],[51.092365,35.752815],[51.092346,35.75271],[51.092342,35.752533],[51.092327,35.752335],[51.092327,35.752327],[51.092327,35.752304],[51.09233,35.752213],[51.092335,35.752148],[51.092308,35.751987],[51.09229,35.751755],[51.092285,35.751644],[51.092274,35.75152],[51.092266,35.751266],[51.092255,35.75116],[51.09225,35.751022],[51.092243,35.75097],[51.092262,35.75087],[51.092266,35.750854],[51.09227,35.750835],[51.092255,35.750664],[51.092255,35.75064],[51.09227,35.75047],[51.09227,35.750458],[51.092274,35.750385],[51.09225,35.750347],[51.092236,35.750324],[51.092274,35.7502],[51.092278,35.750183],[51.092274,35.75008],[51.092274,35.750046],[51.092278,35.749973],[51.09228,35.749912],[51.092255,35.749763],[51.092255,35.74971],[51.092255,35.749706],[51.09226,35.749565],[51.092262,35.74949],[51.092243,35.749397],[51.09224,35.74918],[51.092148,35.749092],[51.09212,35.748978],[51.092075,35.748833],[51.09203,35.748722],[51.09036,35.74572],[51.090153,35.74561],[51.090034,35.745544],[51.089558,35.745293],[51.089027,35.742905],[51.08901,35.742832],[51.09418,35.74176],[51.097263,35.741127],[51.100193,35.740494],[51.10068,35.740417],[51.10155,35.74036],[51.102444,35.74021],[51.10343,35.740025],[51.10545,35.739853],[51.108868,35.73889],[51.113632,35.737526],[51.11429,35.736],[51.11553,35.73316],[51.115532,35.733154],[51.11558,35.733036],[51.1156,35.73299],[51.11497,35.73189],[51.11494,35.73184],[51.11503,35.73178],[51.11506,35.73176],[51.115044,35.731735],[51.114864,35.73137],[51.114605,35.730595],[51.114582,35.73053],[51.11447,35.730465],[51.114323,35.73053],[51.114254,35.73056],[51.114235,35.730568],[51.114048,35.730656],[51.113068,35.731167],[51.11257,35.731438],[51.112385,35.731525],[51.111538,35.731506],[51.111446,35.731506],[51.110928,35.73053],[51.109943,35.73077],[51.108566,35.73111],[51.107944,35.731266],[51.107533,35.7319],[51.107494,35.73187],[51.10717,35.732506],[51.107037,35.733753],[51.106495,35.73389],[51.10646,35.733814],[51.10592,35.733974],[51.10577,35.733536],[51.10439,35.73382],[51.103497,35.733833],[51.103283,35.733364],[51.10199,35.73239],[51.10185,35.732018],[51.100845,35.732246],[51.100086,35.73229],[51.09783,35.73224],[51.096058,35.729332],[51.095432,35.728165],[51.09449,35.72851],[51.093445,35.728382],[51.09239,35.728046],[51.09071,35.72757],[51.08824,35.723206],[51.08821,35.723152],[51.090755,35.721855],[51.090893,35.721294],[51.090908,35.721237],[51.090908,35.721226],[51.08847,35.720253],[51.08625,35.719982],[51.078472,35.721092],[51.074024,35.722748],[51.073467,35.72331],[51.06986,35.725254],[51.067078,35.727196],[51.0643,35.7297],[51.061245,35.732197],[51.049854,35.73692],[51.047077,35.73692],[51.046246,35.7372],[51.044853,35.7372],[51.039577,35.739697],[51.028744,35.742474],[51.02781,35.742413],[51.02778,35.74235],[51.027744,35.742294],[51.028778,35.74174],[51.028805,35.741722],[51.02864,35.741383],[51.026928,35.741203],[51.025505,35.741802],[51.024853,35.740887],[51.024216,35.73998],[51.024208,35.73997],[51.02429,35.73943],[51.024467,35.738194],[51.024483,35.73812],[51.022385,35.738487],[51.02201,35.738598],[51.021732,35.737545],[51.021656,35.737247],[51.021492,35.737274],[51.02093,35.73594],[51.020412,35.734867],[51.020386,35.73481],[51.021904,35.734066],[51.02194,35.734047],[51.02149,35.733234],[51.021236,35.733334],[51.020306,35.733707],[51.0203,35.732468],[51.02008,35.73247],[51.020027,35.73226],[51.01939,35.73231],[51.019382,35.732273],[51.01936,35.732166],[51.019253,35.732166],[51.019207,35.731792],[51.018993,35.7318],[51.018944,35.731487],[51.01875,35.731487],[51.018757,35.73156],[51.018795,35.732],[51.018787,35.732],[51.0163,35.732216],[51.01552,35.73229],[51.01542,35.73114],[51.015247,35.731148],[51.01521,35.730778],[51.01368,35.730858],[51.0136,35.729763],[51.01353,35.72892],[51.01321,35.72893],[51.01309,35.728115],[51.012775,35.728138],[51.012787,35.728207],[51.01289,35.728977],[51.01288,35.728977],[51.012207,35.729004],[51.01221,35.72908],[51.012264,35.729847],[51.01235,35.731346],[51.01234,35.731346],[51.01196,35.731472],[51.011677,35.731567],[51.01019,35.732056],[51.01,35.732117],[51.009495,35.73229],[51.00944,35.732166],[51.009007,35.732265],[51.007545,35.732132],[51.007526,35.73149],[51.007465,35.729134],[51.00746,35.729057],[51.008156,35.72898],[51.00817,35.72898],[51.00798,35.728107],[51.00778,35.727165],[51.00775,35.726868],[51.00671,35.72683],[51.00621,35.72681],[51.003227,35.726704],[51.00305,35.726696],[51.00305,35.72667],[51.00305,35.724487],[51.002377,35.721504],[51.00212,35.72039],[50.995964,35.720802],[50.99423,35.720943],[50.993954,35.718857],[50.993935,35.71876],[50.99392,35.718697],[51.00164,35.71515],[51.002098,35.71494],[51.003845,35.714134],[51.00416,35.71399],[51.004303,35.7129],[51.00431,35.71283],[51.002464,35.712692],[51.002186,35.71267],[51.000603,35.712788],[50.999607,35.712852],[50.998783,35.711697],[50.998753,35.71165],[50.99842,35.711185],[50.99837,35.711132],[50.998123,35.71113],[50.998123,35.71113],[50.998123,35.7111],[50.998043,35.7111],[50.998043,35.71106],[50.99824,35.71105],[50.998257,35.71105],[50.99823,35.71092],[50.998177,35.71084],[50.99811,35.710773],[50.99719,35.709675],[50.996494,35.70967],[50.99648,35.709095],[50.996235,35.709114],[50.994587,35.709248],[50.994484,35.708553],[50.994358,35.707714],[50.99427,35.707645],[50.99416,35.706665],[50.99415,35.706608],[50.99416,35.706596],[50.99462,35.705704],[50.99463,35.705692],[50.994564,35.704758],[50.994484,35.70357],[50.994022,35.702858],[50.994,35.702816],[50.99513,35.70141],[50.995853,35.701157],[50.998463,35.701588],[50.99943,35.70294],[51.000366,35.706535],[51.004807,35.706783],[51.006638,35.705414],[51.006653,35.705406],[51.00536,35.696556],[51.00247,35.695038],[50.99768,35.69658],[50.989628,35.699326],[50.989643,35.69939],[50.99016,35.7013],[50.99014,35.701305],[50.96947,35.70511],[50.968445,35.70724],[50.968456,35.707287],[50.968456,35.707294],[50.968452,35.707294],[50.967613,35.707497],[50.967358,35.707558],[50.96736,35.70763],[50.967377,35.707943],[50.967426,35.708965],[50.96742,35.708965],[50.967304,35.708984],[50.967316,35.709053],[50.967358,35.709232],[50.967556,35.70921],[50.96761,35.709435],[50.967922,35.70938],[50.967953,35.709732],[50.968117,35.709698],[50.96818,35.709934],[50.968716,35.711884],[50.96933,35.713696],[50.97045,35.71594],[50.970894,35.71682],[50.97098,35.71703],[50.97121,35.716953],[50.97373,35.716972],[50.9741,35.71681],[50.9743,35.7171],[50.975002,35.719105],[50.974983,35.71913],[50.973797,35.7207],[50.973812,35.720745],[50.974293,35.72189],[50.974262,35.721893],[50.973743,35.72197],[50.973427,35.72268],[50.969093,35.724094],[50.968235,35.722687],[50.968227,35.72268],[50.96834,35.72187],[50.96835,35.721817],[50.968086,35.72092],[50.96807,35.720867],[50.96859,35.72038],[50.968628,35.720036],[50.96869,35.71945],[50.968697,35.71938],[50.968586,35.719425],[50.966415,35.72005],[50.966404,35.720127],[50.9663,35.720207],[50.966335,35.720253],[50.966366,35.7203],[50.966335,35.72032],[50.966335,35.720325],[50.966293,35.72036],[50.96629,35.720413],[50.96629,35.720432],[50.96629,35.720478],[50.9663,35.720516],[50.96639,35.72053],[50.966347,35.720585],[50.96635,35.720596],[50.966366,35.720627],[50.966576,35.72098],[50.966675,35.722027],[50.966663,35.72203],[50.964893,35.722736],[50.962963,35.723495],[50.956486,35.725826],[50.956036,35.72515],[50.956017,35.725117],[50.956516,35.7243],[50.960003,35.718628],[50.960033,35.718582],[50.95743,35.716137],[50.95733,35.71616],[50.9542,35.716766],[50.953415,35.715588],[50.94995,35.71598],[50.94995,35.716053],[50.94995,35.71685],[50.949947,35.71685],[50.94869,35.717003],[50.94837,35.716297],[50.94748,35.716705],[50.947308,35.716785],[50.94733,35.71685],[50.947502,35.71744],[50.947475,35.71745],[50.945625,35.718014],[50.94518,35.718147],[50.94519,35.718163],[50.94448,35.71832],[50.94388,35.71803],[50.942856,35.71819],[50.942886,35.718254],[50.943165,35.718914],[50.943134,35.718925],[50.942146,35.719368],[50.942173,35.71943],[50.94359,35.723137],[50.943554,35.723118],[50.939854,35.72164],[50.939022,35.72164],[50.939022,35.721363],[50.930965,35.718025],[50.93041,35.717754],[50.929573,35.717487],[50.929573,35.716896],[50.921818,35.70892],[50.921806,35.70891],[50.925465,35.692383],[50.925476,35.692314],[50.919693,35.690815],[50.914196,35.689835],[50.91007,35.69184],[50.90285,35.697742],[50.899864,35.703873],[50.899864,35.703938],[50.899845,35.71442],[50.89984,35.71442],[50.88652,35.71442],[50.885128,35.71414],[50.86957,35.7122],[50.865963,35.711365],[50.86513,35.711365],[50.86485,35.711082],[50.85985,35.710255],[50.857906,35.710255],[50.857628,35.709976],[50.8404,35.709145],[50.838184,35.708588],[50.836514,35.708588],[50.819843,35.705532],[50.818176,35.705532],[50.81651,35.70498],[50.8154,35.70498],[50.814568,35.7047],[50.813457,35.7047],[50.8129,35.704422],[50.81179,35.704422],[50.81096,35.704144],[50.796787,35.702194],[50.794567,35.701645],[50.793736,35.701645],[50.793453,35.701366],[50.79262,35.701366],[50.79207,35.701088],[50.791233,35.701088],[50.79068,35.700806],[50.789845,35.700806],[50.779846,35.69831],[50.779564,35.69803],[50.77884,35.69794],[50.778454,35.69775],[50.77441,35.696873],[50.772064,35.69636],[50.77068,35.69636],[50.770397,35.696083],[50.76679,35.696083],[50.76651,35.69636],[50.762897,35.69636],[50.76234,35.696083],[50.748177,35.694145],[50.748177,35.693867],[50.74623,35.693867],[50.745953,35.693584],[50.7429,35.693314],[50.74095,35.693314],[50.740677,35.693027],[50.73986,35.693027],[50.73984,35.693027],[50.741253,35.68859],[50.74128,35.688522],[50.726864,35.684948],[50.710857,35.678444],[50.701588,35.674145],[50.686646,35.67077],[50.666412,35.672062],[50.651417,35.672062],[50.601,35.666435],[50.573193,35.663994],[50.56788,35.66353],[50.526676,35.66065],[50.46938,35.64895],[50.448036,35.646843],[50.43512,35.64463],[50.413437,35.64157],[50.40628,35.64017],[50.39702,35.63835],[50.385296,35.630962],[50.372265,35.61893],[50.370003,35.610275],[50.370003,35.610268],[50.370792,35.600464],[50.373375,35.5923],[50.373394,35.592247],[50.369144,35.58599],[50.35699,35.580116],[50.35236,35.574474],[50.35235,35.57446],[50.353416,35.570602],[50.353436,35.570526],[50.35399,35.570805],[50.362045,35.570805],[50.362606,35.570526],[50.3651,35.570526],[50.36566,35.570248],[50.368717,35.570248],[50.369545,35.56997],[50.37316,35.56941],[50.381496,35.56858],[50.39483,35.56831],[50.39677,35.56802],[50.40427,35.56636],[50.40622,35.56636],[50.406494,35.566082],[50.416073,35.566082],[50.416084,35.566082],[50.417053,35.566082],[50.417606,35.565804],[50.419273,35.565804],[50.41955,35.565525],[50.421494,35.564972],[50.42622,35.563026],[50.427326,35.562748],[50.430943,35.562748],[50.437607,35.56136],[50.439552,35.56136],[50.44205,35.560806],[50.445385,35.560806],[50.446217,35.56052],[50.475388,35.555244],[50.47733,35.555244],[50.478165,35.554966],[50.480385,35.554695],[50.485386,35.554695],[50.4865,35.554417],[50.49483,35.554417],[50.49594,35.554134],[50.509,35.554134],[50.51011,35.553856],[50.51372,35.553856],[50.517056,35.553856],[50.52039,35.553856],[50.52122,35.553577],[50.533165,35.553307],[50.5365,35.554417],[50.538445,35.554417],[50.538723,35.554695],[50.546223,35.555244],[50.55511,35.555244],[50.5565,35.554966],[50.570946,35.553856],[50.57539,35.553856],[50.576225,35.553577],[50.587334,35.552746],[50.5915,35.552467],[50.592613,35.552467],[50.593445,35.55219],[50.62595,35.547474],[50.627064,35.546913],[50.630116,35.546078],[50.664562,35.531918],[50.667618,35.5308],[50.67095,35.529694],[50.67151,35.529133],[50.67262,35.528862],[50.67345,35.528305],[50.674564,35.528023],[50.675953,35.527195],[50.70651,35.51163],[50.70734,35.51163],[50.708454,35.51108],[50.709286,35.51108],[50.709286,35.510803],[50.70984,35.510803],[50.71012,35.510525],[50.711506,35.509964],[50.71179,35.509693],[50.712345,35.509136],[50.713177,35.508865],[50.71373,35.508305],[50.714287,35.508305],[50.714287,35.508026],[50.724285,35.505527],[50.767624,35.486916],[50.768456,35.486916],[50.771233,35.48636],[50.77151,35.48608],[50.77262,35.48608],[50.774567,35.485527],[50.775955,35.485527],[50.777622,35.48497],[50.778732,35.48497],[50.782345,35.48414],[50.78429,35.48414],[50.784843,35.48386],[50.78679,35.48386],[50.78762,35.48358],[50.78957,35.48358],[50.7904,35.483303],[50.798737,35.483303],[50.79957,35.48358],[50.8004,35.483303],[50.800957,35.48358],[50.80179,35.48358],[50.808456,35.48414],[50.80929,35.48441],[50.810402,35.48441],[50.811234,35.48469],[50.821793,35.48469],[50.822346,35.48441],[50.845127,35.481354],[50.851517,35.480804],[50.857628,35.480804],[50.861515,35.481915],[50.86235,35.481915],[50.86263,35.482193],[50.863464,35.482193],[50.86374,35.48247],[50.86735,35.48358],[50.873184,35.48497],[50.87513,35.48497],[50.87536,35.485252],[50.875683,35.48497],[50.87652,35.48497],[50.876797,35.48469],[50.877907,35.48469],[50.885406,35.480526],[50.88624,35.480526],[50.88624,35.480244],[50.887905,35.479694],[50.89013,35.479694],[50.890408,35.479416],[50.890965,35.479137],[50.89152,35.479137],[50.891796,35.478855],[50.89707,35.476078],[50.898186,35.47553],[50.90263,35.4733],[50.90346,35.4733],[50.90346,35.473022],[50.939022,35.459415],[50.939575,35.459137],[50.940407,35.459137],[50.941242,35.458576],[50.952354,35.45275],[50.95402,35.449966],[50.95402,35.448578],[50.95402,35.4483],[50.95402,35.443863],[50.957073,35.441914],[50.958187,35.441914],[50.96402,35.439964],[50.965412,35.438587],[50.965412,35.438026],[50.965965,35.43747],[50.965965,35.437187],[50.966244,35.4358],[50.966522,35.435528],[50.966244,35.429966],[50.966244,35.429695],[50.965412,35.426357],[50.96152,35.417187],[50.95624,35.399136],[50.955963,35.399136],[50.955963,35.398857],[50.95652,35.397747],[50.9568,35.39747],[50.948463,35.381912],[50.947353,35.379414],[50.92291,35.312187],[50.920967,35.308582],[50.899574,35.26385],[50.89596,35.24969],[50.893185,35.233852],[50.89124,35.228855],[50.890965,35.228577],[50.890686,35.22746],[50.887074,35.220516],[50.886242,35.219685],[50.885406,35.218018],[50.879852,35.20996],[50.86124,35.189957],[50.857075,35.181625],[50.855408,35.179684],[50.849007,35.173027],[50.85096,35.17107],[50.869297,35.159687],[50.87263,35.15857],[50.887352,35.152184],[50.89874,35.14858],[50.90791,35.14524],[50.90902,35.14524],[50.911797,35.1444],[50.91291,35.1444],[50.91652,35.14329],[50.917908,35.14329],[50.925686,35.141624],[50.93041,35.141354],[50.93152,35.14107],[50.934853,35.14107],[50.935966,35.140793],[50.94291,35.140793],[50.945965,35.140793],[50.950687,35.140793],[50.950966,35.14107],[50.952076,35.140793],[50.96263,35.140793],[50.963745,35.140514],[50.965412,35.140514],[50.965687,35.140793],[50.966522,35.140793],[50.966797,35.140514],[50.983467,35.140244],[50.984303,35.139965],[50.988743,35.139965],[50.9893,35.139683],[50.991802,35.139683],[50.992355,35.139404],[50.9943,35.139404],[50.99986,35.139404],[51.00791,35.138016],[51.012356,35.138016],[51.01319,35.138294],[51.0143,35.138294],[51.01458,35.138573],[51.01597,35.138573],[51.01763,35.139126],[51.023468,35.140244],[51.034855,35.14357],[51.08292,35.171352],[51.090973,35.174408],[51.103474,35.178017],[51.104584,35.178017],[51.10514,35.178295],[51.10653,35.178295],[51.10903,35.17885],[51.110416,35.17885],[51.110973,35.179127],[51.11264,35.179127],[51.125416,35.180515],[51.131252,35.180515],[51.132088,35.180237],[51.139862,35.180237],[51.140697,35.180515],[51.14514,35.180515],[51.14625,35.180237],[51.170418,35.178295],[51.19959,35.17469],[51.2057,35.17413],[51.24098,35.166904],[51.242924,35.166904],[51.243755,35.166626],[51.30848,35.151356],[51.33126,35.14579],[51.333763,35.14552],[51.34265,35.143574],[51.35126,35.141075],[51.379597,35.133297],[51.412376,35.12245],[51.446823,35.111355]]]}}
