{"type":"Feature","id":"relation/3713601","properties":{"type":"relation","id":3713601,"tags":{"addr:country":"RU","addr:district":"Очёрский район","addr:postcode":"617161","addr:region":"Пермский край","addr:subdistrict":"Павловское городское поселение","boundary":"administrative","landuse":"residential","name":"Подсобное хозяйство","official_status":"ru:посёлок","place":"hamlet","population":"183","population:date":"2010","type":"boundary"},"labels":[]},"geometry":{"type":"Polygon","coordinates":[[[54.83795,57.829674],[54.832558,57.830933],[54.828926,57.831932],[54.82907,57.83209],[54.82522,57.833107],[54.823856,57.832584],[54.822346,57.8334],[54.820942,57.834167],[54.81576,57.83646],[54.815823,57.83667],[54.81446,57.836895],[54.814472,57.836514],[54.815403,57.836338],[54.814713,57.835674],[54.81545,57.83546],[54.80921,57.828777],[54.816956,57.82644],[54.81881,57.829544],[54.82086,57.829967],[54.822598,57.830837],[54.823128,57.830772],[54.824207,57.83105],[54.82554,57.831043],[54.826664,57.830757],[54.82812,57.830193],[54.828312,57.830364],[54.830364,57.82937],[54.830914,57.829273],[54.832035,57.82918],[54.83407,57.829292],[54.83795,57.829674]]]}}
