{"type":"Feature","id":"relation/1152720","properties":{"type":"relation","id":1152720,"tags":{"admin_level":"3","alt_name:eo":"Abĥazujo","border_type":"disputed","boundary":"administrative","cg_ref":"AB","cg_ref:note":"this is used for extracting CG maps, please do not delete","flag":"http://upload.wikimedia.org/wikipedia/commons/2/27/Flag_of_Abkhazia.svg","name":"Абхазия - Аҧсны","name:ab":"Аҧсны","name:af":"Abchasië","name:an":"Abkhasia","name:ar":"أبخازيا","name:ast":"Abkhasia","name:az":"Abxaziya","name:ba":"Абхазия","name:bar":"Abchasien","name:bat-smg":"Abkazėjė","name:be":"Абхазія","name:be-tarask":"Абхазія","name:bg":"Абхазия","name:bn":"আবখাজিয়া","name:bs":"Abhazija","name:ca":"Abkhàzia","name:cbk-zam":"Abjasia","name:ce":"Абхази","name:ceb":"Abkhazia","name:ckb":"ئەبخازیا","name:crh":"Abhaziya","name:cs":"Abcházie","name:cu":"Абхаꙁїꙗ","name:cv":"Абхази","name:da":"Abkhasien","name:de":"Abchasien","name:diq":"Abxazya","name:el":"Αμπχαζία","name:en":"Abkhazia","name:eo":"Abĥazio","name:es":"Abjasia","name:et":"Abhaasia","name:eu":"Abkhazia","name:fa":"آبخاز","name:fi":"Abhasia","name:fr":"Abkhazie","name:frp":"Abkhazie","name:ga":"An Abcáis","name:gag":"Abhaziya","name:gl":"Abkhazia","name:gv":"Yn Abcaaish","name:he":"אבחזיה","name:hi":"अबख़ाज़िया","name:hif":"Abkhazia","name:hr":"Abhazija","name:hu":"Abházia","name:hy":"Աբխազիա","name:id":"Abkhazia","name:ie":"Abkhazia","name:io":"Abkhazia","name:is":"Abkasía","name:it":"Abcasia","name:ja":"アブハジア","name:jv":"Abkhazia","name:ka":"აფხაზეთი","name:kab":"Abxazya","name:kbd":"Азгъей","name:kk":"Абхазия","name:ko":"압하스","name:krc":"Хачыпсы","name:ku":"Abxazya","name:kv":"Абхазия","name:la":"Abascia","name:lad":"Abhazia","name:lez":"Абхазия","name:lmo":"Abcasia","name:lt":"Abchazija","name:lv":"Abhāzija","name:mhr":"Абхазий","name:mk":"Апхазија","name:ml":"അബ്ഖാസിയ","name:mn":"Абхаз","name:mr":"अबखाझिया","name:mrj":"Абхази","name:ms":"Abkhazia","name:mzn":"آبخازیا","name:nl":"Abchazië","name:nn":"Abkhasia","name:no":"Abkhasia","name:oc":"Abcazia","name:or":"ଆବାଖାଜିଆ","name:os":"Абхази","name:pa":"ਅਬਖ਼ਾਜ਼ੀਆ","name:pam":"Abhasya","name:pl":"Abchazja","name:pnb":"ابخازیہ","name:pt":"Abecásia","name:ro":"Abhazia","name:ru":"Абхазия","name:rw":"Abukaziya","name:sah":"Абхазия","name:scn":"Abkhàzzia","name:sco":"Abkhazie","name:sh":"Abhazija","name:simple":"Abkhazia","name:sk":"Abcházsko","name:sl":"Abhazija","name:so":"Abkhazia","name:sq":"Abkhazia","name:sr":"Абхазија","name:su":"Abkhazia","name:sv":"Abchazien","name:sw":"Abkhazia","name:szl":"Abchazyjo","name:ta":"அப்காசியா","name:te":"అబ్‌ఖజియా","name:th":"อับฮาเซีย","name:tk":"Abhaziýa","name:tl":"Abkasya","name:tr":"Abhazya","name:tt":"Абхазия","name:uk":"Абхазія","name:ur":"ابخازيا","name:uz":"Abxaziya","name:vep":"Abhazii","name:vi":"Abkhazia","name:vo":"Labkasän","name:war":"Abkhazia","name:xal":"Апсин Таңһч","name:xmf":"აფხაზეთი","name:xmz":"აბჟუა;სააფხაზო","name:yo":"Abkhazia","name:zh":"阿布哈茲","name:zh-yue":"阿布哈茲","official_name":"Республика Абхазия - Аҧсны Аҳәынҭқарра","official_name:ab":"Аҧсны Аҳәынҭқарра","official_name:en":"Republic of Abkhazia","official_name:eo":"Respubliko Abĥazio","official_name:ru":"Республика Абхазия","short_name:ab":"Аҧсны","short_name:de":"Abchasien","short_name:en":"Abkhazia","short_name:ru":"Абхазия","type":"boundary","wikidata":"Q23334","wikipedia":"ab:Аҧсны","wikipedia:en":"Abkhazia"},"labels":[{"id":"node/466507355","role":"label","coordinates":[41.229977,43.15002]}]},"geometry":{"type":"Polygon","coordinates":[[[39.88448,43.224426],[39.898796,43.215714],[39.913784,43.208225],[39.929436,43.201496],[39.945686,43.195568],[39.962452,43.190456],[39.97932,43.18627],[39.993664,43.179108],[40.009315,43.17238],[40.013405,43.170883],[40.013924,43.166256],[40.016647,43.153152],[40.020588,43.14021],[40.025734,43.127487],[40.032055,43.11505],[40.03952,43.102955],[40.048103,43.091263],[40.057762,43.080017],[40.068443,43.06928],[40.080105,43.059097],[40.092686,43.049515],[40.10614,43.04059],[40.12039,43.032345],[40.13538,43.024837],[40.151035,43.018093],[40.167282,43.01214],[40.184048,43.007015],[40.201256,43.002735],[40.21882,42.99933],[40.23666,42.9968],[40.254696,42.995174],[40.272842,42.99445],[40.29101,42.994633],[40.297188,42.995003],[40.305916,42.989952],[40.320904,42.982437],[40.33656,42.975685],[40.352806,42.969734],[40.36957,42.964603],[40.385685,42.960594],[40.398598,42.95201],[40.41285,42.943756],[40.427837,42.936237],[40.443493,42.92948],[40.459743,42.923523],[40.476505,42.918392],[40.493713,42.914104],[40.511276,42.91069],[40.52912,42.90816],[40.547153,42.906532],[40.5653,42.905807],[40.569843,42.905853],[40.57054,42.905594],[40.587307,42.90046],[40.60451,42.896175],[40.622078,42.892757],[40.639915,42.890232],[40.657955,42.8886],[40.6761,42.88787],[40.69427,42.888054],[40.712383,42.88915],[40.730347,42.89114],[40.73962,42.89265],[40.743584,42.887234],[40.75324,42.875954],[40.76392,42.865177],[40.77558,42.85496],[40.788166,42.845352],[40.80162,42.836388],[40.81587,42.82812],[40.83086,42.820587],[40.846516,42.81382],[40.861534,42.8083],[40.865974,42.802216],[40.875633,42.79092],[40.886314,42.78013],[40.889782,42.77709],[40.89001,42.77504],[40.892735,42.76185],[40.896675,42.748825],[40.90182,42.736023],[40.90814,42.723507],[40.915607,42.711338],[40.924187,42.699566],[40.933846,42.688248],[40.944527,42.677444],[40.95619,42.667194],[40.968773,42.65756],[40.982224,42.648567],[40.99648,42.640278],[41.011467,42.63272],[41.02712,42.625927],[41.03291,42.623734],[41.04337,42.619938],[41.06014,42.614784],[41.07734,42.610477],[41.094906,42.607044],[41.112747,42.604507],[41.130783,42.602867],[41.138733,42.602547],[41.14496,42.601658],[41.162994,42.60002],[41.181137,42.599293],[41.199306,42.599476],[41.21742,42.600574],[41.222233,42.60111],[41.224693,42.599216],[41.234386,42.59274],[41.23463,42.5797],[41.23612,42.56636],[41.238842,42.553127],[41.242783,42.54006],[41.24793,42.527214],[41.254246,42.514656],[41.261715,42.502445],[41.266743,42.495518],[41.26659,42.493412],[41.266838,42.480007],[41.26833,42.466652],[41.27105,42.453396],[41.274994,42.440304],[41.280132,42.42744],[41.286453,42.414864],[41.291157,42.40717],[41.549908,42.411564],[41.550594,42.41169],[41.55185,42.41192],[41.559734,42.41143],[41.561035,42.412624],[41.56289,42.414005],[41.565315,42.41523],[41.567406,42.414803],[41.569508,42.414963],[41.570686,42.415565],[41.57142,42.416626],[41.57144,42.41761],[41.572384,42.41824],[41.5735,42.418808],[41.574852,42.41873],[41.576717,42.418953],[41.580578,42.42057],[41.582043,42.420605],[41.58464,42.420826],[41.586205,42.42171],[41.586376,42.42274],[41.58689,42.423595],[41.588326,42.424915],[41.589638,42.425526],[41.591816,42.426426],[41.59465,42.427155],[41.597782,42.42791],[41.600594,42.428722],[41.600914,42.429607],[41.60134,42.43035],[41.6016,42.430668],[41.60203,42.43098],[41.602825,42.431293],[41.60393,42.431793],[41.604713,42.432434],[41.60598,42.433758],[41.606827,42.43424],[41.60762,42.434547],[41.608875,42.434772],[41.6113,42.434883],[41.612835,42.434666],[41.614197,42.434376],[41.619152,42.432426],[41.621403,42.431572],[41.62296,42.432083],[41.62528,42.432846],[41.62706,42.433582],[41.628586,42.434784],[41.628956,42.435223],[41.62916,42.435585],[41.631298,42.435276],[41.63321,42.435783],[41.638638,42.434307],[41.64134,42.43333],[41.644043,42.43306],[41.645996,42.433155],[41.647926,42.433598],[41.649044,42.433723],[41.650524,42.43428],[41.65194,42.434547],[41.65235,42.435562],[41.654293,42.436058],[41.655224,42.43635],[41.65561,42.43596],[41.657047,42.436436],[41.65912,42.436882],[41.659695,42.437008],[41.65978,42.43766],[41.660255,42.43834],[41.661304,42.44024],[41.661865,42.441936],[41.661972,42.44279],[41.6618,42.443615],[41.661198,42.444576],[41.660446,42.445023],[41.658768,42.445244],[41.65742,42.4445],[41.656757,42.44339],[41.656498,42.44195],[41.65575,42.441395],[41.654438,42.441383],[41.65317,42.44173],[41.65212,42.44254],[41.651478,42.443947],[41.65184,42.445435],[41.653107,42.446655],[41.654575,42.447662],[41.655315,42.448795],[41.655533,42.449543],[41.655594,42.450222],[41.655468,42.450886],[41.654995,42.451538],[41.654865,42.45179],[41.655018,42.452137],[41.6548,42.452614],[41.6536,42.45345],[41.653107,42.453926],[41.65261,42.454624],[41.65212,42.455593],[41.65272,42.458145],[41.653313,42.45984],[41.654537,42.463943],[41.654247,42.465477],[41.65403,42.467155],[41.65352,42.46809],[41.652874,42.468723],[41.648743,42.472187],[41.647823,42.473804],[41.648087,42.475353],[41.649666,42.47666],[41.65001,42.47725],[41.65005,42.477673],[41.64986,42.47818],[41.6499,42.47867],[41.65005,42.479084],[41.649647,42.47927],[41.649323,42.479458],[41.64969,42.479904],[41.649925,42.480553],[41.6499,42.481155],[41.650185,42.481503],[41.650635,42.481693],[41.65123,42.481804],[41.651897,42.481785],[41.652523,42.481945],[41.652737,42.482216],[41.65284,42.482674],[41.6528,42.483086],[41.65282,42.483448],[41.65286,42.483772],[41.653034,42.48383],[41.654,42.48394],[41.654816,42.484085],[41.655373,42.484035],[41.655952,42.484146],[41.65649,42.484444],[41.656834,42.48473],[41.65707,42.485157],[41.65722,42.485554],[41.657326,42.48598],[41.657307,42.486362],[41.657413,42.48682],[41.657562,42.487106],[41.65799,42.487293],[41.65844,42.48744],[41.659042,42.487576],[41.65954,42.48772],[41.65986,42.488026],[41.659924,42.488308],[41.660286,42.48853],[41.66119,42.488926],[41.662132,42.48924],[41.663055,42.489494],[41.663376,42.489555],[41.66342,42.489887],[41.66353,42.490208],[41.664303,42.49065],[41.664944,42.491203],[41.665394,42.49223],[41.666405,42.49364],[41.66679,42.49405],[41.6672,42.494507],[41.667496,42.49465],[41.668034,42.494793],[41.66872,42.49505],[41.669086,42.49522],[41.669113,42.49532],[41.66917,42.49549],[41.66917,42.49584],[41.66932,42.49622],[41.669537,42.49647],[41.669834,42.496677],[41.67018,42.49682],[41.670544,42.496803],[41.6711,42.496708],[41.671513,42.496773],[41.672047,42.496994],[41.67254,42.49725],[41.67314,42.49758],[41.673717,42.49788],[41.674213,42.49821],[41.674557,42.498417],[41.675545,42.498734],[41.676125,42.49894],[41.67664,42.498955],[41.677044,42.49894],[41.677666,42.498814],[41.678055,42.498703],[41.678677,42.49872],[41.679256,42.498795],[41.67964,42.499035],[41.679813,42.499348],[41.679726,42.499653],[41.67958,42.49995],[41.679276,42.500317],[41.679222,42.500412],[41.67921,42.50057],[41.679382,42.50079],[41.679554,42.501106],[41.679832,42.50144],[41.680264,42.501724],[41.68065,42.50188],[41.68127,42.501976],[41.68211,42.502056],[41.68314,42.50204],[41.683636,42.50196],[41.684277,42.50188],[41.684902,42.501896],[41.68522,42.502007],[41.685608,42.502228],[41.685974,42.50234],[41.686443,42.502434],[41.68683,42.50247],[41.687454,42.50266],[41.688183,42.50299],[41.688335,42.50325],[41.688595,42.50368],[41.688824,42.504147],[41.68874,42.50457],[41.68859,42.50487],[41.6884,42.505108],[41.688293,42.50544],[41.688263,42.505722],[41.68837,42.506153],[41.68854,42.506504],[41.68892,42.5069],[41.689316,42.507168],[41.689556,42.507347],[41.68993,42.507507],[41.69026,42.507565],[41.690647,42.50759],[41.69126,42.507748],[41.691414,42.50768],[41.69163,42.507713],[41.691853,42.507812],[41.691982,42.507915],[41.692085,42.508118],[41.692146,42.50826],[41.692204,42.50836],[41.692307,42.508526],[41.692375,42.50869],[41.69243,42.508904],[41.69254,42.50914],[41.693157,42.509525],[41.69356,42.509777],[41.69384,42.510002],[41.694054,42.510117],[41.694363,42.510117],[41.695087,42.50979],[41.695354,42.509663],[41.695583,42.50958],[41.695797,42.50957],[41.69605,42.50958],[41.69635,42.509605],[41.696667,42.509727],[41.69685,42.509975],[41.697033,42.51021],[41.697083,42.510445],[41.697117,42.51073],[41.69724,42.510883],[41.69746,42.51102],[41.697773,42.511112],[41.698017,42.51107],[41.698357,42.51096],[41.69864,42.510857],[41.69881,42.5106],[41.69907,42.510395],[41.699486,42.510147],[41.700306,42.509773],[41.700535,42.509705],[41.700817,42.509617],[41.7013,42.509525],[41.702103,42.509335],[41.702663,42.509274],[41.703186,42.509304],[41.704006,42.5093],[41.70462,42.509342],[41.704964,42.50933],[41.70518,42.509346],[41.705463,42.50943],[41.707535,42.510345],[41.708008,42.51006],[41.708233,42.509895],[41.708477,42.509815],[41.70883,42.509777],[41.709126,42.5098],[41.70941,42.50988],[41.70965,42.509888],[41.709885,42.50977],[41.710045,42.509586],[41.71012,42.509422],[41.71026,42.509174],[41.710423,42.508987],[41.710625,42.508835],[41.71096,42.5087],[41.7113,42.508648],[41.711636,42.508667],[41.711887,42.50875],[41.712116,42.508842],[41.7123,42.508923],[41.71248,42.508938],[41.712784,42.508987],[41.713146,42.509056],[41.713436,42.509167],[41.71364,42.509335],[41.713837,42.509563],[41.714035,42.50977],[41.714252,42.510006],[41.714497,42.510468],[41.714817,42.510918],[41.71514,42.51132],[41.71542,42.51158],[41.715733,42.511784],[41.71613,42.511944],[41.71658,42.512062],[41.717094,42.512135],[41.717144,42.512123],[41.717342,42.5121],[41.71764,42.511974],[41.717964,42.511833],[41.718315,42.511745],[41.71865,42.5117],[41.719112,42.511623],[41.71944,42.511658],[41.719734,42.511738],[41.720024,42.511845],[41.721516,42.510765],[41.72363,42.509262],[41.726234,42.507633],[41.729538,42.509254],[41.73326,42.510723],[41.744133,42.516697],[41.74954,42.51821],[41.751812,42.51932],[41.75439,42.520267],[41.758595,42.521378],[41.762028,42.52252],[41.764515,42.523113],[41.765976,42.524822],[41.76778,42.5271],[41.770054,42.52979],[41.7734,42.531876],[41.776974,42.53306],[41.78209,42.533524],[41.783916,42.535168],[41.78472,42.53588],[41.785114,42.537193],[41.787678,42.538834],[41.78948,42.54013],[41.79192,42.54019],[41.79398,42.54099],[41.79641,42.542225],[41.797935,42.54333],[41.80067,42.543427],[41.802464,42.543808],[41.803658,42.54364],[41.804993,42.54434],[41.805412,42.545258],[41.806587,42.54622],[41.80989,42.5487],[41.81515,42.549145],[41.817158,42.548813],[41.819,42.549],[41.821407,42.55071],[41.82305,42.551235],[41.83003,42.552696],[41.83277,42.5545],[41.834526,42.558464],[41.83599,42.56069],[41.839607,42.562298],[41.84335,42.5679],[41.84625,42.570984],[41.846775,42.571533],[41.847603,42.572258],[41.848434,42.572807],[41.849133,42.57339],[41.849625,42.573917],[41.849907,42.57444],[41.850025,42.57514],[41.849907,42.57572],[41.849613,42.576168],[41.849495,42.57666],[41.84963,42.57709],[41.850025,42.577484],[41.85041,42.577667],[41.85095,42.577713],[41.851246,42.577824],[41.851677,42.578285],[41.851902,42.578754],[41.85196,42.579334],[41.851818,42.57987],[41.851654,42.581234],[41.85143,42.582424],[41.851242,42.58337],[41.851135,42.58462],[41.851227,42.585155],[41.851646,42.5856],[41.853878,42.587246],[41.854282,42.587864],[41.85452,42.588997],[41.85477,42.589703],[41.854904,42.590088],[41.85517,42.590572],[41.855595,42.590927],[41.85615,42.591354],[41.857952,42.59213],[41.85849,42.592823],[41.85935,42.59469],[41.860397,42.596153],[41.862244,42.597687],[41.863297,42.5981],[41.865356,42.59818],[41.866943,42.598255],[41.868534,42.59857],[41.870075,42.5993],[41.871387,42.60015],[41.872868,42.6023],[41.873295,42.603546],[41.87398,42.603973],[41.874687,42.60412],[41.87555,42.604084],[41.876343,42.604416],[41.87694,42.604824],[41.87928,42.60623],[41.881817,42.607513],[41.883167,42.607605],[41.884903,42.608536],[41.886017,42.610733],[41.889217,42.614002],[41.89355,42.618927],[41.89658,42.621506],[41.898983,42.622704],[41.90734,42.625175],[41.91088,42.62595],[41.91281,42.62658],[41.91507,42.627678],[41.91677,42.628277],[41.91911,42.630825],[41.922356,42.632626],[41.925304,42.632977],[41.929363,42.63336],[41.931435,42.63451],[41.934807,42.635696],[41.93842,42.635727],[41.94005,42.63652],[41.942715,42.636932],[41.94403,42.63656],[41.946434,42.636623],[41.948246,42.63756],[41.94937,42.639122],[41.947666,42.643085],[41.945694,42.645866],[41.944378,42.64734],[41.943916,42.647984],[41.94308,42.649464],[41.94245,42.65068],[41.94362,42.651577],[41.941372,42.653717],[41.94052,42.654724],[41.94001,42.655006],[41.939495,42.655445],[41.94056,42.66009],[41.938225,42.659763],[41.935963,42.6612],[41.936504,42.66331],[41.937252,42.667027],[41.936714,42.668518],[41.939434,42.67167],[41.940914,42.67178],[41.942387,42.671955],[41.94299,42.672928],[41.944267,42.6733],[41.94562,42.674023],[41.94611,42.675404],[41.94699,42.676388],[41.94901,42.676785],[41.948963,42.679657],[41.94822,42.683464],[41.946224,42.686356],[41.9443,42.68966],[41.942017,42.69272],[41.939285,42.69538],[41.93698,42.697098],[41.93487,42.698475],[41.933453,42.69899],[41.931187,42.699818],[41.928043,42.70151],[41.926888,42.702366],[41.925728,42.704285],[41.92517,42.705307],[41.923927,42.707832],[41.92243,42.71005],[41.9201,42.713917],[41.911663,42.734386],[41.900734,42.761833],[41.912243,42.775074],[41.91346,42.77668],[41.91342,42.7775],[41.91162,42.778137],[41.90999,42.779255],[41.907646,42.781586],[41.9047,42.78285],[41.90382,42.783783],[41.90315,42.786026],[41.901726,42.788513],[41.901875,42.789272],[41.902866,42.789845],[41.905445,42.79026],[41.90606,42.79096],[41.905876,42.7928],[41.906048,42.793148],[41.90715,42.795227],[41.90571,42.79991],[41.904858,42.80208],[41.904438,42.803024],[41.90284,42.80339],[41.900524,42.80333],[41.896923,42.80467],[41.89479,42.80639],[41.894882,42.808308],[41.896553,42.81024],[41.897858,42.812054],[41.89789,42.815136],[41.89778,42.81719],[41.8976,42.819027],[41.89611,42.8209],[41.893875,42.82289],[41.893486,42.825073],[41.89359,42.826717],[41.892475,42.82856],[41.890686,42.830837],[41.890617,42.832203],[41.892258,42.836628],[41.890373,42.83712],[41.887768,42.83712],[41.883625,42.836323],[41.879898,42.836494],[41.877163,42.83731],[41.876385,42.837975],[41.880466,42.841778],[41.88054,42.84226],[41.877964,42.845337],[41.87767,42.84752],[41.878952,42.849743],[41.880753,42.850952],[41.883614,42.851307],[41.884235,42.851936],[41.88381,42.85309],[41.88367,42.85388],[41.88453,42.85534],[41.884953,42.85617],[41.884132,42.857655],[41.884186,42.85841],[41.88688,42.860054],[41.888317,42.861237],[41.88945,42.86144],[41.893764,42.862133],[41.89532,42.862606],[41.895115,42.86286],[41.89501,42.863438],[41.895,42.863922],[41.89484,42.86424],[41.89449,42.864655],[41.89412,42.86492],[41.893894,42.86511],[41.89371,42.865376],[41.89331,42.86594],[41.893314,42.86626],[41.89303,42.86671],[41.89301,42.867157],[41.893288,42.867493],[41.893753,42.86767],[41.893875,42.86811],[41.894226,42.868553],[41.894707,42.868744],[41.89505,42.868973],[41.89532,42.868988],[41.89566,42.869137],[41.896084,42.86921],[41.896896,42.86927],[41.897182,42.869324],[41.89745,42.869476],[41.89796,42.86965],[41.89856,42.869843],[41.899063,42.869987],[41.899315,42.87005],[41.899414,42.87015],[41.899765,42.870144],[41.900417,42.870358],[41.900776,42.870537],[41.901085,42.870792],[41.901485,42.871143],[41.9017,42.87146],[41.901897,42.87163],[41.90229,42.87185],[41.902447,42.87192],[41.902554,42.87202],[41.902824,42.872154],[41.90332,42.87229],[41.90358,42.87239],[41.90373,42.872574],[41.90395,42.8727],[41.90413,42.87281],[41.90429,42.873066],[41.904427,42.87323],[41.904827,42.873466],[41.90536,42.87374],[41.90584,42.873917],[41.906116,42.873966],[41.906635,42.874435],[41.907272,42.875095],[41.90743,42.875298],[41.90862,42.87563],[41.90966,42.875343],[41.910065,42.875347],[41.91046,42.87527],[41.910763,42.875164],[41.911102,42.875156],[41.91131,42.875183],[41.91146,42.875248],[41.911644,42.875168],[41.91183,42.875122],[41.911983,42.87525],[41.91238,42.87547],[41.912563,42.875484],[41.912876,42.87579],[41.9131,42.875946],[41.913887,42.87618],[41.914597,42.87649],[41.915134,42.876507],[41.915398,42.876637],[41.915367,42.87694],[41.91565,42.877567],[41.9159,42.878075],[41.91639,42.878216],[41.916664,42.878143],[41.916943,42.878143],[41.917336,42.87813],[41.918148,42.87812],[41.919125,42.87812],[41.919617,42.87811],[41.92,42.87837],[41.92131,42.87836],[41.92209,42.87839],[41.922512,42.878345],[41.922974,42.87823],[41.92319,42.878246],[41.923565,42.878315],[41.92391,42.878353],[41.924145,42.878376],[41.92471,42.878334],[41.92526,42.87826],[41.92549,42.878284],[41.9257,42.878326],[41.925957,42.878357],[41.926422,42.878437],[41.92667,42.87866],[41.92695,42.878777],[41.927032,42.87894],[41.92711,42.879135],[41.927326,42.879368],[41.927937,42.880016],[41.927986,42.8803],[41.928043,42.88052],[41.92825,42.880657],[41.928425,42.880795],[41.928734,42.88077],[41.930088,42.880466],[41.93085,42.88068],[41.931564,42.8808],[41.932392,42.88096],[41.93328,42.881165],[41.93409,42.881466],[41.9343,42.8815],[41.93444,42.88146],[41.934574,42.88126],[41.934746,42.881207],[41.93486,42.881195],[41.93493,42.881256],[41.93497,42.881344],[41.935,42.88149],[41.93505,42.881554],[41.935196,42.88165],[41.9354,42.881718],[41.93575,42.88196],[41.935802,42.882233],[41.935833,42.88233],[41.93594,42.882477],[41.935997,42.883034],[41.93611,42.883137],[41.936195,42.88316],[41.936104,42.883274],[41.936283,42.88334],[41.936535,42.883358],[41.93685,42.8834],[41.937046,42.883373],[41.937252,42.883377],[41.93739,42.883408],[41.93754,42.883465],[41.93762,42.883545],[41.93765,42.883682],[41.937614,42.883823],[41.937614,42.883953],[41.93762,42.884083],[41.937664,42.8842],[41.937775,42.884193],[41.937874,42.8842],[41.93799,42.884216],[41.938084,42.884293],[41.93821,42.884346],[41.938446,42.884422],[41.938667,42.884377],[41.938965,42.884342],[41.939117,42.88435],[41.939262,42.88425],[41.939537,42.884117],[41.93972,42.88401],[41.94006,42.884346],[41.9403,42.88463],[41.940464,42.88485],[41.94054,42.88507],[41.94058,42.885487],[41.940655,42.885784],[41.940693,42.88588],[41.940765,42.88593],[41.940945,42.886005],[41.94114,42.886135],[41.941185,42.886745],[41.941242,42.88751],[41.941326,42.889713],[41.941463,42.890186],[41.941704,42.89049],[41.9421,42.89086],[41.944088,42.89221],[41.94472,42.892418],[41.944977,42.89343],[41.94478,42.89363],[41.944855,42.893917],[41.944855,42.894455],[41.944786,42.894993],[41.944855,42.895397],[41.94488,42.89579],[41.945274,42.895966],[41.945362,42.89617],[41.945263,42.89643],[41.945354,42.89674],[41.945564,42.8968],[41.947056,42.898014],[41.94597,42.898346],[41.94538,42.898376],[41.945126,42.898518],[41.944767,42.898594],[41.944393,42.89882],[41.944073,42.899086],[41.943977,42.89922],[41.94377,42.899395],[41.943634,42.899464],[41.94341,42.89952],[41.943195,42.89952],[41.94304,42.899498],[41.942863,42.899467],[41.94273,42.8994],[41.942574,42.899353],[41.94247,42.899353],[41.94235,42.899395],[41.942173,42.899475],[41.94178,42.899548],[41.9415,42.899788],[41.941307,42.89981],[41.941174,42.899876],[41.94102,42.90005],[41.94064,42.900105],[41.940258,42.90012],[41.939857,42.90008],[41.939396,42.900066],[41.939117,42.900017],[41.939087,42.899887],[41.93905,42.89982],[41.938313,42.89972],[41.93787,42.89975],[41.936634,42.899982],[41.936058,42.900116],[41.93575,42.900146],[41.935112,42.90023],[41.934803,42.900272],[41.934273,42.900654],[41.934006,42.901024],[41.93383,42.901257],[41.93384,42.901447],[41.933743,42.9016],[41.93336,42.901756],[41.933075,42.902023],[41.9327,42.90223],[41.932297,42.90235],[41.931973,42.902546],[41.93179,42.90273],[41.93165,42.902927],[41.931366,42.903164],[41.93096,42.903328],[41.93046,42.90334],[41.930164,42.903378],[41.930035,42.903423],[41.929928,42.903484],[41.929832,42.903576],[41.929783,42.90367],[41.929634,42.903748],[41.92944,42.903767],[41.929253,42.903816],[41.92902,42.903934],[41.92859,42.90416],[41.92832,42.904305],[41.928066,42.904476],[41.92776,42.904724],[41.92732,42.90487],[41.926968,42.905006],[41.92697,42.90508],[41.926865,42.905148],[41.92662,42.90526],[41.92631,42.90533],[41.926147,42.905457],[41.925842,42.905533],[41.92573,42.90562],[41.925465,42.90567],[41.925335,42.90573],[41.925224,42.90583],[41.92512,42.90587],[41.925022,42.905914],[41.924557,42.905926],[41.92403,42.905804],[41.923668,42.905773],[41.923164,42.905804],[41.922997,42.905743],[41.922863,42.905735],[41.922596,42.905766],[41.92245,42.905827],[41.922012,42.905907],[41.92162,42.90591],[41.921482,42.905926],[41.921383,42.90599],[41.920937,42.905937],[41.920765,42.905937],[41.920483,42.9059],[41.92029,42.905926],[41.92008,42.90598],[41.9199,42.90605],[41.919765,42.906082],[41.919514,42.906116],[41.91932,42.90612],[41.918934,42.906193],[41.91789,42.90647],[41.917576,42.906616],[41.91727,42.906822],[41.916527,42.906796],[41.915833,42.906754],[41.915504,42.906708],[41.915283,42.906574],[41.915047,42.906467],[41.914764,42.90641],[41.914314,42.90641],[41.91412,42.90636],[41.913956,42.90631],[41.913116,42.906044],[41.912773,42.90598],[41.912632,42.905987],[41.912483,42.9059],[41.912426,42.905895],[41.912,42.906036],[41.911434,42.905952],[41.909294,42.911434],[41.909466,42.9137],[41.90817,42.91537],[41.90631,42.919018],[41.905735,42.92304],[41.904694,42.927185],[41.9027,42.931686],[41.89912,42.938023],[41.896248,42.93965],[41.894787,42.940845],[41.894382,42.941586],[41.894318,42.94245],[41.89466,42.94311],[41.895733,42.94388],[41.89653,42.94449],[41.896675,42.945293],[41.89889,42.946293],[41.89884,42.94725],[41.898426,42.950043],[41.898502,42.950836],[41.89867,42.95143],[41.898888,42.951794],[41.89934,42.95212],[41.90039,42.952923],[41.901207,42.952896],[41.901997,42.952923],[41.902645,42.953068],[41.903008,42.953312],[41.90453,42.954586],[41.90583,42.956535],[41.907658,42.958256],[41.908676,42.958626],[41.908978,42.95887],[41.90906,42.959286],[41.90933,42.95953],[41.909225,42.961884],[41.91,42.964355],[41.910095,42.9662],[41.908295,42.96862],[41.905148,42.971954],[41.90081,42.97528],[41.89752,42.97525],[41.89678,42.97539],[41.896263,42.975327],[41.8958,42.975418],[41.89497,42.97561],[41.893993,42.975815],[41.89279,42.975777],[41.891422,42.975887],[41.889385,42.976135],[41.888004,42.976326],[41.886654,42.976685],[41.88357,42.977905],[41.88171,42.978306],[41.880074,42.97877],[41.87871,42.97906],[41.87655,42.979706],[41.874134,42.981155],[41.873158,42.982185],[41.872433,42.982502],[41.871452,42.982788],[41.871277,42.983063],[41.870087,42.983624],[41.86921,42.983833],[41.86872,42.98413],[41.86816,42.98433],[41.867767,42.984528],[41.868565,42.98573],[41.869038,42.985947],[41.86897,42.986572],[41.86875,42.98736],[41.868275,42.988087],[41.867645,42.9888],[41.868076,42.98992],[41.86801,42.991405],[41.868126,42.991776],[41.868763,42.992554],[41.868313,42.993134],[41.867756,42.9937],[41.866455,42.994534],[41.86674,42.99516],[41.867218,42.99586],[41.869556,42.9966],[41.8711,42.99663],[41.871983,42.996933],[41.872883,42.997166],[41.873287,42.997746],[41.87365,42.99842],[41.873753,42.999523],[41.8739,43.000324],[41.874233,43.00138],[41.8743,43.001865],[41.874264,43.00227],[41.87428,43.002674],[41.87399,43.002876],[41.8737,43.00334],[41.873264,43.00383],[41.872967,43.004833],[41.872967,43.00546],[41.873226,43.00606],[41.87512,43.006817],[41.87552,43.00704],[41.875774,43.0073],[41.87605,43.007565],[41.87659,43.007626],[41.877068,43.007843],[41.87742,43.00811],[41.877632,43.008595],[41.87851,43.008595],[41.8792,43.00904],[41.880093,43.009064],[41.88028,43.009487],[41.881744,43.010025],[41.88322,43.010704],[41.88538,43.013496],[41.885906,43.01439],[41.886612,43.014786],[41.88707,43.014927],[41.887363,43.015083],[41.88758,43.01561],[41.887615,43.016186],[41.88832,43.016243],[41.888615,43.0165],[41.88873,43.01685],[41.888756,43.01714],[41.888897,43.01746],[41.88901,43.017685],[41.890007,43.018307],[41.890373,43.01869],[41.89094,43.018814],[41.891415,43.018753],[41.893143,43.0198],[41.893707,43.021523],[41.89284,43.023895],[41.892574,43.024525],[41.892574,43.025063],[41.893326,43.025345],[41.895794,43.026302],[41.89774,43.026558],[41.903625,43.026306],[41.906376,43.02734],[41.909122,43.02646],[41.914948,43.02744],[41.91634,43.027542],[41.91849,43.027393],[41.919918,43.026886],[41.924034,43.026585],[41.926033,43.02582],[41.92782,43.025524],[41.92993,43.025764],[41.93137,43.025635],[41.933495,43.025543],[41.934357,43.025726],[41.935318,43.025513],[41.93562,43.025528],[41.93613,43.02578],[41.93632,43.025787],[41.936935,43.025654],[41.93808,43.025402],[41.938393,43.025364],[41.93874,43.025448],[41.938885,43.02558],[41.938927,43.02587],[41.93953,43.02633],[41.94078,43.027576],[41.94121,43.02802],[41.942333,43.028576],[41.942863,43.028954],[41.943016,43.02935],[41.943455,43.02964],[41.943935,43.02969],[41.945,43.02989],[41.946693,43.03041],[41.947796,43.030712],[41.94802,43.03104],[41.948097,43.03119],[41.94825,43.031322],[41.948658,43.031536],[41.949112,43.03157],[41.949394,43.03184],[41.94982,43.032047],[41.950447,43.03222],[41.950745,43.032135],[41.953575,43.031715],[41.954433,43.03155],[41.957108,43.032566],[41.95805,43.03361],[41.960796,43.035496],[41.964096,43.03767],[41.96854,43.038334],[41.97125,43.038273],[41.97175,43.038338],[41.97375,43.038612],[41.9748,43.039185],[41.975838,43.03976],[41.97714,43.04016],[41.978424,43.040947],[41.980442,43.042824],[41.983265,43.044266],[41.98491,43.044994],[41.987736,43.044453],[41.98862,43.043976],[41.989456,43.043957],[41.990185,43.043957],[41.990807,43.044605],[41.992397,43.04548],[41.993618,43.045948],[41.995464,43.045914],[41.996128,43.045963],[41.996384,43.046593],[41.996346,43.04745],[41.997093,43.047817],[41.99793,43.048393],[41.998318,43.049004],[41.999027,43.05002],[41.999626,43.050827],[42.001064,43.05095],[42.002956,43.050964],[42.004044,43.052032],[42.00656,43.052402],[42.00781,43.052452],[42.00985,43.05215],[42.01177,43.05178],[42.013855,43.051838],[42.01609,43.05178],[42.01808,43.05069],[42.01991,43.04962],[42.021976,43.0491],[42.023716,43.049866],[42.02464,43.05029],[42.02597,43.05138],[42.026333,43.051888],[42.027485,43.05287],[42.02858,43.05337],[42.02973,43.053566],[42.03252,43.053623],[42.034412,43.053894],[42.036278,43.054413],[42.037468,43.054432],[42.038586,43.05457],[42.039673,43.055206],[42.040306,43.056255],[42.041008,43.057705],[42.041237,43.05842],[42.04146,43.059105],[42.041862,43.06026],[42.043476,43.06109],[42.044342,43.061436],[42.04636,43.062885],[42.04759,43.064922],[42.050083,43.06788],[42.050175,43.067986],[42.050606,43.068645],[42.051758,43.070946],[42.05179,43.071484],[42.051174,43.07278],[42.050133,43.074574],[42.050194,43.076077],[42.052498,43.078297],[42.055897,43.083347],[42.057217,43.08492],[42.05887,43.085453],[42.061535,43.085613],[42.06255,43.086124],[42.06495,43.087795],[42.066483,43.088554],[42.06824,43.088898],[42.07011,43.09048],[42.070847,43.092476],[42.07275,43.09244],[42.07501,43.092983],[42.075584,43.09323],[42.07727,43.093323],[42.07945,43.093838],[42.079704,43.09398],[42.07856,43.09733],[42.07816,43.10017],[42.077946,43.10165],[42.078033,43.10279],[42.07917,43.103554],[42.081837,43.105434],[42.083523,43.106773],[42.08487,43.107624],[42.087017,43.109306],[42.08757,43.110245],[42.087727,43.1113],[42.088306,43.113132],[42.089504,43.11425],[42.08895,43.115574],[42.08794,43.116756],[42.088215,43.117744],[42.089783,43.118176],[42.091953,43.118637],[42.094315,43.119354],[42.09597,43.120224],[42.097748,43.120247],[42.100018,43.121075],[42.101856,43.121925],[42.10289,43.12281],[42.103893,43.123756],[42.10397,43.12423],[42.105106,43.126778],[42.10587,43.12839],[42.106792,43.12998],[42.106934,43.131268],[42.1074,43.132256],[42.10803,43.13317],[42.108627,43.134388],[42.109955,43.13568],[42.112053,43.13671],[42.11216,43.139053],[42.113014,43.141125],[42.114246,43.142628],[42.11503,43.144253],[42.115936,43.145428],[42.117725,43.146206],[42.118633,43.146606],[42.119408,43.146988],[42.120316,43.148117],[42.120834,43.149235],[42.12032,43.15029],[42.119442,43.150993],[42.119156,43.152153],[42.11921,43.15434],[42.119514,43.1561],[42.119236,43.157833],[42.119263,43.159252],[42.1205,43.160088],[42.120327,43.161465],[42.120266,43.1633],[42.118824,43.164326],[42.11677,43.164818],[42.115883,43.165108],[42.11466,43.165104],[42.114132,43.1669],[42.113457,43.16777],[42.113552,43.168736],[42.114346,43.16939],[42.114563,43.169968],[42.115845,43.17096],[42.116623,43.17174],[42.117184,43.172924],[42.11922,43.173386],[42.121727,43.173794],[42.12501,43.173462],[42.127926,43.173195],[42.130398,43.17291],[42.132027,43.173],[42.13314,43.17369],[42.13354,43.175045],[42.133488,43.17688],[42.133835,43.17868],[42.13366,43.180515],[42.133743,43.182236],[42.133743,43.184048],[42.13297,43.18583],[42.132885,43.18724],[42.134647,43.187332],[42.136448,43.187084],[42.137863,43.187584],[42.139023,43.18796],[42.140373,43.18852],[42.13921,43.190765],[42.137146,43.193745],[42.134743,43.194088],[42.13315,43.1943],[42.131447,43.195026],[42.1306,43.195347],[42.128567,43.194813],[42.12738,43.193695],[42.12583,43.19348],[42.123974,43.19334],[42.12294,43.19373],[42.121284,43.195126],[42.119427,43.196857],[42.118656,43.197315],[42.116096,43.198074],[42.11356,43.198284],[42.10966,43.197704],[42.108707,43.19809],[42.106655,43.199955],[42.106834,43.20016],[42.108616,43.200073],[42.11018,43.200523],[42.110794,43.201427],[42.11075,43.20238],[42.110615,43.2032],[42.10968,43.20318],[42.10817,43.20355],[42.105656,43.20328],[42.104347,43.203247],[42.102158,43.202164],[42.08838,43.203636],[42.08446,43.20343],[42.080692,43.20469],[42.077477,43.204227],[42.076233,43.203884],[42.075012,43.202827],[42.073627,43.20104],[42.0728,43.1997],[42.070683,43.197483],[42.068947,43.197258],[42.06786,43.197033],[42.06516,43.19535],[42.06332,43.196026],[42.05908,43.195995],[42.057835,43.196144],[42.05679,43.195515],[42.05519,43.19452],[42.054455,43.193554],[42.05296,43.193653],[42.052906,43.19198],[42.051865,43.190567],[42.048996,43.189213],[42.04781,43.187164],[42.04544,43.18703],[42.0428,43.187775],[42.041702,43.18756],[42.040375,43.18682],[42.03798,43.188164],[42.03859,43.19038],[42.038456,43.191887],[42.03747,43.193165],[42.03518,43.194366],[42.037235,43.197407],[42.037205,43.19854],[42.035946,43.19894],[42.03575,43.2004],[42.033394,43.20214],[42.030712,43.203293],[42.029728,43.20356],[42.02947,43.20405],[42.0285,43.204636],[42.027626,43.207348],[42.02749,43.20824],[42.025948,43.209507],[42.02439,43.210533],[42.023872,43.213356],[42.022133,43.2147],[42.01959,43.21618],[42.01914,43.21709],[42.016335,43.216576],[42.01333,43.21677],[42.011707,43.217667],[42.01072,43.217743],[42.00835,43.216816],[42.002686,43.213844],[42.00077,43.213642],[41.997974,43.21337],[41.99719,43.21277],[41.994267,43.213566],[41.991844,43.212894],[41.986526,43.214016],[41.982105,43.21339],[41.980732,43.212173],[41.977608,43.211765],[41.97376,43.211433],[41.97174,43.21237],[41.968834,43.21141],[41.96791,43.211037],[41.966022,43.209743],[41.964874,43.209587],[41.963608,43.208282],[41.963814,43.20786],[41.963364,43.207455],[41.961613,43.20686],[41.959522,43.204205],[41.95922,43.203964],[41.95874,43.203197],[41.95883,43.202526],[41.954002,43.204243],[41.953266,43.204323],[41.951286,43.20812],[41.95173,43.20839],[41.95185,43.20903],[41.951042,43.210155],[41.94975,43.21059],[41.94984,43.211258],[41.950756,43.211555],[41.949593,43.212505],[41.94812,43.21324],[41.946934,43.21352],[41.94586,43.214417],[41.94521,43.216454],[41.94469,43.217445],[41.94508,43.21886],[41.944653,43.220646],[41.945076,43.2216],[41.945446,43.222027],[41.94525,43.22243],[41.942944,43.223858],[41.94184,43.22519],[41.940685,43.225307],[41.939808,43.22519],[41.939365,43.224636],[41.93876,43.224525],[41.938087,43.223873],[41.937054,43.223724],[41.934647,43.223984],[41.933445,43.22466],[41.931477,43.22426],[41.929108,43.22457],[41.927505,43.225338],[41.926037,43.225464],[41.923923,43.225822],[41.91893,43.226074],[41.91742,43.22573],[41.91565,43.225975],[41.914246,43.225822],[41.913113,43.225636],[41.909496,43.226444],[41.90849,43.227013],[41.9065,43.22745],[41.9056,43.2283],[41.903423,43.228573],[41.900986,43.230156],[41.8994,43.23081],[41.89909,43.230698],[41.899494,43.231247],[41.89936,43.232338],[41.898834,43.233017],[41.89892,43.23327],[41.89968,43.233547],[41.901012,43.234592],[41.90155,43.234623],[41.90246,43.235428],[41.902493,43.23612],[41.902325,43.236313],[41.901897,43.236443],[41.901054,43.23707],[41.900826,43.237247],[41.90011,43.237984],[41.898956,43.239597],[41.898365,43.240295],[41.896458,43.241093],[41.895626,43.2422],[41.89554,43.24276],[41.89466,43.242786],[41.89389,43.243256],[41.893806,43.243816],[41.894318,43.24447],[41.894016,43.24486],[41.89346,43.245235],[41.89256,43.245384],[41.891533,43.246475],[41.890606,43.246895],[41.88983,43.247612],[41.889103,43.24808],[41.88818,43.249462],[41.88673,43.249565],[41.885094,43.249847],[41.884106,43.24965],[41.883102,43.249294],[41.882153,43.24861],[41.881237,43.247814],[41.88059,43.247375],[41.88007,43.247314],[41.879513,43.247112],[41.87924,43.24672],[41.878933,43.2463],[41.87827,43.245914],[41.877155,43.24557],[41.87578,43.245632],[41.87462,43.24541],[41.87312,43.245163],[41.871357,43.244537],[41.86679,43.244064],[41.865242,43.243515],[41.862926,43.242672],[41.86211,43.241764],[41.86168,43.24064],[41.862408,43.239235],[41.86327,43.23792],[41.8646,43.23617],[41.865536,43.23483],[41.865845,43.23376],[41.86415,43.232628],[41.86282,43.231785],[41.862347,43.231373],[41.862003,43.23],[41.861103,43.22947],[41.859646,43.22903],[41.859043,43.228626],[41.858913,43.228123],[41.85926,43.227623],[41.859432,43.22709],[41.859432,43.226654],[41.858955,43.226185],[41.858273,43.22572],[41.85754,43.225372],[41.85741,43.224712],[41.8575,43.22362],[41.85771,43.222744],[41.857433,43.22213],[41.85683,43.221504],[41.85576,43.220596],[41.855373,43.220066],[41.855442,43.219284],[41.855114,43.218063],[41.854664,43.2172],[41.854248,43.216938],[41.85398,43.216423],[41.85398,43.215797],[41.85329,43.2155],[41.852432,43.215324],[41.851746,43.21525],[41.850792,43.214096],[41.850166,43.213264],[41.849213,43.21241],[41.848377,43.211514],[41.847904,43.211308],[41.847157,43.211323],[41.846725,43.211464],[41.84617,43.21154],[41.84548,43.211872],[41.844837,43.21228],[41.844322,43.212715],[41.84366,43.21287],[41.842777,43.21259],[41.842064,43.21209],[41.841103,43.21153],[41.84018,43.21145],[41.839344,43.211636],[41.836937,43.212852],[41.835808,43.213867],[41.83378,43.21454],[41.830685,43.2147],[41.829205,43.214077],[41.828358,43.213394],[41.826553,43.212868],[41.823196,43.212967],[41.82093,43.21169],[41.819187,43.20999],[41.81769,43.209133],[41.81625,43.20875],[41.815304,43.207752],[41.81392,43.206432],[41.812954,43.20487],[41.81096,43.20443],[41.810104,43.20334],[41.806503,43.202515],[41.803944,43.202038],[41.801785,43.203537],[41.800186,43.204025],[41.79731,43.20659],[41.796455,43.20728],[41.79551,43.207527],[41.794567,43.20793],[41.794174,43.20918],[41.793064,43.209995],[41.793324,43.21053],[41.79285,43.211502],[41.791992,43.212875],[41.790833,43.214005],[41.790676,43.214405],[41.789547,43.214188],[41.788857,43.214787],[41.787617,43.216583],[41.787872,43.21865],[41.78765,43.219173],[41.785774,43.218967],[41.784367,43.219955],[41.783356,43.22114],[41.780872,43.220947],[41.778732,43.220665],[41.777912,43.219757],[41.77628,43.219086],[41.77508,43.218536],[41.773148,43.218254],[41.77122,43.220257],[41.76813,43.221317],[41.76474,43.222946],[41.760105,43.225166],[41.759045,43.225887],[41.75295,43.23003],[41.751812,43.231033],[41.750305,43.232758],[41.747814,43.23409],[41.74549,43.237072],[41.744556,43.23747],[41.7395,43.23854],[41.7372,43.23939],[41.734142,43.24015],[41.731613,43.24095],[41.73088,43.240746],[41.730022,43.240795],[41.729446,43.241108],[41.72878,43.241356],[41.72811,43.241505],[41.72663,43.24118],[41.725212,43.24112],[41.723106,43.23996],[41.72217,43.23987],[41.721226,43.23887],[41.720284,43.23804],[41.719402,43.2374],[41.71852,43.23651],[41.718155,43.235947],[41.71747,43.235523],[41.716805,43.2351],[41.716507,43.23423],[41.71543,43.23351],[41.71483,43.2329],[41.714874,43.232132],[41.71484,43.230698],[41.713352,43.229084],[41.711826,43.22824],[41.711426,43.22821],[41.70862,43.22736],[41.705193,43.22728],[41.703617,43.225033],[41.702427,43.223488],[41.701717,43.222324],[41.70174,43.22093],[41.69955,43.219852],[41.69501,43.219086],[41.69271,43.21847],[41.68816,43.21812],[41.686977,43.218246],[41.684765,43.218113],[41.68434,43.217743],[41.680984,43.217213],[41.680294,43.219795],[41.678085,43.22163],[41.67848,43.222237],[41.678307,43.223297],[41.676685,43.22569],[41.67618,43.2269],[41.67584,43.228104],[41.673637,43.228413],[41.671818,43.2297],[41.670364,43.23033],[41.668495,43.23253],[41.665745,43.2334],[41.66228,43.236427],[41.660744,43.23741],[41.658115,43.23776],[41.655716,43.236176],[41.65384,43.23532],[41.649487,43.232765],[41.647976,43.232143],[41.645004,43.230927],[41.6431,43.229168],[41.64184,43.226322],[41.640324,43.225727],[41.638287,43.22427],[41.63819,43.224033],[41.635235,43.222233],[41.634537,43.221966],[41.63255,43.22198],[41.628582,43.222095],[41.6223,43.22168],[41.618412,43.222004],[41.614235,43.22099],[41.61241,43.224148],[41.609707,43.226757],[41.604927,43.23111],[41.6038,43.23178],[41.60071,43.23112],[41.598564,43.23222],[41.59442,43.23475],[41.59244,43.236294],[41.591663,43.23646],[41.59042,43.23543],[41.589626,43.234856],[41.588844,43.234734],[41.5877,43.23436],[41.58349,43.23742],[41.583492,43.241028],[41.58311,43.241932],[41.58089,43.245365],[41.580364,43.249413],[41.577545,43.252068],[41.5772,43.252422],[41.576393,43.253555],[41.574673,43.252705],[41.57222,43.251842],[41.56973,43.250942],[41.564438,43.249474],[41.563114,43.249252],[41.561687,43.249393],[41.560703,43.25064],[41.558834,43.25272],[41.555275,43.25491],[41.553207,43.256447],[41.552757,43.257107],[41.551193,43.25931],[41.550632,43.261475],[41.547626,43.26367],[41.54586,43.268646],[41.544544,43.2696],[41.543346,43.270145],[41.540405,43.270546],[41.539307,43.270687],[41.538303,43.270847],[41.535183,43.27148],[41.533546,43.271744],[41.53086,43.271915],[41.52827,43.271496],[41.527786,43.271164],[41.526707,43.271004],[41.52596,43.271282],[41.52564,43.271828],[41.524296,43.272026],[41.521793,43.272354],[41.520943,43.272694],[41.518414,43.27387],[41.51594,43.2738],[41.511353,43.276226],[41.507877,43.276665],[41.505608,43.277733],[41.504856,43.278473],[41.505623,43.281857],[41.502193,43.281197],[41.500347,43.2806],[41.498116,43.281677],[41.496,43.282635],[41.49359,43.284557],[41.49117,43.285164],[41.488213,43.28602],[41.487534,43.286682],[41.487816,43.28779],[41.48731,43.288624],[41.485607,43.289604],[41.482704,43.29106],[41.48193,43.292267],[41.48085,43.293438],[41.47915,43.293995],[41.47742,43.29504],[41.476772,43.29536],[41.475857,43.296143],[41.472298,43.29855],[41.47134,43.299236],[41.469704,43.30012],[41.46862,43.301323],[41.468258,43.30283],[41.46819,43.30373],[41.46741,43.30513],[41.466003,43.305695],[41.465515,43.306244],[41.46343,43.30764],[41.461628,43.308502],[41.458706,43.309574],[41.45547,43.308784],[41.451466,43.308243],[41.44777,43.307217],[41.445072,43.306282],[41.442677,43.3059],[41.43949,43.306236],[41.43805,43.30655],[41.435402,43.30762],[41.43446,43.308468],[41.43285,43.309917],[41.428783,43.31235],[41.426857,43.313602],[41.424717,43.314514],[41.422977,43.31555],[41.41987,43.318165],[41.418484,43.32043],[41.41546,43.321915],[41.414227,43.32297],[41.413464,43.3239],[41.413147,43.324284],[41.4136,43.325085],[41.41624,43.327],[41.41602,43.329704],[41.41515,43.33074],[41.412518,43.33123],[41.410683,43.332123],[41.409554,43.33244],[41.409233,43.333008],[41.40952,43.333687],[41.408997,43.335346],[41.409184,43.335907],[41.409107,43.336548],[41.40913,43.337433],[41.409325,43.33876],[41.41026,43.338886],[41.411427,43.33941],[41.412292,43.339874],[41.412117,43.3409],[41.411095,43.342106],[41.410797,43.34295],[41.41079,43.344467],[41.411148,43.34555],[41.411427,43.346382],[41.412674,43.346985],[41.414383,43.347225],[41.415398,43.34772],[41.41631,43.35016],[41.41515,43.351696],[41.413494,43.354687],[41.412933,43.355347],[41.411568,43.35728],[41.409866,43.357967],[41.409286,43.35862],[41.40762,43.358566],[41.40635,43.35889],[41.404022,43.360096],[41.40073,43.360725],[41.399677,43.361607],[41.397873,43.363865],[41.39364,43.366226],[41.39229,43.36649],[41.390648,43.36601],[41.388744,43.365707],[41.383877,43.36613],[41.38269,43.36586],[41.380947,43.366188],[41.376522,43.366234],[41.373657,43.36663],[41.370853,43.367516],[41.368694,43.368664],[41.367207,43.369835],[41.366726,43.37023],[41.36598,43.370064],[41.364223,43.369377],[41.362823,43.368347],[41.362144,43.365013],[41.36165,43.36289],[41.35939,43.361095],[41.358444,43.359028],[41.35603,43.357822],[41.352932,43.35671],[41.349728,43.356007],[41.34735,43.35483],[41.34524,43.35341],[41.34203,43.35092],[41.34171,43.34873],[41.340782,43.34748],[41.339916,43.347244],[41.3385,43.34654],[41.33569,43.34616],[41.332058,43.346836],[41.326984,43.34789],[41.325058,43.34801],[41.322693,43.34859],[41.322865,43.346996],[41.321995,43.34467],[41.320377,43.34194],[41.31822,43.340218],[41.316772,43.339455],[41.3134,43.339924],[41.31061,43.339813],[41.306496,43.33997],[41.303284,43.34091],[41.302284,43.34088],[41.301857,43.33971],[41.301365,43.339424],[41.300163,43.33951],[41.29891,43.33876],[41.297825,43.33847],[41.294914,43.3376],[41.291775,43.337135],[41.291,43.337044],[41.288834,43.337036],[41.287373,43.337715],[41.284405,43.342205],[41.280556,43.344563],[41.279198,43.34589],[41.274906,43.347588],[41.27594,43.34899],[41.277534,43.349823],[41.279266,43.35154],[41.27992,43.352695],[41.279564,43.353622],[41.278168,43.3543],[41.277195,43.354725],[41.27624,43.35524],[41.276463,43.356438],[41.277046,43.357574],[41.276752,43.35922],[41.275555,43.36005],[41.27483,43.360554],[41.270912,43.36183],[41.267338,43.362167],[41.264385,43.36272],[41.261986,43.36344],[41.259483,43.364437],[41.25763,43.364555],[41.256462,43.364006],[41.25422,43.36157],[41.252655,43.35988],[41.252266,43.35932],[41.25095,43.358448],[41.2489,43.358044],[41.247852,43.35803],[41.245323,43.358433],[41.243168,43.358852],[41.241344,43.359818],[41.24014,43.36057],[41.238796,43.361683],[41.239002,43.363403],[41.23882,43.3638],[41.238884,43.365345],[41.2386,43.367226],[41.23615,43.36839],[41.231747,43.369488],[41.230576,43.370068],[41.228603,43.371265],[41.227833,43.37254],[41.226612,43.37484],[41.22583,43.37525],[41.223137,43.377674],[41.222645,43.37867],[41.22236,43.379368],[41.222256,43.37962],[41.221073,43.38054],[41.219208,43.381027],[41.217655,43.38093],[41.212578,43.380604],[41.206078,43.380478],[41.204884,43.381367],[41.203766,43.381596],[41.20292,43.381683],[41.201862,43.38173],[41.19763,43.382305],[41.196377,43.381504],[41.19469,43.380913],[41.1927,43.381573],[41.189682,43.383892],[41.188576,43.38394],[41.182526,43.385876],[41.181004,43.386185],[41.17864,43.385296],[41.177593,43.38486],[41.17728,43.384617],[41.17567,43.383327],[41.17445,43.382755],[41.172756,43.382557],[41.169346,43.382996],[41.16798,43.383377],[41.16733,43.38445],[41.16556,43.386036],[41.164116,43.386414],[41.161583,43.386818],[41.160572,43.386963],[41.16051,43.38794],[41.160004,43.38938],[41.159054,43.389896],[41.158237,43.389565],[41.156868,43.38873],[41.155506,43.38917],[41.154316,43.390774],[41.154003,43.394367],[41.154003,43.39448],[41.155006,43.39707],[41.155228,43.398846],[41.154877,43.400013],[41.154335,43.401924],[41.154175,43.402367],[41.15264,43.40333],[41.151897,43.403282],[41.150295,43.40344],[41.149,43.40357],[41.144257,43.402744],[41.14253,43.402584],[41.13906,43.4008],[41.13571,43.399616],[41.131172,43.397793],[41.127483,43.397007],[41.12369,43.39822],[41.117928,43.398495],[41.116894,43.398655],[41.115883,43.39851],[41.114727,43.398598],[41.11269,43.400146],[41.10832,43.402637],[41.106194,43.403965],[41.10559,43.403603],[41.104633,43.402946],[41.10305,43.4022],[41.101204,43.40098],[41.100468,43.399433],[41.10076,43.398804],[41.10134,43.39758],[41.10353,43.394665],[41.103714,43.39309],[41.102818,43.391415],[41.101295,43.390293],[41.10015,43.389362],[41.09803,43.38796],[41.09807,43.38607],[41.09769,43.38545],[41.09637,43.385162],[41.09214,43.38605],[41.086594,43.387814],[41.081837,43.390327],[41.080387,43.390827],[41.079754,43.39064],[41.079567,43.390617],[41.076218,43.388123],[41.074833,43.387592],[41.073666,43.38755],[41.07219,43.388416],[41.06914,43.38904],[41.065914,43.391182],[41.063847,43.392147],[41.06241,43.39268],[41.061333,43.39312],[41.057854,43.39438],[41.053677,43.396915],[41.05232,43.39729],[41.051495,43.397083],[41.04836,43.395267],[41.046844,43.395336],[41.04538,43.39608],[41.04436,43.397625],[41.043465,43.398567],[41.039314,43.3994],[41.038773,43.39999],[41.03847,43.40168],[41.037132,43.40534],[41.036972,43.40698],[41.03582,43.40749],[41.03234,43.40828],[41.031036,43.40887],[41.029068,43.40975],[41.022007,43.41554],[41.018845,43.417862],[41.014946,43.419327],[41.01396,43.420326],[41.012573,43.42491],[41.00429,43.43222],[41.002426,43.43213],[41.000675,43.432144],[40.997753,43.432198],[40.996716,43.432213],[40.9954,43.431828],[40.992695,43.431095],[40.98989,43.430447],[40.986313,43.43073],[40.985928,43.4308],[40.984516,43.430645],[40.98331,43.430336],[40.983276,43.429367],[40.98276,43.428143],[40.982483,43.427505],[40.982067,43.427017],[40.981163,43.425938],[40.97937,43.425266],[40.976112,43.425213],[40.97205,43.424767],[40.967953,43.42396],[40.965614,43.4235],[40.961796,43.422607],[40.95955,43.42127],[40.957603,43.41984],[40.955627,43.419533],[40.952667,43.419277],[40.951626,43.4193],[40.94994,43.419724],[40.946686,43.422832],[40.943504,43.424183],[40.940304,43.42449],[40.936104,43.42483],[40.932858,43.425873],[40.92988,43.428177],[40.92924,43.42867],[40.92695,43.431755],[40.9262,43.434105],[40.927773,43.439293],[40.928154,43.44055],[40.928833,43.44213],[40.92924,43.44303],[40.929268,43.443882],[40.92658,43.445312],[40.924866,43.44714],[40.923622,43.448254],[40.91952,43.448284],[40.916126,43.44908],[40.9114,43.45092],[40.907696,43.452553],[40.905563,43.454426],[40.900944,43.45475],[40.896206,43.45549],[40.894962,43.456604],[40.892918,43.45842],[40.892937,43.459393],[40.895752,43.46096],[40.89642,43.46226],[40.8965,43.463543],[40.89691,43.464836],[40.899086,43.46685],[40.899437,43.46898],[40.89942,43.469486],[40.898907,43.47027],[40.898403,43.47053],[40.897957,43.471214],[40.89779,43.471973],[40.897266,43.472427],[40.89713,43.473362],[40.898296,43.475903],[40.897312,43.478054],[40.89348,43.480297],[40.89214,43.481586],[40.891632,43.48291],[40.891773,43.484562],[40.893635,43.4867],[40.89364,43.487854],[40.89091,43.48961],[40.88945,43.4887],[40.885727,43.487324],[40.885216,43.48713],[40.88511,43.486973],[40.88449,43.48677],[40.883537,43.486717],[40.882526,43.48644],[40.882057,43.48652],[40.88186,43.48645],[40.881947,43.486103],[40.88174,43.485912],[40.8802,43.48543],[40.87956,43.48523],[40.878834,43.48508],[40.8766,43.484985],[40.87541,43.48525],[40.873135,43.48669],[40.87152,43.48706],[40.865208,43.48655],[40.86455,43.486454],[40.86384,43.486404],[40.863014,43.48649],[40.862206,43.4866],[40.861923,43.486427],[40.861435,43.486233],[40.86073,43.486206],[40.860073,43.486202],[40.85937,43.486313],[40.85873,43.48644],[40.85795,43.486687],[40.857037,43.486763],[40.856518,43.48676],[40.85584,43.486496],[40.85476,43.486347],[40.853573,43.48621],[40.853092,43.486477],[40.852875,43.486744],[40.852642,43.48698],[40.85225,43.487076],[40.851944,43.487255],[40.85173,43.48729],[40.851505,43.487247],[40.848125,43.48721],[40.844322,43.487774],[40.83887,43.4893],[40.834293,43.48844],[40.831326,43.488388],[40.82965,43.48804],[40.827835,43.48796],[40.825367,43.4893],[40.823486,43.49011],[40.82032,43.492466],[40.81671,43.494637],[40.81591,43.49488],[40.811527,43.496227],[40.807545,43.49693],[40.80285,43.498283],[40.79759,43.499786],[40.795258,43.500797],[40.787907,43.503025],[40.78314,43.50375],[40.777367,43.505356],[40.776363,43.50585],[40.774044,43.507008],[40.76935,43.50993],[40.7675,43.51234],[40.766716,43.513145],[40.766006,43.513355],[40.76188,43.51255],[40.760704,43.51261],[40.75766,43.514202],[40.75693,43.515087],[40.757442,43.5173],[40.755833,43.51998],[40.755154,43.520138],[40.751972,43.52014],[40.75011,43.52038],[40.74755,43.520634],[40.745438,43.520973],[40.744884,43.521187],[40.74379,43.522472],[40.741863,43.524258],[40.740932,43.525497],[40.740826,43.526253],[40.739532,43.526806],[40.736614,43.527794],[40.733223,43.5284],[40.732468,43.528282],[40.727924,43.528748],[40.724777,43.529423],[40.72266,43.529423],[40.720844,43.52973],[40.718388,43.53034],[40.716507,43.530704],[40.715305,43.531136],[40.714645,43.531635],[40.71334,43.532475],[40.71181,43.532455],[40.70937,43.53234],[40.707314,43.5333],[40.705933,43.533276],[40.701904,43.533554],[40.699936,43.533405],[40.697975,43.533817],[40.696537,43.534225],[40.694366,43.53483],[40.693317,43.535385],[40.692207,43.53597],[40.69105,43.537563],[40.689537,43.53796],[40.688736,43.538284],[40.68874,43.54052],[40.68875,43.542313],[40.68922,43.543793],[40.689713,43.54533],[40.69085,43.546135],[40.69171,43.546986],[40.692204,43.547897],[40.69068,43.548313],[40.689766,43.548412],[40.68909,43.548927],[40.687992,43.54886],[40.68645,43.54966],[40.685207,43.54939],[40.683933,43.54985],[40.682762,43.550457],[40.680965,43.54966],[40.67949,43.549725],[40.67666,43.550987],[40.675514,43.551003],[40.67585,43.55158],[40.67593,43.55218],[40.67552,43.5537],[40.675907,43.555794],[40.675274,43.55699],[40.67458,43.55742],[40.67271,43.557632],[40.67158,43.558548],[40.66982,43.559284],[40.667904,43.559696],[40.666615,43.56019],[40.6656,43.560795],[40.66369,43.561775],[40.661774,43.56305],[40.65933,43.56094],[40.657856,43.560204],[40.656258,43.55956],[40.655228,43.559288],[40.65313,43.558445],[40.65148,43.557762],[40.650055,43.556423],[40.64828,43.555443],[40.647076,43.55562],[40.645653,43.55548],[40.64489,43.555233],[40.64325,43.5547],[40.640278,43.55346],[40.639362,43.55322],[40.639343,43.55287],[40.63857,43.55179],[40.63577,43.550495],[40.634254,43.550026],[40.631855,43.54947],[40.626747,43.54888],[40.62567,43.54889],[40.62402,43.54952],[40.62043,43.55021],[40.618855,43.550262],[40.617268,43.549812],[40.615585,43.548553],[40.613777,43.548115],[40.610897,43.54789],[40.60888,43.547314],[40.607265,43.546562],[40.606144,43.54386],[40.604668,43.542946],[40.602383,43.541065],[40.600464,43.53762],[40.599735,43.536736],[40.59948,43.536625],[40.597523,43.53476],[40.59595,43.53287],[40.59529,43.531654],[40.593082,43.530556],[40.591095,43.530457],[40.58911,43.530796],[40.587452,43.530907],[40.58641,43.530186],[40.586407,43.53018],[40.585724,43.529602],[40.584965,43.52885],[40.58137,43.527695],[40.579563,43.52668],[40.57846,43.52559],[40.57719,43.524498],[40.57659,43.524174],[40.575836,43.52399],[40.575367,43.52385],[40.573975,43.523003],[40.571476,43.52277],[40.57017,43.52251],[40.56896,43.52213],[40.5682,43.52113],[40.56763,43.52012],[40.566845,43.51961],[40.566296,43.519154],[40.56456,43.51906],[40.56265,43.519726],[40.561085,43.519833],[40.559143,43.519672],[40.557056,43.519714],[40.555065,43.519928],[40.5532,43.519764],[40.551212,43.51945],[40.548267,43.519688],[40.544315,43.51963],[40.543068,43.519547],[40.542084,43.51941],[40.540203,43.51932],[40.536827,43.520298],[40.53376,43.521187],[40.531696,43.521835],[40.531284,43.52195],[40.529686,43.521706],[40.52782,43.5211],[40.527428,43.52088],[40.525948,43.520622],[40.5233,43.5205],[40.521126,43.52121],[40.519928,43.52208],[40.518757,43.52313],[40.517677,43.524258],[40.5151,43.52513],[40.51184,43.525738],[40.50702,43.52486],[40.50541,43.52487],[40.50427,43.525562],[40.503277,43.526024],[40.502087,43.52689],[40.501236,43.52812],[40.49987,43.528313],[40.498707,43.52917],[40.497803,43.530678],[40.496517,43.531258],[40.49505,43.531788],[40.494633,43.533016],[40.49392,43.533558],[40.493427,43.533966],[40.493492,43.53556],[40.493736,43.537025],[40.49326,43.53797],[40.492218,43.53853],[40.491417,43.538887],[40.490376,43.539146],[40.489628,43.539745],[40.488964,43.540886],[40.48801,43.542294],[40.487724,43.543373],[40.487312,43.543777],[40.4863,43.544064],[40.485188,43.544724],[40.484272,43.54553],[40.48349,43.545956],[40.482273,43.547398],[40.4796,43.548706],[40.47782,43.549126],[40.4768,43.54882],[40.475796,43.54857],[40.474586,43.54857],[40.473316,43.54808],[40.469772,43.5468],[40.46663,43.54608],[40.465107,43.546337],[40.46298,43.546543],[40.459854,43.547523],[40.456997,43.548218],[40.456924,43.54835],[40.455498,43.54939],[40.452328,43.549374],[40.44965,43.54988],[40.447998,43.550186],[40.44683,43.55061],[40.44489,43.55273],[40.44408,43.553303],[40.44215,43.553482],[40.44042,43.55609],[40.4401,43.55644],[40.43723,43.556744],[40.436615,43.556705],[40.43619,43.55682],[40.43609,43.557228],[40.435883,43.55731],[40.43521,43.557133],[40.43365,43.557087],[40.433113,43.557682],[40.432392,43.55769],[40.43188,43.55745],[40.431732,43.556847],[40.43098,43.55627],[40.429913,43.55578],[40.428917,43.554916],[40.428356,43.554302],[40.42768,43.553677],[40.426712,43.553307],[40.42594,43.553463],[40.425293,43.553425],[40.424984,43.553448],[40.424835,43.554134],[40.4242,43.553925],[40.42325,43.554386],[40.422348,43.55431],[40.42115,43.553947],[40.419937,43.55386],[40.41924,43.55391],[40.419098,43.55384],[40.418945,43.553776],[40.41876,43.553616],[40.418495,43.553516],[40.418324,43.553463],[40.418137,43.55346],[40.41786,43.553486],[40.417645,43.553486],[40.41749,43.553448],[40.4173,43.55335],[40.417145,43.553207],[40.41699,43.55315],[40.41678,43.553097],[40.416485,43.55305],[40.41633,43.552982],[40.41596,43.552765],[40.415634,43.552574],[40.415516,43.552505],[40.415375,43.552452],[40.415184,43.552418],[40.414715,43.552498],[40.414284,43.552517],[40.414124,43.552498],[40.41399,43.55244],[40.413776,43.552326],[40.41355,43.55229],[40.41332,43.552288],[40.413113,43.552284],[40.412846,43.552315],[40.412666,43.552338],[40.412174,43.552364],[40.41186,43.552372],[40.411533,43.552372],[40.411148,43.55239],[40.41081,43.552353],[40.410397,43.552258],[40.41029,43.55222],[40.410057,43.55212],[40.40987,43.552074],[40.409706,43.552116],[40.409588,43.552204],[40.40936,43.5524],[40.40921,43.552467],[40.408997,43.55257],[40.408806,43.552628],[40.408615,43.55265],[40.408474,43.55268],[40.408276,43.55276],[40.40811,43.552902],[40.407948,43.55311],[40.407787,43.55331],[40.407616,43.55348],[40.40748,43.553585],[40.407326,43.553635],[40.407158,43.553684],[40.406853,43.55389],[40.406754,43.553947],[40.40664,43.553947],[40.406525,43.55396],[40.40638,43.554012],[40.406292,43.554054],[40.406258,43.55416],[40.40626,43.55423],[40.4062,43.554264],[40.406166,43.55434],[40.40609,43.554455],[40.405914,43.554565],[40.405716,43.554626],[40.405502,43.55465],[40.405273,43.554714],[40.405052,43.554825],[40.404915,43.554935],[40.404804,43.55505],[40.404663,43.555126],[40.404514,43.555145],[40.404354,43.555134],[40.4041,43.55513],[40.403843,43.55516],[40.40364,43.55522],[40.403507,43.55528],[40.403343,43.555347],[40.40313,43.555363],[40.40299,43.555298],[40.402893,43.55531],[40.402786,43.555325],[40.4027,43.555286],[40.40262,43.55522],[40.402397,43.555153],[40.402206,43.55507],[40.402126,43.554962],[40.402065,43.554764],[40.402016,43.554688],[40.401894,43.55465],[40.40166,43.554646],[40.401478,43.554646],[40.40138,43.55463],[40.401127,43.554752],[40.40072,43.554928],[40.40053,43.55501],[40.400475,43.555027],[40.400406,43.55502],[40.40034,43.554974],[40.400253,43.554935],[40.400097,43.554935],[40.399887,43.554996],[40.399666,43.55504],[40.39932,43.555088],[40.398563,43.555164],[40.39771,43.555225],[40.397415,43.55527],[40.397224,43.555317],[40.397133,43.555424],[40.39702,43.55559],[40.396786,43.555782],[40.396618,43.555843],[40.396267,43.55591],[40.395992,43.555954],[40.395874,43.555973],[40.395554,43.555965],[40.395435,43.555923],[40.39529,43.555756],[40.395084,43.555626],[40.39473,43.555496],[40.394604,43.555428],[40.394466,43.555412],[40.394234,43.555542],[40.393997,43.55562],[40.39379,43.555622],[40.393642,43.555607],[40.393543,43.555553],[40.39338,43.55535],[40.393177,43.555233],[40.39303,43.555153],[40.392838,43.555126],[40.392654,43.55514],[40.39249,43.555126],[40.39244,43.55508],[40.392323,43.555077],[40.39223,43.555122],[40.392033,43.55515],[40.391853,43.55513],[40.391537,43.555035],[40.391155,43.554977],[40.39112,43.554974],[40.390625,43.554802],[40.38998,43.554554],[40.389534,43.554405],[40.38929,43.55436],[40.38923,43.554348],[40.388943,43.55435],[40.388554,43.55441],[40.388218,43.554462],[40.387974,43.554516],[40.387695,43.554607],[40.387524,43.554752],[40.387314,43.55497],[40.38713,43.555054],[40.38676,43.55512],[40.38654,43.555153],[40.386395,43.55516],[40.386272,43.555126],[40.38611,43.55515],[40.386013,43.55529],[40.385895,43.555485],[40.385788,43.555748],[40.385765,43.55585],[40.38559,43.555977],[40.385376,43.556065],[40.385048,43.556137],[40.384792,43.55618],[40.384464,43.556168],[40.38402,43.556087],[40.383595,43.556034],[40.383343,43.556076],[40.383244,43.556118],[40.383125,43.5562],[40.382996,43.55636],[40.382725,43.55653],[40.382454,43.55669],[40.382156,43.556797],[40.38188,43.5569],[40.381706,43.556995],[40.381634,43.557083],[40.381557,43.557407],[40.38152,43.5575],[40.381447,43.55759],[40.38128,43.557663],[40.380577,43.5578],[40.38018,43.55789],[40.37992,43.557907],[40.37962,43.5579],[40.37934,43.55782],[40.37912,43.557747],[40.37891,43.557682],[40.378777,43.55768],[40.378586,43.557735],[40.378437,43.557835],[40.378284,43.55795],[40.378113,43.558083],[40.377914,43.558224],[40.377613,43.558315],[40.37731,43.558353],[40.377052,43.55834],[40.37698,43.558292],[40.37693,43.55826],[40.37683,43.558186],[40.376675,43.558174],[40.376366,43.55822],[40.37611,43.558304],[40.375813,43.5584],[40.375645,43.55839],[40.375553,43.55836],[40.375378,43.55815],[40.37524,43.55807],[40.375023,43.557964],[40.37484,43.557873],[40.374672,43.55785],[40.374374,43.557907],[40.374077,43.55805],[40.373886,43.5582],[40.37356,43.558365],[40.373226,43.558426],[40.37279,43.558495],[40.3725,43.558556],[40.372314,43.55855],[40.372143,43.558506],[40.372017,43.558437],[40.371967,43.558308],[40.371952,43.558178],[40.37187,43.558094],[40.371693,43.55806],[40.37141,43.558056],[40.37118,43.558086],[40.371017,43.558186],[40.370968,43.558327],[40.37096,43.55847],[40.37072,43.55863],[40.37049,43.558697],[40.370125,43.558723],[40.369926,43.558735],[40.36978,43.558754],[40.369637,43.558887],[40.369526,43.559055],[40.36949,43.559193],[40.369503,43.55931],[40.369648,43.559616],[40.369667,43.55973],[40.369637,43.559853],[40.36956,43.559948],[40.36929,43.560036],[40.369106,43.560066],[40.36884,43.560047],[40.368633,43.560017],[40.36845,43.55995],[40.36826,43.559887],[40.368073,43.559845],[40.36783,43.559845],[40.367588,43.559883],[40.367424,43.55996],[40.367275,43.560112],[40.36709,43.560463],[40.366997,43.560673],[40.3668,43.560833],[40.366673,43.560883],[40.366497,43.560883],[40.366333,43.560852],[40.36621,43.560787],[40.366127,43.560715],[40.36595,43.560642],[40.365715,43.56065],[40.365177,43.560616],[40.36492,43.560642],[40.364403,43.56074],[40.36414,43.56076],[40.36397,43.560738],[40.363834,43.560684],[40.363728,43.560623],[40.363613,43.56061],[40.3635,43.560646],[40.363316,43.560783],[40.36317,43.560894],[40.363064,43.56096],[40.362576,43.56109],[40.36239,43.561188],[40.362007,43.5614],[40.361805,43.561554],[40.361675,43.561768],[40.361626,43.561882],[40.361637,43.562004],[40.361576,43.562088],[40.361473,43.562126],[40.361317,43.562122],[40.361168,43.562077],[40.361027,43.56201],[40.360653,43.56198],[40.360306,43.561947],[40.35999,43.56196],[40.359756,43.561996],[40.359577,43.56204],[40.359467,43.562134],[40.35936,43.562252],[40.359226,43.56234],[40.35896,43.562443],[40.35861,43.56263],[40.35844,43.562737],[40.35825,43.562897],[40.358055,43.56313],[40.357857,43.563293],[40.35771,43.56338],[40.35757,43.563404],[40.35739,43.563366],[40.357185,43.56327],[40.357044,43.56323],[40.356853,43.56326],[40.35672,43.563366],[40.356567,43.563557],[40.356457,43.56367],[40.356297,43.563747],[40.356045,43.563786],[40.355835,43.563778],[40.355595,43.563725],[40.355446,43.56367],[40.355343,43.56355],[40.35526,43.563454],[40.35514,43.563354],[40.35501,43.563286],[40.35482,43.563274],[40.354664,43.563324],[40.354603,43.56342],[40.354603,43.563538],[40.354656,43.56364],[40.35479,43.563805],[40.354946,43.563995],[40.355007,43.564163],[40.35499,43.564316],[40.354904,43.564354],[40.354816,43.564396],[40.35465,43.564453],[40.354496,43.564438],[40.354225,43.564327],[40.353962,43.564163],[40.35379,43.564106],[40.35351,43.564102],[40.353325,43.564133],[40.353107,43.564228],[40.352966,43.564396],[40.35284,43.56451],[40.35274,43.564556],[40.35265,43.56455],[40.35256,43.56449],[40.352474,43.56438],[40.352417,43.56415],[40.352356,43.564064],[40.352253,43.56399],[40.352093,43.56398],[40.351818,43.564068],[40.351624,43.564117],[40.351437,43.56412],[40.351322,43.564087],[40.35126,43.564007],[40.3513,43.563892],[40.351364,43.5638],[40.35136,43.563725],[40.351303,43.563637],[40.351223,43.56362],[40.351147,43.563637],[40.351055,43.563717],[40.350994,43.563843],[40.350933,43.56396],[40.350792,43.56402],[40.3506,43.564003],[40.350346,43.563972],[40.35017,43.563942],[40.34991,43.56391],[40.349632,43.56388],[40.34944,43.563828],[40.349293,43.56373],[40.349197,43.563553],[40.34912,43.56339],[40.34904,43.56322],[40.348957,43.563107],[40.348816,43.563026],[40.34868,43.563026],[40.348495,43.563065],[40.34828,43.56323],[40.34803,43.563423],[40.3478,43.563576],[40.34768,43.563614],[40.347546,43.56361],[40.34744,43.563564],[40.347347,43.563477],[40.347305,43.563335],[40.34727,43.56318],[40.347317,43.563053],[40.34732,43.562958],[40.347294,43.56291],[40.347225,43.562897],[40.347103,43.562916],[40.346905,43.563015],[40.346443,43.56319],[40.346085,43.56329],[40.345917,43.563293],[40.34572,43.563263],[40.34558,43.56314],[40.3455,43.563038],[40.345486,43.562927],[40.345505,43.562813],[40.345562,43.56269],[40.34558,43.562553],[40.345524,43.562454],[40.34548,43.562416],[40.345345,43.562386],[40.34522,43.562374],[40.344955,43.562393],[40.34464,43.562485],[40.344414,43.562546],[40.34423,43.562656],[40.344006,43.56283],[40.343822,43.563026],[40.343636,43.563168],[40.343407,43.56325],[40.34322,43.563297],[40.343052,43.563293],[40.342937,43.56325],[40.34274,43.56313],[40.34265,43.563046],[40.34254,43.563],[40.34239,43.562996],[40.342243,43.563015],[40.342083,43.563057],[40.341835,43.563198],[40.34158,43.563343],[40.341465,43.56338],[40.341267,43.563366],[40.3411,43.56336],[40.340927,43.563427],[40.340855,43.563496],[40.34071,43.56352],[40.340538,43.56353],[40.34043,43.563526],[40.34032,43.563572],[40.340214,43.563633],[40.34004,43.563663],[40.339798,43.56367],[40.339596,43.563683],[40.339405,43.563725],[40.339336,43.563793],[40.339245,43.56391],[40.33916,43.564],[40.33903,43.564056],[40.33891,43.564095],[40.338795,43.56409],[40.338688,43.564034],[40.338608,43.563976],[40.338562,43.563934],[40.338474,43.56394],[40.338375,43.56396],[40.338234,43.564068],[40.33791,43.564217],[40.337597,43.564335],[40.337376,43.564396],[40.337116,43.564415],[40.336918,43.56445],[40.336773,43.56451],[40.336678,43.564625],[40.336643,43.564796],[40.33666,43.56496],[40.33668,43.56505],[40.336723,43.56513],[40.336735,43.56522],[40.33669,43.565254],[40.33661,43.565247],[40.33607,43.56511],[40.335808,43.56505],[40.33565,43.565037],[40.335464,43.565083],[40.33525,43.565166],[40.335033,43.56523],[40.33467,43.56533],[40.334488,43.565453],[40.33435,43.56563],[40.334286,43.565907],[40.334213,43.565983],[40.334103,43.56603],[40.333977,43.566048],[40.33381,43.566006],[40.3336,43.565956],[40.333355,43.565945],[40.33284,43.565998],[40.332405,43.566055],[40.332138,43.566055],[40.331852,43.56602],[40.33157,43.56593],[40.33136,43.56588],[40.331127,43.56588],[40.330868,43.56594],[40.3307,43.566036],[40.330376,43.566124],[40.32995,43.566257],[40.32975,43.566326],[40.32961,43.566452],[40.329453,43.566505],[40.329338,43.56647],[40.329224,43.5664],[40.32917,43.566288],[40.32899,43.5662],[40.328854,43.566185],[40.3287,43.566193],[40.328453,43.566315],[40.328243,43.566452],[40.32813,43.5666],[40.32805,43.56674],[40.32783,43.56726],[40.327744,43.567436],[40.327564,43.567608],[40.327324,43.567703],[40.327187,43.567772],[40.327087,43.567883],[40.327,43.568047],[40.32696,43.568157],[40.326878,43.568256],[40.326633,43.56837],[40.32632,43.56848],[40.325974,43.568527],[40.325775,43.5686],[40.32544,43.568745],[40.325233,43.568855],[40.325024,43.568897],[40.32472,43.56894],[40.32421,43.569],[40.323875,43.569054],[40.32367,43.56912],[40.323418,43.56929],[40.322906,43.569794],[40.32253,43.570187],[40.32235,43.570404],[40.322266,43.57055],[40.322285,43.570747],[40.3223,43.570904],[40.322136,43.571144],[40.321945,43.571445],[40.321743,43.571648],[40.32154,43.571774],[40.32128,43.571884],[40.32085,43.572006],[40.320606,43.5721],[40.32035,43.57225],[40.320267,43.572365],[40.32028,43.57252],[40.32058,43.572865],[40.320892,43.573254],[40.321007,43.573505],[40.32099,43.573654],[40.32095,43.573727],[40.32078,43.573914],[40.3206,43.574104],[40.320534,43.574192],[40.32053,43.574303],[40.32058,43.57476],[40.32061,43.57489],[40.320576,43.57505],[40.32045,43.575214],[40.320126,43.575447],[40.3197,43.575634],[40.319553,43.575695],[40.319336,43.57578],[40.31917,43.57589],[40.319,43.575935],[40.318825,43.575912],[40.31843,43.575825],[40.317852,43.5757],[40.317745,43.57567],[40.31769,43.575573],[40.31773,43.57546],[40.317757,43.57538],[40.317753,43.575302],[40.317722,43.57523],[40.31762,43.57519],[40.31745,43.57519],[40.317142,43.57523],[40.31681,43.5753],[40.316414,43.575413],[40.31603,43.57556],[40.315754,43.575733],[40.31562,43.575844],[40.315487,43.57599],[40.3154,43.57614],[40.3153,43.57642],[40.315273,43.57655],[40.315323,43.576637],[40.31552,43.576828],[40.31563,43.576996],[40.315636,43.577156],[40.315548,43.577335],[40.315407,43.57744],[40.31511,43.57757],[40.31495,43.577698],[40.314854,43.57784],[40.31478,43.578003],[40.31463,43.57817],[40.314365,43.57829],[40.314106,43.578377],[40.313805,43.57841],[40.313656,43.578423],[40.31342,43.578384],[40.31322,43.578365],[40.312885,43.578392],[40.31262,43.578396],[40.312378,43.578346],[40.312283,43.578228],[40.31224,43.578014],[40.312202,43.57783],[40.3121,43.577694],[40.311924,43.57763],[40.311726,43.577614],[40.311554,43.577675],[40.31137,43.57778],[40.311172,43.578037],[40.311024,43.578266],[40.31095,43.578365],[40.31082,43.578445],[40.31072,43.578457],[40.31058,43.578434],[40.31029,43.57838],[40.30962,43.578266],[40.309155,43.578148],[40.308865,43.578026],[40.30875,43.577892],[40.308723,43.5778],[40.30867,43.57769],[40.308514,43.57762],[40.308205,43.577583],[40.307858,43.577545],[40.30757,43.577496],[40.30749,43.577427],[40.307484,43.57731],[40.307613,43.577103],[40.307716,43.576954],[40.307743,43.5768],[40.30767,43.57667],[40.307568,43.576633],[40.307266,43.576675],[40.306854,43.576855],[40.306507,43.5771],[40.306255,43.577335],[40.30612,43.577564],[40.30596,43.577686],[40.305836,43.577744],[40.3057,43.577747],[40.305637,43.577663],[40.30567,43.577526],[40.305695,43.57735],[40.305645,43.57726],[40.305405,43.577065],[40.305206,43.576878],[40.305134,43.57674],[40.305122,43.57659],[40.305172,43.57642],[40.30517,43.576256],[40.305134,43.576126],[40.304993,43.575924],[40.304886,43.575634],[40.304832,43.575443],[40.304733,43.57525],[40.30455,43.575123],[40.304405,43.57509],[40.304214,43.57508],[40.303837,43.575172],[40.303665,43.57521],[40.303547,43.575165],[40.30351,43.575077],[40.303516,43.575],[40.303577,43.57489],[40.303696,43.574776],[40.303776,43.57465],[40.303757,43.574554],[40.303658,43.57449],[40.30336,43.574398],[40.30309,43.574245],[40.302902,43.574066],[40.302895,43.573895],[40.302956,43.573814],[40.30312,43.57374],[40.303448,43.57363],[40.303635,43.573463],[40.30368,43.573387],[40.30363,43.57325],[40.30352,43.573177],[40.303276,43.57313],[40.30307,43.573093],[40.30275,43.573185],[40.302574,43.573177],[40.302357,43.57311],[40.301918,43.572792],[40.301636,43.572575],[40.30149,43.572422],[40.30141,43.572277],[40.30142,43.57207],[40.30147,43.571842],[40.301464,43.571636],[40.301426,43.57151],[40.30133,43.57141],[40.301144,43.57135],[40.300934,43.57134],[40.300526,43.571377],[40.300198,43.571396],[40.299934,43.571316],[40.299786,43.571228],[40.29968,43.571053],[40.299675,43.570892],[40.299694,43.57066],[40.299694,43.570503],[40.299656,43.570366],[40.29956,43.570286],[40.299442,43.570244],[40.299282,43.57024],[40.29916,43.570305],[40.299023,43.57044],[40.298916,43.570545],[40.29867,43.57061],[40.298286,43.570744],[40.297855,43.57096],[40.2975,43.57124],[40.297104,43.571453],[40.29677,43.571564],[40.29667,43.571587],[40.29652,43.57162],[40.29629,43.571724],[40.29582,43.57175],[40.29545,43.571754],[40.295258,43.571712],[40.295116,43.571617],[40.294956,43.57151],[40.29465,43.571423],[40.29447,43.571407],[40.2942,43.571465],[40.29394,43.571552],[40.293602,43.57178],[40.2934,43.571968],[40.29329,43.572292],[40.29324,43.572533],[40.293125,43.572704],[40.29296,43.572803],[40.29277,43.572853],[40.292503,43.572903],[40.292107,43.573025],[40.291805,43.573135],[40.29164,43.573296],[40.29153,43.573406],[40.29145,43.57349],[40.291256,43.573536],[40.291016,43.573574],[40.290565,43.57373],[40.29023,43.573906],[40.289944,43.57408],[40.289734,43.574215],[40.289375,43.57434],[40.28911,43.574455],[40.288967,43.57463],[40.288845,43.57487],[40.288826,43.57518],[40.288845,43.57572],[40.28879,43.575855],[40.28855,43.575954],[40.28832,43.575974],[40.28764,43.575977],[40.287308,43.576004],[40.287086,43.57607],[40.28658,43.57632],[40.286247,43.57648],[40.286125,43.576584],[40.286068,43.57663],[40.285892,43.576923],[40.285717,43.57714],[40.285576,43.5772],[40.28534,43.577248],[40.28507,43.57729],[40.284943,43.57739],[40.284836,43.577522],[40.28472,43.57765],[40.28428,43.577812],[40.283432,43.578068],[40.282585,43.578293],[40.282024,43.578438],[40.28142,43.578674],[40.280952,43.57878],[40.28059,43.578835],[40.280033,43.578865],[40.279457,43.578827],[40.278725,43.57874],[40.27804,43.57861],[40.277584,43.57851],[40.277218,43.57839],[40.27696,43.578304],[40.2765,43.57822],[40.275803,43.578194],[40.274616,43.578213],[40.274292,43.57823],[40.274002,43.578175],[40.27373,43.578033],[40.272957,43.577545],[40.272747,43.577423],[40.272545,43.57737],[40.27233,43.57739],[40.27196,43.577477],[40.27173,43.57751],[40.27146,43.57748],[40.271088,43.577522],[40.270737,43.577618],[40.27036,43.577908],[40.269913,43.57841],[40.269577,43.578754],[40.2691,43.57907],[40.268795,43.579224],[40.26844,43.579334],[40.26774,43.57949],[40.266766,43.57966],[40.266567,43.579773],[40.26647,43.579884],[40.266514,43.58023],[40.266563,43.580452],[40.26651,43.58058],[40.266357,43.58068],[40.265568,43.58086],[40.26528,43.580963],[40.26506,43.58116],[40.265026,43.58138],[40.265102,43.581635],[40.265297,43.58199],[40.265408,43.582222],[40.2654,43.582394],[40.265022,43.58279],[40.264744,43.583004],[40.2645,43.583076],[40.264057,43.583134],[40.263863,43.583214],[40.263744,43.58334],[40.263634,43.583523],[40.26357,43.58391],[40.26346,43.584118],[40.26322,43.58425],[40.26298,43.584362],[40.26267,43.584408],[40.262257,43.584507],[40.26189,43.58473],[40.26178,43.585003],[40.26176,43.585236],[40.26164,43.585445],[40.261417,43.585587],[40.261036,43.585766],[40.260593,43.585957],[40.2596,43.586185],[40.2592,43.586227],[40.25895,43.586166],[40.258904,43.586155],[40.258625,43.586033],[40.258175,43.58582],[40.25768,43.58571],[40.257183,43.585648],[40.256878,43.585648],[40.256424,43.58577],[40.256084,43.58595],[40.255817,43.58624],[40.255684,43.586285],[40.255516,43.586266],[40.254436,43.58597],[40.254166,43.58591],[40.253464,43.58579],[40.253178,43.585793],[40.25258,43.58614],[40.252323,43.586174],[40.251766,43.586018],[40.25136,43.586],[40.25062,43.5858],[40.250347,43.585686],[40.249947,43.585415],[40.249565,43.58456],[40.24929,43.58436],[40.249035,43.58432],[40.248787,43.584354],[40.24858,43.58438],[40.248074,43.58466],[40.246742,43.585102],[40.24571,43.58545],[40.24534,43.58555],[40.245083,43.58569],[40.244713,43.585968],[40.244488,43.58603],[40.244213,43.5861],[40.24402,43.586166],[40.243748,43.5862],[40.243484,43.586216],[40.24306,43.5863],[40.242737,43.586388],[40.24244,43.586414],[40.24216,43.58643],[40.241962,43.5864],[40.241768,43.586292],[40.241596,43.586124],[40.2415,43.58592],[40.24147,43.58576],[40.2414,43.585644],[40.24128,43.585583],[40.241062,43.585632],[40.240894,43.58572],[40.240738,43.58574],[40.240566,43.58574],[40.240314,43.58567],[40.240047,43.585575],[40.239758,43.585392],[40.239513,43.585236],[40.239307,43.58517],[40.23896,43.58516],[40.23873,43.585136],[40.238544,43.58511],[40.238358,43.58502],[40.238075,43.58485],[40.237923,43.584694],[40.237576,43.584435],[40.23726,43.584232],[40.23698,43.584133],[40.236717,43.5841],[40.236465,43.584118],[40.236256,43.584156],[40.236095,43.584194],[40.235474,43.584454],[40.235287,43.584503],[40.235184,43.584496],[40.234962,43.584396],[40.2348,43.58433],[40.23451,43.584286],[40.234264,43.58424],[40.234108,43.58416],[40.234035,43.584064],[40.233986,43.58392],[40.233883,43.5838],[40.23372,43.58373],[40.233486,43.583664],[40.233234,43.58366],[40.23302,43.583645],[40.23283,43.583584],[40.232567,43.583447],[40.231846,43.5832],[40.231316,43.582962],[40.23078,43.582733],[40.230366,43.58258],[40.230034,43.58241],[40.22974,43.5823],[40.229362,43.58213],[40.229088,43.58199],[40.228848,43.581837],[40.228786,43.581726],[40.22879,43.58159],[40.22876,43.581432],[40.22869,43.581284],[40.22846,43.58108],[40.227642,43.58052],[40.227306,43.580307],[40.227024,43.58018],[40.226696,43.580074],[40.22647,43.580048],[40.226265,43.580082],[40.22593,43.580246],[40.22566,43.58044],[40.22548,43.580536],[40.225296,43.580578],[40.225105,43.580585],[40.224842,43.58052],[40.22454,43.580395],[40.224304,43.580242],[40.2242,43.580105],[40.224133,43.579865],[40.224117,43.57957],[40.22413,43.579292],[40.224037,43.57917],[40.223854,43.579044],[40.223564,43.57896],[40.22315,43.57891],[40.22281,43.57889],[40.222637,43.57892],[40.222248,43.579002],[40.221912,43.579063],[40.221626,43.579082],[40.221313,43.579067],[40.22072,43.57896],[40.22046,43.578926],[40.220165,43.578865],[40.21996,43.578796],[40.219646,43.578644],[40.21932,43.57845],[40.219162,43.578323],[40.219078,43.57819],[40.21883,43.57784],[40.218693,43.57772],[40.21847,43.57763],[40.21824,43.5776],[40.217854,43.577553],[40.217625,43.577553],[40.217472,43.57755],[40.217373,43.577522],[40.217304,43.577473],[40.217266,43.577408],[40.217266,43.577286],[40.217216,43.577175],[40.217068,43.57708],[40.216843,43.576996],[40.21658,43.576954],[40.216286,43.57692],[40.216053,43.576866],[40.21593,43.576794],[40.215855,43.576702],[40.21582,43.57655],[40.215813,43.576405],[40.21578,43.57626],[40.21567,43.57615],[40.21464,43.57586],[40.214405,43.575756],[40.21427,43.57564],[40.21415,43.575466],[40.214035,43.574997],[40.21387,43.574795],[40.213623,43.57467],[40.21331,43.57466],[40.21291,43.5747],[40.212543,43.574768],[40.212273,43.574898],[40.211887,43.575127],[40.2115,43.575447],[40.21122,43.575603],[40.21096,43.575645],[40.210712,43.575626],[40.210052,43.575443],[40.209373,43.575275],[40.209023,43.575146],[40.20879,43.5749],[40.20848,43.574734],[40.208267,43.57466],[40.208,43.574623],[40.207676,43.574608],[40.207275,43.574657],[40.20684,43.574795],[40.206444,43.575012],[40.205566,43.57548],[40.20526,43.575607],[40.204845,43.57567],[40.20416,43.57566],[40.203403,43.57554],[40.203022,43.57543],[40.202633,43.57529],[40.20196,43.574905],[40.20154,43.574677],[40.20118,43.57455],[40.200962,43.574497],[40.20048,43.574455],[40.19852,43.574577],[40.19799,43.574535],[40.19751,43.574406],[40.19712,43.57436],[40.196926,43.574352],[40.196705,43.574406],[40.196068,43.574574],[40.19502,43.574787],[40.194553,43.574825],[40.19388,43.5748],[40.193245,43.574757],[40.192818,43.574806],[40.192314,43.574883],[40.191986,43.574905],[40.19166,43.57486],[40.19136,43.57474],[40.19115,43.5746],[40.1906,43.57416],[40.19011,43.5737],[40.18987,43.573524],[40.18967,43.57344],[40.18947,43.57342],[40.189323,43.573467],[40.189068,43.573624],[40.188602,43.57395],[40.18834,43.574116],[40.18811,43.574196],[40.187923,43.574253],[40.18787,43.574257],[40.1876,43.574295],[40.18728,43.57429],[40.186768,43.5743],[40.186382,43.574287],[40.185154,43.574272],[40.184383,43.57413],[40.183697,43.57403],[40.18306,43.574062],[40.182575,43.574284],[40.182137,43.57455],[40.18171,43.574615],[40.18087,43.57455],[40.179893,43.574554],[40.17883,43.574444],[40.177864,43.57421],[40.177048,43.57399],[40.175903,43.573997],[40.175514,43.574104],[40.174995,43.574535],[40.172962,43.575676],[40.171963,43.576664],[40.171143,43.57656],[40.16878,43.57452],[40.167328,43.57385],[40.165302,43.573578],[40.164433,43.57336],[40.16303,43.572517],[40.161327,43.57268],[40.159763,43.57342],[40.158806,43.574013],[40.15726,43.574554],[40.155815,43.574276],[40.15453,43.573612],[40.15392,43.573273],[40.153755,43.572784],[40.153538,43.572575],[40.153057,43.57235],[40.15223,43.5722],[40.15139,43.5724],[40.150665,43.572395],[40.14994,43.572346],[40.149162,43.572033],[40.14852,43.57158],[40.147495,43.571514],[40.146393,43.57152],[40.145866,43.57144],[40.144993,43.570564],[40.144394,43.57025],[40.143635,43.57023],[40.142647,43.5703],[40.14201,43.570118],[40.14144,43.56966],[40.14112,43.56944],[40.140057,43.569202],[40.138844,43.56862],[40.138,43.56827],[40.137432,43.567802],[40.13685,43.56716],[40.135586,43.56723],[40.134678,43.567314],[40.133205,43.56618],[40.131668,43.565536],[40.130665,43.565037],[40.130062,43.565075],[40.128654,43.565685],[40.127735,43.565857],[40.12521,43.566116],[40.124107,43.566216],[40.12268,43.56721],[40.12178,43.567516],[40.120007,43.567608],[40.119377,43.56808],[40.1185,43.568386],[40.11789,43.568752],[40.11644,43.568863],[40.115177,43.568913],[40.114727,43.56866],[40.114265,43.568672],[40.113705,43.568676],[40.113052,43.568863],[40.111717,43.568623],[40.110363,43.568665],[40.10977,43.569603],[40.10901,43.569607],[40.107445,43.569164],[40.10636,43.56861],[40.105915,43.568172],[40.103848,43.56819],[40.102234,43.567593],[40.10185,43.56734],[40.10119,43.566586],[40.09973,43.566246],[40.09849,43.566166],[40.09788,43.565975],[40.097794,43.56549],[40.097904,43.564606],[40.09762,43.563576],[40.098034,43.56307],[40.09829,43.562473],[40.09799,43.561855],[40.097157,43.56139],[40.09628,43.560463],[40.094875,43.559757],[40.09403,43.55832],[40.091515,43.556236],[40.09069,43.555576],[40.090485,43.55464],[40.090855,43.554016],[40.09084,43.553223],[40.09124,43.552296],[40.091312,43.55157],[40.09181,43.550827],[40.09268,43.550446],[40.093166,43.550014],[40.093098,43.549404],[40.09217,43.54843],[40.091682,43.54755],[40.092712,43.547073],[40.093704,43.5457],[40.09356,43.54476],[40.093197,43.54402],[40.093567,43.542866],[40.09288,43.541775],[40.09314,43.54099],[40.09296,43.539845],[40.093285,43.5393],[40.094036,43.539032],[40.094482,43.538776],[40.09491,43.538403],[40.0948,43.537895],[40.095222,43.536507],[40.095253,43.53534],[40.09537,43.53491],[40.09562,43.533417],[40.09573,43.532505],[40.095783,43.532063],[40.09532,43.530865],[40.095387,43.53003],[40.09527,43.52969],[40.095055,43.529373],[40.094707,43.529076],[40.0927,43.528084],[40.09232,43.527668],[40.092125,43.527336],[40.09192,43.52653],[40.09173,43.526073],[40.091625,43.52561],[40.091423,43.525223],[40.090786,43.52428],[40.089912,43.52351],[40.088898,43.52288],[40.08762,43.522137],[40.087032,43.52172],[40.086277,43.52097],[40.08549,43.52047],[40.084534,43.519672],[40.0841,43.519466],[40.08359,43.51936],[40.083088,43.51929],[40.082077,43.519413],[40.081657,43.51935],[40.081272,43.51924],[40.081036,43.519024],[40.080757,43.51847],[40.080208,43.517902],[40.079967,43.51774],[40.079544,43.517616],[40.078465,43.517464],[40.077663,43.51729],[40.077152,43.517094],[40.07683,43.51673],[40.076633,43.516167],[40.0767,43.51526],[40.07668,43.514797],[40.076344,43.513977],[40.075924,43.5135],[40.07541,43.51309],[40.07435,43.512356],[40.07357,43.511826],[40.073326,43.511482],[40.073093,43.51092],[40.072895,43.510582],[40.0725,43.509872],[40.07224,43.509644],[40.07144,43.509636],[40.070213,43.509727],[40.069897,43.509624],[40.06963,43.50927],[40.069164,43.508465],[40.068703,43.50767],[40.067955,43.507267],[40.066868,43.506752],[40.065014,43.50608],[40.063694,43.505455],[40.063694,43.50544],[40.0635,43.50529],[40.062958,43.504597],[40.06232,43.50371],[40.061924,43.503048],[40.061718,43.502266],[40.06178,43.501656],[40.06161,43.500633],[40.06141,43.50026],[40.06126,43.500042],[40.061012,43.499836],[40.060196,43.49915],[40.059795,43.498753],[40.05943,43.498077],[40.059025,43.496517],[40.057972,43.49605],[40.057743,43.494747],[40.057007,43.49382],[40.05618,43.493042],[40.055702,43.49218],[40.055458,43.49136],[40.05527,43.49046],[40.054848,43.489838],[40.05332,43.488625],[40.052658,43.48773],[40.051937,43.486576],[40.05101,43.485542],[40.050053,43.48448],[40.04958,43.483433],[40.048794,43.482216],[40.048573,43.481194],[40.048355,43.47998],[40.04698,43.47863],[40.04634,43.47743],[40.046154,43.47679],[40.045784,43.476315],[40.044926,43.47565],[40.044384,43.47507],[40.044064,43.474174],[40.04433,43.473244],[40.044353,43.47264],[40.043903,43.470955],[40.044144,43.469597],[40.04435,43.468655],[40.0443,43.468082],[40.04388,43.467045],[40.04344,43.465584],[40.043167,43.464787],[40.042927,43.464104],[40.042606,43.46306],[40.042263,43.462215],[40.042015,43.46069],[40.041904,43.459904],[40.042107,43.458668],[40.04241,43.456844],[40.042347,43.455475],[40.042377,43.45472],[40.04225,43.453854],[40.04207,43.453518],[40.04156,43.453045],[40.04057,43.452152],[40.038937,43.451324],[40.037483,43.45048],[40.03662,43.449932],[40.035744,43.447414],[40.035046,43.44613],[40.03422,43.44494],[40.033752,43.443874],[40.033257,43.44247],[40.03284,43.441772],[40.032368,43.441174],[40.031307,43.440147],[40.03027,43.439243],[40.029083,43.4382],[40.02662,43.43635],[40.024822,43.43528],[40.022556,43.43341],[40.021603,43.432575],[40.020718,43.432026],[40.019436,43.43159],[40.01809,43.431305],[40.016747,43.431087],[40.016037,43.430798],[40.014885,43.430077],[40.013924,43.42934],[40.01296,43.42834],[40.012756,43.428],[40.012386,43.42732],[40.01219,43.426613],[40.012005,43.42571],[40.01174,43.42548],[40.010796,43.424725],[40.010143,43.42435],[40.01013,43.424038],[40.010544,43.423164],[40.01137,43.42274],[40.012737,43.42214],[40.013218,43.421837],[40.0137,43.42151],[40.0147,43.420856],[40.014675,43.419308],[40.01456,43.418724],[40.01463,43.418255],[40.015236,43.417557],[40.015556,43.41717],[40.01552,43.416645],[40.0152,43.415928],[40.014156,43.4148],[40.013832,43.4145],[40.01355,43.414078],[40.013638,43.413418],[40.013996,43.412697],[40.013885,43.411983],[40.01302,43.411392],[40.01215,43.41128],[40.01112,43.410732],[40.011078,43.41022],[40.011017,43.409466],[40.010307,43.408344],[40.010193,43.407036],[40.00947,43.40641],[40.009228,43.405903],[40.00841,43.405216],[40.008316,43.40401],[40.00858,43.40319],[40.00855,43.40232],[40.008778,43.401176],[40.00864,43.400692],[40.00836,43.400234],[40.008415,43.39953],[40.008587,43.39811],[40.008717,43.397793],[40.008877,43.39753],[40.009216,43.396862],[40.009235,43.39618],[40.009148,43.39548],[40.008636,43.394344],[40.008465,43.39382],[40.00836,43.393414],[40.00791,43.392216],[40.00755,43.391365],[40.006927,43.390892],[40.00662,43.390438],[40.006687,43.390045],[40.00679,43.389645],[40.00698,43.38862],[40.00724,43.388134],[40.0075,43.38694],[40.00845,43.385567],[39.88448,43.224426]]]}}
