{"type":"Feature","id":"relation/3723371","properties":{"type":"relation","id":3723371,"tags":{"addr:country":"RU","addr:district":"Соликамский район","addr:postcode":"618527","addr:region":"Пермский край","addr:subdistrict":"Тюлькинское сельское поселение","boundary":"administrative","landuse":"residential","name":"Нижнее Мошево","official_status":"ru:посёлок","okato:user":"57250804006","oktmo:user":"57650432151","place":"village","population":"838","population:date":"2010","type":"boundary"},"labels":[]},"geometry":{"type":"Polygon","coordinates":[[[56.607418,59.80893],[56.60554,59.809166],[56.60436,59.80899],[56.60197,59.80969],[56.59953,59.81018],[56.597473,59.81021],[56.594734,59.809723],[56.591503,59.810215],[56.59006,59.8101],[56.590687,59.809334],[56.593655,59.803493],[56.593193,59.802746],[56.594357,59.80103],[56.601875,59.802433],[56.603394,59.80255],[56.604843,59.802437],[56.607304,59.80289],[56.609875,59.80331],[56.608963,59.804485],[56.609177,59.804512],[56.60908,59.804634],[56.60883,59.804623],[56.607918,59.805843],[56.607857,59.806305],[56.607895,59.80666],[56.60891,59.808693],[56.608227,59.808823],[56.607418,59.80893]]]}}
