{"type":"Feature","id":"relation/3726184","properties":{"type":"relation","id":3726184,"tags":{"ISO3166-2":"EG-AST","admin_level":"4","boundary":"administrative","name":"أسيوط","name:de":"Asyut","name:en":"Asyut Governorate","name:eo":"Provinco Asjut","name:hu":"Assziut kormányzóság","name:lt":"Asjuto muchafaza","name:pl":"Muhafaza Asjut","name:ru":"мухафаза Асьют","type":"boundary"},"labels":[{"id":"node/1128089200","role":"admin_centre","coordinates":[31.187649,27.180176]}]},"geometry":{"type":"Polygon","coordinates":[[[31.296293,26.893072],[31.417273,26.969738],[31.899225,27.057068],[32.160625,26.984297],[32.25048,27.047367],[32.61535,27.374277],[32.673046,27.365658],[32.74406,27.501408],[32.75362,27.557116],[32.694897,27.796574],[32.653927,27.90283],[32.4193,27.909761],[32.37301,27.895327],[32.117058,27.849592],[31.635105,27.695402],[31.123201,27.666466],[30.883585,27.666466],[30.818237,27.618223],[30.712042,27.623049],[30.6712,27.642347],[30.6712,27.702633],[30.654165,27.729898],[30.660467,27.603224],[30.756475,27.432932],[30.89778,27.301092],[31.07896,27.218605],[31.16512,27.124432],[31.245564,26.967766],[31.296293,26.893072]]]}}
