{"type":"Feature","id":"relation/6663864","properties":{"type":"relation","id":6663864,"tags":{"admin_level":"8","alt_name:vi":"Têhêrăng","boundary":"administrative","capital":"yes","capital_ISO3166-1":"yes","ele":"1191","importance":"international","int_name":"Tehran","is_capital":"country","is_in":"Iran","is_in:continent":"Asia","is_in:country":"Iran","is_in:country_code":"IR","name":"تهران","name:ace":"Tehran","name:af":"Teheran","name:am":"ቴህራን","name:an":"Teherán","name:ar":"طهران","name:arc":"ܛܗܪܐܢ","name:arz":"طهران","name:az":"Tehran","name:ba":"Тегеран","name:bat-smg":"Teherans","name:bcl":"Tehran","name:be":"Тэгеран","name:be-tarask":"Тэгеран","name:bg":"Техеран","name:bn":"তেহরান","name:bo":"ཏེ་ཧི་རན​།","name:br":"Tehran","name:bs":"Teheran","name:ca":"Teheran","name:ceb":"Dakbayan sa Tehrān","name:ckb":"تاران","name:crh":"Tehran","name:cs":"Teherán","name:cv":"Тегеран","name:cy":"Tehran","name:da":"Teheran","name:de":"Teheran","name:diq":"Tehran","name:el":"Τεχεράνη","name:en":"Tehran","name:eo":"Tehrano","name:es":"Teherán","name:et":"Teheran","name:eu":"Teheran","name:ext":"Teherán","name:fi":"Teheran","name:fo":"Teheran","name:fr":"Téhéran","name:fy":"Teheran","name:ga":"Teheran","name:gd":"Tehran","name:gl":"Teherán - تهران","name:he":"טהרן","name:hi":"तेहरान","name:hif":"Tehran","name:hr":"Teheran","name:ht":"Teheran","name:hu":"Teherán","name:hy":"Թեհրան","name:ia":"Tehran","name:id":"Teheran","name:ie":"Teheran","name:ilo":"Tehran","name:io":"Tehran","name:is":"Teheran","name:it":"Teheran","name:ja":"テヘラン","name:ka":"თეირანი","name:kk":"Тегеран","name:kl":"Tehran","name:kn":"ತೆಹ್ರಾನ್","name:ko":"테헤란","name:ku":"Tehran","name:kw":"Tehran","name:la":"Teheranum","name:lb":"Teheran","name:lez":"Тегьран","name:lt":"Teheranas","name:lv":"Teherāna","name:mhr":"Тегеран","name:mi":"Tehran","name:mk":"Техеран","name:ml":"ടെഹ്റാന്‍","name:mn":"Тегеран","name:mr":"तेहरान","name:ms":"Teheran","name:my":"တီဟီရန်မြို့","name:mzn":"تهرون","name:nl":"Teheran","name:nn":"Teheran","name:no":"Teheran","name:nov":"Teran","name:oc":"Teheran","name:or":"ତେହେରାନ","name:os":"Тæхран","name:pa":"ਤਹਿਰਾਨ","name:pl":"Teheran","name:pnb":"تہران","name:ps":"تهران","name:pt":"Teerã","name:rm":"Teheran","name:ro":"Teheran","name:ru":"Тегеран","name:rue":"Тегеран","name:sah":"Тегеран","name:sc":"Teheran","name:sco":"Tehran","name:se":"Teheran","name:sk":"Teherán","name:sl":"Teheran","name:so":"Tahraan","name:sq":"Teherani","name:sr":"Техеран","name:sv":"Teheran","name:sw":"Tehran","name:szl":"Teheran","name:ta":"தெஹ்ரான்","name:te":"టెహరాన్","name:tg":"Теҳрон","name:th":"เตหะราน","name:tk":"Tähran","name:tl":"Tehrān","name:tr":"Tahran","name:tt":"Тәһран","name:ug":"تېھران","name:uk":"Тегеран","name:ur":"تہران","name:uz":"Tehron","name:vi":"Tehran","name:vo":"Tehran","name:war":"Tehran","name:wuu":"德黑兰","name:yi":"טעהראן","name:yo":"Tehran","name:zh":"德黑蘭","name:zh-min-nan":"Tehran","name:zh-yue":"德黑蘭","place":"city","population":"8000000","rank":"0","ref":"TE","type":"boundary","wikidata":"Q3616","wikipedia:fa":"تهران"},"labels":[{"id":"node/25960293","role":"label","coordinates":[51.401375,35.700615]}]},"geometry":{"type":"Polygon","coordinates":[[[51.463234,35.622448],[51.46422,35.621952],[51.46502,35.621483],[51.466766,35.619415],[51.46987,35.6191],[51.472168,35.61797],[51.4723,35.617893],[51.472908,35.61807],[51.477867,35.612648],[51.48004,35.613983],[51.480213,35.613964],[51.48026,35.61394],[51.480648,35.61374],[51.48077,35.61368],[51.483814,35.612453],[51.485874,35.611443],[51.487183,35.610817],[51.489323,35.609787],[51.490322,35.609276],[51.492977,35.60798],[51.493916,35.608624],[51.495472,35.607513],[51.498413,35.605743],[51.50052,35.606342],[51.50222,35.607555],[51.502842,35.60866],[51.500095,35.61111],[51.49886,35.61218],[51.498745,35.612534],[51.49962,35.61293],[51.498493,35.614017],[51.499218,35.614464],[51.500378,35.614933],[51.501305,35.615723],[51.50112,35.615906],[51.49974,35.617184],[51.497814,35.61899],[51.497677,35.619125],[51.497124,35.61973],[51.496925,35.619946],[51.496204,35.620728],[51.498375,35.621227],[51.49933,35.62145],[51.499905,35.622326],[51.502766,35.6233],[51.50503,35.62373],[51.507465,35.623764],[51.507378,35.624832],[51.507122,35.627033],[51.50713,35.627777],[51.506847,35.631516],[51.50598,35.631485],[51.50545,35.63381],[51.512226,35.634365],[51.512062,35.635983],[51.511265,35.636032],[51.511215,35.637177],[51.50818,35.637043],[51.507404,35.637012],[51.50653,35.636925],[51.504395,35.636703],[51.502068,35.63646],[51.501675,35.63794],[51.501404,35.639236],[51.50093,35.640873],[51.501053,35.641293],[51.501343,35.642757],[51.50153,35.643845],[51.50141,35.644733],[51.502403,35.644638],[51.502552,35.644623],[51.505466,35.644363],[51.50759,35.64416],[51.507797,35.644547],[51.508575,35.64546],[51.509506,35.64624],[51.510414,35.64706],[51.51154,35.647774],[51.512604,35.648487],[51.51366,35.649113],[51.514614,35.650597],[51.51514,35.651722],[51.51549,35.65281],[51.51608,35.65412],[51.516373,35.65539],[51.516617,35.65657],[51.51691,35.65798],[51.517273,35.660526],[51.517628,35.6617],[51.518097,35.66278],[51.518623,35.663914],[51.519436,35.66504],[51.52031,35.666027],[51.5213,35.667007],[51.52246,35.66771],[51.522816,35.66797],[51.523247,35.669125],[51.513992,35.673042],[51.51424,35.673702],[51.51906,35.677055],[51.505783,35.69016],[51.505737,35.690605],[51.505726,35.690895],[51.50566,35.691013],[51.505573,35.691105],[51.50538,35.691193],[51.50418,35.69142],[51.500534,35.692005],[51.500088,35.69204],[51.499397,35.69203],[51.49883,35.692116],[51.494934,35.69292],[51.496468,35.69425],[51.49727,35.69501],[51.497517,35.695274],[51.49768,35.695522],[51.49807,35.6962],[51.498497,35.696865],[51.499184,35.697933],[51.49942,35.698288],[51.499565,35.69847],[51.500134,35.699104],[51.500328,35.69933],[51.50052,35.699562],[51.500698,35.699802],[51.500866,35.70004],[51.501026,35.700283],[51.501076,35.70039],[51.501106,35.70056],[51.501305,35.70095],[51.501343,35.70101],[51.501358,35.701042],[51.501377,35.701077],[51.5014,35.701107],[51.50141,35.70113],[51.50143,35.701153],[51.50145,35.701176],[51.501472,35.701214],[51.501507,35.70125],[51.501534,35.701283],[51.501568,35.701317],[51.5016,35.70135],[51.501633,35.70138],[51.50167,35.701416],[51.501705,35.701443],[51.501736,35.70147],[51.501762,35.70149],[51.501793,35.701508],[51.501823,35.701534],[51.501865,35.70156],[51.50192,35.701595],[51.502304,35.70185],[51.502384,35.7019],[51.502426,35.70193],[51.50246,35.70195],[51.502476,35.70196],[51.50251,35.70198],[51.50253,35.701992],[51.502552,35.702003],[51.502586,35.702026],[51.5026,35.702034],[51.502647,35.702053],[51.502693,35.702076],[51.502735,35.70209],[51.502777,35.702106],[51.502827,35.70213],[51.502872,35.70214],[51.50292,35.702156],[51.502968,35.702168],[51.503017,35.702175],[51.503067,35.70219],[51.503117,35.702198],[51.50313,35.7022],[51.50315,35.7022],[51.50319,35.70221],[51.50323,35.702213],[51.50327,35.702217],[51.503307,35.70222],[51.503357,35.702225],[51.50341,35.70223],[51.50349,35.702232],[51.504066,35.70227],[51.504173,35.702274],[51.504242,35.702282],[51.504272,35.702282],[51.504345,35.70229],[51.50438,35.70229],[51.504414,35.702297],[51.50445,35.7023],[51.504486,35.702305],[51.50452,35.70231],[51.504555,35.702312],[51.50459,35.702316],[51.504627,35.70232],[51.50466,35.702324],[51.504696,35.702328],[51.504734,35.702335],[51.504845,35.70236],[51.504852,35.70236],[51.50486,35.70236],[51.504868,35.702362],[51.504875,35.702362],[51.50488,35.702362],[51.504887,35.702362],[51.504898,35.702362],[51.504906,35.702362],[51.504913,35.702362],[51.50492,35.70236],[51.50493,35.70236],[51.504932,35.70236],[51.50494,35.702354],[51.50495,35.702354],[51.50496,35.702354],[51.504967,35.70235],[51.504986,35.70234],[51.504997,35.702335],[51.505016,35.702335],[51.50503,35.70233],[51.505043,35.702328],[51.505062,35.702324],[51.505077,35.702324],[51.50509,35.702324],[51.505104,35.70232],[51.505123,35.70232],[51.50514,35.70232],[51.50515,35.70232],[51.505165,35.70232],[51.505184,35.702324],[51.505196,35.702324],[51.50521,35.702324],[51.50523,35.702328],[51.505253,35.70233],[51.50529,35.70234],[51.50533,35.702343],[51.505367,35.70236],[51.50541,35.702366],[51.505444,35.702377],[51.50548,35.702385],[51.50552,35.7024],[51.505554,35.702415],[51.505592,35.70243],[51.505627,35.702446],[51.50566,35.702465],[51.505695,35.70248],[51.50573,35.7025],[51.50576,35.70252],[51.505795,35.702538],[51.50582,35.70256],[51.50585,35.702583],[51.50588,35.702606],[51.50591,35.70263],[51.505936,35.702652],[51.505962,35.702682],[51.505978,35.702698],[51.50601,35.70274],[51.506042,35.702774],[51.506077,35.702812],[51.50612,35.70285],[51.506153,35.70288],[51.506195,35.70292],[51.506237,35.70295],[51.506275,35.70298],[51.507282,35.70369],[51.50737,35.70375],[51.507465,35.70381],[51.50756,35.70387],[51.507656,35.703922],[51.50776,35.703976],[51.507862,35.704025],[51.50797,35.704075],[51.508076,35.704113],[51.508183,35.70416],[51.509205,35.704536],[51.509537,35.704662],[51.50986,35.7048],[51.51018,35.70494],[51.510494,35.705097],[51.510937,35.705322],[51.511684,35.705677],[51.511814,35.70575],[51.51195,35.70582],[51.512077,35.70589],[51.512203,35.705967],[51.51238,35.706074],[51.51255,35.706203],[51.512596,35.706238],[51.512638,35.706272],[51.51268,35.70631],[51.51272,35.706345],[51.512756,35.706387],[51.5128,35.70643],[51.51283,35.70647],[51.512863,35.706505],[51.512894,35.706547],[51.51292,35.706593],[51.512947,35.706635],[51.51297,35.706673],[51.512993,35.70672],[51.513016,35.706764],[51.51302,35.706776],[51.513027,35.706795],[51.513035,35.706814],[51.51304,35.70683],[51.513042,35.706844],[51.513046,35.706867],[51.51305,35.706882],[51.513058,35.706898],[51.513058,35.70692],[51.51307,35.70704],[51.513073,35.70711],[51.513073,35.707188],[51.513073,35.707264],[51.51307,35.707336],[51.51306,35.707413],[51.51305,35.70749],[51.51304,35.70756],[51.513023,35.707638],[51.513004,35.70771],[51.51298,35.707783],[51.51296,35.707855],[51.512928,35.707928],[51.512894,35.708023],[51.51276,35.708305],[51.51257,35.70876],[51.512215,35.70955],[51.511242,35.711826],[51.51121,35.711895],[51.51119,35.711967],[51.51116,35.712036],[51.511147,35.712105],[51.51113,35.71218],[51.511116,35.71225],[51.511105,35.712322],[51.511097,35.712395],[51.511093,35.712467],[51.51109,35.712563],[51.511086,35.712658],[51.511086,35.712753],[51.511093,35.712852],[51.5111,35.712944],[51.511116,35.71304],[51.51113,35.713135],[51.51115,35.713226],[51.511177,35.71332],[51.511204,35.713413],[51.51124,35.713505],[51.51157,35.71425],[51.51163,35.714382],[51.51168,35.714523],[51.51173,35.71466],[51.51177,35.7148],[51.511806,35.71494],[51.51184,35.715084],[51.51213,35.716515],[51.512505,35.717],[51.51271,35.71714],[51.513077,35.717205],[51.513344,35.71722],[51.51364,35.717],[51.51399,35.71678],[51.514698,35.71658],[51.515347,35.71655],[51.516037,35.716526],[51.516193,35.71659],[51.516262,35.716667],[51.51617,35.716835],[51.515827,35.71717],[51.515736,35.71738],[51.51564,35.71786],[51.515526,35.71802],[51.515396,35.71827],[51.515453,35.718372],[51.51571,35.71846],[51.515884,35.718452],[51.51615,35.718483],[51.51674,35.718258],[51.518227,35.718575],[51.51836,35.71818],[51.518623,35.71813],[51.518818,35.718002],[51.519024,35.71759],[51.519108,35.717335],[51.51928,35.717316],[51.519756,35.71727],[51.520138,35.7176],[51.520374,35.71761],[51.52075,35.717587],[51.52085,35.71758],[51.52138,35.71763],[51.521523,35.717625],[51.52177,35.717552],[51.521873,35.717537],[51.52209,35.717564],[51.522255,35.717587],[51.522415,35.717575],[51.522587,35.717533],[51.52275,35.717434],[51.522907,35.717434],[51.52305,35.71747],[51.523262,35.71746],[51.523426,35.717415],[51.5236,35.71739],[51.52386,35.71738],[51.524036,35.717365],[51.52418,35.717323],[51.524315,35.717194],[51.524384,35.717155],[51.524956,35.717236],[51.525074,35.71722],[51.52529,35.71706],[51.52561,35.716595],[51.525692,35.71636],[51.525677,35.71608],[51.525715,35.71598],[51.52629,35.715744],[51.527042,35.716076],[51.527203,35.71719],[51.52723,35.71741],[51.527306,35.717533],[51.52753,35.717644],[51.527702,35.717705],[51.52785,35.71767],[51.527985,35.71755],[51.528965,35.717213],[51.529373,35.717186],[51.529682,35.717228],[51.529903,35.717236],[51.530228,35.717194],[51.530563,35.717056],[51.530907,35.716835],[51.531082,35.71675],[51.531235,35.716694],[51.531303,35.716682],[51.531353,35.716743],[51.531387,35.716976],[51.531364,35.71719],[51.531364,35.7173],[51.53138,35.717403],[51.53165,35.7177],[51.531845,35.71784],[51.531986,35.71789],[51.532177,35.717945],[51.53228,35.717995],[51.532345,35.718056],[51.532444,35.718174],[51.532536,35.71825],[51.532642,35.718292],[51.532814,35.718338],[51.53307,35.718395],[51.53325,35.71841],[51.533405,35.718372],[51.53345,35.718273],[51.53345,35.718124],[51.53354,35.71776],[51.53368,35.71742],[51.53371,35.71728],[51.533703,35.717167],[51.53373,35.71709],[51.533756,35.71703],[51.53384,35.71703],[51.533936,35.716976],[51.533985,35.716908],[51.53404,35.716854],[51.534145,35.716827],[51.53422,35.716766],[51.53427,35.716675],[51.534634,35.71708],[51.534748,35.71743],[51.534782,35.717648],[51.534817,35.71772],[51.53541,35.71741],[51.53572,35.717358],[51.536064,35.717648],[51.53621,35.717865],[51.53636,35.717987],[51.536613,35.718063],[51.537083,35.718155],[51.53724,35.7182],[51.537525,35.718193],[51.53771,35.71819],[51.537956,35.718155],[51.538208,35.718098],[51.538445,35.717964],[51.53859,35.717884],[51.538723,35.71787],[51.53893,35.717937],[51.53912,35.717953],[51.53928,35.71794],[51.539406,35.717884],[51.539536,35.717793],[51.53958,35.7177],[51.53963,35.717518],[51.539642,35.717335],[51.53964,35.717236],[51.53957,35.71708],[51.53946,35.716946],[51.539417,35.716827],[51.539497,35.71673],[51.53957,35.71659],[51.53957,35.71642],[51.539528,35.71627],[51.53957,35.71599],[51.53967,35.715866],[51.53984,35.715813],[51.54015,35.715714],[51.540398,35.715668],[51.540955,35.71548],[51.541893,35.715183],[51.542038,35.715317],[51.54222,35.71543],[51.542503,35.71558],[51.54276,35.715702],[51.542873,35.71573],[51.542923,35.71574],[51.543,35.715717],[51.543068,35.715725],[51.54309,35.715775],[51.543167,35.71589],[51.543324,35.716015],[51.54358,35.716084],[51.54392,35.71621],[51.54429,35.716278],[51.54452,35.716267],[51.544624,35.716236],[51.544846,35.7161],[51.545074,35.715954],[51.545258,35.715786],[51.545414,35.71566],[51.54551,35.715557],[51.545628,35.715553],[51.545673,35.71564],[51.545624,35.715775],[51.54558,35.71592],[51.545628,35.716034],[51.54561,35.7161],[51.54554,35.716236],[51.5455,35.71633],[51.54546,35.71655],[51.54548,35.716675],[51.545563,35.71681],[51.545563,35.71684],[51.545498,35.71694],[51.54542,35.71707],[51.545406,35.717224],[51.545357,35.717453],[51.54537,35.71761],[51.545414,35.71771],[51.545567,35.717716],[51.54594,35.717766],[51.545902,35.71794],[51.548218,35.717655],[51.54874,35.717663],[51.548744,35.717865],[51.548805,35.718014],[51.54904,35.718082],[51.54925,35.718117],[51.549877,35.71794],[51.55,35.717888],[51.550335,35.718136],[51.5505,35.718433],[51.551346,35.718422],[51.551987,35.71842],[51.55248,35.718372],[51.552902,35.71834],[51.5539,35.71795],[51.554226,35.717842],[51.554478,35.717834],[51.55473,35.71781],[51.55496,35.717697],[51.55518,35.717445],[51.55537,35.71715],[51.555443,35.717148],[51.555305,35.718243],[51.55611,35.718224],[51.556442,35.718365],[51.556496,35.71856],[51.556458,35.718636],[51.557884,35.718506],[51.558376,35.71837],[51.56063,35.71822],[51.560665,35.717915],[51.561054,35.71789],[51.56098,35.71755],[51.56239,35.71673],[51.56268,35.716473],[51.562763,35.716347],[51.56288,35.716244],[51.563072,35.716152],[51.563244,35.716145],[51.56345,35.716167],[51.563553,35.716145],[51.563644,35.716038],[51.563732,35.715855],[51.563866,35.715714],[51.564007,35.71535],[51.564224,35.715332],[51.564583,35.71564],[51.564705,35.71597],[51.564785,35.716064],[51.565006,35.716152],[51.565094,35.71621],[51.565025,35.716423],[51.56506,35.716587],[51.565575,35.716984],[51.565765,35.716984],[51.565765,35.716984],[51.56585,35.716965],[51.566296,35.716652],[51.566364,35.716682],[51.56656,35.71704],[51.566723,35.717216],[51.56686,35.717327],[51.567017,35.717293],[51.56737,35.71711],[51.567688,35.717537],[51.567886,35.71768],[51.568035,35.717716],[51.568382,35.71764],[51.568558,35.717617],[51.56877,35.717648],[51.568977,35.717686],[51.56919,35.71763],[51.56937,35.717495],[51.56953,35.71732],[51.569614,35.717022],[51.569565,35.716713],[51.569424,35.716545],[51.569374,35.71642],[51.56936,35.716293],[51.569244,35.71614],[51.568928,35.715904],[51.569073,35.71582],[51.56944,35.715748],[51.57001,35.715847],[51.57018,35.715828],[51.570248,35.71567],[51.57061,35.715576],[51.57089,35.715534],[51.571938,35.71514],[51.57256,35.715294],[51.572647,35.71552],[51.572906,35.71569],[51.57272,35.71608],[51.57259,35.716362],[51.572445,35.71685],[51.572464,35.717056],[51.57259,35.717255],[51.572845,35.717373],[51.57326,35.717392],[51.574425,35.71665],[51.574677,35.71656],[51.57475,35.7166],[51.574825,35.716785],[51.57493,35.71709],[51.575096,35.717182],[51.575375,35.717186],[51.57566,35.717064],[51.575966,35.716843],[51.576233,35.716682],[51.57633,35.716713],[51.576366,35.71693],[51.576374,35.717037],[51.576572,35.717148],[51.57689,35.717148],[51.577187,35.717052],[51.57749,35.716953],[51.577755,35.716805],[51.577923,35.716724],[51.578014,35.716724],[51.578114,35.716793],[51.578167,35.717056],[51.578297,35.717236],[51.5785,35.717297],[51.578815,35.717304],[51.57902,35.717266],[51.57964,35.716843],[51.57982,35.716717],[51.57995,35.71683],[51.58003,35.717],[51.58026,35.71708],[51.58063,35.717125],[51.58082,35.71717],[51.58098,35.716946],[51.58107,35.716892],[51.58117,35.71691],[51.581142,35.717392],[51.581142,35.717392],[51.581345,35.717583],[51.582127,35.718],[51.58253,35.71817],[51.582867,35.71825],[51.583332,35.71831],[51.58413,35.71823],[51.58453,35.718212],[51.584755,35.718204],[51.584957,35.71823],[51.58516,35.71834],[51.585545,35.718697],[51.585964,35.718906],[51.58627,35.718952],[51.586555,35.719063],[51.58664,35.719173],[51.586838,35.719276],[51.587276,35.719383],[51.587612,35.719467],[51.587887,35.719513],[51.588203,35.719505],[51.588364,35.719494],[51.588512,35.71954],[51.58891,35.719894],[51.58913,35.72009],[51.589413,35.72021],[51.589756,35.720325],[51.58985,35.720318],[51.58981,35.720173],[51.58987,35.71963],[51.589905,35.719387],[51.59001,35.719334],[51.590176,35.71941],[51.590355,35.719536],[51.59041,35.719563],[51.590565,35.71955],[51.590717,35.719585],[51.590927,35.719803],[51.591587,35.719604],[51.591732,35.7196],[51.59184,35.719616],[51.592075,35.72017],[51.592285,35.72047],[51.592865,35.72062],[51.593147,35.72074],[51.593666,35.72099],[51.594044,35.72131],[51.59403,35.72169],[51.594063,35.721855],[51.59428,35.72213],[51.59446,35.7223],[51.594936,35.722347],[51.59532,35.722546],[51.5952,35.723774],[51.59231,35.723568],[51.589386,35.723434],[51.588234,35.723473],[51.58815,35.72347],[51.588226,35.726105],[51.588783,35.726486],[51.58919,35.72676],[51.58951,35.72698],[51.590084,35.727375],[51.590816,35.727867],[51.591286,35.728188],[51.591568,35.72838],[51.591667,35.728443],[51.591743,35.7285],[51.591915,35.728615],[51.59202,35.728695],[51.592255,35.728893],[51.592552,35.729153],[51.59287,35.729435],[51.593235,35.72976],[51.593575,35.730038],[51.5939,35.7303],[51.59416,35.73053],[51.595436,35.731667],[51.5957,35.731922],[51.59592,35.73215],[51.596066,35.732258],[51.596363,35.73244],[51.597637,35.733166],[51.597992,35.733353],[51.598236,35.733486],[51.59844,35.733612],[51.598957,35.734013],[51.600197,35.73492],[51.600548,35.73521],[51.600952,35.73552],[51.601402,35.735855],[51.601555,35.73596],[51.60167,35.736103],[51.601807,35.736305],[51.601948,35.736492],[51.602177,35.736816],[51.602547,35.737316],[51.60459,35.739986],[51.60479,35.74028],[51.604946,35.740555],[51.6051,35.740925],[51.605198,35.74125],[51.605347,35.74176],[51.605476,35.742165],[51.6063,35.744034],[51.606262,35.744045],[51.606266,35.74405],[51.606007,35.744144],[51.60559,35.74428],[51.605366,35.744366],[51.605343,35.744373],[51.6053,35.74439],[51.605015,35.744484],[51.604477,35.74466],[51.60386,35.744827],[51.602787,35.745113],[51.60094,35.745586],[51.60085,35.745605],[51.599476,35.746113],[51.59909,35.746258],[51.597797,35.74674],[51.597717,35.746773],[51.595863,35.747578],[51.595783,35.747604],[51.595165,35.74783],[51.594746,35.747982],[51.594093,35.74822],[51.593853,35.74826],[51.592865,35.748436],[51.592457,35.748436],[51.591125,35.748425],[51.590458,35.748417],[51.588512,35.748455],[51.58812,35.748543],[51.587124,35.748787],[51.58662,35.748917],[51.585136,35.749546],[51.583088,35.75043],[51.57957,35.75211],[51.57955,35.75212],[51.578167,35.753063],[51.5773,35.754288],[51.576813,35.755157],[51.576805,35.755177],[51.576786,35.755207],[51.575844,35.75689],[51.574886,35.758022],[51.57461,35.758354],[51.574493,35.758484],[51.57443,35.758556],[51.572754,35.759876],[51.572456,35.760117],[51.57025,35.76185],[51.570137,35.761932],[51.569992,35.76205],[51.56969,35.762276],[51.569275,35.762596],[51.568848,35.762913],[51.56762,35.76384],[51.567593,35.763855],[51.567585,35.76386],[51.567307,35.764027],[51.564957,35.76544],[51.56479,35.765545],[51.564217,35.76592],[51.562366,35.76713],[51.56093,35.768093],[51.560543,35.768353],[51.56039,35.768456],[51.55997,35.768703],[51.559803,35.768806],[51.5589,35.76936],[51.55733,35.77009],[51.55725,35.770123],[51.55622,35.770485],[51.55417,35.771202],[51.551044,35.7723],[51.547684,35.77347],[51.544205,35.77469],[51.54401,35.774757],[51.542393,35.775322],[51.540237,35.775974],[51.537544,35.776543],[51.534897,35.77696],[51.533928,35.777107],[51.527435,35.777504],[51.52765,35.779926],[51.52809,35.78392],[51.52844,35.787018],[51.530422,35.792156],[51.531452,35.79201],[51.533062,35.79196],[51.533978,35.79199],[51.53443,35.79201],[51.534924,35.79207],[51.535286,35.792118],[51.535595,35.79217],[51.53584,35.792213],[51.536137,35.792305],[51.536865,35.792538],[51.537327,35.792736],[51.537926,35.793087],[51.538055,35.793373],[51.538097,35.793957],[51.536343,35.79423],[51.53608,35.794178],[51.53574,35.794086],[51.535645,35.79401],[51.535446,35.793804],[51.53539,35.79403],[51.53525,35.794563],[51.535427,35.795376],[51.535927,35.795357],[51.536457,35.796276],[51.536785,35.79654],[51.537254,35.7969],[51.537292,35.79707],[51.53727,35.797565],[51.537205,35.797863],[51.53719,35.79793],[51.53717,35.798042],[51.53709,35.798187],[51.53708,35.798233],[51.537075,35.798256],[51.537075,35.798264],[51.53714,35.798344],[51.537304,35.798653],[51.537315,35.7989],[51.53724,35.799103],[51.53711,35.79942],[51.53695,35.799824],[51.536633,35.79993],[51.53654,35.80006],[51.536488,35.80038],[51.536484,35.8007],[51.536648,35.801304],[51.536713,35.80149],[51.536835,35.801632],[51.536724,35.803436],[51.536705,35.803814],[51.536488,35.80447],[51.536285,35.804947],[51.536243,35.80507],[51.536903,35.80518],[51.53761,35.80532],[51.537563,35.80545],[51.537537,35.805542],[51.537537,35.805668],[51.537548,35.80573],[51.537582,35.80586],[51.53757,35.805946],[51.537567,35.80601],[51.537567,35.806084],[51.537598,35.806282],[51.5376,35.80637],[51.537388,35.806477],[51.53727,35.806583],[51.5372,35.806656],[51.53717,35.80673],[51.53708,35.806816],[51.536983,35.806953],[51.536926,35.807076],[51.536896,35.807213],[51.536987,35.807575],[51.537014,35.80774],[51.537018,35.80785],[51.537006,35.807945],[51.537006,35.80802],[51.53702,35.808132],[51.537067,35.808235],[51.537167,35.808372],[51.537262,35.80844],[51.538246,35.80944],[51.53808,35.809555],[51.537888,35.809433],[51.537228,35.809185],[51.536907,35.80915],[51.536747,35.809143],[51.53646,35.809086],[51.536324,35.809097],[51.536255,35.809196],[51.536198,35.809372],[51.536064,35.809544],[51.53596,35.809692],[51.53592,35.80989],[51.535908,35.810043],[51.535786,35.809956],[51.5357,35.809734],[51.53567,35.80941],[51.53563,35.809204],[51.535564,35.809063],[51.535355,35.808853],[51.535004,35.80885],[51.534794,35.808796],[51.534668,35.80879],[51.534595,35.80879],[51.534443,35.80893],[51.533882,35.808987],[51.53343,35.809036],[51.53303,35.80916],[51.533028,35.809235],[51.53307,35.809433],[51.533043,35.809525],[51.532814,35.809692],[51.53278,35.80976],[51.532738,35.810055],[51.532616,35.810055],[51.532494,35.80997],[51.5323,35.81003],[51.53217,35.81014],[51.532074,35.810463],[51.532097,35.81086],[51.53207,35.811035],[51.532085,35.811207],[51.53198,35.81148],[51.53201,35.811665],[51.53197,35.811745],[51.53173,35.81181],[51.53163,35.811874],[51.5317,35.812477],[51.531628,35.812775],[51.532326,35.813446],[51.532333,35.813995],[51.532173,35.81407],[51.53229,35.814068],[51.532856,35.814297],[51.533493,35.814613],[51.53361,35.814663],[51.533813,35.814766],[51.534126,35.815334],[51.53434,35.81582],[51.534416,35.815987],[51.534504,35.816154],[51.53465,35.816395],[51.534714,35.816525],[51.53472,35.816597],[51.53458,35.816643],[51.534405,35.81661],[51.534157,35.816536],[51.533825,35.81647],[51.533512,35.81647],[51.53325,35.81649],[51.533127,35.816498],[51.533024,35.81656],[51.531685,35.816315],[51.53121,35.81604],[51.530926,35.81592],[51.530422,35.8157],[51.530254,35.815365],[51.5302,35.815056],[51.529797,35.81465],[51.529297,35.814335],[51.52875,35.81398],[51.528725,35.81396],[51.52881,35.81389],[51.528713,35.813812],[51.528133,35.813442],[51.527515,35.812824],[51.527485,35.81271],[51.52744,35.812664],[51.52724,35.81241],[51.527138,35.81211],[51.527084,35.812027],[51.526974,35.8118],[51.52706,35.811752],[51.526745,35.81143],[51.52629,35.810997],[51.52578,35.81051],[51.52538,35.810127],[51.524914,35.809788],[51.52468,35.809547],[51.524525,35.80937],[51.524014,35.808872],[51.523838,35.809006],[51.52348,35.809258],[51.5231,35.809513],[51.522827,35.8097],[51.52254,35.809902],[51.52248,35.80995],[51.522526,35.810013],[51.522366,35.810078],[51.5222,35.810085],[51.522186,35.810085],[51.5222,35.810184],[51.522186,35.81042],[51.522057,35.81062],[51.52173,35.81062],[51.52132,35.810593],[51.52106,35.810585],[51.52094,35.810616],[51.52069,35.810646],[51.52049,35.81077],[51.5204,35.811012],[51.52038,35.81124],[51.52043,35.81146],[51.520634,35.8117],[51.520912,35.812275],[51.521008,35.81249],[51.520992,35.81259],[51.520588,35.81258],[51.520237,35.812584],[51.519913,35.8126],[51.519768,35.812634],[51.519627,35.81265],[51.519398,35.81268],[51.51917,35.81268],[51.51886,35.812653],[51.518536,35.81262],[51.51823,35.8125],[51.51812,35.812454],[51.517403,35.812336],[51.51691,35.81219],[51.51653,35.812073],[51.516293,35.811974],[51.51616,35.811916],[51.516075,35.811985],[51.51576,35.812172],[51.515697,35.812325],[51.515587,35.812748],[51.515366,35.813164],[51.51514,35.813583],[51.51471,35.813965],[51.514423,35.814144],[51.513588,35.814423],[51.513264,35.814392],[51.512672,35.814],[51.512268,35.81385],[51.51193,35.81392],[51.511703,35.814075],[51.511505,35.814465],[51.511204,35.815037],[51.510864,35.815113],[51.510647,35.81585],[51.510635,35.816574],[51.51046,35.81712],[51.509468,35.818016],[51.50897,35.818344],[51.508823,35.818573],[51.508217,35.818764],[51.50793,35.81857],[51.50772,35.817947],[51.507587,35.81751],[51.506542,35.81696],[51.506405,35.81689],[51.50745,35.815426],[51.505585,35.81445],[51.505592,35.814587],[51.505573,35.814686],[51.505547,35.814766],[51.50549,35.814854],[51.505417,35.81493],[51.505306,35.81504],[51.505173,35.81522],[51.505016,35.815353],[51.504868,35.815464],[51.50484,35.815517],[51.503674,35.815914],[51.50306,35.816116],[51.502632,35.816208],[51.502262,35.81623],[51.501823,35.816193],[51.501587,35.816177],[51.501457,35.8162],[51.501396,35.816223],[51.50122,35.816193],[51.5011,35.816147],[51.500996,35.816124],[51.500896,35.81608],[51.500813,35.81606],[51.50069,35.816013],[51.500603,35.816006],[51.50047,35.816044],[51.50029,35.815865],[51.499924,35.815567],[51.499744,35.815056],[51.499878,35.814957],[51.499645,35.814976],[51.49899,35.81485],[51.49868,35.81471],[51.498623,35.814537],[51.498474,35.81475],[51.498398,35.814854],[51.49837,35.8149],[51.498306,35.81495],[51.498203,35.81501],[51.498154,35.81504],[51.498146,35.815033],[51.49796,35.815144],[51.49793,35.81517],[51.49791,35.815193],[51.497883,35.815224],[51.497875,35.815247],[51.49787,35.815277],[51.497875,35.815296],[51.497986,35.81553],[51.498016,35.815563],[51.498043,35.815598],[51.498074,35.815628],[51.498093,35.815662],[51.49811,35.81568],[51.498123,35.815697],[51.498108,35.81572],[51.49807,35.815742],[51.498035,35.81575],[51.498005,35.815754],[51.497894,35.815784],[51.497845,35.8158],[51.49772,35.815845],[51.497673,35.81586],[51.49758,35.81589],[51.49753,35.815907],[51.497482,35.815956],[51.49746,35.815983],[51.49745,35.816017],[51.497433,35.81608],[51.49743,35.816147],[51.49743,35.816177],[51.497433,35.816227],[51.497433,35.816257],[51.49744,35.8163],[51.49747,35.8164],[51.497482,35.816425],[51.497505,35.816486],[51.49754,35.816555],[51.49759,35.816616],[51.497604,35.81664],[51.497646,35.8167],[51.497654,35.81675],[51.49766,35.81678],[51.49766,35.816795],[51.497673,35.81684],[51.497673,35.816875],[51.49765,35.816948],[51.497635,35.816982],[51.497528,35.817142],[51.49746,35.817196],[51.497364,35.817234],[51.49724,35.817253],[51.49703,35.817253],[51.496876,35.817253],[51.49676,35.817238],[51.496628,35.817184],[51.496445,35.817135],[51.4963,35.817127],[51.496166,35.817116],[51.49607,35.817123],[51.496,35.817196],[51.495937,35.817295],[51.495872,35.817364],[51.495808,35.817417],[51.495583,35.81758],[51.49569,35.81769],[51.495438,35.81791],[51.49511,35.818176],[51.495037,35.818203],[51.494953,35.81826],[51.49479,35.818413],[51.494717,35.81847],[51.494576,35.81857],[51.494278,35.818745],[51.494095,35.818855],[51.493916,35.818977],[51.49375,35.819115],[51.493595,35.819275],[51.493397,35.81951],[51.493263,35.819695],[51.493176,35.819866],[51.49311,35.8201],[51.49308,35.820377],[51.49304,35.820534],[51.492954,35.820675],[51.492832,35.820778],[51.49273,35.820843],[51.492588,35.820904],[51.492474,35.820934],[51.492355,35.82096],[51.491768,35.82109],[51.49171,35.821148],[51.49167,35.82121],[51.491623,35.82137],[51.49159,35.821472],[51.49155,35.821583],[51.491524,35.82169],[51.49149,35.821835],[51.49151,35.821926],[51.491528,35.822166],[51.491566,35.8224],[51.4916,35.822582],[51.49162,35.822666],[51.491623,35.822697],[51.49169,35.82287],[51.491474,35.82298],[51.49138,35.822903],[51.491367,35.822906],[51.491,35.822704],[51.490772,35.82255],[51.490757,35.82245],[51.490753,35.82243],[51.49055,35.822227],[51.489998,35.822052],[51.48994,35.821842],[51.48989,35.82179],[51.489735,35.82171],[51.48958,35.821594],[51.48949,35.82151],[51.489418,35.821392],[51.489388,35.821163],[51.489304,35.821014],[51.489216,35.820915],[51.4891,35.820747],[51.489,35.82068],[51.488804,35.82063],[51.488747,35.82044],[51.48869,35.82034],[51.488567,35.820293],[51.488434,35.820328],[51.48827,35.820377],[51.48812,35.82042],[51.487965,35.820457],[51.48787,35.82021],[51.487854,35.819996],[51.487846,35.81936],[51.487736,35.81914],[51.48763,35.819134],[51.487007,35.819153],[51.486507,35.81906],[51.4863,35.819138],[51.486,35.818966],[51.48554,35.8189],[51.48463,35.818752],[51.484238,35.81875],[51.48389,35.81885],[51.48368,35.81891],[51.48337,35.819195],[51.482677,35.81955],[51.48234,35.819702],[51.482063,35.819805],[51.481857,35.819794],[51.48168,35.81989],[51.481533,35.820057],[51.48139,35.820194],[51.481293,35.82031],[51.481293,35.820316],[51.481186,35.820446],[51.481064,35.820534],[51.48093,35.82061],[51.480804,35.82062],[51.480625,35.82064],[51.48041,35.820675],[51.480198,35.82073],[51.479923,35.8208],[51.479767,35.820812],[51.479656,35.82078],[51.479572,35.820766],[51.47951,35.820766],[51.479385,35.820786],[51.47921,35.82082],[51.478992,35.82087],[51.478863,35.82091],[51.478775,35.820942],[51.478592,35.821033],[51.47839,35.82114],[51.47826,35.821217],[51.478123,35.821293],[51.478043,35.821365],[51.477993,35.82142],[51.47789,35.82143],[51.477818,35.821426],[51.47777,35.821423],[51.477516,35.821507],[51.477383,35.82156],[51.477055,35.821598],[51.476463,35.821404],[51.47605,35.82122],[51.475918,35.821186],[51.476074,35.820953],[51.475597,35.821045],[51.475292,35.821],[51.47494,35.820877],[51.4748,35.820843],[51.47436,35.820885],[51.47405,35.820873],[51.473503,35.821],[51.473015,35.821133],[51.472744,35.82124],[51.4726,35.82136],[51.47251,35.82147],[51.472324,35.82161],[51.47213,35.821777],[51.47196,35.821888],[51.471752,35.821926],[51.471607,35.822247],[51.47144,35.822464],[51.470955,35.82262],[51.470734,35.822716],[51.470554,35.822853],[51.47029,35.82305],[51.470097,35.823166],[51.46992,35.823193],[51.46972,35.823193],[51.469532,35.823334],[51.468914,35.82374],[51.468777,35.823944],[51.468643,35.82423],[51.46858,35.8245],[51.46849,35.824783],[51.46853,35.825096],[51.468475,35.825405],[51.46829,35.825798],[51.468143,35.825966],[51.468018,35.82623],[51.467937,35.82692],[51.46795,35.827072],[51.467987,35.827343],[51.467422,35.827488],[51.467003,35.827637],[51.466915,35.827698],[51.466816,35.827705],[51.466637,35.82765],[51.46642,35.82759],[51.46618,35.827557],[51.466003,35.82754],[51.465775,35.827557],[51.465572,35.827576],[51.46544,35.827576],[51.46525,35.827538],[51.46506,35.827457],[51.464893,35.827404],[51.464764,35.827374],[51.464615,35.827362],[51.464493,35.827354],[51.46437,35.827366],[51.464275,35.827408],[51.464207,35.827465],[51.464108,35.827522],[51.463917,35.827698],[51.46377,35.82784],[51.463703,35.827915],[51.46364,35.828033],[51.46358,35.828163],[51.463535,35.82825],[51.463524,35.82832],[51.463467,35.828396],[51.463387,35.82845],[51.463272,35.82847],[51.463203,35.828472],[51.46316,35.82841],[51.463123,35.82832],[51.463055,35.82821],[51.462994,35.82813],[51.462936,35.828106],[51.46286,35.82811],[51.462795,35.828136],[51.462708,35.828182],[51.462624,35.8282],[51.462563,35.828217],[51.46252,35.82822],[51.462433,35.828217],[51.46239,35.828197],[51.46237,35.828163],[51.46237,35.828117],[51.462444,35.828007],[51.462532,35.827896],[51.46263,35.827774],[51.46272,35.827644],[51.46274,35.827606],[51.462822,35.827457],[51.462795,35.82741],[51.462814,35.82713],[51.46272,35.82699],[51.46225,35.826626],[51.46196,35.826523],[51.461754,35.8265],[51.463562,35.826115],[51.464188,35.826073],[51.464226,35.825924],[51.46404,35.825783],[51.46384,35.825523],[51.46381,35.82497],[51.463634,35.82418],[51.463413,35.823704],[51.463028,35.823235],[51.462875,35.823185],[51.46281,35.823177],[51.462723,35.82317],[51.462517,35.823143],[51.462414,35.823162],[51.462234,35.82309],[51.46218,35.823086],[51.462128,35.823105],[51.46206,35.823128],[51.461914,35.823204],[51.461792,35.8232],[51.461666,35.82312],[51.461597,35.823074],[51.461445,35.822998],[51.46138,35.822983],[51.46115,35.822998],[51.461014,35.82302],[51.460926,35.823025],[51.46084,35.82305],[51.46075,35.82306],[51.46064,35.823082],[51.460556,35.82311],[51.460365,35.823166],[51.460308,35.823143],[51.460236,35.823063],[51.46019,35.823036],[51.460136,35.823036],[51.46007,35.823044],[51.459988,35.82307],[51.45992,35.82311],[51.459785,35.82315],[51.45971,35.82313],[51.45968,35.82307],[51.459652,35.823],[51.459618,35.822964],[51.4596,35.822895],[51.45956,35.822857],[51.45948,35.82281],[51.459282,35.82273],[51.459106,35.82267],[51.459034,35.82265],[51.458893,35.822624],[51.458782,35.822575],[51.458584,35.822502],[51.45837,35.822426],[51.458282,35.822407],[51.45813,35.82239],[51.458008,35.822376],[51.45785,35.822292],[51.45777,35.821827],[51.457424,35.821198],[51.457188,35.82084],[51.457146,35.820778],[51.45684,35.820484],[51.45644,35.820206],[51.45599,35.819958],[51.455654,35.819763],[51.45515,35.81949],[51.45471,35.81933],[51.45437,35.81923],[51.454132,35.819134],[51.453823,35.819096],[51.45267,35.81902],[51.45235,35.818962],[51.452095,35.818947],[51.452114,35.8186],[51.452137,35.81839],[51.45175,35.818336],[51.451225,35.81832],[51.451057,35.81823],[51.450787,35.817333],[51.450577,35.817455],[51.450462,35.81731],[51.450165,35.817287],[51.449703,35.81744],[51.449154,35.817432],[51.448803,35.81739],[51.448486,35.81732],[51.448723,35.818245],[51.44745,35.81812],[51.446854,35.819233],[51.445805,35.8193],[51.445744,35.819355],[51.44543,35.819447],[51.445072,35.81945],[51.44434,35.819363],[51.443714,35.819313],[51.443314,35.81932],[51.443077,35.819386],[51.442944,35.8194],[51.442684,35.819378],[51.442368,35.81939],[51.441994,35.819427],[51.441753,35.819477],[51.441605,35.81943],[51.441135,35.819588],[51.440804,35.819645],[51.440483,35.819687],[51.439762,35.819702],[51.43955,35.819763],[51.439274,35.81993],[51.43909,35.8201],[51.43884,35.82032],[51.438557,35.82031],[51.438377,35.820267],[51.43826,35.820232],[51.438168,35.820232],[51.437943,35.820274],[51.43786,35.820312],[51.437653,35.8203],[51.436916,35.820705],[51.436623,35.820854],[51.43589,35.821167],[51.435757,35.821327],[51.43574,35.821957],[51.435688,35.82223],[51.43564,35.822365],[51.435726,35.82254],[51.436123,35.82255],[51.4361,35.822887],[51.43606,35.82303],[51.435978,35.823223],[51.435753,35.82324],[51.436157,35.823647],[51.436287,35.823856],[51.436146,35.82408],[51.435867,35.82426],[51.43549,35.82445],[51.435295,35.82454],[51.43505,35.82463],[51.434856,35.824608],[51.434593,35.82457],[51.434452,35.82433],[51.433857,35.82396],[51.433342,35.823376],[51.432953,35.822994],[51.43281,35.822994],[51.43243,35.82282],[51.431316,35.82297],[51.430607,35.823284],[51.430485,35.823387],[51.430195,35.82362],[51.429726,35.823917],[51.429523,35.824093],[51.42898,35.824375],[51.428547,35.824562],[51.428425,35.82465],[51.428368,35.824738],[51.42836,35.824963],[51.428276,35.825085],[51.428024,35.825092],[51.428074,35.82517],[51.42812,35.825356],[51.428318,35.825493],[51.428062,35.825756],[51.42777,35.82563],[51.427616,35.825623],[51.427437,35.82571],[51.42736,35.82595],[51.427364,35.82598],[51.42752,35.826595],[51.427277,35.826683],[51.427048,35.827145],[51.426876,35.827473],[51.426476,35.82759],[51.426033,35.82752],[51.425545,35.8272],[51.4251,35.826458],[51.4251,35.82628],[51.42515,35.825954],[51.424988,35.82574],[51.42497,35.82548],[51.424927,35.82551],[51.424065,35.825226],[51.423748,35.8249],[51.42333,35.82477],[51.423733,35.823967],[51.423874,35.82357],[51.423878,35.82351],[51.423893,35.823246],[51.42379,35.823],[51.42364,35.82294],[51.423325,35.822857],[51.423233,35.822483],[51.423603,35.822422],[51.42363,35.82242],[51.423557,35.822193],[51.423534,35.822044],[51.42341,35.821777],[51.423412,35.821735],[51.423634,35.821598],[51.423664,35.821625],[51.423832,35.821358],[51.423954,35.820988],[51.42389,35.820766],[51.42378,35.820663],[51.423565,35.82065],[51.423313,35.82071],[51.423206,35.82083],[51.423153,35.82091],[51.423046,35.820923],[51.422928,35.820827],[51.42287,35.82069],[51.422806,35.82059],[51.422802,35.820534],[51.422832,35.820366],[51.422775,35.820316],[51.422615,35.82035],[51.42257,35.820442],[51.42248,35.820427],[51.422337,35.820488],[51.422195,35.82062],[51.42209,35.821007],[51.42194,35.82107],[51.42185,35.821087],[51.42171,35.821117],[51.4216,35.82115],[51.42147,35.82119],[51.421368,35.821194],[51.42126,35.82114],[51.42121,35.821106],[51.42116,35.821064],[51.421146,35.82095],[51.42112,35.82085],[51.42106,35.820755],[51.420975,35.820694],[51.42084,35.820675],[51.420696,35.820644],[51.420612,35.820637],[51.42053,35.82061],[51.420486,35.820534],[51.42048,35.820423],[51.42052,35.820293],[51.420563,35.82015],[51.420635,35.819923],[51.420616,35.819813],[51.42058,35.819736],[51.420525,35.819664],[51.42025,35.81976],[51.420094,35.819813],[51.419914,35.81979],[51.419693,35.819637],[51.41975,35.819458],[51.41998,35.819176],[51.419975,35.818897],[51.4197,35.81873],[51.419735,35.81863],[51.41943,35.818497],[51.41934,35.818268],[51.419357,35.81812],[51.419132,35.81788],[51.418957,35.81774],[51.418716,35.817574],[51.418633,35.817394],[51.418575,35.81725],[51.418404,35.81694],[51.418232,35.816757],[51.418022,35.81662],[51.4177,35.81648],[51.417538,35.81645],[51.41727,35.81644],[51.417046,35.81645],[51.416912,35.816433],[51.416824,35.816387],[51.41673,35.8163],[51.416603,35.816322],[51.416397,35.816536],[51.41625,35.8166],[51.415997,35.81663],[51.415638,35.81669],[51.415478,35.816757],[51.415382,35.81683],[51.41534,35.81688],[51.4153,35.81695],[51.415268,35.817005],[51.415245,35.817043],[51.41506,35.817356],[51.41486,35.817764],[51.41398,35.817192],[51.4136,35.816975],[51.413055,35.817543],[51.4123,35.816982],[51.412807,35.81663],[51.41215,35.816273],[51.411903,35.81618],[51.41175,35.816162],[51.411423,35.816185],[51.411068,35.816193],[51.410957,35.816162],[51.410847,35.816093],[51.41077,35.815895],[51.410633,35.815765],[51.410503,35.81571],[51.409786,35.81563],[51.409447,35.815655],[51.409096,35.815712],[51.409035,35.815784],[51.408836,35.81581],[51.408516,35.815777],[51.408157,35.81561],[51.407867,35.8155],[51.407513,35.81545],[51.407036,35.81542],[51.40665,35.815407],[51.40635,35.815407],[51.40627,35.81535],[51.405968,35.815273],[51.405636,35.815414],[51.405273,35.815334],[51.40499,35.81543],[51.404972,35.81565],[51.404957,35.815815],[51.405003,35.816],[51.40489,35.81618],[51.404884,35.816315],[51.404694,35.8164],[51.40465,35.816555],[51.404617,35.81675],[51.40451,35.81675],[51.40437,35.816746],[51.404316,35.81684],[51.40407,35.816956],[51.403915,35.817005],[51.40381,35.817116],[51.40366,35.81714],[51.40353,35.817295],[51.403503,35.81742],[51.403587,35.817562],[51.403564,35.81771],[51.403435,35.81785],[51.403294,35.81799],[51.40329,35.817997],[51.40329,35.817997],[51.40328,35.818245],[51.40335,35.8183],[51.40338,35.818512],[51.403225,35.818695],[51.403233,35.818592],[51.4032,35.818485],[51.402985,35.818283],[51.402893,35.818108],[51.40289,35.817997],[51.402973,35.817795],[51.402958,35.817566],[51.402897,35.817207],[51.402916,35.816963],[51.40297,35.816723],[51.403152,35.81652],[51.403267,35.81641],[51.403343,35.81626],[51.40327,35.816208],[51.403255,35.81607],[51.403206,35.81599],[51.403122,35.81592],[51.402985,35.815693],[51.402954,35.815212],[51.402725,35.814358],[51.402554,35.813873],[51.402287,35.813576],[51.401863,35.81341],[51.401398,35.813465],[51.40115,35.813393],[51.401054,35.813553],[51.39989,35.81358],[51.399666,35.81351],[51.399338,35.81339],[51.399006,35.81329],[51.398567,35.81326],[51.398422,35.81325],[51.397457,35.81322],[51.397163,35.813232],[51.396233,35.813087],[51.395557,35.813034],[51.394897,35.812874],[51.394646,35.812996],[51.39453,35.813183],[51.394367,35.813297],[51.39418,35.81325],[51.39376,35.81314],[51.393475,35.813076],[51.393124,35.81303],[51.392723,35.812958],[51.392765,35.812447],[51.3925,35.81236],[51.392284,35.812237],[51.391335,35.811867],[51.390617,35.811733],[51.39029,35.811634],[51.390076,35.811546],[51.389652,35.811478],[51.389153,35.811283],[51.38865,35.811077],[51.38828,35.810867],[51.388046,35.81081],[51.38776,35.809628],[51.38763,35.809242],[51.387627,35.80846],[51.387177,35.808468],[51.38661,35.808315],[51.38628,35.80827],[51.38606,35.80828],[51.38598,35.8083],[51.384754,35.808254],[51.384693,35.808434],[51.384796,35.808514],[51.38453,35.808907],[51.38448,35.80931],[51.38441,35.8097],[51.384052,35.810123],[51.383812,35.81036],[51.383675,35.810516],[51.383507,35.810673],[51.383667,35.810844],[51.38368,35.81106],[51.383915,35.81108],[51.38385,35.811436],[51.383614,35.811375],[51.3834,35.81149],[51.383224,35.81184],[51.38303,35.812195],[51.38278,35.81245],[51.382576,35.81252],[51.382423,35.812527],[51.38239,35.812664],[51.38232,35.812748],[51.381943,35.812744],[51.381973,35.813236],[51.381607,35.813946],[51.38145,35.814014],[51.381245,35.813984],[51.380997,35.814426],[51.381035,35.814793],[51.381565,35.815388],[51.38166,35.81561],[51.381416,35.815834],[51.38112,35.81596],[51.380993,35.81612],[51.380295,35.81625],[51.38,35.815933],[51.380257,35.8156],[51.38013,35.81497],[51.379967,35.81476],[51.379677,35.814724],[51.379765,35.814667],[51.379673,35.814617],[51.3799,35.81443],[51.379864,35.814186],[51.380016,35.81414],[51.379894,35.813923],[51.38007,35.813736],[51.380104,35.813538],[51.38057,35.813393],[51.38044,35.813007],[51.380474,35.812416],[51.380577,35.81174],[51.38101,35.811256],[51.380936,35.811035],[51.380814,35.810875],[51.380222,35.810745],[51.38042,35.810196],[51.379784,35.809784],[51.379513,35.80942],[51.37918,35.80926],[51.379154,35.80916],[51.378872,35.808956],[51.378777,35.808968],[51.378788,35.80871],[51.37857,35.808422],[51.378338,35.8082],[51.377975,35.808052],[51.37781,35.807854],[51.37765,35.80767],[51.377537,35.80752],[51.377377,35.80737],[51.376755,35.80714],[51.376354,35.80697],[51.376156,35.80691],[51.375854,35.807243],[51.375393,35.807003],[51.375633,35.806732],[51.37505,35.806538],[51.375763,35.80581],[51.37579,35.805786],[51.3766,35.80545],[51.37671,35.805397],[51.377068,35.805225],[51.377167,35.8052],[51.377815,35.80504],[51.378834,35.804794],[51.379852,35.804405],[51.38077,35.803875],[51.38144,35.803204],[51.381935,35.802593],[51.38238,35.802086],[51.3831,35.801537],[51.384144,35.801147],[51.38491,35.80072],[51.385075,35.80069],[51.384945,35.800694],[51.385178,35.800602],[51.385445,35.800472],[51.38554,35.80039],[51.38568,35.800236],[51.385807,35.800095],[51.38595,35.79993],[51.386055,35.799797],[51.38613,35.799633],[51.386185,35.799442],[51.38624,35.799206],[51.386272,35.79903],[51.386288,35.798843],[51.38611,35.798737],[51.38606,35.798706],[51.385868,35.79851],[51.385773,35.798367],[51.385723,35.798214],[51.38567,35.798035],[51.38563,35.79791],[51.385464,35.797432],[51.38542,35.797302],[51.385395,35.79713],[51.38539,35.796993],[51.385426,35.796818],[51.38545,35.796654],[51.385475,35.796505],[51.38548,35.796467],[51.385223,35.79624],[51.385223,35.796238],[51.384922,35.795776],[51.384888,35.795723],[51.38481,35.795673],[51.384552,35.79564],[51.384396,35.79563],[51.384125,35.795578],[51.384113,35.795578],[51.384113,35.795578],[51.384487,35.795033],[51.3845,35.794994],[51.384487,35.794937],[51.384506,35.79485],[51.38456,35.794807],[51.38467,35.79477],[51.384674,35.794765],[51.384716,35.794716],[51.384724,35.794666],[51.38466,35.79457],[51.384583,35.79451],[51.384453,35.79441],[51.38439,35.794353],[51.384346,35.794308],[51.384285,35.794277],[51.38429,35.794197],[51.38415,35.793964],[51.384144,35.79395],[51.384014,35.793736],[51.383556,35.79338],[51.383545,35.793377],[51.38339,35.79332],[51.382744,35.79313],[51.382576,35.793056],[51.38249,35.79302],[51.38157,35.792988],[51.381535,35.792973],[51.38135,35.792896],[51.38121,35.79285],[51.3811,35.792835],[51.381096,35.792835],[51.38099,35.792873],[51.380848,35.79298],[51.380836,35.79299],[51.38078,35.79306],[51.380627,35.793213],[51.38054,35.793327],[51.380314,35.793324],[51.3803,35.793262],[51.380306,35.793255],[51.380325,35.79318],[51.380093,35.79287],[51.379665,35.792778],[51.37959,35.792812],[51.37933,35.792934],[51.379272,35.79352],[51.379158,35.793743],[51.379158,35.793747],[51.379047,35.794186],[51.378944,35.794262],[51.37891,35.79425],[51.378742,35.794193],[51.37855,35.79421],[51.37837,35.79409],[51.378326,35.793762],[51.37825,35.7936],[51.378254,35.793568],[51.378277,35.79356],[51.378338,35.79354],[51.37832,35.793453],[51.378235,35.79339],[51.378166,35.79337],[51.37808,35.793335],[51.37795,35.793247],[51.377598,35.793404],[51.377453,35.79369],[51.376724,35.793533],[51.376213,35.793148],[51.37572,35.792862],[51.37568,35.79304],[51.375546,35.79313],[51.375362,35.79318],[51.37534,35.793186],[51.37534,35.793186],[51.375324,35.79319],[51.375298,35.79325],[51.375175,35.793297],[51.374992,35.793404],[51.374847,35.793484],[51.37471,35.79347],[51.374596,35.793686],[51.37446,35.793903],[51.374325,35.79399],[51.37432,35.794],[51.374306,35.794247],[51.373844,35.794514],[51.373726,35.79456],[51.373627,35.79474],[51.3733,35.795006],[51.373074,35.795227],[51.3729,35.79527],[51.372795,35.79525],[51.372498,35.795353],[51.372498,35.795353],[51.372227,35.795444],[51.3718,35.79465],[51.371784,35.79463],[51.371647,35.794678],[51.37148,35.79476],[51.371403,35.794796],[51.371223,35.79488],[51.37102,35.79495],[51.370785,35.795017],[51.370586,35.79506],[51.370426,35.795086],[51.37015,35.795143],[51.370167,35.795193],[51.36996,35.79526],[51.3699,35.795284],[51.369537,35.795437],[51.36905,35.7956],[51.368553,35.795902],[51.368153,35.79617],[51.36731,35.79681],[51.36701,35.797096],[51.366856,35.797237],[51.366657,35.797527],[51.366505,35.797905],[51.365963,35.798264],[51.365604,35.79802],[51.365124,35.79876],[51.364803,35.799168],[51.36451,35.7995],[51.36387,35.799526],[51.363697,35.79962],[51.36343,35.79982],[51.36294,35.800373],[51.362465,35.800953],[51.362057,35.801815],[51.361748,35.80278],[51.36166,35.803276],[51.361736,35.8034],[51.361607,35.803703],[51.36134,35.80375],[51.360325,35.80358],[51.359657,35.803642],[51.359467,35.803356],[51.35923,35.802944],[51.35917,35.80264],[51.359154,35.802315],[51.359608,35.80153],[51.359573,35.800957],[51.35945,35.800285],[51.35932,35.799736],[51.35901,35.799065],[51.358402,35.79815],[51.35755,35.79703],[51.357365,35.796787],[51.35619,35.79629],[51.35551,35.795856],[51.3551,35.795235],[51.354538,35.794888],[51.354393,35.794956],[51.354176,35.795048],[51.35393,35.795074],[51.35359,35.79512],[51.353382,35.79513],[51.353176,35.79515],[51.353054,35.795166],[51.35277,35.79531],[51.35256,35.795372],[51.35213,35.795155],[51.351944,35.794964],[51.351715,35.79468],[51.351597,35.79453],[51.35138,35.79446],[51.351128,35.7944],[51.35107,35.794548],[51.350956,35.79477],[51.350925,35.794853],[51.35076,35.794827],[51.35064,35.794815],[51.350464,35.79476],[51.350285,35.79458],[51.350132,35.794556],[51.35,35.79451],[51.3499,35.794308],[51.349606,35.7943],[51.349552,35.793877],[51.349545,35.793724],[51.34925,35.793724],[51.349136,35.793636],[51.349033,35.79371],[51.34894,35.793633],[51.34904,35.793537],[51.348907,35.79343],[51.348507,35.79317],[51.348038,35.793125],[51.3475,35.793156],[51.347122,35.79317],[51.345207,35.793148],[51.34465,35.793022],[51.34478,35.79345],[51.34512,35.793686],[51.345695,35.79446],[51.34566,35.794605],[51.34572,35.794712],[51.345734,35.794838],[51.34621,35.79519],[51.3464,35.795235],[51.34625,35.7954],[51.34618,35.79542],[51.345566,35.795124],[51.344696,35.79493],[51.34437,35.795002],[51.344276,35.795177],[51.34421,35.795284],[51.34424,35.795414],[51.34421,35.79559],[51.34422,35.795654],[51.344326,35.795776],[51.34444,35.79587],[51.344444,35.79601],[51.344395,35.796143],[51.34433,35.796253],[51.344006,35.796394],[51.343655,35.79649],[51.34351,35.796516],[51.34336,35.796604],[51.343136,35.796364],[51.34305,35.796288],[51.342777,35.796143],[51.342556,35.796093],[51.342407,35.796104],[51.342358,35.796177],[51.342278,35.796486],[51.34223,35.796745],[51.342266,35.79675],[51.34292,35.796837],[51.342983,35.79734],[51.342995,35.797848],[51.342957,35.798244],[51.342896,35.798584],[51.342846,35.7986],[51.34191,35.798363],[51.341595,35.79838],[51.34146,35.798485],[51.341316,35.798546],[51.34122,35.79864],[51.341217,35.79872],[51.34124,35.798832],[51.341606,35.799023],[51.341694,35.799133],[51.341827,35.799244],[51.341885,35.79938],[51.34191,35.799507],[51.341927,35.79965],[51.34191,35.79985],[51.341763,35.80022],[51.341537,35.800373],[51.34146,35.80048],[51.341427,35.80064],[51.34144,35.800762],[51.341507,35.800896],[51.341496,35.80113],[51.34151,35.801308],[51.341316,35.801548],[51.341297,35.8017],[51.34129,35.802032],[51.34134,35.80209],[51.341427,35.802307],[51.34148,35.80269],[51.341633,35.802784],[51.341663,35.802876],[51.341446,35.803024],[51.341415,35.80318],[51.341316,35.803345],[51.34129,35.803505],[51.341194,35.803642],[51.34108,35.80386],[51.340893,35.804024],[51.340767,35.804356],[51.34075,35.80441],[51.34068,35.804512],[51.34068,35.804512],[51.340687,35.804565],[51.340694,35.80461],[51.34072,35.804638],[51.340748,35.804672],[51.340775,35.804703],[51.340828,35.804764],[51.340847,35.80481],[51.340862,35.80492],[51.34086,35.80499],[51.340862,35.805027],[51.340862,35.80507],[51.34087,35.80511],[51.340874,35.80515],[51.340874,35.805225],[51.340874,35.805233],[51.34088,35.805256],[51.34089,35.80529],[51.340855,35.805386],[51.340805,35.805557],[51.340794,35.805645],[51.34079,35.80574],[51.34079,35.805805],[51.3408,35.805904],[51.340805,35.805916],[51.340816,35.80593],[51.3408,35.80596],[51.340805,35.806004],[51.340797,35.806034],[51.340767,35.8061],[51.34069,35.80622],[51.340664,35.806316],[51.34068,35.806507],[51.340675,35.80656],[51.34068,35.806583],[51.340694,35.806602],[51.340702,35.806618],[51.340706,35.80665],[51.340702,35.806667],[51.34071,35.806686],[51.34068,35.806744],[51.340656,35.806816],[51.34065,35.806877],[51.34064,35.806904],[51.34062,35.806942],[51.34061,35.806957],[51.3406,35.80701],[51.340595,35.807026],[51.34059,35.807037],[51.34058,35.80704],[51.34057,35.807053],[51.34056,35.807068],[51.340557,35.807083],[51.340538,35.807095],[51.340527,35.80711],[51.340515,35.807137],[51.34039,35.80731],[51.340263,35.80751],[51.34024,35.80753],[51.340225,35.807545],[51.340218,35.807564],[51.340214,35.80757],[51.340218,35.807583],[51.340206,35.807594],[51.34019,35.80761],[51.340187,35.80762],[51.340187,35.80763],[51.340183,35.807636],[51.340168,35.80764],[51.340107,35.80772],[51.340034,35.80778],[51.339924,35.80785],[51.339794,35.807915],[51.339737,35.807983],[51.33965,35.80806],[51.339592,35.808117],[51.339535,35.80817],[51.338974,35.80854],[51.33885,35.808712],[51.338528,35.80892],[51.338535,35.809208],[51.338276,35.81003],[51.33795,35.809998],[51.33779,35.80897],[51.337395,35.808743],[51.337193,35.8085],[51.33718,35.808266],[51.337273,35.808006],[51.33747,35.807697],[51.337593,35.80768],[51.337658,35.807602],[51.337666,35.80723],[51.337864,35.806854],[51.337936,35.80491],[51.337746,35.804893],[51.33752,35.804703],[51.337215,35.804237],[51.337124,35.803864],[51.33726,35.803467],[51.3375,35.802998],[51.337864,35.80288],[51.33824,35.80269],[51.3384,35.80254],[51.338406,35.80243],[51.338295,35.80225],[51.33768,35.801723],[51.337357,35.800713],[51.337276,35.80062],[51.336662,35.800278],[51.336662,35.80016],[51.336514,35.79989],[51.336502,35.799652],[51.33622,35.79929],[51.336,35.799126],[51.33569,35.798595],[51.33562,35.79857],[51.33562,35.79819],[51.33548,35.79806],[51.335724,35.798073],[51.336025,35.798225],[51.336784,35.798172],[51.337135,35.798077],[51.336765,35.797462],[51.336597,35.79693],[51.3363,35.796455],[51.33628,35.79619],[51.33618,35.79604],[51.335983,35.79589],[51.335915,35.79566],[51.336124,35.79476],[51.336006,35.794434],[51.336006,35.794197],[51.33586,35.793537],[51.33571,35.793507],[51.33522,35.79374],[51.334545,35.793518],[51.33442,35.79345],[51.33435,35.793064],[51.334095,35.792957],[51.334053,35.79289],[51.33402,35.79244],[51.33347,35.792316],[51.333263,35.792206],[51.333138,35.792072],[51.33268,35.7919],[51.33229,35.7921],[51.331844,35.792213],[51.331673,35.7925],[51.331444,35.79259],[51.33135,35.79276],[51.330982,35.792725],[51.33083,35.79278],[51.330753,35.792873],[51.330666,35.793182],[51.329987,35.79317],[51.329624,35.793438],[51.329327,35.793514],[51.329212,35.793636],[51.329105,35.793945],[51.3289,35.79397],[51.328648,35.79417],[51.328465,35.793484],[51.327736,35.793633],[51.327457,35.793762],[51.327347,35.793877],[51.326904,35.794056],[51.327217,35.792828],[51.32717,35.79281],[51.3271,35.792854],[51.327003,35.793095],[51.32665,35.79335],[51.32651,35.793518],[51.326412,35.793503],[51.326405,35.793015],[51.32622,35.7929],[51.32607,35.79269],[51.325928,35.79281],[51.325916,35.792866],[51.32582,35.792866],[51.325726,35.79267],[51.325634,35.792633],[51.325077,35.792816],[51.324768,35.792835],[51.324696,35.792786],[51.324833,35.792366],[51.32474,35.79201],[51.32478,35.79186],[51.324574,35.791767],[51.324528,35.79102],[51.324265,35.790817],[51.323917,35.79101],[51.323288,35.791084],[51.323013,35.790985],[51.323124,35.790844],[51.323177,35.79041],[51.323074,35.790337],[51.32279,35.790318],[51.32273,35.79024],[51.322525,35.790173],[51.322468,35.790104],[51.322502,35.789993],[51.322395,35.789795],[51.322002,35.7894],[51.322144,35.789272],[51.3221,35.789207],[51.32256,35.788982],[51.322712,35.788826],[51.322636,35.788425],[51.322544,35.78825],[51.322464,35.788204],[51.321667,35.788143],[51.321175,35.788033],[51.320736,35.788017],[51.319965,35.788147],[51.31975,35.787968],[51.31957,35.787926],[51.319363,35.788002],[51.319164,35.788155],[51.31866,35.788673],[51.318504,35.78871],[51.318214,35.788902],[51.317795,35.788548],[51.317486,35.788116],[51.317177,35.787502],[51.317123,35.787426],[51.316948,35.78736],[51.31676,35.78777],[51.316635,35.787876],[51.316326,35.787975],[51.315727,35.788033],[51.31533,35.788258],[51.31492,35.78826],[51.31455,35.788372],[51.31412,35.788128],[51.3142,35.787773],[51.31395,35.787334],[51.313683,35.787098],[51.313423,35.787006],[51.312057,35.787094],[51.31142,35.787243],[51.310745,35.787243],[51.31001,35.78742],[51.309727,35.78745],[51.309566,35.787548],[51.30906,35.787655],[51.308933,35.78797],[51.308826,35.788074],[51.30886,35.78829],[51.309002,35.788486],[51.309307,35.7887],[51.309345,35.7888],[51.309555,35.788883],[51.30834,35.78909],[51.30784,35.789085],[51.30745,35.789215],[51.307266,35.789413],[51.306953,35.789993],[51.306812,35.790424],[51.30648,35.79053],[51.306442,35.790592],[51.3067,35.791187],[51.306667,35.791336],[51.306694,35.791534],[51.306847,35.791843],[51.30658,35.791965],[51.30641,35.792233],[51.3064,35.792374],[51.30649,35.792595],[51.306606,35.79261],[51.306995,35.7925],[51.30744,35.79249],[51.30776,35.792538],[51.307175,35.792767],[51.306995,35.792904],[51.30694,35.793003],[51.30691,35.793304],[51.30644,35.79387],[51.305634,35.793777],[51.305218,35.79395],[51.305115,35.794167],[51.30514,35.794518],[51.303154,35.79452],[51.303116,35.7944],[51.303204,35.793594],[51.303143,35.793037],[51.30309,35.792904],[51.302925,35.792732],[51.302902,35.792618],[51.30309,35.79144],[51.302837,35.790604],[51.302677,35.790302],[51.302658,35.7901],[51.30247,35.789906],[51.30249,35.78956],[51.302013,35.78888],[51.302044,35.78873],[51.302204,35.788513],[51.302265,35.788105],[51.302227,35.78788],[51.30228,35.78769],[51.302803,35.787464],[51.302937,35.786922],[51.3033,35.786545],[51.303276,35.786476],[51.303127,35.78646],[51.303135,35.786255],[51.303226,35.78601],[51.303497,35.785572],[51.303413,35.78517],[51.303738,35.78516],[51.303833,35.784966],[51.303795,35.784714],[51.303993,35.784397],[51.303917,35.78429],[51.30396,35.784065],[51.3039,35.783657],[51.303936,35.78312],[51.303886,35.782963],[51.303787,35.782898],[51.30394,35.782795],[51.304012,35.782604],[51.303963,35.7825],[51.303722,35.782375],[51.303726,35.78232],[51.303436,35.782135],[51.30328,35.782116],[51.303024,35.782192],[51.302834,35.782093],[51.30273,35.782112],[51.30252,35.781914],[51.3023,35.781784],[51.30201,35.7818],[51.301716,35.781895],[51.301342,35.782562],[51.295742,35.781982],[51.29553,35.781216],[51.294613,35.781322],[51.2939,35.78132],[51.29353,35.781467],[51.29339,35.781574],[51.293312,35.781788],[51.29353,35.782364],[51.293655,35.782513],[51.293705,35.782913],[51.293705,35.78301],[51.29356,35.78307],[51.293423,35.783466],[51.293335,35.78354],[51.293037,35.783592],[51.29286,35.783504],[51.292625,35.783478],[51.29199,35.783573],[51.291748,35.78371],[51.291573,35.78409],[51.291294,35.78412],[51.290947,35.784042],[51.290695,35.784092],[51.290276,35.784294],[51.289925,35.78464],[51.289745,35.784714],[51.28962,35.78471],[51.289627,35.784565],[51.289467,35.784046],[51.28961,35.783504],[51.289776,35.783264],[51.290268,35.78287],[51.29075,35.78234],[51.291054,35.78189],[51.291134,35.781654],[51.291138,35.78146],[51.291348,35.78147],[51.291397,35.7814],[51.291428,35.781097],[51.291553,35.780773],[51.291435,35.780704],[51.291286,35.78034],[51.291348,35.78027],[51.29118,35.780224],[51.29108,35.780018],[51.290977,35.78002],[51.290833,35.780117],[51.29075,35.78028],[51.290527,35.78045],[51.29037,35.780468],[51.29019,35.780582],[51.290092,35.780807],[51.290306,35.780884],[51.290306,35.780983],[51.289898,35.78129],[51.28985,35.781475],[51.28968,35.781578],[51.289608,35.781574],[51.28953,35.781517],[51.289528,35.78119],[51.289383,35.781067],[51.28934,35.780895],[51.28906,35.78049],[51.289314,35.78013],[51.289337,35.780006],[51.288723,35.779884],[51.288372,35.78014],[51.288326,35.780323],[51.28837,35.78048],[51.28824,35.780483],[51.288033,35.780575],[51.28781,35.780293],[51.2874,35.78019],[51.287502,35.779964],[51.28748,35.779675],[51.28737,35.779537],[51.28713,35.779434],[51.286747,35.779613],[51.28651,35.77966],[51.286327,35.779884],[51.286022,35.77991],[51.285797,35.7801],[51.285778,35.780293],[51.28614,35.78065],[51.285885,35.781033],[51.285774,35.7813],[51.285713,35.78155],[51.28578,35.78186],[51.2854,35.78157],[51.28516,35.78157],[51.285202,35.781403],[51.28517,35.781292],[51.284847,35.781235],[51.284733,35.781315],[51.284714,35.781075],[51.283913,35.780796],[51.28359,35.78085],[51.28348,35.78105],[51.28331,35.78119],[51.28292,35.780674],[51.28261,35.78051],[51.282104,35.78051],[51.28197,35.780437],[51.28175,35.780415],[51.2817,35.780437],[51.281647,35.78064],[51.281292,35.780586],[51.28084,35.78075],[51.280746,35.780827],[51.28074,35.78099],[51.280956,35.78119],[51.281082,35.78143],[51.280735,35.781643],[51.280247,35.78182],[51.280052,35.78213],[51.280067,35.78219],[51.280304,35.78233],[51.280136,35.782528],[51.28011,35.782654],[51.280327,35.783184],[51.279804,35.783108],[51.27957,35.783043],[51.279354,35.78291],[51.279247,35.78293],[51.279232,35.783596],[51.27913,35.78401],[51.278736,35.784504],[51.27856,35.78462],[51.278282,35.784676],[51.278397,35.784523],[51.27848,35.784138],[51.278225,35.78408],[51.278336,35.783867],[51.27823,35.78366],[51.27814,35.783684],[51.277916,35.78391],[51.27778,35.783756],[51.27768,35.783527],[51.27757,35.782936],[51.277596,35.78278],[51.277702,35.782677],[51.277428,35.782364],[51.277386,35.782154],[51.277428,35.782017],[51.27727,35.78173],[51.277256,35.781513],[51.277035,35.78122],[51.27676,35.78105],[51.27653,35.78064],[51.27642,35.780624],[51.27591,35.780155],[51.275703,35.780117],[51.27529,35.780148],[51.274677,35.780025],[51.2745,35.779938],[51.274292,35.779957],[51.27418,35.77992],[51.274033,35.77966],[51.27386,35.779564],[51.27332,35.779507],[51.272972,35.77957],[51.27281,35.779724],[51.272835,35.779892],[51.273094,35.78019],[51.273525,35.780422],[51.273735,35.780647],[51.274,35.78071],[51.274357,35.781036],[51.274303,35.781116],[51.27419,35.78105],[51.273994,35.78103],[51.273735,35.781124],[51.273346,35.781185],[51.273075,35.7813],[51.272808,35.781494],[51.272762,35.78165],[51.272762,35.78213],[51.27298,35.782597],[51.272667,35.782562],[51.272514,35.78259],[51.272152,35.782413],[51.271965,35.78242],[51.27182,35.782356],[51.2717,35.78236],[51.27151,35.782646],[51.27114,35.782894],[51.270885,35.782967],[51.270645,35.782894],[51.270332,35.78294],[51.269867,35.7826],[51.269524,35.78257],[51.269337,35.782494],[51.269196,35.782516],[51.268974,35.782692],[51.268803,35.783283],[51.26846,35.78364],[51.268475,35.783825],[51.26834,35.783985],[51.26825,35.784203],[51.267952,35.783875],[51.26759,35.7838],[51.267403,35.783707],[51.26718,35.783375],[51.266956,35.783226],[51.266922,35.783066],[51.266968,35.78288],[51.26651,35.78304],[51.26574,35.78264],[51.262806,35.78196],[51.262665,35.782192],[51.26253,35.7823],[51.262287,35.782352],[51.262108,35.782295],[51.262028,35.78209],[51.262394,35.781517],[51.262295,35.781418],[51.262276,35.781254],[51.262283,35.780357],[51.262363,35.78005],[51.26358,35.778397],[51.263664,35.778194],[51.263645,35.777523],[51.26379,35.77695],[51.26324,35.77367],[51.26233,35.770283],[51.26217,35.769455],[51.262188,35.76929],[51.26087,35.76783],[51.257027,35.764553],[51.255363,35.76307],[51.253708,35.763073],[51.25365,35.76367],[51.254642,35.77014],[51.25393,35.77038],[51.252872,35.770565],[51.25147,35.770573],[51.25015,35.770435],[51.24928,35.770184],[51.24715,35.769283],[51.246696,35.7665],[51.244675,35.76596],[51.2401,35.765736],[51.238804,35.76572],[51.23856,35.7656],[51.23825,35.765324],[51.238235,35.76463],[51.232014,35.76252],[51.21899,35.763294],[51.214287,35.76342],[51.212807,35.76361],[51.208473,35.76401],[51.20797,35.76423],[51.206936,35.764805],[51.205982,35.76514],[51.204353,35.765373],[51.20373,35.765373],[51.20268,35.76523],[51.201977,35.765],[51.200848,35.76439],[51.200386,35.764023],[51.199215,35.763912],[51.1975,35.76385],[51.195385,35.76371],[51.190468,35.763626],[51.18912,35.763832],[51.187073,35.76503],[51.183956,35.767117],[51.183025,35.767567],[51.182064,35.76795],[51.180996,35.768154],[51.18027,35.76819],[51.179325,35.76819],[51.177246,35.768055],[51.17558,35.76774],[51.17471,35.767517],[51.172596,35.76718],[51.170113,35.76655],[51.169163,35.766254],[51.167465,35.765636],[51.165936,35.765045],[51.165382,35.764645],[51.164257,35.763683],[51.162846,35.762863],[51.161987,35.76243],[51.161263,35.762184],[51.159534,35.762146],[51.156918,35.761963],[51.155193,35.76172],[51.15349,35.761395],[51.151817,35.76097],[51.149426,35.760185],[51.1471,35.759277],[51.145096,35.75841],[51.14239,35.757473],[51.140102,35.756763],[51.137886,35.75616],[51.13565,35.75561],[51.133392,35.75512],[51.13113,35.7547],[51.12965,35.75446],[51.12588,35.75404],[51.12454,35.75383],[51.123486,35.75353],[51.122307,35.753883],[51.120735,35.754654],[51.120224,35.754814],[51.11968,35.754826],[51.11911,35.754665],[51.1182,35.75405],[51.11776,35.75384],[51.11439,35.752815],[51.113613,35.752724],[51.112877,35.752705],[51.110058,35.752304],[51.110485,35.752064],[51.110565,35.751915],[51.110588,35.751625],[51.11077,35.751434],[51.110565,35.75124],[51.110535,35.751083],[51.1104,35.750904],[51.110176,35.750813],[51.109844,35.75078],[51.109573,35.750668],[51.109333,35.750694],[51.10914,35.750896],[51.10927,35.750988],[51.10942,35.751225],[51.109505,35.751434],[51.1095,35.751583],[51.109146,35.75151],[51.108665,35.7515],[51.10826,35.751762],[51.108253,35.75176],[51.108234,35.751747],[51.108227,35.75174],[51.10821,35.751713],[51.108147,35.751644],[51.10814,35.751637],[51.108135,35.751633],[51.108097,35.751583],[51.10809,35.75157],[51.10807,35.751534],[51.10805,35.751488],[51.108032,35.751408],[51.108032,35.751408],[51.10801,35.751354],[51.107986,35.751312],[51.107933,35.751236],[51.107914,35.75122],[51.10789,35.75121],[51.10787,35.751205],[51.10785,35.7512],[51.107796,35.7512],[51.10766,35.751225],[51.10757,35.751247],[51.1075,35.751247],[51.107426,35.751244],[51.107376,35.751236],[51.107327,35.75122],[51.107307,35.751213],[51.107296,35.75121],[51.107285,35.751205],[51.10725,35.751183],[51.107193,35.751163],[51.1071,35.75115],[51.10708,35.751152],[51.10705,35.75116],[51.107025,35.75119],[51.106987,35.751244],[51.106945,35.751297],[51.106934,35.7513],[51.106922,35.7513],[51.10687,35.75125],[51.10685,35.75125],[51.106823,35.75127],[51.106804,35.751278],[51.106762,35.751324],[51.106754,35.751328],[51.106716,35.75137],[51.10671,35.751377],[51.10669,35.751415],[51.106678,35.75148],[51.106678,35.751488],[51.106678,35.751495],[51.10667,35.751522],[51.10666,35.75157],[51.106655,35.75166],[51.106655,35.751663],[51.10666,35.751682],[51.106663,35.751686],[51.10667,35.751698],[51.10669,35.751713],[51.106705,35.751724],[51.106747,35.75174],[51.106766,35.751747],[51.106792,35.75176],[51.106834,35.751785],[51.106873,35.751812],[51.106903,35.751854],[51.106926,35.751896],[51.10694,35.751934],[51.106956,35.752014],[51.106968,35.752064],[51.106968,35.752068],[51.106983,35.75219],[51.107,35.75227],[51.107,35.752293],[51.107,35.752327],[51.107,35.752335],[51.107,35.752346],[51.107,35.752388],[51.107,35.7524],[51.10701,35.75244],[51.107014,35.75247],[51.107018,35.75248],[51.107025,35.75249],[51.107044,35.752537],[51.10705,35.752552],[51.10705,35.75259],[51.107048,35.7526],[51.10704,35.7526],[51.107025,35.75261],[51.10701,35.75262],[51.107018,35.75265],[51.107033,35.75268],[51.107033,35.75269],[51.107033,35.7527],[51.107025,35.752712],[51.107014,35.752716],[51.107006,35.752735],[51.107002,35.75274],[51.107,35.75274],[51.106884,35.752796],[51.10687,35.752804],[51.106834,35.75281],[51.106808,35.75281],[51.10678,35.752804],[51.106762,35.752796],[51.106712,35.75277],[51.106705,35.752766],[51.10669,35.75276],[51.106678,35.752766],[51.10667,35.752785],[51.106667,35.7528],[51.106663,35.752808],[51.10665,35.752808],[51.10665,35.752808],[51.106625,35.75279],[51.106487,35.75266],[51.106426,35.7526],[51.106262,35.752453],[51.10622,35.752426],[51.106197,35.75242],[51.106167,35.752415],[51.10612,35.752415],[51.106083,35.752422],[51.106026,35.752453],[51.10599,35.75247],[51.10595,35.75248],[51.105946,35.75248],[51.10592,35.752476],[51.105892,35.752472],[51.10587,35.75246],[51.10585,35.752438],[51.10584,35.752426],[51.105824,35.752407],[51.10582,35.752403],[51.10581,35.75238],[51.105793,35.752357],[51.105778,35.752316],[51.105774,35.752304],[51.105747,35.752247],[51.105713,35.752213],[51.105682,35.752197],[51.10566,35.752182],[51.105656,35.75218],[51.105534,35.752125],[51.105453,35.75209],[51.10541,35.75207],[51.10531,35.752033],[51.105267,35.752026],[51.105247,35.75203],[51.10522,35.75204],[51.105198,35.752075],[51.105194,35.752083],[51.105175,35.752155],[51.10515,35.752224],[51.105152,35.75226],[51.105156,35.752277],[51.105156,35.75229],[51.105183,35.752594],[51.105198,35.752724],[51.105194,35.75276],[51.10518,35.75283],[51.105152,35.752895],[51.105118,35.752956],[51.10508,35.753082],[51.10503,35.753166],[51.105,35.753212],[51.104984,35.75324],[51.104946,35.753315],[51.104916,35.75337],[51.104877,35.75342],[51.104816,35.75348],[51.104786,35.753513],[51.104774,35.75355],[51.104774,35.753582],[51.104774,35.753593],[51.10478,35.75361],[51.104782,35.75363],[51.10487,35.753876],[51.10488,35.75392],[51.10489,35.753963],[51.10488,35.75402],[51.10488,35.754044],[51.10488,35.754086],[51.10488,35.754086],[51.104885,35.754097],[51.10489,35.754124],[51.104916,35.754166],[51.104927,35.754204],[51.104954,35.754242],[51.104977,35.754272],[51.104946,35.754307],[51.10494,35.75432],[51.104923,35.754345],[51.104923,35.754368],[51.10492,35.754375],[51.1049,35.754383],[51.104824,35.754375],[51.10474,35.754368],[51.10469,35.754356],[51.104584,35.75433],[51.104496,35.754303],[51.104458,35.75428],[51.104424,35.754253],[51.104412,35.754253],[51.10438,35.754314],[51.104343,35.75435],[51.10428,35.7544],[51.10418,35.754456],[51.104065,35.754543],[51.104053,35.754547],[51.10403,35.7545],[51.104008,35.75449],[51.103985,35.75448],[51.103973,35.75448],[51.10396,35.754486],[51.103943,35.7545],[51.103943,35.75453],[51.103935,35.754566],[51.10389,35.754547],[51.103878,35.75455],[51.103836,35.75457],[51.103825,35.754574],[51.1038,35.75457],[51.103775,35.754562],[51.10376,35.754543],[51.10375,35.75454],[51.103733,35.754543],[51.1037,35.754566],[51.103683,35.754566],[51.103657,35.754547],[51.103626,35.754528],[51.103626,35.754528],[51.10362,35.75451],[51.10362,35.754486],[51.10365,35.75441],[51.10367,35.754314],[51.103676,35.754173],[51.103695,35.75408],[51.1037,35.75407],[51.103718,35.753994],[51.103733,35.753956],[51.10374,35.753876],[51.10374,35.753864],[51.10375,35.7538],[51.103737,35.753757],[51.10372,35.75372],[51.10371,35.75371],[51.10369,35.753708],[51.103664,35.753708],[51.10348,35.753746],[51.10338,35.75375],[51.10333,35.753765],[51.10328,35.753777],[51.103268,35.753773],[51.103268,35.753773],[51.103256,35.75377],[51.10325,35.753757],[51.10326,35.75372],[51.10328,35.75369],[51.103344,35.753628],[51.103474,35.753483],[51.103592,35.753345],[51.103645,35.75327],[51.103676,35.75319],[51.103706,35.753105],[51.103714,35.75307],[51.103714,35.753063],[51.103718,35.75302],[51.103714,35.75298],[51.103706,35.752937],[51.103695,35.7529],[51.103657,35.75282],[51.10361,35.752743],[51.10359,35.752705],[51.103565,35.752686],[51.10349,35.7526],[51.10345,35.752518],[51.10343,35.752487],[51.103394,35.752453],[51.10335,35.752422],[51.10331,35.752403],[51.10328,35.752396],[51.103252,35.752396],[51.10321,35.752403],[51.103165,35.75242],[51.10305,35.752514],[51.103004,35.752537],[51.102962,35.75255],[51.102913,35.752556],[51.102863,35.752556],[51.102814,35.752556],[51.102764,35.752525],[51.10271,35.752525],[51.10266,35.75253],[51.102608,35.75253],[51.102562,35.752518],[51.102512,35.75249],[51.102474,35.75247],[51.102413,35.752407],[51.102383,35.75237],[51.102367,35.752335],[51.102337,35.752254],[51.102295,35.752182],[51.102295,35.75215],[51.10229,35.752136],[51.102295,35.752094],[51.102303,35.75204],[51.102306,35.752018],[51.102306,35.751934],[51.102295,35.75181],[51.102283,35.75171],[51.102264,35.751667],[51.102238,35.751633],[51.1022,35.751575],[51.102184,35.751564],[51.102135,35.751514],[51.10208,35.751472],[51.10204,35.751453],[51.101894,35.751472],[51.101788,35.75152],[51.101704,35.751575],[51.10161,35.75162],[51.101562,35.75166],[51.101433,35.751743],[51.101395,35.751766],[51.101334,35.751827],[51.10129,35.751896],[51.10128,35.75193],[51.10128,35.751957],[51.101284,35.751987],[51.101284,35.751995],[51.101295,35.752018],[51.101307,35.752045],[51.101326,35.752064],[51.101345,35.752136],[51.101414,35.75229],[51.101437,35.752365],[51.101448,35.752453],[51.101463,35.7525],[51.10147,35.752518],[51.10147,35.752525],[51.101494,35.75259],[51.101517,35.75264],[51.101536,35.752666],[51.101547,35.752705],[51.10158,35.752827],[51.101593,35.752903],[51.101604,35.752937],[51.10161,35.752983],[51.1016,35.753002],[51.101593,35.75303],[51.10158,35.75311],[51.101585,35.75315],[51.101585,35.75319],[51.10158,35.7532],[51.101566,35.753223],[51.101547,35.753258],[51.101517,35.753296],[51.101475,35.753326],[51.10142,35.75335],[51.10133,35.753384],[51.101196,35.75342],[51.101185,35.75342],[51.10117,35.753345],[51.10115,35.753265],[51.101135,35.753223],[51.101116,35.75319],[51.101063,35.75311],[51.101013,35.753033],[51.101,35.752995],[51.100983,35.752968],[51.100956,35.752937],[51.100945,35.75293],[51.10089,35.75291],[51.10084,35.752884],[51.10075,35.75286],[51.100693,35.752834],[51.10067,35.752834],[51.10064,35.752815],[51.10057,35.75275],[51.100548,35.752743],[51.100525,35.75274],[51.1005,35.752747],[51.100483,35.752758],[51.10048,35.7528],[51.10048,35.75283],[51.10049,35.752956],[51.100487,35.75299],[51.100487,35.752995],[51.100464,35.753033],[51.100433,35.753067],[51.100395,35.75309],[51.10027,35.75315],[51.10022,35.753174],[51.100124,35.7532],[51.100082,35.75322],[51.10003,35.753235],[51.099983,35.75323],[51.099937,35.75322],[51.09989,35.753216],[51.099792,35.753246],[51.09971,35.753277],[51.099617,35.753315],[51.099575,35.75334],[51.099545,35.753372],[51.099514,35.75343],[51.0995,35.753468],[51.09949,35.753487],[51.09949,35.75353],[51.09949,35.75355],[51.099495,35.75357],[51.099503,35.75361],[51.099537,35.753654],[51.099564,35.753693],[51.099586,35.753723],[51.09962,35.7538],[51.099617,35.753853],[51.09963,35.753918],[51.09963,35.753925],[51.09962,35.75393],[51.099613,35.75393],[51.099575,35.753933],[51.099518,35.753925],[51.09947,35.75391],[51.099277,35.75388],[51.099182,35.753857],[51.099094,35.753834],[51.099003,35.753807],[51.098953,35.753803],[51.0989,35.7538],[51.098873,35.753803],[51.098846,35.75381],[51.098766,35.753853],[51.09868,35.753902],[51.09859,35.753956],[51.098557,35.753975],[51.09852,35.75401],[51.09849,35.75404],[51.098476,35.754078],[51.09847,35.754112],[51.09846,35.754173],[51.09846,35.75418],[51.09847,35.754234],[51.09848,35.754276],[51.098515,35.754353],[51.09854,35.75439],[51.09859,35.754467],[51.098667,35.75461],[51.098698,35.754646],[51.098736,35.754677],[51.098866,35.75475],[51.098892,35.754772],[51.098907,35.75478],[51.098934,35.754818],[51.098934,35.754833],[51.098923,35.75484],[51.098892,35.754833],[51.098877,35.754833],[51.098866,35.754833],[51.09882,35.75484],[51.09872,35.754826],[51.098667,35.754826],[51.098568,35.754833],[51.09852,35.754826],[51.098427,35.754795],[51.09834,35.754757],[51.09817,35.754677],[51.098057,35.754597],[51.097973,35.754562],[51.097885,35.75453],[51.097813,35.75448],[51.097767,35.754463],[51.09774,35.754463],[51.09771,35.754456],[51.09768,35.75444],[51.09765,35.75442],[51.097614,35.754414],[51.097584,35.754417],[51.09755,35.754425],[51.097527,35.75444],[51.097507,35.754467],[51.0975,35.75449],[51.0975,35.75452],[51.0975,35.754547],[51.09749,35.754574],[51.09747,35.75459],[51.09744,35.754597],[51.09737,35.754612],[51.09731,35.754635],[51.097237,35.754692],[51.09721,35.75472],[51.0972,35.754745],[51.09719,35.75477],[51.0972,35.754814],[51.097202,35.754826],[51.097218,35.754955],[51.097233,35.754997],[51.09724,35.755077],[51.09724,35.755077],[51.09725,35.755104],[51.097305,35.755257],[51.097313,35.755302],[51.09731,35.755318],[51.097298,35.755333],[51.097298,35.75534],[51.097248,35.75541],[51.09719,35.755516],[51.097164,35.75559],[51.097153,35.755642],[51.09716,35.755657],[51.09716,35.75566],[51.0972,35.75569],[51.097206,35.755695],[51.097248,35.75571],[51.097305,35.75572],[51.097416,35.75573],[51.09746,35.755737],[51.097504,35.75575],[51.09754,35.75577],[51.097557,35.75579],[51.09756,35.755795],[51.097572,35.755814],[51.09759,35.755856],[51.097603,35.755898],[51.097603,35.75591],[51.097607,35.75594],[51.097603,35.75595],[51.097603,35.755974],[51.0976,35.75598],[51.097565,35.756104],[51.097557,35.756165],[51.097557,35.756207],[51.09756,35.75622],[51.097557,35.75626],[51.097557,35.75626],[51.097546,35.75627],[51.097538,35.756268],[51.097504,35.756203],[51.09745,35.75607],[51.09743,35.75603],[51.09742,35.756023],[51.097393,35.75602],[51.097366,35.756027],[51.097336,35.756054],[51.097313,35.756084],[51.097168,35.75629],[51.097126,35.756355],[51.097122,35.756363],[51.09708,35.756462],[51.096916,35.756657],[51.096848,35.756752],[51.096825,35.75679],[51.096783,35.75686],[51.096756,35.756916],[51.09675,35.756916],[51.096737,35.75691],[51.09673,35.756733],[51.09673,35.75672],[51.09672,35.756565],[51.09672,35.75654],[51.096737,35.7563],[51.096764,35.75616],[51.096767,35.756145],[51.09677,35.756096],[51.096767,35.756084],[51.096733,35.75606],[51.09666,35.756016],[51.096622,35.75598],[51.096596,35.75595],[51.096565,35.75591],[51.09651,35.7558],[51.096493,35.755787],[51.096474,35.75579],[51.096447,35.755806],[51.096367,35.75588],[51.09628,35.75595],[51.096233,35.755962],[51.096176,35.755966],[51.096138,35.75598],[51.096096,35.756],[51.096058,35.756027],[51.09599,35.756096],[51.095894,35.756203],[51.09587,35.756237],[51.09586,35.75627],[51.09585,35.756298],[51.09586,35.75632],[51.095863,35.75633],[51.095875,35.75636],[51.0959,35.7564],[51.09593,35.75652],[51.09597,35.756596],[51.09597,35.75662],[51.09596,35.756638],[51.09596,35.756657],[51.095955,35.756676],[51.09596,35.756702],[51.09599,35.756924],[51.09599,35.756966],[51.095985,35.756977],[51.09598,35.756985],[51.095955,35.757],[51.09595,35.75702],[51.095978,35.757057],[51.09598,35.757065],[51.096,35.757103],[51.09602,35.75716],[51.096016,35.75718],[51.096004,35.757187],[51.096,35.757187],[51.09594,35.757183],[51.095932,35.757187],[51.095917,35.75719],[51.095905,35.757187],[51.0959,35.757175],[51.095898,35.757133],[51.095894,35.757122],[51.095886,35.757107],[51.095867,35.757084],[51.09584,35.757076],[51.095818,35.757076],[51.09579,35.757076],[51.095768,35.757084],[51.09572,35.75711],[51.095703,35.75711],[51.09564,35.7571],[51.09559,35.7571],[51.095573,35.757107],[51.09553,35.75713],[51.095516,35.75713],[51.095497,35.757103],[51.09548,35.757095],[51.09545,35.757095],[51.095398,35.757095],[51.09537,35.757107],[51.095295,35.7572],[51.095226,35.75729],[51.09517,35.7574],[51.095158,35.757404],[51.09515,35.7574],[51.095127,35.757236],[51.0951,35.757195],[51.09509,35.757183],[51.095066,35.757175],[51.094994,35.757153],[51.09497,35.757137],[51.094963,35.75713],[51.094925,35.757103],[51.094852,35.75708],[51.094826,35.75708],[51.094795,35.75708],[51.09475,35.757088],[51.094704,35.757103],[51.09468,35.75712],[51.09462,35.75723],[51.09459,35.757263],[51.094444,35.757378],[51.094387,35.75745],[51.09436,35.757473],[51.094334,35.757484],[51.094326,35.757492],[51.094326,35.757515],[51.094337,35.75753],[51.094337,35.757553],[51.094337,35.757572],[51.094334,35.75761],[51.094334,35.757618],[51.09433,35.75762],[51.094307,35.757633],[51.094254,35.757706],[51.094223,35.757736],[51.094204,35.757763],[51.094196,35.757767],[51.094193,35.757767],[51.094185,35.75776],[51.094196,35.75771],[51.094196,35.757694],[51.094196,35.75761],[51.094185,35.75759],[51.09417,35.75758],[51.09412,35.757572],[51.09411,35.757565],[51.094105,35.757553],[51.09411,35.757534],[51.094105,35.757492],[51.094097,35.757454],[51.094086,35.75742],[51.09367,35.756542],[51.093586,35.75627],[51.09347,35.755917],[51.09339,35.755737],[51.09339,35.75573],[51.09331,35.75566],[51.093258,35.755623],[51.09321,35.755592],[51.09316,35.755543],[51.093025,35.755424],[51.092987,35.755333],[51.092976,35.755333],[51.092945,35.755287],[51.09289,35.755173],[51.092884,35.75515],[51.092937,35.75491],[51.09295,35.75485],[51.09289,35.754776],[51.092827,35.75471],[51.092785,35.75468],[51.092728,35.754627],[51.092678,35.75458],[51.092648,35.754513],[51.092613,35.754467],[51.0926,35.75443],[51.092587,35.75438],[51.092583,35.754333],[51.092564,35.754246],[51.092552,35.754158],[51.092552,35.754055],[51.092537,35.753876],[51.092533,35.753803],[51.092476,35.753452],[51.092457,35.753242],[51.09244,35.75319],[51.09243,35.753086],[51.092396,35.752995],[51.092377,35.752907],[51.092365,35.752815],[51.092346,35.75271],[51.092342,35.752533],[51.092327,35.752335],[51.092327,35.752327],[51.092327,35.752304],[51.09233,35.752213],[51.092335,35.752148],[51.092308,35.751987],[51.09229,35.751755],[51.092285,35.751644],[51.092274,35.75152],[51.092266,35.751266],[51.092255,35.75116],[51.09225,35.751022],[51.092243,35.75097],[51.092262,35.75087],[51.092266,35.750854],[51.09227,35.750835],[51.092255,35.750664],[51.092255,35.75064],[51.09227,35.75047],[51.09227,35.750458],[51.092274,35.750385],[51.09225,35.750347],[51.092236,35.750324],[51.092274,35.7502],[51.092278,35.750183],[51.092274,35.75008],[51.092274,35.750046],[51.092278,35.749973],[51.09228,35.749912],[51.092255,35.749763],[51.092255,35.74971],[51.092255,35.749706],[51.09226,35.749565],[51.092262,35.74949],[51.092243,35.749397],[51.09224,35.74918],[51.092148,35.749092],[51.09212,35.748978],[51.092075,35.748833],[51.09203,35.748722],[51.09036,35.74572],[51.090153,35.74561],[51.090034,35.745544],[51.089558,35.745293],[51.089027,35.742905],[51.08901,35.742832],[51.09418,35.74176],[51.097263,35.741127],[51.100193,35.740494],[51.10068,35.740417],[51.10155,35.74036],[51.102444,35.74021],[51.10343,35.740025],[51.10545,35.739853],[51.108868,35.73889],[51.113632,35.737526],[51.113663,35.737514],[51.113754,35.737488],[51.116436,35.73642],[51.12364,35.732857],[51.125217,35.731056],[51.12842,35.726585],[51.131664,35.723534],[51.13389,35.721546],[51.135834,35.719894],[51.138058,35.718266],[51.13932,35.717384],[51.140923,35.716278],[51.14332,35.715317],[51.14719,35.713882],[51.152283,35.712147],[51.159027,35.710148],[51.161983,35.70927],[51.166428,35.708073],[51.174046,35.706226],[51.177757,35.705223],[51.180202,35.70462],[51.18285,35.703655],[51.183636,35.70335],[51.185944,35.702522],[51.190712,35.700783],[51.19122,35.700577],[51.193523,35.699646],[51.19601,35.69851],[51.20668,35.6944],[51.213036,35.6917],[51.219425,35.68899],[51.229897,35.68484],[51.232754,35.68371],[51.23168,35.68188],[51.230816,35.679317],[51.230465,35.67757],[51.230453,35.67686],[51.230522,35.67519],[51.230583,35.674393],[51.2308,35.67314],[51.230984,35.67234],[51.23142,35.671135],[51.231705,35.67043],[51.232075,35.66968],[51.232697,35.668625],[51.23313,35.668003],[51.233402,35.667656],[51.233505,35.667515],[51.234196,35.66667],[51.23507,35.665764],[51.23588,35.664997],[51.236645,35.664383],[51.23729,35.66387],[51.23836,35.663193],[51.23929,35.662636],[51.239586,35.662468],[51.2403,35.66212],[51.24124,35.661686],[51.242306,35.661263],[51.24478,35.660324],[51.250874,35.658123],[51.258663,35.655285],[51.270977,35.6505],[51.274685,35.649002],[51.27939,35.64723],[51.282192,35.646015],[51.284523,35.644966],[51.285797,35.644394],[51.287315,35.643703],[51.293133,35.641003],[51.29894,35.638092],[51.310677,35.63219],[51.311493,35.631763],[51.313805,35.63054],[51.315586,35.629414],[51.316414,35.628864],[51.317253,35.62822],[51.318882,35.626854],[51.319542,35.626225],[51.320923,35.62478],[51.32139,35.624264],[51.323006,35.62229],[51.3231,35.622192],[51.32463,35.62033],[51.325184,35.61984],[51.32984,35.61366],[51.33438,35.61049],[51.34058,35.60812],[51.3478,35.60743],[51.35524,35.608616],[51.356564,35.608826],[51.357765,35.609287],[51.360096,35.610035],[51.361485,35.61059],[51.36308,35.611008],[51.36616,35.611935],[51.368782,35.61263],[51.36987,35.61296],[51.37145,35.613323],[51.373173,35.613583],[51.375088,35.61397],[51.377476,35.61428],[51.37915,35.61436],[51.380543,35.61437],[51.383522,35.614372],[51.38477,35.61434],[51.386017,35.61431],[51.387573,35.614304],[51.389313,35.6143],[51.391903,35.614376],[51.395287,35.614357],[51.397327,35.614388],[51.400154,35.61441],[51.402203,35.61249],[51.402428,35.612354],[51.40357,35.611668],[51.404934,35.61116],[51.406296,35.61086],[51.40705,35.610893],[51.40743,35.610996],[51.407722,35.610943],[51.40772,35.610924],[51.40761,35.610413],[51.407272,35.608997],[51.406776,35.607018],[51.406307,35.605225],[51.407024,35.60505],[51.407024,35.604965],[51.40766,35.604836],[51.40762,35.604664],[51.407814,35.604607],[51.407784,35.604446],[51.408268,35.604225],[51.407806,35.60356],[51.407887,35.60312],[51.409492,35.603237],[51.410442,35.60285],[51.410645,35.601917],[51.411423,35.60072],[51.411724,35.600155],[51.412327,35.598797],[51.413284,35.597633],[51.413395,35.59769],[51.413567,35.597298],[51.413822,35.596737],[51.413998,35.59626],[51.41412,35.59599],[51.414043,35.59586],[51.414936,35.593918],[51.41576,35.592125],[51.416756,35.59216],[51.417274,35.591064],[51.417423,35.5903],[51.417416,35.5901],[51.417248,35.589905],[51.41715,35.58883],[51.417133,35.588577],[51.417217,35.587326],[51.417076,35.58724],[51.41708,35.58715],[51.417263,35.58674],[51.417004,35.585617],[51.416935,35.58467],[51.417393,35.58321],[51.416225,35.582947],[51.416634,35.581825],[51.416855,35.581276],[51.416553,35.5812],[51.416775,35.58056],[51.41739,35.580048],[51.417027,35.5798],[51.41706,35.57962],[51.4177,35.57914],[51.417423,35.57893],[51.41749,35.578724],[51.417835,35.578323],[51.417595,35.5779],[51.417442,35.575485],[51.418182,35.574905],[51.418636,35.574554],[51.419533,35.57385],[51.41936,35.573452],[51.419674,35.57322],[51.4203,35.571312],[51.426243,35.572662],[51.426666,35.572758],[51.426193,35.575382],[51.426113,35.57575],[51.426086,35.5761],[51.42604,35.576324],[51.42597,35.576687],[51.425766,35.577682],[51.425644,35.578297],[51.425625,35.5784],[51.42581,35.578434],[51.425896,35.578785],[51.426098,35.578995],[51.426548,35.57966],[51.427032,35.580227],[51.42741,35.580017],[51.42806,35.57985],[51.428467,35.58026],[51.42719,35.581448],[51.42672,35.58196],[51.426888,35.58202],[51.427174,35.58215],[51.427567,35.582302],[51.427963,35.58241],[51.428284,35.582455],[51.428673,35.582474],[51.429047,35.582493],[51.429455,35.582523],[51.42976,35.582516],[51.430145,35.58249],[51.43056,35.58243],[51.43104,35.582317],[51.431824,35.582123],[51.4323,35.58201],[51.43386,35.581394],[51.434505,35.58113],[51.43508,35.58091],[51.435757,35.580627],[51.436104,35.58049],[51.436333,35.5804],[51.436573,35.58031],[51.43687,35.580215],[51.437023,35.580208],[51.43721,35.5802],[51.437355,35.580246],[51.43752,35.580284],[51.43841,35.580265],[51.438602,35.580276],[51.43916,35.58036],[51.43952,35.58046],[51.44056,35.580727],[51.44191,35.58104],[51.44203,35.581],[51.442436,35.580986],[51.442673,35.580994],[51.443596,35.581078],[51.445335,35.58101],[51.445835,35.58097],[51.446377,35.580956],[51.446712,35.580956],[51.44717,35.580975],[51.447506,35.58104],[51.448936,35.581825],[51.44946,35.58201],[51.450558,35.58235],[51.450817,35.58228],[51.450962,35.5817],[51.451027,35.581413],[51.451054,35.58128],[51.451057,35.581184],[51.45105,35.58105],[51.451065,35.58096],[51.4511,35.580856],[51.45115,35.58073],[51.451218,35.580578],[51.45128,35.580444],[51.451305,35.58028],[51.451294,35.580017],[51.451263,35.57996],[51.451134,35.57988],[51.45098,35.57979],[51.450966,35.57945],[51.450943,35.579304],[51.450794,35.578953],[51.450626,35.578392],[51.449593,35.5789],[51.449368,35.579006],[51.449295,35.578888],[51.449116,35.57816],[51.448925,35.577362],[51.45066,35.577255],[51.45104,35.577213],[51.451504,35.577374],[51.456486,35.579067],[51.45797,35.576733],[51.458076,35.576782],[51.45865,35.576],[51.45899,35.575584],[51.45993,35.575912],[51.460186,35.575516],[51.460365,35.57505],[51.460583,35.574505],[51.460793,35.57402],[51.460995,35.573746],[51.461407,35.57368],[51.4618,35.57366],[51.462166,35.573536],[51.462753,35.573334],[51.463104,35.573177],[51.463406,35.573048],[51.464466,35.572388],[51.46459,35.57212],[51.46538,35.57055],[51.466625,35.568203],[51.467518,35.56824],[51.46859,35.568344],[51.469322,35.568405],[51.469997,35.56851],[51.470455,35.568615],[51.471943,35.569126],[51.47186,35.56951],[51.472137,35.569622],[51.471493,35.570236],[51.471077,35.570633],[51.470886,35.57051],[51.470715,35.570766],[51.4705,35.57068],[51.470352,35.57093],[51.47026,35.57093],[51.470154,35.57103],[51.47003,35.571175],[51.469536,35.57192],[51.469246,35.572495],[51.46894,35.573135],[51.46882,35.573536],[51.468693,35.57382],[51.468357,35.57435],[51.468075,35.57475],[51.467888,35.574947],[51.467636,35.57519],[51.467445,35.5754],[51.46717,35.575726],[51.467003,35.575966],[51.46652,35.576668],[51.466297,35.577015],[51.466152,35.577305],[51.465347,35.578823],[51.46502,35.579376],[51.464855,35.579685],[51.464485,35.580353],[51.464375,35.58054],[51.464314,35.580658],[51.464264,35.58079],[51.464222,35.581062],[51.46422,35.581413],[51.464172,35.58161],[51.464024,35.581795],[51.463875,35.581963],[51.463707,35.582108],[51.463642,35.582222],[51.463604,35.58235],[51.463535,35.582844],[51.463512,35.58312],[51.46341,35.583378],[51.46308,35.58402],[51.46282,35.584503],[51.462708,35.584705],[51.462612,35.584835],[51.46245,35.585022],[51.462273,35.58523],[51.462093,35.58545],[51.46194,35.58567],[51.461514,35.586327],[51.461403,35.58653],[51.461308,35.58673],[51.461254,35.586872],[51.46143,35.58691],[51.460865,35.587795],[51.460323,35.58866],[51.45998,35.589188],[51.45965,35.58969],[51.45855,35.591232],[51.457653,35.592907],[51.457607,35.59299],[51.457428,35.593117],[51.457035,35.593742],[51.45647,35.59469],[51.45602,35.595543],[51.455254,35.596878],[51.454617,35.59809],[51.454517,35.598392],[51.454453,35.598774],[51.45445,35.599003],[51.45447,35.59927],[51.45464,35.60024],[51.455017,35.602264],[51.45558,35.605137],[51.45586,35.60656],[51.45595,35.607243],[51.455704,35.60818],[51.45564,35.60841],[51.45546,35.60894],[51.455383,35.609158],[51.455387,35.60932],[51.455406,35.609528],[51.455444,35.6096],[51.454704,35.60973],[51.456745,35.61286],[51.45725,35.61267],[51.45792,35.612667],[51.45808,35.61268],[51.458973,35.61274],[51.46053,35.613106],[51.461647,35.613667],[51.46226,35.614037],[51.462578,35.614456],[51.462658,35.614746],[51.462833,35.61539],[51.462933,35.61643],[51.46369,35.61694],[51.46365,35.61799],[51.46379,35.618168],[51.4637,35.61845],[51.4638,35.619476],[51.4633,35.619526],[51.463234,35.622448]]]}}
